{"type":"FeatureCollection","metadata":{"slug":"metro_station","label":"Metrostations","group":"ov","color":"#E2231A","icon":"metro","source":"OpenStreetMap (Overpass API)","count":395},"features":[{"type":"Feature","geometry":{"type":"Point","coordinates":[4.401664,50.833729]},"properties":{"osm_id":"node/81350000","category":"metro_station","name":"Thieffry","operator":"STIB/MIVB"}},{"type":"Feature","geometry":{"type":"Point","coordinates":[4.404197,50.818543]},"properties":{"osm_id":"node/142615041","category":"metro_station","name":"Delta","operator":"STIB/MIVB"}},{"type":"Feature","geometry":{"type":"Point","coordinates":[4.405433,50.821296]},"properties":{"osm_id":"node/142615058","category":"metro_station","name":"Hankar","operator":"STIB/MIVB"}},{"type":"Feature","geometry":{"type":"Point","coordinates":[4.403881,50.827722]},"properties":{"osm_id":"node/142632025","category":"metro_station","name":"Pétillon","operator":"STIB/MIVB"}},{"type":"Feature","geometry":{"type":"Point","coordinates":[4.397924,50.839462]},"properties":{"osm_id":"node/142687752","category":"metro_station","name":"Merode","operator":"STIB/MIVB"}},{"type":"Feature","geometry":{"type":"Point","coordinates":[4.381838,50.842806]},"properties":{"osm_id":"node/142700510","category":"metro_station","name":"Schuman","operator":"STIB/MIVB"}},{"type":"Feature","geometry":{"type":"Point","coordinates":[4.36877,50.845545]},"properties":{"osm_id":"node/142700511","category":"metro_station","name":"Arts-Loi - Kunst-Wet","operator":"STIB/MIVB"}},{"type":"Feature","geometry":{"type":"Point","coordinates":[4.35864,50.846548]},"properties":{"osm_id":"node/142700522","category":"metro_station","name":"Gare Centrale - Centraal Station","operator":"STIB/MIVB"}},{"type":"Feature","geometry":{"type":"Point","coordinates":[4.35238,50.849923]},"properties":{"osm_id":"node/142719362","category":"metro_station","name":"De Brouckère","operator":"STIB/MIVB"}},{"type":"Feature","geometry":{"type":"Point","coordinates":[4.347842,50.85214]},"properties":{"osm_id":"node/142719368","category":"metro_station","name":"Sainte-Catherine - Sint-Katelijne","operator":"STIB/MIVB"}},{"type":"Feature","geometry":{"type":"Point","coordinates":[4.348783,50.833342]},"properties":{"osm_id":"node/142758829","category":"metro_station","name":"Hôtel des Monnaies - Munthof","operator":"STIB/MIVB"}},{"type":"Feature","geometry":{"type":"Point","coordinates":[4.354668,50.835392]},"properties":{"osm_id":"node/142758831","category":"metro_station","name":"Louise - Louiza","operator":"STIB/MIVB"}},{"type":"Feature","geometry":{"type":"Point","coordinates":[4.361693,50.838261]},"properties":{"osm_id":"node/142758834","category":"metro_station","name":"Porte de Namur - Naamsepoort","operator":"STIB/MIVB"}},{"type":"Feature","geometry":{"type":"Point","coordinates":[4.365713,50.853954]},"properties":{"osm_id":"node/142758875","category":"metro_station","name":"Botanique - Kruidtuin","operator":"STIB/MIVB"}},{"type":"Feature","geometry":{"type":"Point","coordinates":[4.369107,50.849967]},"properties":{"osm_id":"node/142758879","category":"metro_station","name":"Madou","operator":"STIB/MIVB"}},{"type":"Feature","geometry":{"type":"Point","coordinates":[4.366516,50.841247]},"properties":{"osm_id":"node/142758883","category":"metro_station","name":"Trône - Troon","operator":"STIB/MIVB"}},{"type":"Feature","geometry":{"type":"Point","coordinates":[4.409643,50.815096]},"properties":{"osm_id":"node/143687763","category":"metro_station","name":"Beaulieu","operator":"STIB/MIVB"}},{"type":"Feature","geometry":{"type":"Point","coordinates":[4.420919,50.81353]},"properties":{"osm_id":"node/143687850","category":"metro_station","name":"Demey","operator":"STIB/MIVB"}},{"type":"Feature","geometry":{"type":"Point","coordinates":[4.351315,50.857301]},"properties":{"osm_id":"node/143701411","category":"metro_station","name":"Yser - IJzer","operator":"STIB/MIVB"}},{"type":"Feature","geometry":{"type":"Point","coordinates":[4.325184,50.8569]},"properties":{"osm_id":"node/143710104","category":"metro_station","name":"Osseghem - Ossegem","operator":"STIB/MIVB"}},{"type":"Feature","geometry":{"type":"Point","coordinates":[4.322972,50.853444]},"properties":{"osm_id":"node/143725254","category":"metro_station","name":"Beekkant","operator":"STIB/MIVB"}},{"type":"Feature","geometry":{"type":"Point","coordinates":[4.320651,50.84851]},"properties":{"osm_id":"node/143725278","category":"metro_station","name":"Gare de l'Ouest - Weststation","operator":"STIB/MIVB"}},{"type":"Feature","geometry":{"type":"Point","coordinates":[4.330823,50.841174]},"properties":{"osm_id":"node/143736457","category":"metro_station","name":"Clemenceau","operator":"STIB/MIVB"}},{"type":"Feature","geometry":{"type":"Point","coordinates":[4.324236,50.845275]},"properties":{"osm_id":"node/143736481","category":"metro_station","name":"Delacroix","operator":"STIB/MIVB"}},{"type":"Feature","geometry":{"type":"Point","coordinates":[4.33967,50.860477]},"properties":{"osm_id":"node/143744297","category":"metro_station","name":"Ribaucourt","operator":"STIB/MIVB"}},{"type":"Feature","geometry":{"type":"Point","coordinates":[4.340254,50.85485]},"properties":{"osm_id":"node/144002963","category":"metro_station","name":"Comte de Flandre - Graaf van Vlaanderen","operator":"STIB/MIVB"}},{"type":"Feature","geometry":{"type":"Point","coordinates":[4.332184,50.857085]},"properties":{"osm_id":"node/144050557","category":"metro_station","name":"Étangs Noirs - Zwarte Vijvers","operator":"STIB/MIVB"}},{"type":"Feature","geometry":{"type":"Point","coordinates":[4.318046,50.843756]},"properties":{"osm_id":"node/144070376","category":"metro_station","name":"Jacques Brel","operator":"STIB/MIVB"}},{"type":"Feature","geometry":{"type":"Point","coordinates":[4.312492,50.839681]},"properties":{"osm_id":"node/144070383","category":"metro_station","name":"Aumale","operator":"STIB/MIVB"}},{"type":"Feature","geometry":{"type":"Point","coordinates":[4.305343,50.834989]},"properties":{"osm_id":"node/144070391","category":"metro_station","name":"Saint-Guidon - Sint-Guido","operator":"STIB/MIVB"}},{"type":"Feature","geometry":{"type":"Point","coordinates":[4.300651,50.829479]},"properties":{"osm_id":"node/144070405","category":"metro_station","name":"Veeweyde - Veeweide","operator":"STIB/MIVB"}},{"type":"Feature","geometry":{"type":"Point","coordinates":[4.297038,50.824914]},"properties":{"osm_id":"node/144074167","category":"metro_station","name":"Bizet","operator":"STIB/MIVB"}},{"type":"Feature","geometry":{"type":"Point","coordinates":[4.293915,50.821117]},"properties":{"osm_id":"node/144075758","category":"metro_station","name":"La Roue - Het Rad","operator":"STIB/MIVB"}},{"type":"Feature","geometry":{"type":"Point","coordinates":[4.289622,50.816299]},"properties":{"osm_id":"node/144085375","category":"metro_station","name":"CERIA - COOVI","operator":"STIB/MIVB"}},{"type":"Feature","geometry":{"type":"Point","coordinates":[4.280742,50.816702]},"properties":{"osm_id":"node/144095140","category":"metro_station","name":"Eddy Merckx","operator":"STIB/MIVB"}},{"type":"Feature","geometry":{"type":"Point","coordinates":[4.267078,50.815235]},"properties":{"osm_id":"node/144100088","category":"metro_station","name":"Erasme - Erasmus","operator":"STIB/MIVB"}},{"type":"Feature","geometry":{"type":"Point","coordinates":[4.336813,50.868425]},"properties":{"osm_id":"node/144247325","category":"metro_station","name":"Belgica","operator":"STIB/MIVB"}},{"type":"Feature","geometry":{"type":"Point","coordinates":[4.341962,50.886095]},"properties":{"osm_id":"node/144271265","category":"metro_station","name":"Stuyvenbergh","operator":"STIB/MIVB"}},{"type":"Feature","geometry":{"type":"Point","coordinates":[4.337766,50.889488]},"properties":{"osm_id":"node/144271273","category":"metro_station","name":"Houba-Brugmann","operator":"STIB/MIVB"}},{"type":"Feature","geometry":{"type":"Point","coordinates":[4.335977,50.896874]},"properties":{"osm_id":"node/144276150","category":"metro_station","name":"Heysel - Heizel","operator":"STIB/MIVB"}},{"type":"Feature","geometry":{"type":"Point","coordinates":[4.327778,50.89635]},"properties":{"osm_id":"node/144283201","category":"metro_station","name":"Roi Baudouin - Koning Boudewijn","operator":"STIB/MIVB"}},{"type":"Feature","geometry":{"type":"Point","coordinates":[4.36009,50.860382]},"properties":{"osm_id":"node/145016898","category":"metro_station","name":"Gare du Nord - Noordstation","operator":"STIB/MIVB"}},{"type":"Feature","geometry":{"type":"Point","coordinates":[4.376969,50.843834]},"properties":{"osm_id":"node/145980763","category":"metro_station","name":"Maelbeek - Maalbeek","operator":"STIB/MIVB"}},{"type":"Feature","geometry":{"type":"Point","coordinates":[4.428692,50.812216]},"properties":{"osm_id":"node/147132819","category":"metro_station","name":"Herrmann-Debroux","operator":"STIB/MIVB"}},{"type":"Feature","geometry":{"type":"Point","coordinates":[4.912049,52.354595]},"properties":{"osm_id":"node/240489038","category":"metro_station","name":"Wibautstraat","operator":""}},{"type":"Feature","geometry":{"type":"Point","coordinates":[4.857577,52.338403]},"properties":{"osm_id":"node/250222266","category":"metro_station","name":"Amstelveenseweg","operator":"GVB"}},{"type":"Feature","geometry":{"type":"Point","coordinates":[4.835294,52.372658]},"properties":{"osm_id":"node/250224485","category":"metro_station","name":"Jan van Galenstraat","operator":"GVB"}},{"type":"Feature","geometry":{"type":"Point","coordinates":[4.941398,52.318612]},"properties":{"osm_id":"node/250233796","category":"metro_station","name":"Strandvliet","operator":""}},{"type":"Feature","geometry":{"type":"Point","coordinates":[4.989161,52.296407]},"properties":{"osm_id":"node/250233831","category":"metro_station","name":"Gein","operator":""}},{"type":"Feature","geometry":{"type":"Point","coordinates":[4.952129,52.306869]},"properties":{"osm_id":"node/250234673","category":"metro_station","name":"Bullewijk","operator":""}},{"type":"Feature","geometry":{"type":"Point","coordinates":[4.413697,50.840273]},"properties":{"osm_id":"node/250308215","category":"metro_station","name":"Joséphine-Charlotte","operator":"STIB/MIVB"}},{"type":"Feature","geometry":{"type":"Point","coordinates":[4.418476,50.842486]},"properties":{"osm_id":"node/250308844","category":"metro_station","name":"Gribaumont","operator":"STIB/MIVB"}},{"type":"Feature","geometry":{"type":"Point","coordinates":[4.425777,50.844226]},"properties":{"osm_id":"node/250309308","category":"metro_station","name":"Tomberg","operator":"STIB/MIVB"}},{"type":"Feature","geometry":{"type":"Point","coordinates":[4.435702,50.847485]},"properties":{"osm_id":"node/250309558","category":"metro_station","name":"Roodebeek","operator":"STIB/MIVB"}},{"type":"Feature","geometry":{"type":"Point","coordinates":[4.447095,50.847429]},"properties":{"osm_id":"node/250310420","category":"metro_station","name":"Vandervelde","operator":"STIB/MIVB"}},{"type":"Feature","geometry":{"type":"Point","coordinates":[4.458546,50.848912]},"properties":{"osm_id":"node/250310431","category":"metro_station","name":"Crainhem - Kraainem","operator":"STIB/MIVB"}},{"type":"Feature","geometry":{"type":"Point","coordinates":[4.464115,50.842067]},"properties":{"osm_id":"node/250312071","category":"metro_station","name":"Stockel - Stokkel","operator":"STIB/MIVB"}},{"type":"Feature","geometry":{"type":"Point","coordinates":[4.347972,50.878849]},"properties":{"osm_id":"node/287288229","category":"metro_station","name":"Bockstael","operator":"STIB/MIVB"}},{"type":"Feature","geometry":{"type":"Point","coordinates":[4.930519,52.329448]},"properties":{"osm_id":"node/289445435","category":"metro_station","name":"Van der Madeweg","operator":"GVB"}},{"type":"Feature","geometry":{"type":"Point","coordinates":[4.330978,50.863048]},"properties":{"osm_id":"node/345771178","category":"metro_station","name":"Elisabeth","operator":"STIB/MIVB"}},{"type":"Feature","geometry":{"type":"Point","coordinates":[4.917627,52.331732]},"properties":{"osm_id":"node/427565080","category":"metro_station","name":"Overamstel","operator":"GVB"}},{"type":"Feature","geometry":{"type":"Point","coordinates":[7.026142,51.539418]},"properties":{"osm_id":"node/1078606426","category":"metro_station","name":"Buerer Straße","operator":""}},{"type":"Feature","geometry":{"type":"Point","coordinates":[6.937317,51.434747]},"properties":{"osm_id":"node/1346673112","category":"metro_station","name":"Eichbaum","operator":""}},{"type":"Feature","geometry":{"type":"Point","coordinates":[4.911895,52.35456]},"properties":{"osm_id":"node/1776157172","category":"metro_station","name":"Wibautstraat","operator":""}},{"type":"Feature","geometry":{"type":"Point","coordinates":[6.752611,51.364877]},"properties":{"osm_id":"node/1920297533","category":"metro_station","name":"St.-Anna-Krankenhaus","operator":""}},{"type":"Feature","geometry":{"type":"Point","coordinates":[4.330489,50.863192]},"properties":{"osm_id":"node/2101668768","category":"metro_station","name":"Simonis","operator":"STIB/MIVB"}},{"type":"Feature","geometry":{"type":"Point","coordinates":[4.838222,52.379613]},"properties":{"osm_id":"node/2237721918","category":"metro_station","name":"De Vlugtlaan","operator":"GVB"}},{"type":"Feature","geometry":{"type":"Point","coordinates":[4.366781,51.860617]},"properties":{"osm_id":"node/2288890193","category":"metro_station","name":"Hoogvliet","operator":""}},{"type":"Feature","geometry":{"type":"Point","coordinates":[4.452855,50.849691]},"properties":{"osm_id":"node/2368465586","category":"metro_station","name":"Alma","operator":"STIB/MIVB"}},{"type":"Feature","geometry":{"type":"Point","coordinates":[6.762957,51.401865]},"properties":{"osm_id":"node/2445867152","category":"metro_station","name":"Im Schlenk","operator":""}},{"type":"Feature","geometry":{"type":"Point","coordinates":[6.764814,51.405692]},"properties":{"osm_id":"node/2445867153","category":"metro_station","name":"Kulturstraße","operator":""}},{"type":"Feature","geometry":{"type":"Point","coordinates":[6.760076,51.39313]},"properties":{"osm_id":"node/2445867428","category":"metro_station","name":"Waldfriedhof","operator":""}},{"type":"Feature","geometry":{"type":"Point","coordinates":[6.88845,51.436424]},"properties":{"osm_id":"node/2554016455","category":"metro_station","name":"Aktienstraße","operator":""}},{"type":"Feature","geometry":{"type":"Point","coordinates":[6.88034,51.42796]},"properties":{"osm_id":"node/2554016633","category":"metro_station","name":"Stadtmitte","operator":""}},{"type":"Feature","geometry":{"type":"Point","coordinates":[6.893955,51.427996]},"properties":{"osm_id":"node/2554016635","category":"metro_station","name":"Von-Bock-Straße","operator":""}},{"type":"Feature","geometry":{"type":"Point","coordinates":[6.924754,51.433484]},"properties":{"osm_id":"node/2578030414","category":"metro_station","name":"Heißen Kirche","operator":""}},{"type":"Feature","geometry":{"type":"Point","coordinates":[6.916353,51.43376]},"properties":{"osm_id":"node/2578030415","category":"metro_station","name":"Mühlenfeld","operator":""}},{"type":"Feature","geometry":{"type":"Point","coordinates":[6.699672,51.228858]},"properties":{"osm_id":"node/2654572276","category":"metro_station","name":"Handweiser","operator":""}},{"type":"Feature","geometry":{"type":"Point","coordinates":[7.008109,50.938802]},"properties":{"osm_id":"node/2656504409","category":"metro_station","name":"Kalk Kapelle","operator":""}},{"type":"Feature","geometry":{"type":"Point","coordinates":[6.698216,51.220092]},"properties":{"osm_id":"node/3010526841","category":"metro_station","name":"Neuss Am Kaiser","operator":"DB InfraGO AG"}},{"type":"Feature","geometry":{"type":"Point","coordinates":[4.480863,51.917999]},"properties":{"osm_id":"node/3149917961","category":"metro_station","name":"Beurs","operator":"Rotterdamse Elektrische Tram N.V. (RET)"}},{"type":"Feature","geometry":{"type":"Point","coordinates":[4.458176,51.930616]},"properties":{"osm_id":"node/3149917962","category":"metro_station","name":"Blijdorp","operator":"RET"}},{"type":"Feature","geometry":{"type":"Point","coordinates":[4.319899,51.833319]},"properties":{"osm_id":"node/3149917963","category":"metro_station","name":"De Akkers","operator":""}},{"type":"Feature","geometry":{"type":"Point","coordinates":[4.331625,51.837753]},"properties":{"osm_id":"node/3149917964","category":"metro_station","name":"Heemraadlaan","operator":""}},{"type":"Feature","geometry":{"type":"Point","coordinates":[4.481991,51.914034]},"properties":{"osm_id":"node/3149917967","category":"metro_station","name":"Leuvehaven","operator":"RET"}},{"type":"Feature","geometry":{"type":"Point","coordinates":[4.494757,51.897194]},"properties":{"osm_id":"node/3149917968","category":"metro_station","name":"Maashaven","operator":"RET"}},{"type":"Feature","geometry":{"type":"Point","coordinates":[4.395793,51.861724]},"properties":{"osm_id":"node/3149917975","category":"metro_station","name":"Poortugaal","operator":""}},{"type":"Feature","geometry":{"type":"Point","coordinates":[4.419492,51.859136]},"properties":{"osm_id":"node/3149917976","category":"metro_station","name":"Rhoon","operator":""}},{"type":"Feature","geometry":{"type":"Point","coordinates":[4.496798,51.903584]},"properties":{"osm_id":"node/3149917977","category":"metro_station","name":"Rijnhaven","operator":"RET"}},{"type":"Feature","geometry":{"type":"Point","coordinates":[4.334457,51.846546]},"properties":{"osm_id":"node/3149917979","category":"metro_station","name":"Spijkenisse Centrum","operator":""}},{"type":"Feature","geometry":{"type":"Point","coordinates":[4.478512,51.923237]},"properties":{"osm_id":"node/3149917980","category":"metro_station","name":"Stadhuis","operator":"RET"}},{"type":"Feature","geometry":{"type":"Point","coordinates":[4.376772,51.86263]},"properties":{"osm_id":"node/3149917982","category":"metro_station","name":"Tussenwater","operator":""}},{"type":"Feature","geometry":{"type":"Point","coordinates":[4.492376,51.907808]},"properties":{"osm_id":"node/3149917984","category":"metro_station","name":"Wilhelminaplein","operator":"RET"}},{"type":"Feature","geometry":{"type":"Point","coordinates":[4.362522,51.854942]},"properties":{"osm_id":"node/3149917985","category":"metro_station","name":"Zalmplaat","operator":""}},{"type":"Feature","geometry":{"type":"Point","coordinates":[4.488327,51.886895]},"properties":{"osm_id":"node/3149917986","category":"metro_station","name":"Zuidplein","operator":""}},{"type":"Feature","geometry":{"type":"Point","coordinates":[7.000036,51.445281]},"properties":{"osm_id":"node/3286791663","category":"metro_station","name":"Planckstraße","operator":"Ruhrbahn"}},{"type":"Feature","geometry":{"type":"Point","coordinates":[7.009077,51.48408]},"properties":{"osm_id":"node/3318362889","category":"metro_station","name":"Altenessen Bf","operator":"Ruhrbahn"}},{"type":"Feature","geometry":{"type":"Point","coordinates":[7.008419,51.495872]},"properties":{"osm_id":"node/3318362890","category":"metro_station","name":"Altenessen Mitte","operator":"Ruhrbahn"}},{"type":"Feature","geometry":{"type":"Point","coordinates":[7.000545,51.474104]},"properties":{"osm_id":"node/3318362891","category":"metro_station","name":"Bamlerstraße","operator":"Ruhrbahn"}},{"type":"Feature","geometry":{"type":"Point","coordinates":[7.004181,51.479339]},"properties":{"osm_id":"node/3318362892","category":"metro_station","name":"Bäuminghausstraße","operator":"Ruhrbahn"}},{"type":"Feature","geometry":{"type":"Point","coordinates":[7.009436,51.491038]},"properties":{"osm_id":"node/3318362893","category":"metro_station","name":"Kaiser-Wilhelm-Park","operator":"Ruhrbahn"}},{"type":"Feature","geometry":{"type":"Point","coordinates":[7.001878,51.466033]},"properties":{"osm_id":"node/3318371326","category":"metro_station","name":"Universität Essen","operator":"Ruhrbahn"}},{"type":"Feature","geometry":{"type":"Point","coordinates":[7.007336,51.509305]},"properties":{"osm_id":"node/3318452880","category":"metro_station","name":"Heßlerstraße","operator":"Ruhrbahn"}},{"type":"Feature","geometry":{"type":"Point","coordinates":[7.007686,51.505686]},"properties":{"osm_id":"node/3318452882","category":"metro_station","name":"II. Schichtstraße","operator":"Ruhrbahn"}},{"type":"Feature","geometry":{"type":"Point","coordinates":[6.901567,51.42992]},"properties":{"osm_id":"node/3429267208","category":"metro_station","name":"Gracht","operator":""}},{"type":"Feature","geometry":{"type":"Point","coordinates":[6.721826,51.232206]},"properties":{"osm_id":"node/3458184511","category":"metro_station","name":"Nikolaus-Knopp-Platz","operator":""}},{"type":"Feature","geometry":{"type":"Point","coordinates":[7.007267,51.518293]},"properties":{"osm_id":"node/3482710766","category":"metro_station","name":"Arenbergstraße","operator":"Ruhrbahn"}},{"type":"Feature","geometry":{"type":"Point","coordinates":[6.782966,51.439194]},"properties":{"osm_id":"node/3881680782","category":"metro_station","name":"Duissern","operator":""}},{"type":"Feature","geometry":{"type":"Point","coordinates":[6.767508,51.433134]},"properties":{"osm_id":"node/3881680783","category":"metro_station","name":"König-Heinrich-Platz","operator":""}},{"type":"Feature","geometry":{"type":"Point","coordinates":[6.761866,51.434486]},"properties":{"osm_id":"node/3881681607","category":"metro_station","name":"Rathaus","operator":""}},{"type":"Feature","geometry":{"type":"Point","coordinates":[6.772879,51.46582]},"properties":{"osm_id":"node/3883984229","category":"metro_station","name":"Auf dem Damm","operator":""}},{"type":"Feature","geometry":{"type":"Point","coordinates":[6.779066,51.467546]},"properties":{"osm_id":"node/3883984230","category":"metro_station","name":"Duisburg-Meiderich Bf","operator":""}},{"type":"Feature","geometry":{"type":"Point","coordinates":[6.956454,51.440631]},"properties":{"osm_id":"node/3887342265","category":"metro_station","name":"Rhein-Ruhr-Zentrum","operator":""}},{"type":"Feature","geometry":{"type":"Point","coordinates":[6.968564,51.442324]},"properties":{"osm_id":"node/3887342266","category":"metro_station","name":"Wickenburgstraße","operator":"Ruhrbahn"}},{"type":"Feature","geometry":{"type":"Point","coordinates":[6.650902,51.266886]},"properties":{"osm_id":"node/3892701138","category":"metro_station","name":"Bovert","operator":"Rheinbahn AG"}},{"type":"Feature","geometry":{"type":"Point","coordinates":[6.637195,51.271192]},"properties":{"osm_id":"node/3892701141","category":"metro_station","name":"Kamperweg","operator":"Rheinbahn AG"}},{"type":"Feature","geometry":{"type":"Point","coordinates":[7.010179,51.454407]},"properties":{"osm_id":"node/3893958139","category":"metro_station","name":"Hirschlandplatz","operator":"Ruhrbahn"}},{"type":"Feature","geometry":{"type":"Point","coordinates":[6.99469,51.446076]},"properties":{"osm_id":"node/3893958943","category":"metro_station","name":"Savignystraße/ETEC","operator":"Ruhrbahn"}},{"type":"Feature","geometry":{"type":"Point","coordinates":[6.978966,51.443834]},"properties":{"osm_id":"node/3903634039","category":"metro_station","name":"Breslauer Straße","operator":"Ruhrbahn"}},{"type":"Feature","geometry":{"type":"Point","coordinates":[6.98734,51.444967]},"properties":{"osm_id":"node/3903634040","category":"metro_station","name":"Hobeisenbrücke","operator":"Ruhrbahn"}},{"type":"Feature","geometry":{"type":"Point","coordinates":[7.004234,51.459286]},"properties":{"osm_id":"node/3907189707","category":"metro_station","name":"Berliner Platz","operator":"Ruhrbahn"}},{"type":"Feature","geometry":{"type":"Point","coordinates":[7.226238,51.535722]},"properties":{"osm_id":"node/3925706334","category":"metro_station","name":"Archäologie-Museum/Kreuzkirche","operator":"BOGESTRA"}},{"type":"Feature","geometry":{"type":"Point","coordinates":[7.215692,51.524031]},"properties":{"osm_id":"node/3925706335","category":"metro_station","name":"Berninghausstraße","operator":"BOGESTRA"}},{"type":"Feature","geometry":{"type":"Point","coordinates":[7.238767,51.456995]},"properties":{"osm_id":"node/3925706336","category":"metro_station","name":"Brenscheder Straße","operator":"BOGESTRA"}},{"type":"Feature","geometry":{"type":"Point","coordinates":[7.213914,51.488192]},"properties":{"osm_id":"node/3925706337","category":"metro_station","name":"Deutsches Bergbau-Museum","operator":"BOGESTRA"}},{"type":"Feature","geometry":{"type":"Point","coordinates":[7.212837,51.4941]},"properties":{"osm_id":"node/3925706338","category":"metro_station","name":"Feldsieper Straße","operator":"BOGESTRA"}},{"type":"Feature","geometry":{"type":"Point","coordinates":[7.218754,51.544628]},"properties":{"osm_id":"node/3925706339","category":"metro_station","name":"Herne Bahnhof","operator":"BOGESTRA"}},{"type":"Feature","geometry":{"type":"Point","coordinates":[7.221915,51.54123]},"properties":{"osm_id":"node/3925706340","category":"metro_station","name":"Herne Mitte","operator":"BOGESTRA"}},{"type":"Feature","geometry":{"type":"Point","coordinates":[7.221464,51.530299]},"properties":{"osm_id":"node/3925706342","category":"metro_station","name":"Hölkeskampring","operator":"BOGESTRA"}},{"type":"Feature","geometry":{"type":"Point","coordinates":[7.246858,51.451955]},"properties":{"osm_id":"node/3925706344","category":"metro_station","name":"Markstraße","operator":"BOGESTRA"}},{"type":"Feature","geometry":{"type":"Point","coordinates":[7.226224,51.473462]},"properties":{"osm_id":"node/3925706345","category":"metro_station","name":"Oskar-Hoffmann-Straße","operator":"BOGESTRA"}},{"type":"Feature","geometry":{"type":"Point","coordinates":[7.211333,51.514269]},"properties":{"osm_id":"node/3925706346","category":"metro_station","name":"Rensingstraße","operator":"BOGESTRA"}},{"type":"Feature","geometry":{"type":"Point","coordinates":[7.211416,51.508596]},"properties":{"osm_id":"node/3925706347","category":"metro_station","name":"Riemke Markt","operator":"BOGESTRA"}},{"type":"Feature","geometry":{"type":"Point","coordinates":[7.213913,51.552414]},"properties":{"osm_id":"node/3925706349","category":"metro_station","name":"Schloss Strünkede","operator":"BOGESTRA"}},{"type":"Feature","geometry":{"type":"Point","coordinates":[7.227037,51.46892]},"properties":{"osm_id":"node/3925706350","category":"metro_station","name":"Waldring","operator":"BOGESTRA"}},{"type":"Feature","geometry":{"type":"Point","coordinates":[7.231386,51.463781]},"properties":{"osm_id":"node/3925706351","category":"metro_station","name":"Wasserstraße","operator":"BOGESTRA"}},{"type":"Feature","geometry":{"type":"Point","coordinates":[7.212336,51.502384]},"properties":{"osm_id":"node/3925706352","category":"metro_station","name":"Zeche Constantin","operator":"BOGESTRA"}},{"type":"Feature","geometry":{"type":"Point","coordinates":[7.00886,51.445383]},"properties":{"osm_id":"node/3939759928","category":"metro_station","name":"Philharmonie","operator":"Ruhrbahn"}},{"type":"Feature","geometry":{"type":"Point","coordinates":[7.005561,51.437767]},"properties":{"osm_id":"node/3939763456","category":"metro_station","name":"Rüttenscheider Stern","operator":"Ruhrbahn"}},{"type":"Feature","geometry":{"type":"Point","coordinates":[7.004575,51.434348]},"properties":{"osm_id":"node/3940430491","category":"metro_station","name":"Martinstraße","operator":"Ruhrbahn"}},{"type":"Feature","geometry":{"type":"Point","coordinates":[6.759943,51.432026]},"properties":{"osm_id":"node/3941934563","category":"metro_station","name":"Steinsche Gasse","operator":""}},{"type":"Feature","geometry":{"type":"Point","coordinates":[7.000099,51.430196]},"properties":{"osm_id":"node/3946728817","category":"metro_station","name":"Messe Ost/Gruga","operator":"Ruhrbahn"}},{"type":"Feature","geometry":{"type":"Point","coordinates":[6.992199,51.424953]},"properties":{"osm_id":"node/3946728819","category":"metro_station","name":"Messe West/Süd/Gruga","operator":"Ruhrbahn"}},{"type":"Feature","geometry":{"type":"Point","coordinates":[7.005509,51.448538]},"properties":{"osm_id":"node/3948583063","category":"metro_station","name":"Bismarckplatz","operator":"Ruhrbahn"}},{"type":"Feature","geometry":{"type":"Point","coordinates":[7.012661,51.450199]},"properties":{"osm_id":"node/3948583064","category":"metro_station","name":"Essen Hauptbahnhof","operator":"Ruhrbahn"}},{"type":"Feature","geometry":{"type":"Point","coordinates":[6.97451,51.432792]},"properties":{"osm_id":"node/3975379767","category":"metro_station","name":"Laubenweg","operator":"Ruhrbahn"}},{"type":"Feature","geometry":{"type":"Point","coordinates":[6.981266,51.436326]},"properties":{"osm_id":"node/3975501333","category":"metro_station","name":"Halbe Höhe","operator":"Ruhrbahn"}},{"type":"Feature","geometry":{"type":"Point","coordinates":[6.98929,51.437539]},"properties":{"osm_id":"node/3976203473","category":"metro_station","name":"Holsterhauser Platz","operator":"Ruhrbahn"}},{"type":"Feature","geometry":{"type":"Point","coordinates":[6.676775,51.262394]},"properties":{"osm_id":"node/4029955684","category":"metro_station","name":"Forsthaus","operator":"Rheinbahn AG"}},{"type":"Feature","geometry":{"type":"Point","coordinates":[6.668748,51.265893]},"properties":{"osm_id":"node/4029955685","category":"metro_station","name":"Haus Meer","operator":"Rheinbahn AG"}},{"type":"Feature","geometry":{"type":"Point","coordinates":[6.700972,51.254009]},"properties":{"osm_id":"node/4029955686","category":"metro_station","name":"Meerbusch-Büderich, Landsknecht","operator":"Rheinbahn AG"}},{"type":"Feature","geometry":{"type":"Point","coordinates":[4.989013,52.296338]},"properties":{"osm_id":"node/4041640589","category":"metro_station","name":"Gein","operator":"GVB"}},{"type":"Feature","geometry":{"type":"Point","coordinates":[4.974422,52.295648]},"properties":{"osm_id":"node/4041640590","category":"metro_station","name":"Reigersbos","operator":"GVB"}},{"type":"Feature","geometry":{"type":"Point","coordinates":[4.984322,52.311318]},"properties":{"osm_id":"node/4041642874","category":"metro_station","name":"Gaasperplas","operator":"GVB"}},{"type":"Feature","geometry":{"type":"Point","coordinates":[4.97355,52.323079]},"properties":{"osm_id":"node/4041662264","category":"metro_station","name":"Ganzenhoef","operator":"GVB"}},{"type":"Feature","geometry":{"type":"Point","coordinates":[4.979123,52.317031]},"properties":{"osm_id":"node/4041662265","category":"metro_station","name":"Kraaiennest","operator":"GVB"}},{"type":"Feature","geometry":{"type":"Point","coordinates":[4.94634,52.326767]},"properties":{"osm_id":"node/4041664287","category":"metro_station","name":"Venserpolder","operator":"GVB"}},{"type":"Feature","geometry":{"type":"Point","coordinates":[4.941356,52.318536]},"properties":{"osm_id":"node/4046383465","category":"metro_station","name":"Strandvliet","operator":"GVB"}},{"type":"Feature","geometry":{"type":"Point","coordinates":[4.952236,52.306611]},"properties":{"osm_id":"node/4046388677","category":"metro_station","name":"Bullewijk","operator":"GVB"}},{"type":"Feature","geometry":{"type":"Point","coordinates":[4.547673,51.919502]},"properties":{"osm_id":"node/4048801938","category":"metro_station","name":"'s-Gravenweg","operator":""}},{"type":"Feature","geometry":{"type":"Point","coordinates":[4.589558,51.93138]},"properties":{"osm_id":"node/4048801941","category":"metro_station","name":"Capelle Centrum","operator":""}},{"type":"Feature","geometry":{"type":"Point","coordinates":[4.557959,51.921453]},"properties":{"osm_id":"node/4048801942","category":"metro_station","name":"Capelsebrug","operator":""}},{"type":"Feature","geometry":{"type":"Point","coordinates":[4.458289,51.909471]},"properties":{"osm_id":"node/4048801943","category":"metro_station","name":"Coolhaven","operator":"RET"}},{"type":"Feature","geometry":{"type":"Point","coordinates":[4.600382,51.935947]},"properties":{"osm_id":"node/4048801944","category":"metro_station","name":"De Terp","operator":"RET"}},{"type":"Feature","geometry":{"type":"Point","coordinates":[4.4457,51.909995]},"properties":{"osm_id":"node/4048801946","category":"metro_station","name":"Delfshaven","operator":"RET"}},{"type":"Feature","geometry":{"type":"Point","coordinates":[4.466116,51.912238]},"properties":{"osm_id":"node/4048801947","category":"metro_station","name":"Dijkzigt","operator":"RET"}},{"type":"Feature","geometry":{"type":"Point","coordinates":[4.473738,51.916333]},"properties":{"osm_id":"node/4048801948","category":"metro_station","name":"Eendrachtsplein","operator":""}},{"type":"Feature","geometry":{"type":"Point","coordinates":[4.505848,51.925903]},"properties":{"osm_id":"node/4048801949","category":"metro_station","name":"Gerdesiaweg","operator":"RET"}},{"type":"Feature","geometry":{"type":"Point","coordinates":[4.533851,51.92141]},"properties":{"osm_id":"node/4048801954","category":"metro_station","name":"Kralingse Zoom","operator":"RET"}},{"type":"Feature","geometry":{"type":"Point","coordinates":[4.496986,51.923361]},"properties":{"osm_id":"node/4048801959","category":"metro_station","name":"Oostplein","operator":"RET"}},{"type":"Feature","geometry":{"type":"Point","coordinates":[4.393958,51.92127]},"properties":{"osm_id":"node/4048801960","category":"metro_station","name":"Parkweg","operator":""}},{"type":"Feature","geometry":{"type":"Point","coordinates":[4.38179,51.884943]},"properties":{"osm_id":"node/4048801961","category":"metro_station","name":"Pernis","operator":""}},{"type":"Feature","geometry":{"type":"Point","coordinates":[4.477732,51.874588]},"properties":{"osm_id":"node/4048801970","category":"metro_station","name":"Slinge","operator":"RET"}},{"type":"Feature","geometry":{"type":"Point","coordinates":[4.578324,51.928478]},"properties":{"osm_id":"node/4048801971","category":"metro_station","name":"Slotlaan","operator":""}},{"type":"Feature","geometry":{"type":"Point","coordinates":[4.384634,51.91555]},"properties":{"osm_id":"node/4048801972","category":"metro_station","name":"Troelstralaan","operator":""}},{"type":"Feature","geometry":{"type":"Point","coordinates":[4.37199,51.909154]},"properties":{"osm_id":"node/4048801973","category":"metro_station","name":"Vijfsluizen","operator":"RET"}},{"type":"Feature","geometry":{"type":"Point","coordinates":[4.513058,51.925001]},"properties":{"osm_id":"node/4048801974","category":"metro_station","name":"Voorschoterlaan","operator":"RET"}},{"type":"Feature","geometry":{"type":"Point","coordinates":[4.834303,52.352471]},"properties":{"osm_id":"node/4053335995","category":"metro_station","name":"Heemstedestraat","operator":"GVB"}},{"type":"Feature","geometry":{"type":"Point","coordinates":[4.966252,52.328939]},"properties":{"osm_id":"node/4064153245","category":"metro_station","name":"Verrijn Stuartweg","operator":"GVB"}},{"type":"Feature","geometry":{"type":"Point","coordinates":[4.921011,52.339959]},"properties":{"osm_id":"node/4073693626","category":"metro_station","name":"Spaklerweg","operator":"GVB"}},{"type":"Feature","geometry":{"type":"Point","coordinates":[4.912025,52.354462]},"properties":{"osm_id":"node/4073693628","category":"metro_station","name":"Wibautstraat","operator":"GVB"}},{"type":"Feature","geometry":{"type":"Point","coordinates":[4.900879,52.371318]},"properties":{"osm_id":"node/4073743506","category":"metro_station","name":"Nieuwmarkt","operator":"GVB"}},{"type":"Feature","geometry":{"type":"Point","coordinates":[4.834503,52.346403]},"properties":{"osm_id":"node/4075987791","category":"metro_station","name":"Henk Sneevlietweg","operator":"GVB"}},{"type":"Feature","geometry":{"type":"Point","coordinates":[4.850791,52.395171]},"properties":{"osm_id":"node/4077313759","category":"metro_station","name":"Isolatorweg","operator":"GVB"}},{"type":"Feature","geometry":{"type":"Point","coordinates":[4.833961,52.364292]},"properties":{"osm_id":"node/4077313763","category":"metro_station","name":"Postjesweg","operator":"GVB"}},{"type":"Feature","geometry":{"type":"Point","coordinates":[6.717354,51.244626]},"properties":{"osm_id":"node/4081243591","category":"metro_station","name":"Düsseldorf-Lörick","operator":"Rheinbahn AG"}},{"type":"Feature","geometry":{"type":"Point","coordinates":[6.729153,51.239849]},"properties":{"osm_id":"node/4081243592","category":"metro_station","name":"Lohweg","operator":"Rheinbahn AG"}},{"type":"Feature","geometry":{"type":"Point","coordinates":[6.722589,51.242073]},"properties":{"osm_id":"node/4081243593","category":"metro_station","name":"Löricker Straße","operator":""}},{"type":"Feature","geometry":{"type":"Point","coordinates":[4.952001,52.30679]},"properties":{"osm_id":"node/4192295865","category":"metro_station","name":"Bullewijk","operator":""}},{"type":"Feature","geometry":{"type":"Point","coordinates":[4.989299,52.296271]},"properties":{"osm_id":"node/4192295869","category":"metro_station","name":"Gein","operator":""}},{"type":"Feature","geometry":{"type":"Point","coordinates":[4.94142,52.318362]},"properties":{"osm_id":"node/4192295879","category":"metro_station","name":"Strandvliet","operator":""}},{"type":"Feature","geometry":{"type":"Point","coordinates":[4.362254,50.845607]},"properties":{"osm_id":"node/4618293165","category":"metro_station","name":"Parc - Park","operator":"STIB/MIVB"}},{"type":"Feature","geometry":{"type":"Point","coordinates":[4.407569,50.837836]},"properties":{"osm_id":"node/4687124672","category":"metro_station","name":"Montgomery","operator":"STIB/MIVB"}},{"type":"Feature","geometry":{"type":"Point","coordinates":[4.358082,50.855568]},"properties":{"osm_id":"node/4772610929","category":"metro_station","name":"Rogier","operator":"STIB/MIVB"}},{"type":"Feature","geometry":{"type":"Point","coordinates":[6.939968,50.940569]},"properties":{"osm_id":"node/4819533597","category":"metro_station","name":"Friesenplatz","operator":"KVB"}},{"type":"Feature","geometry":{"type":"Point","coordinates":[6.959207,50.950763]},"properties":{"osm_id":"node/4819787255","category":"metro_station","name":"Ebertplatz","operator":"KVB"}},{"type":"Feature","geometry":{"type":"Point","coordinates":[7.008436,51.524447]},"properties":{"osm_id":"node/4865003732","category":"metro_station","name":"Boyer Straße","operator":"Ruhrbahn"}},{"type":"Feature","geometry":{"type":"Point","coordinates":[7.01009,51.52826]},"properties":{"osm_id":"node/4865020734","category":"metro_station","name":"Alte Landstraße","operator":"Ruhrbahn"}},{"type":"Feature","geometry":{"type":"Point","coordinates":[7.017202,51.534126]},"properties":{"osm_id":"node/4865068397","category":"metro_station","name":"Fischerstraße","operator":""}},{"type":"Feature","geometry":{"type":"Point","coordinates":[4.337896,50.836486]},"properties":{"osm_id":"node/4878787366","category":"metro_station","name":"Gare du Midi - Zuidstation","operator":"STIB/MIVB"}},{"type":"Feature","geometry":{"type":"Point","coordinates":[4.342882,50.833992]},"properties":{"osm_id":"node/4892514008","category":"metro_station","name":"Porte de Hal - Hallepoort","operator":"STIB/MIVB"}},{"type":"Feature","geometry":{"type":"Point","coordinates":[4.34296,50.873537]},"properties":{"osm_id":"node/4902681745","category":"metro_station","name":"Pannenhuis","operator":"STIB/MIVB"}},{"type":"Feature","geometry":{"type":"Point","coordinates":[7.216236,51.482976]},"properties":{"osm_id":"node/5155131075","category":"metro_station","name":"Bochum Rathaus (Nord)","operator":"BOGESTRA"}},{"type":"Feature","geometry":{"type":"Point","coordinates":[4.469799,51.923968]},"properties":{"osm_id":"node/5193927668","category":"metro_station","name":"Rotterdam Centraal","operator":""}},{"type":"Feature","geometry":{"type":"Point","coordinates":[4.874613,52.339203]},"properties":{"osm_id":"node/5267675295","category":"metro_station","name":"Zuid","operator":"Gemeentelijk Vervoerbedrijf"}},{"type":"Feature","geometry":{"type":"Point","coordinates":[4.838877,52.389016]},"properties":{"osm_id":"node/5267675296","category":"metro_station","name":"Station Sloterdijk","operator":"GVB"}},{"type":"Feature","geometry":{"type":"Point","coordinates":[4.325531,52.080763]},"properties":{"osm_id":"node/5267735554","category":"metro_station","name":"Den Haag Centraal","operator":""}},{"type":"Feature","geometry":{"type":"Point","coordinates":[4.889326,52.337712]},"properties":{"osm_id":"node/5360384018","category":"metro_station","name":"Station RAI","operator":"GVB"}},{"type":"Feature","geometry":{"type":"Point","coordinates":[4.340975,50.840274]},"properties":{"osm_id":"node/5380583021","category":"metro_station","name":"Lemonnier","operator":"STIB/MIVB"}},{"type":"Feature","geometry":{"type":"Point","coordinates":[4.345455,50.844301]},"properties":{"osm_id":"node/5382893851","category":"metro_station","name":"Anneessens","operator":"STIB/MIVB"}},{"type":"Feature","geometry":{"type":"Point","coordinates":[4.900958,52.377432]},"properties":{"osm_id":"node/5424713348","category":"metro_station","name":"Centraal Station","operator":"GVB"}},{"type":"Feature","geometry":{"type":"Point","coordinates":[4.353047,50.851485]},"properties":{"osm_id":"node/5601594183","category":"metro_station","name":"De Brouckère","operator":"STIB/MIVB"}},{"type":"Feature","geometry":{"type":"Point","coordinates":[6.809677,51.220535]},"properties":{"osm_id":"node/5672762808","category":"metro_station","name":"Kettwiger Straße","operator":""}},{"type":"Feature","geometry":{"type":"Point","coordinates":[4.891473,52.341606]},"properties":{"osm_id":"node/5737467956","category":"metro_station","name":"Europaplein","operator":"Gemeentelijk Vervoerbedrijf"}},{"type":"Feature","geometry":{"type":"Point","coordinates":[4.890693,52.353975]},"properties":{"osm_id":"node/5737467957","category":"metro_station","name":"De Pijp","operator":"GVB"}},{"type":"Feature","geometry":{"type":"Point","coordinates":[4.891165,52.360817]},"properties":{"osm_id":"node/5737467958","category":"metro_station","name":"Vijzelgracht","operator":"GVB"}},{"type":"Feature","geometry":{"type":"Point","coordinates":[4.9187,52.388932]},"properties":{"osm_id":"node/5737467960","category":"metro_station","name":"Noorderpark","operator":"GVB"}},{"type":"Feature","geometry":{"type":"Point","coordinates":[4.932359,52.401993]},"properties":{"osm_id":"node/5737467961","category":"metro_station","name":"Noord","operator":"GVB"}},{"type":"Feature","geometry":{"type":"Point","coordinates":[4.442724,51.21441]},"properties":{"osm_id":"node/6027637567","category":"metro_station","name":"Zegel","operator":"De Lijn"}},{"type":"Feature","geometry":{"type":"Point","coordinates":[4.421309,51.219022]},"properties":{"osm_id":"node/6027637569","category":"metro_station","name":"Astrid","operator":"De Lijn"}},{"type":"Feature","geometry":{"type":"Point","coordinates":[6.773859,51.231652]},"properties":{"osm_id":"node/6077686967","category":"metro_station","name":"Tonhalle/Ehrenhof","operator":""}},{"type":"Feature","geometry":{"type":"Point","coordinates":[6.801735,51.218816]},"properties":{"osm_id":"node/6114172386","category":"metro_station","name":"Handelszentrum/Moskauer Straße","operator":""}},{"type":"Feature","geometry":{"type":"Point","coordinates":[6.78761,51.222341]},"properties":{"osm_id":"node/6114172387","category":"metro_station","name":"Oststraße","operator":""}},{"type":"Feature","geometry":{"type":"Point","coordinates":[6.780995,51.222995]},"properties":{"osm_id":"node/6114172388","category":"metro_station","name":"Steinstraße/Königsallee","operator":""}},{"type":"Feature","geometry":{"type":"Point","coordinates":[6.776842,51.225532]},"properties":{"osm_id":"node/6114172389","category":"metro_station","name":"Heinrich-Heine-Allee","operator":""}},{"type":"Feature","geometry":{"type":"Point","coordinates":[6.738107,51.23682]},"properties":{"osm_id":"node/6114172402","category":"metro_station","name":"Heerdter Sandberg","operator":""}},{"type":"Feature","geometry":{"type":"Point","coordinates":[6.742025,51.235488]},"properties":{"osm_id":"node/6114172403","category":"metro_station","name":"Comenius-Gymnasium","operator":""}},{"type":"Feature","geometry":{"type":"Point","coordinates":[6.747589,51.231535]},"properties":{"osm_id":"node/6114172404","category":"metro_station","name":"Belsenplatz","operator":""}},{"type":"Feature","geometry":{"type":"Point","coordinates":[6.754902,51.231548]},"properties":{"osm_id":"node/6114172405","category":"metro_station","name":"Barbarossaplatz","operator":""}},{"type":"Feature","geometry":{"type":"Point","coordinates":[6.833198,51.175039]},"properties":{"osm_id":"node/6114260152","category":"metro_station","name":"Holthausen","operator":""}},{"type":"Feature","geometry":{"type":"Point","coordinates":[6.827495,51.179433]},"properties":{"osm_id":"node/6114260153","category":"metro_station","name":"Elbruchstraße","operator":""}},{"type":"Feature","geometry":{"type":"Point","coordinates":[6.820745,51.184534]},"properties":{"osm_id":"node/6114260154","category":"metro_station","name":"Ickerswarder Straße","operator":""}},{"type":"Feature","geometry":{"type":"Point","coordinates":[6.818574,51.18774]},"properties":{"osm_id":"node/6114260155","category":"metro_station","name":"Opladener Straße","operator":""}},{"type":"Feature","geometry":{"type":"Point","coordinates":[6.81487,51.192803]},"properties":{"osm_id":"node/6114260156","category":"metro_station","name":"Werstener Dorfstraße","operator":""}},{"type":"Feature","geometry":{"type":"Point","coordinates":[6.811848,51.198968]},"properties":{"osm_id":"node/6114260157","category":"metro_station","name":"Provinzialplatz","operator":""}},{"type":"Feature","geometry":{"type":"Point","coordinates":[6.810684,51.203605]},"properties":{"osm_id":"node/6114260158","category":"metro_station","name":"Kaiserslauterner Straße","operator":""}},{"type":"Feature","geometry":{"type":"Point","coordinates":[6.808181,51.208548]},"properties":{"osm_id":"node/6114260159","category":"metro_station","name":"Oberbilk S","operator":""}},{"type":"Feature","geometry":{"type":"Point","coordinates":[6.805833,51.213655]},"properties":{"osm_id":"node/6114260160","category":"metro_station","name":"Ellerstraße","operator":""}},{"type":"Feature","geometry":{"type":"Point","coordinates":[6.803026,51.216703]},"properties":{"osm_id":"node/6114260161","category":"metro_station","name":"Oberbilker Markt/Warschauer Straße","operator":""}},{"type":"Feature","geometry":{"type":"Point","coordinates":[6.737779,51.241385]},"properties":{"osm_id":"node/6114260162","category":"metro_station","name":"Am Seestern","operator":""}},{"type":"Feature","geometry":{"type":"Point","coordinates":[6.736859,51.264378]},"properties":{"osm_id":"node/6120050220","category":"metro_station","name":"Sportpark Nord/Europaplatz","operator":""}},{"type":"Feature","geometry":{"type":"Point","coordinates":[6.73622,51.26117]},"properties":{"osm_id":"node/6120050221","category":"metro_station","name":"MERKUR SPIEL-ARENA/Messe Nord","operator":""}},{"type":"Feature","geometry":{"type":"Point","coordinates":[6.745437,51.264458]},"properties":{"osm_id":"node/6120050222","category":"metro_station","name":"Mörikestraße","operator":""}},{"type":"Feature","geometry":{"type":"Point","coordinates":[6.752577,51.265316]},"properties":{"osm_id":"node/6120050223","category":"metro_station","name":"Freiligrathplatz","operator":""}},{"type":"Feature","geometry":{"type":"Point","coordinates":[6.754327,51.26042]},"properties":{"osm_id":"node/6120050224","category":"metro_station","name":"Messe Ost/Stockumer Kirchstraße","operator":""}},{"type":"Feature","geometry":{"type":"Point","coordinates":[6.755599,51.256471]},"properties":{"osm_id":"node/6120050225","category":"metro_station","name":"Nordpark/Aquazoo","operator":""}},{"type":"Feature","geometry":{"type":"Point","coordinates":[6.758944,51.253282]},"properties":{"osm_id":"node/6120050226","category":"metro_station","name":"Reeser Platz","operator":""}},{"type":"Feature","geometry":{"type":"Point","coordinates":[6.768089,51.24659]},"properties":{"osm_id":"node/6120050228","category":"metro_station","name":"Golzheimer Platz","operator":""}},{"type":"Feature","geometry":{"type":"Point","coordinates":[6.771978,51.24347]},"properties":{"osm_id":"node/6120050229","category":"metro_station","name":"Kennedydamm","operator":"Rheinbahn AG"}},{"type":"Feature","geometry":{"type":"Point","coordinates":[6.775094,51.239047]},"properties":{"osm_id":"node/6120050230","category":"metro_station","name":"ERGO-Platz/Klever Straße","operator":"Rheinbahn AG"}},{"type":"Feature","geometry":{"type":"Point","coordinates":[6.778493,51.2344]},"properties":{"osm_id":"node/6120050231","category":"metro_station","name":"Nordstraße","operator":""}},{"type":"Feature","geometry":{"type":"Point","coordinates":[6.800143,51.190436]},"properties":{"osm_id":"node/6120149106","category":"metro_station","name":"Universität Ost/Botanischer Garten","operator":""}},{"type":"Feature","geometry":{"type":"Point","coordinates":[6.801226,51.19521]},"properties":{"osm_id":"node/6120149107","category":"metro_station","name":"Südpark","operator":""}},{"type":"Feature","geometry":{"type":"Point","coordinates":[6.755485,51.42675]},"properties":{"osm_id":"node/6120149110","category":"metro_station","name":"Platanenhof","operator":""}},{"type":"Feature","geometry":{"type":"Point","coordinates":[6.76452,51.425965]},"properties":{"osm_id":"node/6120149112","category":"metro_station","name":"Kremerstraße","operator":""}},{"type":"Feature","geometry":{"type":"Point","coordinates":[6.76776,51.419997]},"properties":{"osm_id":"node/6120149115","category":"metro_station","name":"Karl-Jarres-Straße","operator":""}},{"type":"Feature","geometry":{"type":"Point","coordinates":[6.77003,51.412968]},"properties":{"osm_id":"node/6120149116","category":"metro_station","name":"Grunewald","operator":""}},{"type":"Feature","geometry":{"type":"Point","coordinates":[6.768233,51.4096]},"properties":{"osm_id":"node/6120149117","category":"metro_station","name":"Grunewald Betriebshof","operator":""}},{"type":"Feature","geometry":{"type":"Point","coordinates":[6.760914,51.383901]},"properties":{"osm_id":"node/6120149118","category":"metro_station","name":"Münchener Straße","operator":""}},{"type":"Feature","geometry":{"type":"Point","coordinates":[6.759855,51.375921]},"properties":{"osm_id":"node/6120149119","category":"metro_station","name":"Sittardsberg","operator":""}},{"type":"Feature","geometry":{"type":"Point","coordinates":[6.756589,51.370771]},"properties":{"osm_id":"node/6120149120","category":"metro_station","name":"Am Mühlenkamp","operator":""}},{"type":"Feature","geometry":{"type":"Point","coordinates":[6.746612,51.356747]},"properties":{"osm_id":"node/6120149121","category":"metro_station","name":"Duisburg - Kesselsberg","operator":""}},{"type":"Feature","geometry":{"type":"Point","coordinates":[6.751382,51.339]},"properties":{"osm_id":"node/6120149122","category":"metro_station","name":"Froschenteich","operator":""}},{"type":"Feature","geometry":{"type":"Point","coordinates":[6.745324,51.318101]},"properties":{"osm_id":"node/6120149123","category":"metro_station","name":"Wittlaer","operator":""}},{"type":"Feature","geometry":{"type":"Point","coordinates":[6.744876,51.312926]},"properties":{"osm_id":"node/6120149124","category":"metro_station","name":"Am Mühlenacker","operator":""}},{"type":"Feature","geometry":{"type":"Point","coordinates":[6.743399,51.305359]},"properties":{"osm_id":"node/6120149125","category":"metro_station","name":"Kalkumer Schloßallee","operator":""}},{"type":"Feature","geometry":{"type":"Point","coordinates":[6.739329,51.300609]},"properties":{"osm_id":"node/6120149126","category":"metro_station","name":"Klemensplatz","operator":""}},{"type":"Feature","geometry":{"type":"Point","coordinates":[6.738776,51.294868]},"properties":{"osm_id":"node/6120149127","category":"metro_station","name":"Kittelbachstraße","operator":""}},{"type":"Feature","geometry":{"type":"Point","coordinates":[6.739062,51.289065]},"properties":{"osm_id":"node/6120149128","category":"metro_station","name":"Alte Landstraße","operator":""}},{"type":"Feature","geometry":{"type":"Point","coordinates":[6.747916,51.274209]},"properties":{"osm_id":"node/6120149129","category":"metro_station","name":"Lohausen","operator":""}},{"type":"Feature","geometry":{"type":"Point","coordinates":[6.809784,51.220515]},"properties":{"osm_id":"node/6124260494","category":"metro_station","name":"Kettwiger Straße","operator":""}},{"type":"Feature","geometry":{"type":"Point","coordinates":[6.818209,51.216878]},"properties":{"osm_id":"node/6124260495","category":"metro_station","name":"Ronsdorfer Straße","operator":""}},{"type":"Feature","geometry":{"type":"Point","coordinates":[6.822623,51.214072]},"properties":{"osm_id":"node/6124260496","category":"metro_station","name":"Lierenfeld Betriebshof","operator":""}},{"type":"Feature","geometry":{"type":"Point","coordinates":[6.832948,51.205948]},"properties":{"osm_id":"node/6124260498","category":"metro_station","name":"Am Hackenbruch","operator":""}},{"type":"Feature","geometry":{"type":"Point","coordinates":[6.835049,51.203832]},"properties":{"osm_id":"node/6124260499","category":"metro_station","name":"Jägerstraße","operator":""}},{"type":"Feature","geometry":{"type":"Point","coordinates":[6.838454,51.201249]},"properties":{"osm_id":"node/6124260500","category":"metro_station","name":"Eller Mitte S","operator":""}},{"type":"Feature","geometry":{"type":"Point","coordinates":[6.842772,51.200068]},"properties":{"osm_id":"node/6124260501","category":"metro_station","name":"Alt Eller","operator":""}},{"type":"Feature","geometry":{"type":"Point","coordinates":[6.846186,51.198986]},"properties":{"osm_id":"node/6124260502","category":"metro_station","name":"Vennhauser Allee","operator":"Rheinbahn"}},{"type":"Feature","geometry":{"type":"Point","coordinates":[6.684707,51.20349]},"properties":{"osm_id":"node/6124329190","category":"metro_station","name":"Neuss Hbf","operator":""}},{"type":"Feature","geometry":{"type":"Point","coordinates":[6.698471,51.225451]},"properties":{"osm_id":"node/6124329191","category":"metro_station","name":"Vogesenstraße","operator":""}},{"type":"Feature","geometry":{"type":"Point","coordinates":[6.706985,51.230614]},"properties":{"osm_id":"node/6124329192","category":"metro_station","name":"Aldekerkstraße","operator":""}},{"type":"Feature","geometry":{"type":"Point","coordinates":[6.713783,51.23186]},"properties":{"osm_id":"node/6124329193","category":"metro_station","name":"Heesenstraße","operator":""}},{"type":"Feature","geometry":{"type":"Point","coordinates":[6.726536,51.232945]},"properties":{"osm_id":"node/6124329195","category":"metro_station","name":"Heerdter Krankenhaus","operator":"Rheinbahn AG"}},{"type":"Feature","geometry":{"type":"Point","coordinates":[6.738901,51.230933]},"properties":{"osm_id":"node/6124329196","category":"metro_station","name":"Drususstraße","operator":""}},{"type":"Feature","geometry":{"type":"Point","coordinates":[6.589395,51.31579]},"properties":{"osm_id":"node/6137768591","category":"metro_station","name":"Königshof","operator":"Rheinbahn"}},{"type":"Feature","geometry":{"type":"Point","coordinates":[6.616186,51.281506]},"properties":{"osm_id":"node/6137782083","category":"metro_station","name":"Meerbusch-Görgesheide","operator":"Rheinbahn AG"}},{"type":"Feature","geometry":{"type":"Point","coordinates":[6.601817,51.299912]},"properties":{"osm_id":"node/6137782084","category":"metro_station","name":"Grundend","operator":"Rheinbahn"}},{"type":"Feature","geometry":{"type":"Point","coordinates":[6.597985,51.304799]},"properties":{"osm_id":"node/6137785185","category":"metro_station","name":"Fischeln","operator":"Rheinbahn"}},{"type":"Feature","geometry":{"type":"Point","coordinates":[6.579816,51.326569]},"properties":{"osm_id":"node/6137785186","category":"metro_station","name":"Dießem","operator":"Rheinbahn AG"}},{"type":"Feature","geometry":{"type":"Point","coordinates":[6.570048,51.326799]},"properties":{"osm_id":"node/6140194148","category":"metro_station","name":"Krefeld Hbf","operator":"Rheinbahn"}},{"type":"Feature","geometry":{"type":"Point","coordinates":[6.565956,51.333006]},"properties":{"osm_id":"node/6140194149","category":"metro_station","name":"Rheinstraße","operator":"Rheinbahn"}},{"type":"Feature","geometry":{"type":"Point","coordinates":[4.402327,50.849159]},"properties":{"osm_id":"node/6160216323","category":"metro_station","name":"Diamant","operator":"STIB/MIVB"}},{"type":"Feature","geometry":{"type":"Point","coordinates":[4.34912,50.847828]},"properties":{"osm_id":"node/6276214962","category":"metro_station","name":"Bourse - Beurs","operator":"STIB/MIVB"}},{"type":"Feature","geometry":{"type":"Point","coordinates":[6.777013,51.208708]},"properties":{"osm_id":"node/6300147416","category":"metro_station","name":"Bilk S","operator":""}},{"type":"Feature","geometry":{"type":"Point","coordinates":[6.775327,51.213444]},"properties":{"osm_id":"node/6300147417","category":"metro_station","name":"Kirchplatz","operator":""}},{"type":"Feature","geometry":{"type":"Point","coordinates":[6.775415,51.218274]},"properties":{"osm_id":"node/6300147418","category":"metro_station","name":"Graf-Adolf-Platz","operator":""}},{"type":"Feature","geometry":{"type":"Point","coordinates":[6.77556,51.222692]},"properties":{"osm_id":"node/6300147419","category":"metro_station","name":"Benrather Straße","operator":""}},{"type":"Feature","geometry":{"type":"Point","coordinates":[6.790333,51.228164]},"properties":{"osm_id":"node/6300147420","category":"metro_station","name":"Pempelforter Straße","operator":""}},{"type":"Feature","geometry":{"type":"Point","coordinates":[6.78339,51.2266]},"properties":{"osm_id":"node/6300147421","category":"metro_station","name":"Schadowstraße","operator":""}},{"type":"Feature","geometry":{"type":"Point","coordinates":[4.342566,50.821541]},"properties":{"osm_id":"node/6414192032","category":"metro_station","name":"Albert","operator":"STIB/MIVB"}},{"type":"Feature","geometry":{"type":"Point","coordinates":[7.102995,51.529326]},"properties":{"osm_id":"node/6429363995","category":"metro_station","name":"Bergwerk Consolidation","operator":"BOGESTRA"}},{"type":"Feature","geometry":{"type":"Point","coordinates":[6.906761,51.433205]},"properties":{"osm_id":"node/6512841904","category":"metro_station","name":"Christianstraße","operator":""}},{"type":"Feature","geometry":{"type":"Point","coordinates":[6.872814,51.426508]},"properties":{"osm_id":"node/6512841906","category":"metro_station","name":"Schloß Broich","operator":""}},{"type":"Feature","geometry":{"type":"Point","coordinates":[4.342886,50.832799]},"properties":{"osm_id":"node/6587283782","category":"metro_station","name":"Porte de Hal - Hallepoort","operator":"STIB/MIVB"}},{"type":"Feature","geometry":{"type":"Point","coordinates":[4.346138,50.829833]},"properties":{"osm_id":"node/6588316478","category":"metro_station","name":"Parvis de Saint-Gilles - Sint-Gillisvoorplein","operator":"STIB/MIVB"}},{"type":"Feature","geometry":{"type":"Point","coordinates":[7.21589,51.481872]},"properties":{"osm_id":"node/6603876760","category":"metro_station","name":"Bochum Rathaus (Süd)","operator":"BOGESTRA"}},{"type":"Feature","geometry":{"type":"Point","coordinates":[4.345749,50.825949]},"properties":{"osm_id":"node/6657500836","category":"metro_station","name":"Horta","operator":"STIB/MIVB"}},{"type":"Feature","geometry":{"type":"Point","coordinates":[4.405313,50.833228]},"properties":{"osm_id":"node/6681534645","category":"metro_station","name":"Boileau","operator":"STIB/MIVB"}},{"type":"Feature","geometry":{"type":"Point","coordinates":[7.007829,51.500751]},"properties":{"osm_id":"node/6755327958","category":"metro_station","name":"Karlsplatz","operator":"Ruhrbahn"}},{"type":"Feature","geometry":{"type":"Point","coordinates":[4.405431,50.843774]},"properties":{"osm_id":"node/6987487814","category":"metro_station","name":"Georges Henri","operator":"STIB/MIVB"}},{"type":"Feature","geometry":{"type":"Point","coordinates":[6.734884,51.237917]},"properties":{"osm_id":"node/7004826217","category":"metro_station","name":"Prinzenallee","operator":"Rheinbahn AG"}},{"type":"Feature","geometry":{"type":"Point","coordinates":[4.901085,52.371353]},"properties":{"osm_id":"node/7106869918","category":"metro_station","name":"Nieuwmarkt","operator":""}},{"type":"Feature","geometry":{"type":"Point","coordinates":[4.903606,52.366626]},"properties":{"osm_id":"node/7106870068","category":"metro_station","name":"Waterlooplein","operator":""}},{"type":"Feature","geometry":{"type":"Point","coordinates":[4.903753,52.36669]},"properties":{"osm_id":"node/7106870071","category":"metro_station","name":"Waterlooplein","operator":""}},{"type":"Feature","geometry":{"type":"Point","coordinates":[4.900938,52.371424]},"properties":{"osm_id":"node/7106870124","category":"metro_station","name":"Nieuwmarkt","operator":""}},{"type":"Feature","geometry":{"type":"Point","coordinates":[4.907918,52.361326]},"properties":{"osm_id":"node/7106910981","category":"metro_station","name":"Weesperplein","operator":""}},{"type":"Feature","geometry":{"type":"Point","coordinates":[4.907847,52.361299]},"properties":{"osm_id":"node/7106911022","category":"metro_station","name":"Weesperplein","operator":""}},{"type":"Feature","geometry":{"type":"Point","coordinates":[7.22287,51.478905]},"properties":{"osm_id":"node/7683094156","category":"metro_station","name":"Bochum Hauptbahnhof","operator":""}},{"type":"Feature","geometry":{"type":"Point","coordinates":[6.761974,51.231588]},"properties":{"osm_id":"node/8233979659","category":"metro_station","name":"Luegplatz","operator":"Rheinbahn"}},{"type":"Feature","geometry":{"type":"Point","coordinates":[4.900906,52.379198]},"properties":{"osm_id":"node/9167352325","category":"metro_station","name":"Centraal Station","operator":"Gemeentelijk Vervoerbedrijf"}},{"type":"Feature","geometry":{"type":"Point","coordinates":[7.023799,51.536176]},"properties":{"osm_id":"node/10359659188","category":"metro_station","name":"Schloß Horst","operator":""}},{"type":"Feature","geometry":{"type":"Point","coordinates":[6.884283,51.161023]},"properties":{"osm_id":"node/10536483809","category":"metro_station","name":"Benrath Betriebshof","operator":""}},{"type":"Feature","geometry":{"type":"Point","coordinates":[6.808909,51.23193]},"properties":{"osm_id":"node/10536600208","category":"metro_station","name":"Lindemannstraße","operator":""}},{"type":"Feature","geometry":{"type":"Point","coordinates":[6.814302,51.23321]},"properties":{"osm_id":"node/10536617809","category":"metro_station","name":"Düsseldorf Engerstraße","operator":""}},{"type":"Feature","geometry":{"type":"Point","coordinates":[6.796341,51.196976]},"properties":{"osm_id":"node/10536617810","category":"metro_station","name":"Universität Nord / Christophstraße","operator":""}},{"type":"Feature","geometry":{"type":"Point","coordinates":[6.821037,51.236868]},"properties":{"osm_id":"node/10536864789","category":"metro_station","name":"Schlüterstraße/Arbeitsagentur","operator":""}},{"type":"Feature","geometry":{"type":"Point","coordinates":[6.877587,51.161541]},"properties":{"osm_id":"node/10537135217","category":"metro_station","name":"Benrath S","operator":""}},{"type":"Feature","geometry":{"type":"Point","coordinates":[6.875021,51.162083]},"properties":{"osm_id":"node/10537135218","category":"metro_station","name":"Urdenbacher Allee","operator":""}},{"type":"Feature","geometry":{"type":"Point","coordinates":[6.868676,51.162383]},"properties":{"osm_id":"node/10537135219","category":"metro_station","name":"Schloss Benrath","operator":""}},{"type":"Feature","geometry":{"type":"Point","coordinates":[6.860208,51.162244]},"properties":{"osm_id":"node/10537135220","category":"metro_station","name":"Kappeler Straße","operator":""}},{"type":"Feature","geometry":{"type":"Point","coordinates":[6.855298,51.162405]},"properties":{"osm_id":"node/10537135221","category":"metro_station","name":"Schöne Aussicht","operator":""}},{"type":"Feature","geometry":{"type":"Point","coordinates":[6.84754,51.16576]},"properties":{"osm_id":"node/10537135222","category":"metro_station","name":"Am Trippelsberg","operator":""}},{"type":"Feature","geometry":{"type":"Point","coordinates":[6.839821,51.170423]},"properties":{"osm_id":"node/10537135223","category":"metro_station","name":"Niederheid","operator":""}},{"type":"Feature","geometry":{"type":"Point","coordinates":[6.79394,51.219709]},"properties":{"osm_id":"node/10537619278","category":"metro_station","name":"Düsseldorf Hauptbahnhof","operator":""}},{"type":"Feature","geometry":{"type":"Point","coordinates":[6.777205,51.431848]},"properties":{"osm_id":"node/10537641503","category":"metro_station","name":"Duisburg Hauptbahnhof U","operator":""}},{"type":"Feature","geometry":{"type":"Point","coordinates":[6.789275,51.200129]},"properties":{"osm_id":"node/10537647408","category":"metro_station","name":"Uni-Kliniken","operator":""}},{"type":"Feature","geometry":{"type":"Point","coordinates":[6.78389,51.202566]},"properties":{"osm_id":"node/10537653247","category":"metro_station","name":"Auf'm Hennekamp","operator":""}},{"type":"Feature","geometry":{"type":"Point","coordinates":[6.801351,51.230537]},"properties":{"osm_id":"node/10537702112","category":"metro_station","name":"Uhlandstraße","operator":""}},{"type":"Feature","geometry":{"type":"Point","coordinates":[6.799851,51.235552]},"properties":{"osm_id":"node/10537702113","category":"metro_station","name":"Schillerplatz","operator":""}},{"type":"Feature","geometry":{"type":"Point","coordinates":[6.80248,51.23844]},"properties":{"osm_id":"node/10537702114","category":"metro_station","name":"Brehmplatz","operator":""}},{"type":"Feature","geometry":{"type":"Point","coordinates":[6.801691,51.243424]},"properties":{"osm_id":"node/10537702115","category":"metro_station","name":"Grunerstraße","operator":""}},{"type":"Feature","geometry":{"type":"Point","coordinates":[6.801868,51.24673]},"properties":{"osm_id":"node/10537702116","category":"metro_station","name":"Düsseldorf Hansaplatz","operator":""}},{"type":"Feature","geometry":{"type":"Point","coordinates":[6.803258,51.254842]},"properties":{"osm_id":"node/10538784133","category":"metro_station","name":"Haeselerstraße","operator":""}},{"type":"Feature","geometry":{"type":"Point","coordinates":[6.806935,51.258575]},"properties":{"osm_id":"node/10538784134","category":"metro_station","name":"Am Schein","operator":""}},{"type":"Feature","geometry":{"type":"Point","coordinates":[6.811295,51.2623]},"properties":{"osm_id":"node/10538784135","category":"metro_station","name":"Rath Mitte S","operator":""}},{"type":"Feature","geometry":{"type":"Point","coordinates":[6.815692,51.262936]},"properties":{"osm_id":"node/10538784136","category":"metro_station","name":"Rotdornstraße","operator":""}},{"type":"Feature","geometry":{"type":"Point","coordinates":[6.818905,51.263387]},"properties":{"osm_id":"node/10538784137","category":"metro_station","name":"Rath S","operator":""}},{"type":"Feature","geometry":{"type":"Point","coordinates":[6.798264,51.229988]},"properties":{"osm_id":"node/10538943858","category":"metro_station","name":"Wehrhahn S","operator":""}},{"type":"Feature","geometry":{"type":"Point","coordinates":[6.766201,51.192712]},"properties":{"osm_id":"node/10538953341","category":"metro_station","name":"Volmerswerther Straße","operator":""}},{"type":"Feature","geometry":{"type":"Point","coordinates":[6.765613,51.190126]},"properties":{"osm_id":"node/10538953342","category":"metro_station","name":"Krahkampweg","operator":""}},{"type":"Feature","geometry":{"type":"Point","coordinates":[6.849813,51.242857]},"properties":{"osm_id":"node/10539120604","category":"metro_station","name":"Heinrich-Könn-Straße","operator":""}},{"type":"Feature","geometry":{"type":"Point","coordinates":[6.853505,51.245311]},"properties":{"osm_id":"node/10539120605","category":"metro_station","name":"Gerresheim Krankenhaus","operator":""}},{"type":"Feature","geometry":{"type":"Point","coordinates":[6.82681,51.241447]},"properties":{"osm_id":"node/10539120606","category":"metro_station","name":"Staufenplatz","operator":""}},{"type":"Feature","geometry":{"type":"Point","coordinates":[6.780274,51.204759]},"properties":{"osm_id":"node/10539120607","category":"metro_station","name":"Karolingerplatz","operator":""}},{"type":"Feature","geometry":{"type":"Point","coordinates":[6.800041,51.250167]},"properties":{"osm_id":"node/10539904601","category":"metro_station","name":"Heinrichstraße","operator":""}},{"type":"Feature","geometry":{"type":"Point","coordinates":[6.834471,51.240025]},"properties":{"osm_id":"node/10539930353","category":"metro_station","name":"Pöhlenweg","operator":""}},{"type":"Feature","geometry":{"type":"Point","coordinates":[6.698179,51.220309]},"properties":{"osm_id":"node/10539947848","category":"metro_station","name":"Am Kaiser","operator":""}},{"type":"Feature","geometry":{"type":"Point","coordinates":[6.693269,51.214347]},"properties":{"osm_id":"node/10539947849","category":"metro_station","name":"Blücherstraße","operator":""}},{"type":"Feature","geometry":{"type":"Point","coordinates":[6.762927,51.188491]},"properties":{"osm_id":"node/10539951341","category":"metro_station","name":"Hellriegelstraße","operator":""}},{"type":"Feature","geometry":{"type":"Point","coordinates":[6.769243,51.196295]},"properties":{"osm_id":"node/10539952695","category":"metro_station","name":"Aachener Platz","operator":""}},{"type":"Feature","geometry":{"type":"Point","coordinates":[6.770589,51.200074]},"properties":{"osm_id":"node/10539952696","category":"metro_station","name":"Südring","operator":""}},{"type":"Feature","geometry":{"type":"Point","coordinates":[6.773042,51.204368]},"properties":{"osm_id":"node/10539952697","category":"metro_station","name":"Suitbertusstraße","operator":""}},{"type":"Feature","geometry":{"type":"Point","coordinates":[6.83042,51.208066]},"properties":{"osm_id":"node/10741688468","category":"metro_station","name":"Schlesische Straße","operator":""}},{"type":"Feature","geometry":{"type":"Point","coordinates":[6.948342,51.438152]},"properties":{"osm_id":"node/11046543860","category":"metro_station","name":"Rosendeller Straße","operator":""}},{"type":"Feature","geometry":{"type":"Point","coordinates":[4.406328,51.218216]},"properties":{"osm_id":"node/12095459373","category":"metro_station","name":"Meir","operator":"De Lijn"}},{"type":"Feature","geometry":{"type":"Point","coordinates":[4.386761,51.220825]},"properties":{"osm_id":"node/12095462790","category":"metro_station","name":"Van Eeden","operator":"De Lijn"}},{"type":"Feature","geometry":{"type":"Point","coordinates":[4.420543,51.216672]},"properties":{"osm_id":"node/12095463891","category":"metro_station","name":"Diamant","operator":"De Lijn"}},{"type":"Feature","geometry":{"type":"Point","coordinates":[4.438874,51.227245]},"properties":{"osm_id":"node/12095471705","category":"metro_station","name":"Schijnpoort","operator":"De Lijn"}},{"type":"Feature","geometry":{"type":"Point","coordinates":[4.431952,51.224207]},"properties":{"osm_id":"node/12095471707","category":"metro_station","name":"Handel","operator":"De Lijn"}},{"type":"Feature","geometry":{"type":"Point","coordinates":[4.424069,51.222804]},"properties":{"osm_id":"node/12095471708","category":"metro_station","name":"Elisabeth","operator":"De Lijn"}},{"type":"Feature","geometry":{"type":"Point","coordinates":[4.401639,51.218614]},"properties":{"osm_id":"node/12095480888","category":"metro_station","name":"Groenplaats","operator":"De Lijn"}},{"type":"Feature","geometry":{"type":"Point","coordinates":[4.442718,51.230158]},"properties":{"osm_id":"node/12095481515","category":"metro_station","name":"Sport","operator":"De Lijn"}},{"type":"Feature","geometry":{"type":"Point","coordinates":[4.415492,51.21793]},"properties":{"osm_id":"node/12095487068","category":"metro_station","name":"Opera","operator":"De Lijn"}},{"type":"Feature","geometry":{"type":"Point","coordinates":[4.42199,51.210602]},"properties":{"osm_id":"node/12095489348","category":"metro_station","name":"Plantin","operator":"De Lijn"}},{"type":"Feature","geometry":{"type":"Point","coordinates":[6.767589,51.276503]},"properties":{"osm_id":"node/13840442350","category":"metro_station","name":"Flughafen Terminal","operator":"Rheinbahn"}},{"type":"Feature","geometry":{"type":"Point","coordinates":[4.494591,51.897175]},"properties":{"osm_id":"way/54089319","category":"metro_station","name":"","operator":""}},{"type":"Feature","geometry":{"type":"Point","coordinates":[6.886975,51.430416]},"properties":{"osm_id":"way/227658478","category":"metro_station","name":"Mülheim Hbf","operator":""}},{"type":"Feature","geometry":{"type":"Point","coordinates":[4.466363,51.912421]},"properties":{"osm_id":"way/255337437","category":"metro_station","name":"Dijkzigt","operator":""}},{"type":"Feature","geometry":{"type":"Point","coordinates":[4.473215,51.916218]},"properties":{"osm_id":"way/255337438","category":"metro_station","name":"Eendrachtsplein","operator":""}},{"type":"Feature","geometry":{"type":"Point","coordinates":[4.89258,52.370597]},"properties":{"osm_id":"way/266903916","category":"metro_station","name":"Rokin","operator":"Gemeentelijk Vervoerbedrijf"}},{"type":"Feature","geometry":{"type":"Point","coordinates":[4.902464,52.36739]},"properties":{"osm_id":"way/268782305","category":"metro_station","name":"Waterlooplein","operator":"Gemeentelijk Vervoerbedrijf"}},{"type":"Feature","geometry":{"type":"Point","coordinates":[4.907974,52.361185]},"properties":{"osm_id":"way/268998785","category":"metro_station","name":"Weesperplein","operator":"Gemeentelijk Vervoerbedrijf"}},{"type":"Feature","geometry":{"type":"Point","coordinates":[4.384648,51.915579]},"properties":{"osm_id":"way/274065838","category":"metro_station","name":"Troelstralaan","operator":""}},{"type":"Feature","geometry":{"type":"Point","coordinates":[4.393825,51.921219]},"properties":{"osm_id":"way/274157538","category":"metro_station","name":"Parkweg","operator":""}},{"type":"Feature","geometry":{"type":"Point","coordinates":[4.44643,51.910028]},"properties":{"osm_id":"way/275004827","category":"metro_station","name":"Delfshaven","operator":""}},{"type":"Feature","geometry":{"type":"Point","coordinates":[4.433592,51.913024]},"properties":{"osm_id":"way/275004894","category":"metro_station","name":"Marconiplein","operator":""}},{"type":"Feature","geometry":{"type":"Point","coordinates":[4.458303,51.909486]},"properties":{"osm_id":"way/275221307","category":"metro_station","name":"Coolhaven","operator":""}},{"type":"Feature","geometry":{"type":"Point","coordinates":[4.496955,51.923091]},"properties":{"osm_id":"way/275889469","category":"metro_station","name":"Oostplein","operator":""}},{"type":"Feature","geometry":{"type":"Point","coordinates":[4.505214,51.92595]},"properties":{"osm_id":"way/275889471","category":"metro_station","name":"Gerdesiaweg","operator":""}},{"type":"Feature","geometry":{"type":"Point","coordinates":[4.912736,52.353368]},"properties":{"osm_id":"way/278085618","category":"metro_station","name":"","operator":""}},{"type":"Feature","geometry":{"type":"Point","coordinates":[4.911593,52.355222]},"properties":{"osm_id":"way/278085626","category":"metro_station","name":"","operator":""}},{"type":"Feature","geometry":{"type":"Point","coordinates":[6.775542,51.218268]},"properties":{"osm_id":"way/378042618","category":"metro_station","name":"Graf-Adolf-Platz U","operator":""}},{"type":"Feature","geometry":{"type":"Point","coordinates":[6.783504,51.226635]},"properties":{"osm_id":"way/378042620","category":"metro_station","name":"Schadowstraße","operator":""}},{"type":"Feature","geometry":{"type":"Point","coordinates":[4.496744,51.903363]},"properties":{"osm_id":"way/456466624","category":"metro_station","name":"","operator":""}},{"type":"Feature","geometry":{"type":"Point","coordinates":[6.579783,51.326545]},"properties":{"osm_id":"relation/12743355","category":"metro_station","name":"Dießem","operator":"Rheinbahn AG"}}]}