{"type":"FeatureCollection","metadata":{"gemeente":"Aalten","slug":"aalten","by_category":{"bus_halte":52,"sportveld":9,"supermarkt":7,"fietsenstalling":6,"transformatorhuisje":5,"bibliotheek":3,"p_and_r":3,"gemeentehuis":2,"ns_station":1,"ov_knooppunt":1},"total":89},"features":[{"type":"Feature","geometry":{"type":"Point","coordinates":[6.578711,51.921339]},"properties":{"category":"ns_station","name":"Aalten","operator":""}},{"type":"Feature","geometry":{"type":"Point","coordinates":[6.4819,51.869194]},"properties":{"category":"bus_halte","name":"Weg naar De Heurne","operator":""}},{"type":"Feature","geometry":{"type":"Point","coordinates":[6.4876,51.864076]},"properties":{"category":"bus_halte","name":"Willem van Oranjeplein","operator":""}},{"type":"Feature","geometry":{"type":"Point","coordinates":[6.485135,51.866334]},"properties":{"category":"bus_halte","name":"Groene Kruis","operator":""}},{"type":"Feature","geometry":{"type":"Point","coordinates":[6.487351,51.864066]},"properties":{"category":"bus_halte","name":"Willem van Oranjeplein","operator":""}},{"type":"Feature","geometry":{"type":"Point","coordinates":[6.480943,51.870445]},"properties":{"category":"bus_halte","name":"Weg naar De Heurne","operator":""}},{"type":"Feature","geometry":{"type":"Point","coordinates":[6.485363,51.865964]},"properties":{"category":"bus_halte","name":"Groene Kruis","operator":""}},{"type":"Feature","geometry":{"type":"Point","coordinates":[6.496353,51.86102]},"properties":{"category":"bus_halte","name":"Grens","operator":""}},{"type":"Feature","geometry":{"type":"Point","coordinates":[6.588617,51.930268]},"properties":{"category":"bus_halte","name":"Zonneheuvel","operator":""}},{"type":"Feature","geometry":{"type":"Point","coordinates":[6.588185,51.930284]},"properties":{"category":"bus_halte","name":"Zonneheuvel","operator":""}},{"type":"Feature","geometry":{"type":"Point","coordinates":[6.493916,51.893586]},"properties":{"category":"bus_halte","name":"Bruggink","operator":""}},{"type":"Feature","geometry":{"type":"Point","coordinates":[6.493791,51.89361]},"properties":{"category":"bus_halte","name":"Bruggink","operator":""}},{"type":"Feature","geometry":{"type":"Point","coordinates":[6.585229,51.928313]},"properties":{"category":"bus_halte","name":"Centrum","operator":""}},{"type":"Feature","geometry":{"type":"Point","coordinates":[6.585356,51.928249]},"properties":{"category":"bus_halte","name":"Centrum","operator":""}},{"type":"Feature","geometry":{"type":"Point","coordinates":[6.58623,51.925357]},"properties":{"category":"bus_halte","name":"De Pol","operator":""}},{"type":"Feature","geometry":{"type":"Point","coordinates":[6.586334,51.925386]},"properties":{"category":"bus_halte","name":"De Pol","operator":""}},{"type":"Feature","geometry":{"type":"Point","coordinates":[6.573702,51.923161]},"properties":{"category":"bus_halte","name":"Admiraal de Ruyterstraat","operator":""}},{"type":"Feature","geometry":{"type":"Point","coordinates":[6.573937,51.923241]},"properties":{"category":"bus_halte","name":"Admiraal de Ruyterstraat","operator":""}},{"type":"Feature","geometry":{"type":"Point","coordinates":[6.524273,51.909676]},"properties":{"category":"bus_halte","name":"Sluiskes","operator":""}},{"type":"Feature","geometry":{"type":"Point","coordinates":[6.52425,51.909752]},"properties":{"category":"bus_halte","name":"Sluiskes","operator":""}},{"type":"Feature","geometry":{"type":"Point","coordinates":[6.490698,51.889333]},"properties":{"category":"bus_halte","name":"Kerk","operator":""}},{"type":"Feature","geometry":{"type":"Point","coordinates":[6.490831,51.889307]},"properties":{"category":"bus_halte","name":"Kerk","operator":""}},{"type":"Feature","geometry":{"type":"Point","coordinates":[6.584844,51.922372]},"properties":{"category":"bus_halte","name":"Ludgerstraat","operator":""}},{"type":"Feature","geometry":{"type":"Point","coordinates":[6.58494,51.922489]},"properties":{"category":"bus_halte","name":"Ludgerstraat","operator":""}},{"type":"Feature","geometry":{"type":"Point","coordinates":[6.602293,51.935721]},"properties":{"category":"bus_halte","name":"'t Walfort","operator":""}},{"type":"Feature","geometry":{"type":"Point","coordinates":[6.603069,51.935965]},"properties":{"category":"bus_halte","name":"'t Walfort","operator":""}},{"type":"Feature","geometry":{"type":"Point","coordinates":[6.595936,51.962348]},"properties":{"category":"bus_halte","name":"Domme Aanleg","operator":""}},{"type":"Feature","geometry":{"type":"Point","coordinates":[6.595934,51.962696]},"properties":{"category":"bus_halte","name":"Domme Aanleg","operator":""}},{"type":"Feature","geometry":{"type":"Point","coordinates":[6.614429,51.94328]},"properties":{"category":"bus_halte","name":"Tramstraat","operator":""}},{"type":"Feature","geometry":{"type":"Point","coordinates":[6.614557,51.943324]},"properties":{"category":"bus_halte","name":"Tramstraat","operator":""}},{"type":"Feature","geometry":{"type":"Point","coordinates":[6.482022,51.870174]},"properties":{"category":"bus_halte","name":"Weg naar De Heurne","operator":""}},{"type":"Feature","geometry":{"type":"Point","coordinates":[6.580839,51.923598]},"properties":{"category":"bus_halte","name":"Dijkstraat","operator":""}},{"type":"Feature","geometry":{"type":"Point","coordinates":[6.47375,51.855643]},"properties":{"category":"bus_halte","name":"Suderwick, Brückendeich","operator":"StadtBusBocholt AST"}},{"type":"Feature","geometry":{"type":"Point","coordinates":[6.491863,51.864188]},"properties":{"category":"bus_halte","name":"Rooms-Katholieke-Kerk","operator":""}},{"type":"Feature","geometry":{"type":"Point","coordinates":[6.491889,51.864283]},"properties":{"category":"bus_halte","name":"Rooms-Katholieke-Kerk","operator":""}},{"type":"Feature","geometry":{"type":"Point","coordinates":[6.493366,51.860505]},"properties":{"category":"bus_halte","name":"Allee","operator":""}},{"type":"Feature","geometry":{"type":"Point","coordinates":[6.493443,51.860608]},"properties":{"category":"bus_halte","name":"Allee","operator":""}},{"type":"Feature","geometry":{"type":"Point","coordinates":[6.579523,51.921637]},"properties":{"category":"bus_halte","name":"Station","operator":""}},{"type":"Feature","geometry":{"type":"Point","coordinates":[6.490665,51.859887]},"properties":{"category":"bus_halte","name":"Bejaardencentrum","operator":""}},{"type":"Feature","geometry":{"type":"Point","coordinates":[6.488238,51.8618]},"properties":{"category":"bus_halte","name":"Kerk","operator":""}},{"type":"Feature","geometry":{"type":"Point","coordinates":[6.540607,51.889538]},"properties":{"category":"bus_halte","name":"Dorpshuus","operator":""}},{"type":"Feature","geometry":{"type":"Point","coordinates":[6.569667,51.910255]},"properties":{"category":"bus_halte","name":"Bedrijventerrein Aalten","operator":""}},{"type":"Feature","geometry":{"type":"Point","coordinates":[6.51435,51.925578]},"properties":{"category":"bus_halte","name":"Schooldijk","operator":""}},{"type":"Feature","geometry":{"type":"Point","coordinates":[6.645967,51.928339]},"properties":{"category":"bus_halte","name":"Haart","operator":""}},{"type":"Feature","geometry":{"type":"Point","coordinates":[6.592679,51.955659]},"properties":{"category":"bus_halte","name":"Barlo","operator":""}},{"type":"Feature","geometry":{"type":"Point","coordinates":[6.592528,51.955644]},"properties":{"category":"bus_halte","name":"Barlo","operator":""}},{"type":"Feature","geometry":{"type":"Point","coordinates":[6.542369,51.888267]},"properties":{"category":"bus_halte","name":"IJzerlo","operator":""}},{"type":"Feature","geometry":{"type":"Point","coordinates":[6.542278,51.888227]},"properties":{"category":"bus_halte","name":"IJzerlo","operator":""}},{"type":"Feature","geometry":{"type":"Point","coordinates":[6.514358,51.924327]},"properties":{"category":"bus_halte","name":"Halteweg","operator":""}},{"type":"Feature","geometry":{"type":"Point","coordinates":[6.51422,51.924358]},"properties":{"category":"bus_halte","name":"Halteweg","operator":""}},{"type":"Feature","geometry":{"type":"Point","coordinates":[6.616058,51.921454]},"properties":{"category":"bus_halte","name":"Schepersveld","operator":""}},{"type":"Feature","geometry":{"type":"Point","coordinates":[6.616119,51.921499]},"properties":{"category":"bus_halte","name":"Schepersveld","operator":""}},{"type":"Feature","geometry":{"type":"Point","coordinates":[6.645847,51.928387]},"properties":{"category":"bus_halte","name":"Haart","operator":""}},{"type":"Feature","geometry":{"type":"Point","coordinates":[6.578711,51.921339]},"properties":{"category":"ov_knooppunt","name":"Aalten","operator":""}},{"type":"Feature","geometry":{"type":"Point","coordinates":[6.582626,51.926098]},"properties":{"category":"gemeentehuis","name":"Gemeentekantoor Aalten","operator":"Gemeente Aalten"}},{"type":"Feature","geometry":{"type":"Point","coordinates":[6.581241,51.927284]},"properties":{"category":"gemeentehuis","name":"Gemeente Aalten","operator":"Gemeente Aalten"}},{"type":"Feature","geometry":{"type":"Point","coordinates":[6.483771,51.863716]},"properties":{"category":"bibliotheek","name":"Bibliotheek Dinxperlo","operator":"Bibliotheek Achterhoekse Poort"}},{"type":"Feature","geometry":{"type":"Point","coordinates":[6.581452,51.925581]},"properties":{"category":"bibliotheek","name":"Bibliotheek Aalten","operator":"Bibliotheek Achterhoekse Poort"}},{"type":"Feature","geometry":{"type":"Point","coordinates":[6.514092,51.925288]},"properties":{"category":"bibliotheek","name":"Christelijke Bibliotheek Lintelo","operator":""}},{"type":"Feature","geometry":{"type":"Point","coordinates":[6.577414,51.946785]},"properties":{"category":"transformatorhuisje","name":"","operator":""}},{"type":"Feature","geometry":{"type":"Point","coordinates":[6.577164,51.947043]},"properties":{"category":"transformatorhuisje","name":"","operator":""}},{"type":"Feature","geometry":{"type":"Point","coordinates":[6.480682,51.871002]},"properties":{"category":"transformatorhuisje","name":"","operator":""}},{"type":"Feature","geometry":{"type":"Point","coordinates":[6.57506,51.927025]},"properties":{"category":"transformatorhuisje","name":"","operator":""}},{"type":"Feature","geometry":{"type":"Point","coordinates":[6.58097,51.924073]},"properties":{"category":"transformatorhuisje","name":"","operator":""}},{"type":"Feature","geometry":{"type":"Point","coordinates":[6.591601,51.922171]},"properties":{"category":"sportveld","name":"Aladnahal","operator":""}},{"type":"Feature","geometry":{"type":"Point","coordinates":[6.592202,51.930787]},"properties":{"category":"sportveld","name":"Sportstudio Sportesse","operator":""}},{"type":"Feature","geometry":{"type":"Point","coordinates":[6.499311,51.863731]},"properties":{"category":"sportveld","name":"Sporthal De Eurohal","operator":""}},{"type":"Feature","geometry":{"type":"Point","coordinates":[6.59873,51.933661]},"properties":{"category":"sportveld","name":"Atletiek Vereniging Aalten '70","operator":""}},{"type":"Feature","geometry":{"type":"Point","coordinates":[6.499373,51.862447]},"properties":{"category":"sportveld","name":"Fitnesscentrum Ponsen","operator":""}},{"type":"Feature","geometry":{"type":"Point","coordinates":[6.597885,51.924864]},"properties":{"category":"sportveld","name":"Altec Tennispark 't Geurken","operator":""}},{"type":"Feature","geometry":{"type":"Point","coordinates":[6.598445,51.92769]},"properties":{"category":"sportveld","name":"Sportpark Villekamp","operator":""}},{"type":"Feature","geometry":{"type":"Point","coordinates":[6.586286,51.911777]},"properties":{"category":"sportveld","name":"Sportpark Zuid","operator":""}},{"type":"Feature","geometry":{"type":"Point","coordinates":[6.622305,51.944932]},"properties":{"category":"sportveld","name":"Sportpark 't Broock","operator":""}},{"type":"Feature","geometry":{"type":"Point","coordinates":[6.57919,51.927225]},"properties":{"category":"supermarkt","name":"Albert Heijn","operator":""}},{"type":"Feature","geometry":{"type":"Point","coordinates":[6.495249,51.860851]},"properties":{"category":"supermarkt","name":"Jumbo Leussink","operator":""}},{"type":"Feature","geometry":{"type":"Point","coordinates":[6.576016,51.924057]},"properties":{"category":"supermarkt","name":"Jumbo Leussink","operator":""}},{"type":"Feature","geometry":{"type":"Point","coordinates":[6.575934,51.924207]},"properties":{"category":"supermarkt","name":"ALDI","operator":""}},{"type":"Feature","geometry":{"type":"Point","coordinates":[6.54294,51.888413]},"properties":{"category":"supermarkt","name":"Troefmarkt Brunsveld","operator":""}},{"type":"Feature","geometry":{"type":"Point","coordinates":[6.624406,51.941399]},"properties":{"category":"supermarkt","name":"SPAR Wubbels","operator":""}},{"type":"Feature","geometry":{"type":"Point","coordinates":[6.468717,51.859432]},"properties":{"category":"supermarkt","name":"ALDI","operator":""}},{"type":"Feature","geometry":{"type":"Point","coordinates":[6.579388,51.921518]},"properties":{"category":"fietsenstalling","name":"","operator":""}},{"type":"Feature","geometry":{"type":"Point","coordinates":[6.579389,51.921466]},"properties":{"category":"fietsenstalling","name":"","operator":""}},{"type":"Feature","geometry":{"type":"Point","coordinates":[6.579391,51.921417]},"properties":{"category":"fietsenstalling","name":"","operator":""}},{"type":"Feature","geometry":{"type":"Point","coordinates":[6.579392,51.921375]},"properties":{"category":"fietsenstalling","name":"","operator":""}},{"type":"Feature","geometry":{"type":"Point","coordinates":[6.585007,51.924867]},"properties":{"category":"fietsenstalling","name":"","operator":""}},{"type":"Feature","geometry":{"type":"Point","coordinates":[6.577234,51.92756]},"properties":{"category":"fietsenstalling","name":"","operator":""}},{"type":"Feature","geometry":{"type":"Point","coordinates":[6.57426,51.923125]},"properties":{"category":"p_and_r","name":"","operator":""}},{"type":"Feature","geometry":{"type":"Point","coordinates":[6.571423,51.923698]},"properties":{"category":"p_and_r","name":"","operator":""}},{"type":"Feature","geometry":{"type":"Point","coordinates":[6.576842,51.921437]},"properties":{"category":"p_and_r","name":"","operator":""}}]}