{"type":"FeatureCollection","metadata":{"gemeente":"Alkmaar","slug":"alkmaar","by_category":{"bus_halte":266,"sportveld":22,"parkeergarage":18,"fietsenstalling":15,"ov_knooppunt":8,"inzamelpunt":6,"bibliotheek":6,"ziekenhuis":6,"transformatorhuisje":5,"middelbare_school":4,"gemeentehuis":3,"p_and_r":3,"ns_station":2,"universiteit":2,"hogeschool":1,"winkelcentrum":1},"total":368},"features":[{"type":"Feature","geometry":{"type":"Point","coordinates":[4.740698,52.638129]},"properties":{"category":"ns_station","name":"Alkmaar","operator":"ProRail"}},{"type":"Feature","geometry":{"type":"Point","coordinates":[4.763956,52.643765]},"properties":{"category":"ns_station","name":"Alkmaar Noord","operator":""}},{"type":"Feature","geometry":{"type":"Point","coordinates":[4.843139,52.559654]},"properties":{"category":"bus_halte","name":"Wollandje","operator":""}},{"type":"Feature","geometry":{"type":"Point","coordinates":[4.844382,52.554693]},"properties":{"category":"bus_halte","name":"Julianalaan","operator":""}},{"type":"Feature","geometry":{"type":"Point","coordinates":[4.844439,52.554457]},"properties":{"category":"bus_halte","name":"Julianalaan","operator":""}},{"type":"Feature","geometry":{"type":"Point","coordinates":[4.843358,52.559808]},"properties":{"category":"bus_halte","name":"Wollandje","operator":""}},{"type":"Feature","geometry":{"type":"Point","coordinates":[4.77661,52.646498]},"properties":{"category":"bus_halte","name":"Deltastraat","operator":""}},{"type":"Feature","geometry":{"type":"Point","coordinates":[4.742838,52.632677]},"properties":{"category":"bus_halte","name":"Kerkplein","operator":""}},{"type":"Feature","geometry":{"type":"Point","coordinates":[4.868759,52.601573]},"properties":{"category":"bus_halte","name":"Hondenweg","operator":""}},{"type":"Feature","geometry":{"type":"Point","coordinates":[4.76995,52.632866]},"properties":{"category":"bus_halte","name":"Dommelstraat","operator":""}},{"type":"Feature","geometry":{"type":"Point","coordinates":[4.758829,52.668795]},"properties":{"category":"bus_halte","name":"Pommerenstraat","operator":""}},{"type":"Feature","geometry":{"type":"Point","coordinates":[4.776699,52.646592]},"properties":{"category":"bus_halte","name":"Deltastraat","operator":""}},{"type":"Feature","geometry":{"type":"Point","coordinates":[4.8573,52.604123]},"properties":{"category":"bus_halte","name":"IJzeren Brug","operator":""}},{"type":"Feature","geometry":{"type":"Point","coordinates":[4.770075,52.63293]},"properties":{"category":"bus_halte","name":"Dommelstraat","operator":""}},{"type":"Feature","geometry":{"type":"Point","coordinates":[4.777337,52.642736]},"properties":{"category":"bus_halte","name":"Herenweg/Beverkoog","operator":""}},{"type":"Feature","geometry":{"type":"Point","coordinates":[4.743535,52.660416]},"properties":{"category":"bus_halte","name":"Koedijkervlotbrug","operator":""}},{"type":"Feature","geometry":{"type":"Point","coordinates":[4.859386,52.603543]},"properties":{"category":"bus_halte","name":"IJzeren Brug","operator":""}},{"type":"Feature","geometry":{"type":"Point","coordinates":[4.766394,52.633674]},"properties":{"category":"bus_halte","name":"Oudorperplein","operator":""}},{"type":"Feature","geometry":{"type":"Point","coordinates":[4.773883,52.625473]},"properties":{"category":"bus_halte","name":"Saturnusstraat P+R","operator":""}},{"type":"Feature","geometry":{"type":"Point","coordinates":[4.75324,52.671095]},"properties":{"category":"bus_halte","name":"Zonneweid","operator":""}},{"type":"Feature","geometry":{"type":"Point","coordinates":[4.777123,52.642694]},"properties":{"category":"bus_halte","name":"Herenweg/Beverkoog","operator":""}},{"type":"Feature","geometry":{"type":"Point","coordinates":[4.730986,52.63867]},"properties":{"category":"bus_halte","name":"Bergerweg","operator":""}},{"type":"Feature","geometry":{"type":"Point","coordinates":[4.765542,52.63386]},"properties":{"category":"bus_halte","name":"Oudorperplein","operator":""}},{"type":"Feature","geometry":{"type":"Point","coordinates":[4.748259,52.633806]},"properties":{"category":"bus_halte","name":"Kanaalkade","operator":""}},{"type":"Feature","geometry":{"type":"Point","coordinates":[4.773683,52.625492]},"properties":{"category":"bus_halte","name":"Saturnusstraat P+R","operator":""}},{"type":"Feature","geometry":{"type":"Point","coordinates":[4.749159,52.675895]},"properties":{"category":"bus_halte","name":"Burgemeester W. Kooimanstraat","operator":""}},{"type":"Feature","geometry":{"type":"Point","coordinates":[4.730869,52.638571]},"properties":{"category":"bus_halte","name":"Bergerweg","operator":""}},{"type":"Feature","geometry":{"type":"Point","coordinates":[4.763462,52.631071]},"properties":{"category":"bus_halte","name":"Biesboschstraat","operator":""}},{"type":"Feature","geometry":{"type":"Point","coordinates":[4.750783,52.633021]},"properties":{"category":"bus_halte","name":"Kanaalkade","operator":""}},{"type":"Feature","geometry":{"type":"Point","coordinates":[4.772474,52.627157]},"properties":{"category":"bus_halte","name":"Nieuwe Schermerweg","operator":""}},{"type":"Feature","geometry":{"type":"Point","coordinates":[4.79838,52.61639]},"properties":{"category":"bus_halte","name":"Drie Koningshoofden","operator":""}},{"type":"Feature","geometry":{"type":"Point","coordinates":[4.763083,52.631094]},"properties":{"category":"bus_halte","name":"Biesboschstraat","operator":""}},{"type":"Feature","geometry":{"type":"Point","coordinates":[4.763569,52.629705]},"properties":{"category":"bus_halte","name":"Rijnstraat","operator":""}},{"type":"Feature","geometry":{"type":"Point","coordinates":[4.890206,52.598356]},"properties":{"category":"bus_halte","name":"'t Zuidje","operator":""}},{"type":"Feature","geometry":{"type":"Point","coordinates":[4.79813,52.616287]},"properties":{"category":"bus_halte","name":"Drie Koningshoofden","operator":""}},{"type":"Feature","geometry":{"type":"Point","coordinates":[4.778297,52.632253]},"properties":{"category":"bus_halte","name":"'t Wuiver","operator":""}},{"type":"Feature","geometry":{"type":"Point","coordinates":[4.742517,52.649388]},"properties":{"category":"bus_halte","name":"Voltastraat","operator":""}},{"type":"Feature","geometry":{"type":"Point","coordinates":[4.761441,52.630317]},"properties":{"category":"bus_halte","name":"Rijnstraat","operator":""}},{"type":"Feature","geometry":{"type":"Point","coordinates":[4.890484,52.59848]},"properties":{"category":"bus_halte","name":"'t Zuidje","operator":""}},{"type":"Feature","geometry":{"type":"Point","coordinates":[4.777662,52.63136]},"properties":{"category":"bus_halte","name":"Venusstraat","operator":""}},{"type":"Feature","geometry":{"type":"Point","coordinates":[4.782584,52.620705]},"properties":{"category":"bus_halte","name":"Omval","operator":""}},{"type":"Feature","geometry":{"type":"Point","coordinates":[4.744106,52.660787]},"properties":{"category":"bus_halte","name":"Koedijkervlotbrug","operator":""}},{"type":"Feature","geometry":{"type":"Point","coordinates":[4.778109,52.633452]},"properties":{"category":"bus_halte","name":"Wilgenlaan","operator":""}},{"type":"Feature","geometry":{"type":"Point","coordinates":[4.793651,52.556756]},"properties":{"category":"bus_halte","name":"Viadukt","operator":""}},{"type":"Feature","geometry":{"type":"Point","coordinates":[4.743138,52.631681]},"properties":{"category":"bus_halte","name":"Heul","operator":""}},{"type":"Feature","geometry":{"type":"Point","coordinates":[4.758042,52.630835]},"properties":{"category":"bus_halte","name":"Ouddorperdijkje","operator":""}},{"type":"Feature","geometry":{"type":"Point","coordinates":[4.875341,52.600374]},"properties":{"category":"bus_halte","name":"Schermerdijk","operator":""}},{"type":"Feature","geometry":{"type":"Point","coordinates":[4.777321,52.629651]},"properties":{"category":"bus_halte","name":"Venusstraat","operator":""}},{"type":"Feature","geometry":{"type":"Point","coordinates":[4.755147,52.669342]},"properties":{"category":"bus_halte","name":"Saskerstraat","operator":""}},{"type":"Feature","geometry":{"type":"Point","coordinates":[4.783205,52.619504]},"properties":{"category":"bus_halte","name":"Omval","operator":""}},{"type":"Feature","geometry":{"type":"Point","coordinates":[4.793279,52.556952]},"properties":{"category":"bus_halte","name":"Viadukt","operator":""}},{"type":"Feature","geometry":{"type":"Point","coordinates":[4.742968,52.632693]},"properties":{"category":"bus_halte","name":"Kerkplein","operator":""}},{"type":"Feature","geometry":{"type":"Point","coordinates":[4.757777,52.631063]},"properties":{"category":"bus_halte","name":"Ouddorperdijkje","operator":""}},{"type":"Feature","geometry":{"type":"Point","coordinates":[4.87729,52.599844]},"properties":{"category":"bus_halte","name":"Schermerdijk","operator":""}},{"type":"Feature","geometry":{"type":"Point","coordinates":[4.773595,52.629815]},"properties":{"category":"bus_halte","name":"Jupiterstraat","operator":""}},{"type":"Feature","geometry":{"type":"Point","coordinates":[4.755072,52.669282]},"properties":{"category":"bus_halte","name":"Saskerstraat","operator":""}},{"type":"Feature","geometry":{"type":"Point","coordinates":[4.723872,52.646895]},"properties":{"category":"bus_halte","name":"Groeneweg","operator":""}},{"type":"Feature","geometry":{"type":"Point","coordinates":[4.742527,52.62961]},"properties":{"category":"bus_halte","name":"Ritsevoort","operator":""}},{"type":"Feature","geometry":{"type":"Point","coordinates":[4.81889,52.612094]},"properties":{"category":"bus_halte","name":"Stompetoren","operator":""}},{"type":"Feature","geometry":{"type":"Point","coordinates":[4.778566,52.634561]},"properties":{"category":"bus_halte","name":"Wilgenlaan","operator":""}},{"type":"Feature","geometry":{"type":"Point","coordinates":[4.869925,52.601476]},"properties":{"category":"bus_halte","name":"Hondenweg","operator":""}},{"type":"Feature","geometry":{"type":"Point","coordinates":[4.773228,52.629944]},"properties":{"category":"bus_halte","name":"Jupiterstraat","operator":""}},{"type":"Feature","geometry":{"type":"Point","coordinates":[4.758822,52.668827]},"properties":{"category":"bus_halte","name":"Pommerenstraat","operator":""}},{"type":"Feature","geometry":{"type":"Point","coordinates":[4.723461,52.647659]},"properties":{"category":"bus_halte","name":"Groeneweg","operator":""}},{"type":"Feature","geometry":{"type":"Point","coordinates":[4.742445,52.629563]},"properties":{"category":"bus_halte","name":"Ritsevoort","operator":""}},{"type":"Feature","geometry":{"type":"Point","coordinates":[4.820932,52.611553]},"properties":{"category":"bus_halte","name":"Stompetoren","operator":""}},{"type":"Feature","geometry":{"type":"Point","coordinates":[4.742719,52.649501]},"properties":{"category":"bus_halte","name":"Voltastraat","operator":""}},{"type":"Feature","geometry":{"type":"Point","coordinates":[4.759806,52.598436]},"properties":{"category":"bus_halte","name":"Handelsraad","operator":""}},{"type":"Feature","geometry":{"type":"Point","coordinates":[4.757465,52.610157]},"properties":{"category":"bus_halte","name":"Topaasweg","operator":""}},{"type":"Feature","geometry":{"type":"Point","coordinates":[4.760099,52.598573]},"properties":{"category":"bus_halte","name":"Handelsraad","operator":""}},{"type":"Feature","geometry":{"type":"Point","coordinates":[4.757551,52.609943]},"properties":{"category":"bus_halte","name":"Topaasweg","operator":""}},{"type":"Feature","geometry":{"type":"Point","coordinates":[4.743712,52.6342]},"properties":{"category":"bus_halte","name":"Molenbuurt","operator":""}},{"type":"Feature","geometry":{"type":"Point","coordinates":[4.719142,52.627985]},"properties":{"category":"bus_halte","name":"Cornelis Pronklaan","operator":""}},{"type":"Feature","geometry":{"type":"Point","coordinates":[4.727265,52.638488]},"properties":{"category":"bus_halte","name":"Oude Hoeverweg","operator":""}},{"type":"Feature","geometry":{"type":"Point","coordinates":[4.718981,52.628091]},"properties":{"category":"bus_halte","name":"Cornelis Pronklaan","operator":""}},{"type":"Feature","geometry":{"type":"Point","coordinates":[4.762962,52.633795]},"properties":{"category":"bus_halte","name":"Lingestraat","operator":""}},{"type":"Feature","geometry":{"type":"Point","coordinates":[4.762741,52.633744]},"properties":{"category":"bus_halte","name":"Lingestraat","operator":""}},{"type":"Feature","geometry":{"type":"Point","coordinates":[4.840486,52.56041]},"properties":{"category":"bus_halte","name":"Mieuwijdt","operator":""}},{"type":"Feature","geometry":{"type":"Point","coordinates":[4.839718,52.560499]},"properties":{"category":"bus_halte","name":"Mieuwijdt","operator":""}},{"type":"Feature","geometry":{"type":"Point","coordinates":[4.850479,52.586903]},"properties":{"category":"bus_halte","name":"Noordeinde Nr. 66","operator":""}},{"type":"Feature","geometry":{"type":"Point","coordinates":[4.850435,52.587039]},"properties":{"category":"bus_halte","name":"Noordeinde Nr. 66","operator":""}},{"type":"Feature","geometry":{"type":"Point","coordinates":[4.835175,52.560738]},"properties":{"category":"bus_halte","name":"Dorpsstraat","operator":""}},{"type":"Feature","geometry":{"type":"Point","coordinates":[4.835561,52.560771]},"properties":{"category":"bus_halte","name":"Dorpsstraat","operator":""}},{"type":"Feature","geometry":{"type":"Point","coordinates":[4.831705,52.562039]},"properties":{"category":"bus_halte","name":"Raadhuisstraat","operator":""}},{"type":"Feature","geometry":{"type":"Point","coordinates":[4.8317,52.562355]},"properties":{"category":"bus_halte","name":"Raadhuisstraat","operator":""}},{"type":"Feature","geometry":{"type":"Point","coordinates":[4.84932,52.582813]},"properties":{"category":"bus_halte","name":"Kopdammerdijk","operator":""}},{"type":"Feature","geometry":{"type":"Point","coordinates":[4.849601,52.582825]},"properties":{"category":"bus_halte","name":"Kopdammerdijk","operator":""}},{"type":"Feature","geometry":{"type":"Point","coordinates":[4.832586,52.564717]},"properties":{"category":"bus_halte","name":"Globdijk","operator":""}},{"type":"Feature","geometry":{"type":"Point","coordinates":[4.832634,52.565019]},"properties":{"category":"bus_halte","name":"Globdijk","operator":""}},{"type":"Feature","geometry":{"type":"Point","coordinates":[4.835358,52.571345]},"properties":{"category":"bus_halte","name":"Noordeinde","operator":""}},{"type":"Feature","geometry":{"type":"Point","coordinates":[4.835547,52.571544]},"properties":{"category":"bus_halte","name":"Noordeinde","operator":""}},{"type":"Feature","geometry":{"type":"Point","coordinates":[4.850887,52.588879]},"properties":{"category":"bus_halte","name":"Noordeinde Nr. 90","operator":""}},{"type":"Feature","geometry":{"type":"Point","coordinates":[4.850825,52.588951]},"properties":{"category":"bus_halte","name":"Noordeinde Nr. 90","operator":""}},{"type":"Feature","geometry":{"type":"Point","coordinates":[4.875294,52.598984]},"properties":{"category":"bus_halte","name":"Schermerdijk","operator":""}},{"type":"Feature","geometry":{"type":"Point","coordinates":[4.848252,52.579157]},"properties":{"category":"bus_halte","name":"Voetpad Urk","operator":""}},{"type":"Feature","geometry":{"type":"Point","coordinates":[4.848327,52.579318]},"properties":{"category":"bus_halte","name":"Voetpad Urk","operator":""}},{"type":"Feature","geometry":{"type":"Point","coordinates":[4.772286,52.62699]},"properties":{"category":"bus_halte","name":"Nieuwe Schermerweg","operator":""}},{"type":"Feature","geometry":{"type":"Point","coordinates":[4.846667,52.556577]},"properties":{"category":"bus_halte","name":"Bernhardstraat","operator":""}},{"type":"Feature","geometry":{"type":"Point","coordinates":[4.857387,52.559595]},"properties":{"category":"bus_halte","name":"Oosteinde","operator":""}},{"type":"Feature","geometry":{"type":"Point","coordinates":[4.857605,52.559512]},"properties":{"category":"bus_halte","name":"Oosteinde","operator":""}},{"type":"Feature","geometry":{"type":"Point","coordinates":[4.849808,52.559829]},"properties":{"category":"bus_halte","name":"Grote Dam","operator":""}},{"type":"Feature","geometry":{"type":"Point","coordinates":[4.850289,52.55948]},"properties":{"category":"bus_halte","name":"Grote Dam","operator":""}},{"type":"Feature","geometry":{"type":"Point","coordinates":[4.846528,52.556602]},"properties":{"category":"bus_halte","name":"Bernhardstraat","operator":""}},{"type":"Feature","geometry":{"type":"Point","coordinates":[4.741132,52.628369]},"properties":{"category":"bus_halte","name":"Metiusgracht","operator":""}},{"type":"Feature","geometry":{"type":"Point","coordinates":[4.767511,52.66492]},"properties":{"category":"bus_halte","name":"Laan van Parijs","operator":""}},{"type":"Feature","geometry":{"type":"Point","coordinates":[4.750176,52.617391]},"properties":{"category":"bus_halte","name":"Melis Stokelaan","operator":""}},{"type":"Feature","geometry":{"type":"Point","coordinates":[4.775079,52.636812]},"properties":{"category":"bus_halte","name":"Nijenburgh","operator":""}},{"type":"Feature","geometry":{"type":"Point","coordinates":[4.774828,52.636623]},"properties":{"category":"bus_halte","name":"Nijenburgh","operator":""}},{"type":"Feature","geometry":{"type":"Point","coordinates":[4.752528,52.602863]},"properties":{"category":"bus_halte","name":"Opaalstraat","operator":""}},{"type":"Feature","geometry":{"type":"Point","coordinates":[4.752644,52.60278]},"properties":{"category":"bus_halte","name":"Opaalstraat","operator":""}},{"type":"Feature","geometry":{"type":"Point","coordinates":[4.731954,52.619123]},"properties":{"category":"bus_halte","name":"Kooimeerlaan","operator":""}},{"type":"Feature","geometry":{"type":"Point","coordinates":[4.73291,52.619833]},"properties":{"category":"bus_halte","name":"Kooimeerlaan","operator":""}},{"type":"Feature","geometry":{"type":"Point","coordinates":[4.72418,52.643839]},"properties":{"category":"bus_halte","name":"Jan Ligthartstraat","operator":""}},{"type":"Feature","geometry":{"type":"Point","coordinates":[4.7246,52.643679]},"properties":{"category":"bus_halte","name":"Jan Ligthartstraat","operator":""}},{"type":"Feature","geometry":{"type":"Point","coordinates":[4.724088,52.641736]},"properties":{"category":"bus_halte","name":"Hogeschool Alkmaar","operator":""}},{"type":"Feature","geometry":{"type":"Point","coordinates":[4.724173,52.642248]},"properties":{"category":"bus_halte","name":"Hogeschool Alkmaar","operator":""}},{"type":"Feature","geometry":{"type":"Point","coordinates":[4.713536,52.635022]},"properties":{"category":"bus_halte","name":"Sportpark de Meent","operator":""}},{"type":"Feature","geometry":{"type":"Point","coordinates":[4.713601,52.634636]},"properties":{"category":"bus_halte","name":"Sportpark de Meent","operator":""}},{"type":"Feature","geometry":{"type":"Point","coordinates":[4.765813,52.633636]},"properties":{"category":"bus_halte","name":"Oudorperplein","operator":""}},{"type":"Feature","geometry":{"type":"Point","coordinates":[4.738987,52.633823]},"properties":{"category":"bus_halte","name":"Bergerhout","operator":""}},{"type":"Feature","geometry":{"type":"Point","coordinates":[4.740574,52.631302]},"properties":{"category":"bus_halte","name":"Nassaulaan","operator":""}},{"type":"Feature","geometry":{"type":"Point","coordinates":[4.74094,52.630609]},"properties":{"category":"bus_halte","name":"Nassaulaan","operator":""}},{"type":"Feature","geometry":{"type":"Point","coordinates":[4.741596,52.62852]},"properties":{"category":"bus_halte","name":"Metiusgracht","operator":""}},{"type":"Feature","geometry":{"type":"Point","coordinates":[4.736915,52.626943]},"properties":{"category":"bus_halte","name":"Noordwest Ziekenhuisgroep","operator":""}},{"type":"Feature","geometry":{"type":"Point","coordinates":[4.737238,52.626978]},"properties":{"category":"bus_halte","name":"Noordwest Ziekenhuisgroep","operator":""}},{"type":"Feature","geometry":{"type":"Point","coordinates":[4.738097,52.624822]},"properties":{"category":"bus_halte","name":"Juliana van Stolberglaan","operator":""}},{"type":"Feature","geometry":{"type":"Point","coordinates":[4.738999,52.624822]},"properties":{"category":"bus_halte","name":"Juliana van Stolberglaan","operator":""}},{"type":"Feature","geometry":{"type":"Point","coordinates":[4.74345,52.622881]},"properties":{"category":"bus_halte","name":"N.G. Piersonstraat","operator":""}},{"type":"Feature","geometry":{"type":"Point","coordinates":[4.743677,52.623116]},"properties":{"category":"bus_halte","name":"N.G. Piersonstraat","operator":""}},{"type":"Feature","geometry":{"type":"Point","coordinates":[4.746,52.621848]},"properties":{"category":"bus_halte","name":"Willem de Zwijgerlaan","operator":""}},{"type":"Feature","geometry":{"type":"Point","coordinates":[4.746542,52.621083]},"properties":{"category":"bus_halte","name":"Willem de Zwijgerlaan","operator":""}},{"type":"Feature","geometry":{"type":"Point","coordinates":[4.746937,52.623978]},"properties":{"category":"bus_halte","name":"Troelstrakade","operator":""}},{"type":"Feature","geometry":{"type":"Point","coordinates":[4.746735,52.624015]},"properties":{"category":"bus_halte","name":"Troelstrakade","operator":""}},{"type":"Feature","geometry":{"type":"Point","coordinates":[4.748609,52.62458]},"properties":{"category":"bus_halte","name":"Doctor Schaepmanplein","operator":""}},{"type":"Feature","geometry":{"type":"Point","coordinates":[4.748503,52.624496]},"properties":{"category":"bus_halte","name":"Doctor Schaepmanplein","operator":""}},{"type":"Feature","geometry":{"type":"Point","coordinates":[4.752138,52.625875]},"properties":{"category":"bus_halte","name":"Hooftplein","operator":""}},{"type":"Feature","geometry":{"type":"Point","coordinates":[4.751989,52.625982]},"properties":{"category":"bus_halte","name":"Hooftplein","operator":""}},{"type":"Feature","geometry":{"type":"Point","coordinates":[4.756756,52.624115]},"properties":{"category":"bus_halte","name":"Spieghelstraat","operator":""}},{"type":"Feature","geometry":{"type":"Point","coordinates":[4.756664,52.624219]},"properties":{"category":"bus_halte","name":"Spieghelstraat","operator":""}},{"type":"Feature","geometry":{"type":"Point","coordinates":[4.760521,52.622098]},"properties":{"category":"bus_halte","name":"De Ruyterstraat","operator":""}},{"type":"Feature","geometry":{"type":"Point","coordinates":[4.760559,52.622273]},"properties":{"category":"bus_halte","name":"De Ruyterstraat","operator":""}},{"type":"Feature","geometry":{"type":"Point","coordinates":[4.761247,52.620752]},"properties":{"category":"bus_halte","name":"Bestevaerstraat","operator":""}},{"type":"Feature","geometry":{"type":"Point","coordinates":[4.761658,52.62082]},"properties":{"category":"bus_halte","name":"Bestevaerstraat","operator":""}},{"type":"Feature","geometry":{"type":"Point","coordinates":[4.757442,52.618163]},"properties":{"category":"bus_halte","name":"Koelmalaan","operator":""}},{"type":"Feature","geometry":{"type":"Point","coordinates":[4.755629,52.618383]},"properties":{"category":"bus_halte","name":"Koelmalaan","operator":""}},{"type":"Feature","geometry":{"type":"Point","coordinates":[4.752058,52.618565]},"properties":{"category":"bus_halte","name":"Asselijnstraat","operator":""}},{"type":"Feature","geometry":{"type":"Point","coordinates":[4.751224,52.618519]},"properties":{"category":"bus_halte","name":"Asselijnstraat","operator":""}},{"type":"Feature","geometry":{"type":"Point","coordinates":[4.750074,52.617436]},"properties":{"category":"bus_halte","name":"Melis Stokelaan","operator":""}},{"type":"Feature","geometry":{"type":"Point","coordinates":[4.748382,52.615426]},"properties":{"category":"bus_halte","name":"Roelantstraat","operator":""}},{"type":"Feature","geometry":{"type":"Point","coordinates":[4.748577,52.615501]},"properties":{"category":"bus_halte","name":"Roelantstraat","operator":""}},{"type":"Feature","geometry":{"type":"Point","coordinates":[4.746109,52.615178]},"properties":{"category":"bus_halte","name":"Pieter Langendijkstraat","operator":""}},{"type":"Feature","geometry":{"type":"Point","coordinates":[4.746642,52.615118]},"properties":{"category":"bus_halte","name":"Pieter Langendijkstraat","operator":""}},{"type":"Feature","geometry":{"type":"Point","coordinates":[4.743373,52.616234]},"properties":{"category":"bus_halte","name":"Rhijnvis Feithlaan","operator":""}},{"type":"Feature","geometry":{"type":"Point","coordinates":[4.742785,52.616309]},"properties":{"category":"bus_halte","name":"Rhijnvis Feithlaan","operator":""}},{"type":"Feature","geometry":{"type":"Point","coordinates":[4.741777,52.616668]},"properties":{"category":"bus_halte","name":"Louise Henriettestraat","operator":""}},{"type":"Feature","geometry":{"type":"Point","coordinates":[4.74145,52.616871]},"properties":{"category":"bus_halte","name":"Louise Henriettestraat","operator":""}},{"type":"Feature","geometry":{"type":"Point","coordinates":[4.740395,52.617966]},"properties":{"category":"bus_halte","name":"Amalia van Solmsstraat","operator":""}},{"type":"Feature","geometry":{"type":"Point","coordinates":[4.740774,52.618285]},"properties":{"category":"bus_halte","name":"Amalia van Solmsstraat","operator":""}},{"type":"Feature","geometry":{"type":"Point","coordinates":[4.738956,52.620787]},"properties":{"category":"bus_halte","name":"Van Houtenkade","operator":""}},{"type":"Feature","geometry":{"type":"Point","coordinates":[4.738624,52.620911]},"properties":{"category":"bus_halte","name":"Van Houtenkade","operator":""}},{"type":"Feature","geometry":{"type":"Point","coordinates":[4.736328,52.623357]},"properties":{"category":"bus_halte","name":"Vierstaten","operator":""}},{"type":"Feature","geometry":{"type":"Point","coordinates":[4.736761,52.623583]},"properties":{"category":"bus_halte","name":"Vierstaten","operator":""}},{"type":"Feature","geometry":{"type":"Point","coordinates":[4.743189,52.638082]},"properties":{"category":"bus_halte","name":"Station","operator":""}},{"type":"Feature","geometry":{"type":"Point","coordinates":[4.743281,52.637986]},"properties":{"category":"bus_halte","name":"Station","operator":""}},{"type":"Feature","geometry":{"type":"Point","coordinates":[4.743417,52.638002]},"properties":{"category":"bus_halte","name":"Station","operator":""}},{"type":"Feature","geometry":{"type":"Point","coordinates":[4.743147,52.637971]},"properties":{"category":"bus_halte","name":"Station","operator":""}},{"type":"Feature","geometry":{"type":"Point","coordinates":[4.743013,52.637954]},"properties":{"category":"bus_halte","name":"Station","operator":""}},{"type":"Feature","geometry":{"type":"Point","coordinates":[4.742876,52.637939]},"properties":{"category":"bus_halte","name":"Station","operator":""}},{"type":"Feature","geometry":{"type":"Point","coordinates":[4.74274,52.637921]},"properties":{"category":"bus_halte","name":"Station","operator":""}},{"type":"Feature","geometry":{"type":"Point","coordinates":[4.742608,52.637904]},"properties":{"category":"bus_halte","name":"Station","operator":""}},{"type":"Feature","geometry":{"type":"Point","coordinates":[4.742469,52.637887]},"properties":{"category":"bus_halte","name":"Station","operator":""}},{"type":"Feature","geometry":{"type":"Point","coordinates":[4.742334,52.637872]},"properties":{"category":"bus_halte","name":"Station","operator":""}},{"type":"Feature","geometry":{"type":"Point","coordinates":[4.742332,52.637985]},"properties":{"category":"bus_halte","name":"Station","operator":""}},{"type":"Feature","geometry":{"type":"Point","coordinates":[4.744918,52.645717]},"properties":{"category":"bus_halte","name":"Huiswaarderbrug","operator":""}},{"type":"Feature","geometry":{"type":"Point","coordinates":[4.744828,52.645503]},"properties":{"category":"bus_halte","name":"Huiswaarderbrug","operator":""}},{"type":"Feature","geometry":{"type":"Point","coordinates":[4.74807,52.645869]},"properties":{"category":"bus_halte","name":"Wijkwaard","operator":""}},{"type":"Feature","geometry":{"type":"Point","coordinates":[4.747663,52.645874]},"properties":{"category":"bus_halte","name":"Wijkwaard","operator":""}},{"type":"Feature","geometry":{"type":"Point","coordinates":[4.751146,52.646169]},"properties":{"category":"bus_halte","name":"Muiderwaard","operator":""}},{"type":"Feature","geometry":{"type":"Point","coordinates":[4.751245,52.646135]},"properties":{"category":"bus_halte","name":"Muiderwaard","operator":""}},{"type":"Feature","geometry":{"type":"Point","coordinates":[4.753917,52.64303]},"properties":{"category":"bus_halte","name":"Tochtwaard","operator":""}},{"type":"Feature","geometry":{"type":"Point","coordinates":[4.753838,52.643342]},"properties":{"category":"bus_halte","name":"Tochtwaard","operator":""}},{"type":"Feature","geometry":{"type":"Point","coordinates":[4.746419,52.635576]},"properties":{"category":"bus_halte","name":"Tesselsebrug","operator":""}},{"type":"Feature","geometry":{"type":"Point","coordinates":[4.757684,52.657814]},"properties":{"category":"bus_halte","name":"Laan van Bath","operator":""}},{"type":"Feature","geometry":{"type":"Point","coordinates":[4.757307,52.657854]},"properties":{"category":"bus_halte","name":"Laan van Bath","operator":""}},{"type":"Feature","geometry":{"type":"Point","coordinates":[4.755001,52.656012]},"properties":{"category":"bus_halte","name":"Laan van Brussel","operator":""}},{"type":"Feature","geometry":{"type":"Point","coordinates":[4.755008,52.655842]},"properties":{"category":"bus_halte","name":"Laan van Brussel","operator":""}},{"type":"Feature","geometry":{"type":"Point","coordinates":[4.749472,52.655772]},"properties":{"category":"bus_halte","name":"Looierstraat","operator":""}},{"type":"Feature","geometry":{"type":"Point","coordinates":[4.749696,52.655723]},"properties":{"category":"bus_halte","name":"Looierstraat","operator":""}},{"type":"Feature","geometry":{"type":"Point","coordinates":[4.744213,52.654114]},"properties":{"category":"bus_halte","name":"Weverstraat","operator":""}},{"type":"Feature","geometry":{"type":"Point","coordinates":[4.744008,52.654111]},"properties":{"category":"bus_halte","name":"Weverstraat","operator":""}},{"type":"Feature","geometry":{"type":"Point","coordinates":[4.745467,52.640233]},"properties":{"category":"bus_halte","name":"Gerechtsgebouw","operator":""}},{"type":"Feature","geometry":{"type":"Point","coordinates":[4.745364,52.639964]},"properties":{"category":"bus_halte","name":"Gerechtsgebouw","operator":""}},{"type":"Feature","geometry":{"type":"Point","coordinates":[4.745108,52.650565]},"properties":{"category":"bus_halte","name":"Glazenierstraat","operator":""}},{"type":"Feature","geometry":{"type":"Point","coordinates":[4.745049,52.650364]},"properties":{"category":"bus_halte","name":"Glazenierstraat","operator":""}},{"type":"Feature","geometry":{"type":"Point","coordinates":[4.743777,52.649265]},"properties":{"category":"bus_halte","name":"Vlielandbrug","operator":""}},{"type":"Feature","geometry":{"type":"Point","coordinates":[4.743625,52.648825]},"properties":{"category":"bus_halte","name":"Vlielandbrug","operator":""}},{"type":"Feature","geometry":{"type":"Point","coordinates":[4.747575,52.636269]},"properties":{"category":"bus_halte","name":"Pettemerstraat","operator":""}},{"type":"Feature","geometry":{"type":"Point","coordinates":[4.747254,52.637938]},"properties":{"category":"bus_halte","name":"Pettemerstraat","operator":""}},{"type":"Feature","geometry":{"type":"Point","coordinates":[4.754716,52.641458]},"properties":{"category":"bus_halte","name":"Rekerdijk","operator":""}},{"type":"Feature","geometry":{"type":"Point","coordinates":[4.754374,52.641448]},"properties":{"category":"bus_halte","name":"Rekerdijk","operator":""}},{"type":"Feature","geometry":{"type":"Point","coordinates":[4.748577,52.641388]},"properties":{"category":"bus_halte","name":"Bregwaard","operator":""}},{"type":"Feature","geometry":{"type":"Point","coordinates":[4.748111,52.641264]},"properties":{"category":"bus_halte","name":"Bregwaard","operator":""}},{"type":"Feature","geometry":{"type":"Point","coordinates":[4.76791,52.662104]},"properties":{"category":"bus_halte","name":"Albatrosweg","operator":""}},{"type":"Feature","geometry":{"type":"Point","coordinates":[4.766807,52.662487]},"properties":{"category":"bus_halte","name":"Albatrosweg","operator":""}},{"type":"Feature","geometry":{"type":"Point","coordinates":[4.766844,52.659738]},"properties":{"category":"bus_halte","name":"Waterhoen","operator":""}},{"type":"Feature","geometry":{"type":"Point","coordinates":[4.766121,52.6595]},"properties":{"category":"bus_halte","name":"Waterhoen","operator":""}},{"type":"Feature","geometry":{"type":"Point","coordinates":[4.763681,52.65865]},"properties":{"category":"bus_halte","name":"Gruttostraat","operator":""}},{"type":"Feature","geometry":{"type":"Point","coordinates":[4.763435,52.658401]},"properties":{"category":"bus_halte","name":"Gruttostraat","operator":""}},{"type":"Feature","geometry":{"type":"Point","coordinates":[4.766476,52.664793]},"properties":{"category":"bus_halte","name":"Laan van Parijs","operator":""}},{"type":"Feature","geometry":{"type":"Point","coordinates":[4.759051,52.656026]},"properties":{"category":"bus_halte","name":"Laan van Troyes","operator":""}},{"type":"Feature","geometry":{"type":"Point","coordinates":[4.758988,52.656103]},"properties":{"category":"bus_halte","name":"Laan van Troyes","operator":""}},{"type":"Feature","geometry":{"type":"Point","coordinates":[4.757122,52.650746]},"properties":{"category":"bus_halte","name":"Laan van Straatsburg","operator":""}},{"type":"Feature","geometry":{"type":"Point","coordinates":[4.757043,52.649961]},"properties":{"category":"bus_halte","name":"Laan van Straatsburg","operator":""}},{"type":"Feature","geometry":{"type":"Point","coordinates":[4.758619,52.653923]},"properties":{"category":"bus_halte","name":"Europaboulevard","operator":""}},{"type":"Feature","geometry":{"type":"Point","coordinates":[4.758483,52.653874]},"properties":{"category":"bus_halte","name":"Europaboulevard","operator":""}},{"type":"Feature","geometry":{"type":"Point","coordinates":[4.772333,52.670219]},"properties":{"category":"bus_halte","name":"Aidastraat","operator":""}},{"type":"Feature","geometry":{"type":"Point","coordinates":[4.771835,52.670507]},"properties":{"category":"bus_halte","name":"Aidastraat","operator":""}},{"type":"Feature","geometry":{"type":"Point","coordinates":[4.772086,52.66755]},"properties":{"category":"bus_halte","name":"Johan Huizingastraat","operator":""}},{"type":"Feature","geometry":{"type":"Point","coordinates":[4.771518,52.667]},"properties":{"category":"bus_halte","name":"Johan Huizingastraat","operator":""}},{"type":"Feature","geometry":{"type":"Point","coordinates":[4.769397,52.654125]},"properties":{"category":"bus_halte","name":"Vasalisstraat","operator":""}},{"type":"Feature","geometry":{"type":"Point","coordinates":[4.769327,52.653918]},"properties":{"category":"bus_halte","name":"Vasalisstraat","operator":""}},{"type":"Feature","geometry":{"type":"Point","coordinates":[4.768121,52.649116]},"properties":{"category":"bus_halte","name":"Ida Gerthardstraat","operator":""}},{"type":"Feature","geometry":{"type":"Point","coordinates":[4.768337,52.64911]},"properties":{"category":"bus_halte","name":"Ida Gerthardstraat","operator":""}},{"type":"Feature","geometry":{"type":"Point","coordinates":[4.769588,52.671637]},"properties":{"category":"bus_halte","name":"Hans de Riesstraat","operator":""}},{"type":"Feature","geometry":{"type":"Point","coordinates":[4.769382,52.671811]},"properties":{"category":"bus_halte","name":"Hans de Riesstraat","operator":""}},{"type":"Feature","geometry":{"type":"Point","coordinates":[4.754187,52.6762]},"properties":{"category":"bus_halte","name":"Rietschoot","operator":""}},{"type":"Feature","geometry":{"type":"Point","coordinates":[4.751036,52.660099]},"properties":{"category":"bus_halte","name":"Branderij","operator":""}},{"type":"Feature","geometry":{"type":"Point","coordinates":[4.751649,52.660794]},"properties":{"category":"bus_halte","name":"Branderij","operator":""}},{"type":"Feature","geometry":{"type":"Point","coordinates":[4.753192,52.662141]},"properties":{"category":"bus_halte","name":"Faktorij","operator":""}},{"type":"Feature","geometry":{"type":"Point","coordinates":[4.754018,52.662562]},"properties":{"category":"bus_halte","name":"Faktorij","operator":""}},{"type":"Feature","geometry":{"type":"Point","coordinates":[4.756527,52.664836]},"properties":{"category":"bus_halte","name":"Eggestraat","operator":""}},{"type":"Feature","geometry":{"type":"Point","coordinates":[4.756288,52.66476]},"properties":{"category":"bus_halte","name":"Eggestraat","operator":""}},{"type":"Feature","geometry":{"type":"Point","coordinates":[4.760419,52.666928]},"properties":{"category":"bus_halte","name":"Ardennenstraat","operator":""}},{"type":"Feature","geometry":{"type":"Point","coordinates":[4.760213,52.66695]},"properties":{"category":"bus_halte","name":"Ardennenstraat","operator":""}},{"type":"Feature","geometry":{"type":"Point","coordinates":[4.762041,52.669487]},"properties":{"category":"bus_halte","name":"Daalmeerpad","operator":""}},{"type":"Feature","geometry":{"type":"Point","coordinates":[4.762239,52.670117]},"properties":{"category":"bus_halte","name":"Daalmeerpad","operator":""}},{"type":"Feature","geometry":{"type":"Point","coordinates":[4.764362,52.671939]},"properties":{"category":"bus_halte","name":"Laan van Keulen","operator":""}},{"type":"Feature","geometry":{"type":"Point","coordinates":[4.766205,52.671669]},"properties":{"category":"bus_halte","name":"Laan van Keulen","operator":""}},{"type":"Feature","geometry":{"type":"Point","coordinates":[4.762715,52.67266]},"properties":{"category":"bus_halte","name":"Penningweg","operator":""}},{"type":"Feature","geometry":{"type":"Point","coordinates":[4.762747,52.672742]},"properties":{"category":"bus_halte","name":"Penningweg","operator":""}},{"type":"Feature","geometry":{"type":"Point","coordinates":[4.75606,52.634334]},"properties":{"category":"bus_halte","name":"Zaagmolenstraat","operator":""}},{"type":"Feature","geometry":{"type":"Point","coordinates":[4.755995,52.634422]},"properties":{"category":"bus_halte","name":"Zaagmolenstraat","operator":""}},{"type":"Feature","geometry":{"type":"Point","coordinates":[4.757391,52.637003]},"properties":{"category":"bus_halte","name":"'t Rode Hert","operator":""}},{"type":"Feature","geometry":{"type":"Point","coordinates":[4.757286,52.636953]},"properties":{"category":"bus_halte","name":"'t Rode Hert","operator":""}},{"type":"Feature","geometry":{"type":"Point","coordinates":[4.763264,52.643815]},"properties":{"category":"bus_halte","name":"Station Noord","operator":""}},{"type":"Feature","geometry":{"type":"Point","coordinates":[4.763461,52.643834]},"properties":{"category":"bus_halte","name":"Station Noord","operator":""}},{"type":"Feature","geometry":{"type":"Point","coordinates":[4.758576,52.640399]},"properties":{"category":"bus_halte","name":"Zeswielen","operator":""}},{"type":"Feature","geometry":{"type":"Point","coordinates":[4.758622,52.640259]},"properties":{"category":"bus_halte","name":"Zeswielen","operator":""}},{"type":"Feature","geometry":{"type":"Point","coordinates":[4.766852,52.645366]},"properties":{"category":"bus_halte","name":"Vlietwaard","operator":""}},{"type":"Feature","geometry":{"type":"Point","coordinates":[4.766665,52.645371]},"properties":{"category":"bus_halte","name":"Vlietwaard","operator":""}},{"type":"Feature","geometry":{"type":"Point","coordinates":[4.75805,52.675639]},"properties":{"category":"bus_halte","name":"Meijersloot","operator":""}},{"type":"Feature","geometry":{"type":"Point","coordinates":[4.757999,52.675712]},"properties":{"category":"bus_halte","name":"Meijersloot","operator":""}},{"type":"Feature","geometry":{"type":"Point","coordinates":[4.762104,52.674942]},"properties":{"category":"bus_halte","name":"De Landman","operator":""}},{"type":"Feature","geometry":{"type":"Point","coordinates":[4.762036,52.67502]},"properties":{"category":"bus_halte","name":"De Landman","operator":""}},{"type":"Feature","geometry":{"type":"Point","coordinates":[4.729487,52.634793]},"properties":{"category":"bus_halte","name":"Van Ostadelaan","operator":""}},{"type":"Feature","geometry":{"type":"Point","coordinates":[4.729864,52.634844]},"properties":{"category":"bus_halte","name":"Van Ostadelaan","operator":""}},{"type":"Feature","geometry":{"type":"Point","coordinates":[4.726685,52.633725]},"properties":{"category":"bus_halte","name":"Geestmolen","operator":""}},{"type":"Feature","geometry":{"type":"Point","coordinates":[4.727372,52.633909]},"properties":{"category":"bus_halte","name":"Geestmolen","operator":""}},{"type":"Feature","geometry":{"type":"Point","coordinates":[4.723548,52.630924]},"properties":{"category":"bus_halte","name":"Winkelcentrum De Hoef","operator":""}},{"type":"Feature","geometry":{"type":"Point","coordinates":[4.7233,52.630899]},"properties":{"category":"bus_halte","name":"Winkelcentrum De Hoef","operator":""}},{"type":"Feature","geometry":{"type":"Point","coordinates":[4.720003,52.628193]},"properties":{"category":"bus_halte","name":"Cornelis Pronklaan","operator":""}},{"type":"Feature","geometry":{"type":"Point","coordinates":[4.71996,52.628293]},"properties":{"category":"bus_halte","name":"Cornelis Pronklaan","operator":""}},{"type":"Feature","geometry":{"type":"Point","coordinates":[4.717165,52.626136]},"properties":{"category":"bus_halte","name":"Picassolaan","operator":""}},{"type":"Feature","geometry":{"type":"Point","coordinates":[4.717681,52.626655]},"properties":{"category":"bus_halte","name":"Picassolaan","operator":""}},{"type":"Feature","geometry":{"type":"Point","coordinates":[4.771556,52.655443]},"properties":{"category":"bus_halte","name":"De Keesman","operator":""}},{"type":"Feature","geometry":{"type":"Point","coordinates":[4.771323,52.655375]},"properties":{"category":"bus_halte","name":"De Keesman","operator":""}},{"type":"Feature","geometry":{"type":"Point","coordinates":[4.777332,52.664441]},"properties":{"category":"bus_halte","name":"De Helling","operator":""}},{"type":"Feature","geometry":{"type":"Point","coordinates":[4.753666,52.676153]},"properties":{"category":"bus_halte","name":"Rietschoot","operator":""}},{"type":"Feature","geometry":{"type":"Point","coordinates":[4.747057,52.570647]},"properties":{"category":"ov_knooppunt","name":"Veerbootstation Zuidschermer","operator":"Gemeente Castricum"}},{"type":"Feature","geometry":{"type":"Point","coordinates":[4.833551,52.539341]},"properties":{"category":"ov_knooppunt","name":"","operator":""}},{"type":"Feature","geometry":{"type":"Point","coordinates":[4.792203,52.51977]},"properties":{"category":"ov_knooppunt","name":"","operator":""}},{"type":"Feature","geometry":{"type":"Point","coordinates":[4.763383,52.643818]},"properties":{"category":"ov_knooppunt","name":"Alkmaar Noord","operator":""}},{"type":"Feature","geometry":{"type":"Point","coordinates":[4.740698,52.638129]},"properties":{"category":"ov_knooppunt","name":"Alkmaar","operator":"ProRail"}},{"type":"Feature","geometry":{"type":"Point","coordinates":[4.804268,52.5498]},"properties":{"category":"ov_knooppunt","name":"","operator":""}},{"type":"Feature","geometry":{"type":"Point","coordinates":[4.804996,52.550218]},"properties":{"category":"ov_knooppunt","name":"","operator":""}},{"type":"Feature","geometry":{"type":"Point","coordinates":[4.763956,52.643765]},"properties":{"category":"ov_knooppunt","name":"Alkmaar Noord","operator":""}},{"type":"Feature","geometry":{"type":"Point","coordinates":[4.725376,52.644214]},"properties":{"category":"gemeentehuis","name":"Gemeentehuis Bergen","operator":"Gemeente Bergen"}},{"type":"Feature","geometry":{"type":"Point","coordinates":[4.74613,52.635365]},"properties":{"category":"gemeentehuis","name":"Stadskantoor Alkmaar","operator":"Gemeente Alkmaar"}},{"type":"Feature","geometry":{"type":"Point","coordinates":[4.74571,52.631928]},"properties":{"category":"gemeentehuis","name":"Stadhuis Alkmaar","operator":"Gemeente Alkmaar"}},{"type":"Feature","geometry":{"type":"Point","coordinates":[4.810869,52.546653]},"properties":{"category":"inzamelpunt","name":"","operator":""}},{"type":"Feature","geometry":{"type":"Point","coordinates":[4.754534,52.604126]},"properties":{"category":"inzamelpunt","name":"HVC recycleplein Alkmaar","operator":"HVC"}},{"type":"Feature","geometry":{"type":"Point","coordinates":[4.73762,52.619561]},"properties":{"category":"inzamelpunt","name":"","operator":""}},{"type":"Feature","geometry":{"type":"Point","coordinates":[4.752666,52.625718]},"properties":{"category":"inzamelpunt","name":"","operator":""}},{"type":"Feature","geometry":{"type":"Point","coordinates":[4.761324,52.667845]},"properties":{"category":"inzamelpunt","name":"","operator":""}},{"type":"Feature","geometry":{"type":"Point","coordinates":[4.726122,52.626524]},"properties":{"category":"inzamelpunt","name":"","operator":""}},{"type":"Feature","geometry":{"type":"Point","coordinates":[4.743228,52.633284]},"properties":{"category":"bibliotheek","name":"Bibliotheek Alkmaar Centrum","operator":"Bibliotheek Kennemerwaard"}},{"type":"Feature","geometry":{"type":"Point","coordinates":[4.758858,52.653535]},"properties":{"category":"bibliotheek","name":"Bibliotheek Alkmaar De Mare","operator":"Bibliotheek Kennemerwaard"}},{"type":"Feature","geometry":{"type":"Point","coordinates":[4.848159,52.554053]},"properties":{"category":"bibliotheek","name":"Bibliotheek De Rijp","operator":"Bibliotheek Kennemerwaard"}},{"type":"Feature","geometry":{"type":"Point","coordinates":[4.765843,52.634028]},"properties":{"category":"bibliotheek","name":"Bibliotheek Alkmaar Oudorp","operator":"Bibliotheek Kennemerwaard"}},{"type":"Feature","geometry":{"type":"Point","coordinates":[4.890672,52.600088]},"properties":{"category":"bibliotheek","name":"Bibliotheek servicepunt Schermer","operator":"Bibliotheek Kennemerwaard"}},{"type":"Feature","geometry":{"type":"Point","coordinates":[4.746891,52.618775]},"properties":{"category":"bibliotheek","name":"Bibliotheek Alkmaar Overdie","operator":"Bibliotheek Kennemerwaard"}},{"type":"Feature","geometry":{"type":"Point","coordinates":[4.733681,52.627748]},"properties":{"category":"ziekenhuis","name":"Eerste Hart-long hulp","operator":""}},{"type":"Feature","geometry":{"type":"Point","coordinates":[4.73499,52.628147]},"properties":{"category":"ziekenhuis","name":"Acute opname afdeling","operator":""}},{"type":"Feature","geometry":{"type":"Point","coordinates":[4.734541,52.628165]},"properties":{"category":"ziekenhuis","name":"Medische Psychiatrie","operator":""}},{"type":"Feature","geometry":{"type":"Point","coordinates":[4.734088,52.627831]},"properties":{"category":"ziekenhuis","name":"Spoedeisende Hulp","operator":""}},{"type":"Feature","geometry":{"type":"Point","coordinates":[4.733744,52.628077]},"properties":{"category":"ziekenhuis","name":"Ambulance garage","operator":""}},{"type":"Feature","geometry":{"type":"Point","coordinates":[4.736094,52.62823]},"properties":{"category":"ziekenhuis","name":"Noordwest Ziekenhuisgroep locatie Alkmaar","operator":""}},{"type":"Feature","geometry":{"type":"Point","coordinates":[4.835954,52.632805]},"properties":{"category":"transformatorhuisje","name":"","operator":""}},{"type":"Feature","geometry":{"type":"Point","coordinates":[4.836147,52.63281]},"properties":{"category":"transformatorhuisje","name":"","operator":""}},{"type":"Feature","geometry":{"type":"Point","coordinates":[4.836335,52.632815]},"properties":{"category":"transformatorhuisje","name":"","operator":""}},{"type":"Feature","geometry":{"type":"Point","coordinates":[4.836528,52.63282]},"properties":{"category":"transformatorhuisje","name":"","operator":""}},{"type":"Feature","geometry":{"type":"Point","coordinates":[4.780066,52.649163]},"properties":{"category":"transformatorhuisje","name":"","operator":""}},{"type":"Feature","geometry":{"type":"Point","coordinates":[4.71796,52.627034]},"properties":{"category":"universiteit","name":"IPABO","operator":""}},{"type":"Feature","geometry":{"type":"Point","coordinates":[4.725547,52.641964]},"properties":{"category":"universiteit","name":"Hogeschool Inholland","operator":""}},{"type":"Feature","geometry":{"type":"Point","coordinates":[4.743138,52.640079]},"properties":{"category":"hogeschool","name":"Talland College Alkmaar","operator":""}},{"type":"Feature","geometry":{"type":"Point","coordinates":[4.753765,52.640562]},"properties":{"category":"middelbare_school","name":"Vonk","operator":""}},{"type":"Feature","geometry":{"type":"Point","coordinates":[4.745713,52.625462]},"properties":{"category":"middelbare_school","name":"Petrus Canisius College Het Lyceum","operator":""}},{"type":"Feature","geometry":{"type":"Point","coordinates":[4.729384,52.63537]},"properties":{"category":"middelbare_school","name":"Petrus Canisius College","operator":""}},{"type":"Feature","geometry":{"type":"Point","coordinates":[4.749556,52.62085]},"properties":{"category":"middelbare_school","name":"Petrus Canisius College Oosterhout","operator":""}},{"type":"Feature","geometry":{"type":"Point","coordinates":[4.73228,52.622523]},"properties":{"category":"sportveld","name":"Zwembad de Hout","operator":""}},{"type":"Feature","geometry":{"type":"Point","coordinates":[4.722771,52.645563]},"properties":{"category":"sportveld","name":"Tenniscentrum Pesiehal","operator":""}},{"type":"Feature","geometry":{"type":"Point","coordinates":[4.753356,52.642105]},"properties":{"category":"sportveld","name":"Ludus et Gladius","operator":""}},{"type":"Feature","geometry":{"type":"Point","coordinates":[4.758175,52.662789]},"properties":{"category":"sportveld","name":"Korfbalvereniging Celeritas","operator":""}},{"type":"Feature","geometry":{"type":"Point","coordinates":[4.756917,52.662958]},"properties":{"category":"sportveld","name":"Tennis en Padel Centrum Daalmeer","operator":""}},{"type":"Feature","geometry":{"type":"Point","coordinates":[4.773386,52.627961]},"properties":{"category":"sportveld","name":"TPV Oudorp","operator":""}},{"type":"Feature","geometry":{"type":"Point","coordinates":[4.730664,52.621226]},"properties":{"category":"sportveld","name":"Sportpark Sportlaan","operator":""}},{"type":"Feature","geometry":{"type":"Point","coordinates":[4.824088,52.612159]},"properties":{"category":"sportveld","name":"Schermer Sport Vereniging SSV","operator":""}},{"type":"Feature","geometry":{"type":"Point","coordinates":[4.781135,52.640238]},"properties":{"category":"sportveld","name":"Sportpark De Nollen","operator":""}},{"type":"Feature","geometry":{"type":"Point","coordinates":[4.756568,52.663536]},"properties":{"category":"sportveld","name":"Sportinstituut Tom van der Kolk","operator":""}},{"type":"Feature","geometry":{"type":"Point","coordinates":[4.753739,52.621234]},"properties":{"category":"sportveld","name":"Voetbalvereniging \"Alkmaarsche Boys\"","operator":""}},{"type":"Feature","geometry":{"type":"Point","coordinates":[4.751237,52.621788]},"properties":{"category":"sportveld","name":"Sportcomplex Oosterhout","operator":""}},{"type":"Feature","geometry":{"type":"Point","coordinates":[4.711046,52.633055]},"properties":{"category":"sportveld","name":"Tennispark de Bosmolen","operator":"Tennis Club Alkmaar"}},{"type":"Feature","geometry":{"type":"Point","coordinates":[4.713667,52.629569]},"properties":{"category":"sportveld","name":"Alcmaria Victrix - Honkbal Softbal BeeBall","operator":""}},{"type":"Feature","geometry":{"type":"Point","coordinates":[4.753799,52.613894]},"properties":{"category":"sportveld","name":"Sportcomplex 't Lood - AZ","operator":""}},{"type":"Feature","geometry":{"type":"Point","coordinates":[4.773645,52.641114]},"properties":{"category":"sportveld","name":"Sportcomplex Vaart","operator":""}},{"type":"Feature","geometry":{"type":"Point","coordinates":[4.715066,52.630849]},"properties":{"category":"sportveld","name":"Sportpark Egmonderhout","operator":""}},{"type":"Feature","geometry":{"type":"Point","coordinates":[4.742062,52.612814]},"properties":{"category":"sportveld","name":"AFAS Stadion","operator":"AZ"}},{"type":"Feature","geometry":{"type":"Point","coordinates":[4.754407,52.667977]},"properties":{"category":"sportveld","name":"Sportpark De Weijdt","operator":""}},{"type":"Feature","geometry":{"type":"Point","coordinates":[4.768253,52.642072]},"properties":{"category":"sportveld","name":"LTC De Zes Wielen","operator":""}},{"type":"Feature","geometry":{"type":"Point","coordinates":[4.890692,52.602894]},"properties":{"category":"sportveld","name":"SV Sporting S","operator":""}},{"type":"Feature","geometry":{"type":"Point","coordinates":[4.84892,52.553503]},"properties":{"category":"sportveld","name":"Sportpark De Rijp","operator":""}},{"type":"Feature","geometry":{"type":"Point","coordinates":[4.72418,52.632252]},"properties":{"category":"winkelcentrum","name":"De Hoef","operator":""}},{"type":"Feature","geometry":{"type":"Point","coordinates":[4.764184,52.64403]},"properties":{"category":"fietsenstalling","name":"","operator":""}},{"type":"Feature","geometry":{"type":"Point","coordinates":[4.743948,52.633185]},"properties":{"category":"fietsenstalling","name":"De Overdekte","operator":"Gemeente Alkmaar"}},{"type":"Feature","geometry":{"type":"Point","coordinates":[4.736777,52.62958]},"properties":{"category":"fietsenstalling","name":"MCA - Fietsenstalling Metiusgracht","operator":""}},{"type":"Feature","geometry":{"type":"Point","coordinates":[4.755675,52.65578]},"properties":{"category":"fietsenstalling","name":"","operator":""}},{"type":"Feature","geometry":{"type":"Point","coordinates":[4.746856,52.629937]},"properties":{"category":"fietsenstalling","name":"","operator":""}},{"type":"Feature","geometry":{"type":"Point","coordinates":[4.739355,52.637574]},"properties":{"category":"fietsenstalling","name":"Bewaakt","operator":"Rattaplan"}},{"type":"Feature","geometry":{"type":"Point","coordinates":[4.747986,52.630007]},"properties":{"category":"fietsenstalling","name":"Fietsenstalling De Afstap","operator":"Gemeente Alkmaar"}},{"type":"Feature","geometry":{"type":"Point","coordinates":[4.736627,52.627281]},"properties":{"category":"fietsenstalling","name":"Ziekenhuis fietsenstalling","operator":""}},{"type":"Feature","geometry":{"type":"Point","coordinates":[4.767573,52.643295]},"properties":{"category":"fietsenstalling","name":"","operator":""}},{"type":"Feature","geometry":{"type":"Point","coordinates":[4.750453,52.629495]},"properties":{"category":"fietsenstalling","name":"","operator":"VVE Vedronkenoord 105-111"}},{"type":"Feature","geometry":{"type":"Point","coordinates":[4.735982,52.637423]},"properties":{"category":"fietsenstalling","name":"","operator":""}},{"type":"Feature","geometry":{"type":"Point","coordinates":[4.746098,52.633607]},"properties":{"category":"fietsenstalling","name":"","operator":""}},{"type":"Feature","geometry":{"type":"Point","coordinates":[4.766296,52.642129]},"properties":{"category":"fietsenstalling","name":"","operator":""}},{"type":"Feature","geometry":{"type":"Point","coordinates":[4.772839,52.645907]},"properties":{"category":"fietsenstalling","name":"","operator":""}},{"type":"Feature","geometry":{"type":"Point","coordinates":[4.741678,52.625597]},"properties":{"category":"fietsenstalling","name":"","operator":""}},{"type":"Feature","geometry":{"type":"Point","coordinates":[4.741302,52.628662]},"properties":{"category":"parkeergarage","name":"Singelgarage","operator":"Gemeente Alkmaar"}},{"type":"Feature","geometry":{"type":"Point","coordinates":[4.744954,52.634022]},"properties":{"category":"parkeergarage","name":"Parkeergarage De Vest","operator":"Gemeente Alkmaar"}},{"type":"Feature","geometry":{"type":"Point","coordinates":[4.753663,52.627304]},"properties":{"category":"parkeergarage","name":"Schelphoek","operator":"Gemeente Alkmaar"}},{"type":"Feature","geometry":{"type":"Point","coordinates":[4.742747,52.632195]},"properties":{"category":"parkeergarage","name":"Grote Kerk","operator":"APCOA Parking"}},{"type":"Feature","geometry":{"type":"Point","coordinates":[4.757523,52.656522]},"properties":{"category":"parkeergarage","name":"Parkeergarage De Mare","operator":"Winkelcentrum De Mare"}},{"type":"Feature","geometry":{"type":"Point","coordinates":[4.748104,52.637565]},"properties":{"category":"parkeergarage","name":"Ondergrondse parkeergarage Pettemerstraat","operator":""}},{"type":"Feature","geometry":{"type":"Point","coordinates":[4.746816,52.635282]},"properties":{"category":"parkeergarage","name":"Kanaalschiereiland","operator":"Gemeente Alkmaar"}},{"type":"Feature","geometry":{"type":"Point","coordinates":[4.737234,52.627588]},"properties":{"category":"parkeergarage","name":"Parkeergarage Hoofdingang","operator":"Medisch Centrum Alkmaar"}},{"type":"Feature","geometry":{"type":"Point","coordinates":[4.751799,52.632493]},"properties":{"category":"parkeergarage","name":"Karperton","operator":"Gemeente Alkmaar"}},{"type":"Feature","geometry":{"type":"Point","coordinates":[4.736943,52.650325]},"properties":{"category":"parkeergarage","name":"","operator":""}},{"type":"Feature","geometry":{"type":"Point","coordinates":[4.755026,52.626724]},"properties":{"category":"parkeergarage","name":"Schelphoek","operator":"Gemeente Alkmaar"}},{"type":"Feature","geometry":{"type":"Point","coordinates":[4.741597,52.629191]},"properties":{"category":"parkeergarage","name":"Parkeergarage Singel","operator":"Gemeente Alkmaar"}},{"type":"Feature","geometry":{"type":"Point","coordinates":[4.74692,52.628558]},"properties":{"category":"parkeergarage","name":"","operator":""}},{"type":"Feature","geometry":{"type":"Point","coordinates":[4.75234,52.635467]},"properties":{"category":"parkeergarage","name":"Parkeergarage Kwantum/Leen Bakker","operator":""}},{"type":"Feature","geometry":{"type":"Point","coordinates":[4.750988,52.634086]},"properties":{"category":"parkeergarage","name":"Ringers Winkelcentrum","operator":""}},{"type":"Feature","geometry":{"type":"Point","coordinates":[4.736247,52.619155]},"properties":{"category":"parkeergarage","name":"","operator":""}},{"type":"Feature","geometry":{"type":"Point","coordinates":[4.737429,52.638756]},"properties":{"category":"parkeergarage","name":"","operator":""}},{"type":"Feature","geometry":{"type":"Point","coordinates":[4.770741,52.647926]},"properties":{"category":"parkeergarage","name":"","operator":""}},{"type":"Feature","geometry":{"type":"Point","coordinates":[4.77343,52.625286]},"properties":{"category":"p_and_r","name":"P&R Oudorp","operator":""}},{"type":"Feature","geometry":{"type":"Point","coordinates":[4.741573,52.638954]},"properties":{"category":"p_and_r","name":"","operator":"Q-Park"}},{"type":"Feature","geometry":{"type":"Point","coordinates":[4.742904,52.645189]},"properties":{"category":"p_and_r","name":"","operator":""}}]}