{"type":"FeatureCollection","metadata":{"gemeente":"Almelo","slug":"almelo","by_category":{"bus_halte":202,"transformatorhuisje":35,"supermarkt":22,"fietsenstalling":21,"sportveld":10,"parkeergarage":10,"inzamelpunt":5,"ov_knooppunt":3,"ns_station":2,"bibliotheek":2,"gemeentehuis":1,"ziekenhuis":1,"hogeschool":1,"winkelcentrum":1,"p_and_r":1},"total":317},"features":[{"type":"Feature","geometry":{"type":"Point","coordinates":[6.654414,52.357705]},"properties":{"category":"ns_station","name":"Almelo","operator":""}},{"type":"Feature","geometry":{"type":"Point","coordinates":[6.666647,52.342099]},"properties":{"category":"ns_station","name":"Almelo de Riet","operator":""}},{"type":"Feature","geometry":{"type":"Point","coordinates":[6.654944,52.307853]},"properties":{"category":"bus_halte","name":"R.K. Kerk","operator":""}},{"type":"Feature","geometry":{"type":"Point","coordinates":[6.660483,52.347715]},"properties":{"category":"bus_halte","name":"De Koppel","operator":""}},{"type":"Feature","geometry":{"type":"Point","coordinates":[6.646749,52.355353]},"properties":{"category":"bus_halte","name":"Egbert ten Catelaan","operator":""}},{"type":"Feature","geometry":{"type":"Point","coordinates":[6.653287,52.323741]},"properties":{"category":"bus_halte","name":"Viaduct","operator":""}},{"type":"Feature","geometry":{"type":"Point","coordinates":[6.657596,52.342955]},"properties":{"category":"bus_halte","name":"Rembrandtveld","operator":""}},{"type":"Feature","geometry":{"type":"Point","coordinates":[6.655832,52.30266]},"properties":{"category":"bus_halte","name":"Goorsedijk","operator":""}},{"type":"Feature","geometry":{"type":"Point","coordinates":[6.65593,52.355112]},"properties":{"category":"bus_halte","name":"Bellavistastraat","operator":""}},{"type":"Feature","geometry":{"type":"Point","coordinates":[6.655616,52.311413]},"properties":{"category":"bus_halte","name":"Eierbaan","operator":""}},{"type":"Feature","geometry":{"type":"Point","coordinates":[6.659684,52.351548]},"properties":{"category":"bus_halte","name":"De Wingerd","operator":""}},{"type":"Feature","geometry":{"type":"Point","coordinates":[6.654992,52.307573]},"properties":{"category":"bus_halte","name":"R.K. Kerk","operator":""}},{"type":"Feature","geometry":{"type":"Point","coordinates":[6.660303,52.34706]},"properties":{"category":"bus_halte","name":"De Koppel","operator":""}},{"type":"Feature","geometry":{"type":"Point","coordinates":[6.654053,52.324973]},"properties":{"category":"bus_halte","name":"Viaduct","operator":""}},{"type":"Feature","geometry":{"type":"Point","coordinates":[6.655552,52.304591]},"properties":{"category":"bus_halte","name":"Goorsedijk","operator":""}},{"type":"Feature","geometry":{"type":"Point","coordinates":[6.656563,52.354764]},"properties":{"category":"bus_halte","name":"Bellavistastraat","operator":""}},{"type":"Feature","geometry":{"type":"Point","coordinates":[6.646429,52.355553]},"properties":{"category":"bus_halte","name":"Egbert ten Catelaan","operator":""}},{"type":"Feature","geometry":{"type":"Point","coordinates":[6.655508,52.311191]},"properties":{"category":"bus_halte","name":"Eierbaan","operator":""}},{"type":"Feature","geometry":{"type":"Point","coordinates":[6.659732,52.350042]},"properties":{"category":"bus_halte","name":"De Wingerd","operator":""}},{"type":"Feature","geometry":{"type":"Point","coordinates":[6.657375,52.342047]},"properties":{"category":"bus_halte","name":"Rembrandtveld","operator":""}},{"type":"Feature","geometry":{"type":"Point","coordinates":[6.654456,52.328416]},"properties":{"category":"bus_halte","name":"Ten Dam","operator":""}},{"type":"Feature","geometry":{"type":"Point","coordinates":[6.684483,52.382358]},"properties":{"category":"bus_halte","name":"De Eik","operator":""}},{"type":"Feature","geometry":{"type":"Point","coordinates":[6.63747,52.362995]},"properties":{"category":"bus_halte","name":"Paganinistraat","operator":""}},{"type":"Feature","geometry":{"type":"Point","coordinates":[6.66621,52.361908]},"properties":{"category":"bus_halte","name":"Vriezebrug","operator":""}},{"type":"Feature","geometry":{"type":"Point","coordinates":[6.659522,52.358258]},"properties":{"category":"bus_halte","name":"Boddenstraat","operator":""}},{"type":"Feature","geometry":{"type":"Point","coordinates":[6.630513,52.337993]},"properties":{"category":"bus_halte","name":"De Boerenzwaluw","operator":""}},{"type":"Feature","geometry":{"type":"Point","coordinates":[6.688265,52.378608]},"properties":{"category":"bus_halte","name":"Vredeveld","operator":""}},{"type":"Feature","geometry":{"type":"Point","coordinates":[6.647461,52.331838]},"properties":{"category":"bus_halte","name":"De Specht","operator":""}},{"type":"Feature","geometry":{"type":"Point","coordinates":[6.677973,52.369226]},"properties":{"category":"bus_halte","name":"Heetveldsweg","operator":""}},{"type":"Feature","geometry":{"type":"Point","coordinates":[6.629694,52.333999]},"properties":{"category":"bus_halte","name":"De Hop","operator":""}},{"type":"Feature","geometry":{"type":"Point","coordinates":[6.679406,52.366148]},"properties":{"category":"bus_halte","name":"Sint Josephstraat","operator":""}},{"type":"Feature","geometry":{"type":"Point","coordinates":[6.647532,52.334565]},"properties":{"category":"bus_halte","name":"De Taling","operator":""}},{"type":"Feature","geometry":{"type":"Point","coordinates":[6.638787,52.358175]},"properties":{"category":"bus_halte","name":"Hoog Schuilenburg","operator":""}},{"type":"Feature","geometry":{"type":"Point","coordinates":[6.686435,52.370711]},"properties":{"category":"bus_halte","name":"Bevrijdingslaan","operator":""}},{"type":"Feature","geometry":{"type":"Point","coordinates":[6.653501,52.356146]},"properties":{"category":"bus_halte","name":"Appelstraat","operator":""}},{"type":"Feature","geometry":{"type":"Point","coordinates":[6.650833,52.3472]},"properties":{"category":"bus_halte","name":"Wondestraat","operator":""}},{"type":"Feature","geometry":{"type":"Point","coordinates":[6.670753,52.364543]},"properties":{"category":"bus_halte","name":"de Klokkenbelt","operator":""}},{"type":"Feature","geometry":{"type":"Point","coordinates":[6.674876,52.367733]},"properties":{"category":"bus_halte","name":"Schelfhorstpark","operator":""}},{"type":"Feature","geometry":{"type":"Point","coordinates":[6.639345,52.330462]},"properties":{"category":"bus_halte","name":"De Putter","operator":""}},{"type":"Feature","geometry":{"type":"Point","coordinates":[6.643766,52.339256]},"properties":{"category":"bus_halte","name":"Woonboulevard","operator":""}},{"type":"Feature","geometry":{"type":"Point","coordinates":[6.658289,52.33493]},"properties":{"category":"bus_halte","name":"Betuining","operator":""}},{"type":"Feature","geometry":{"type":"Point","coordinates":[6.684476,52.382273]},"properties":{"category":"bus_halte","name":"De Eik","operator":""}},{"type":"Feature","geometry":{"type":"Point","coordinates":[6.669121,52.36689]},"properties":{"category":"bus_halte","name":"Buurstede","operator":""}},{"type":"Feature","geometry":{"type":"Point","coordinates":[6.68223,52.367809]},"properties":{"category":"bus_halte","name":"Baniersweg","operator":""}},{"type":"Feature","geometry":{"type":"Point","coordinates":[6.676777,52.380263]},"properties":{"category":"bus_halte","name":"Winkelcentrum Schelfhorst","operator":""}},{"type":"Feature","geometry":{"type":"Point","coordinates":[6.676136,52.378138]},"properties":{"category":"bus_halte","name":"Wickenburg","operator":""}},{"type":"Feature","geometry":{"type":"Point","coordinates":[6.649448,52.34455]},"properties":{"category":"bus_halte","name":"Jacob van Ruysdaelstraat","operator":""}},{"type":"Feature","geometry":{"type":"Point","coordinates":[6.659822,52.332834]},"properties":{"category":"bus_halte","name":"Grand Canal","operator":""}},{"type":"Feature","geometry":{"type":"Point","coordinates":[6.678341,52.370692]},"properties":{"category":"bus_halte","name":"Rustweg","operator":""}},{"type":"Feature","geometry":{"type":"Point","coordinates":[6.67315,52.365374]},"properties":{"category":"bus_halte","name":"Brandersweg","operator":""}},{"type":"Feature","geometry":{"type":"Point","coordinates":[6.637576,52.359599]},"properties":{"category":"bus_halte","name":"Haydnlaan","operator":""}},{"type":"Feature","geometry":{"type":"Point","coordinates":[6.639621,52.343026]},"properties":{"category":"bus_halte","name":"ROC de Sumpel","operator":""}},{"type":"Feature","geometry":{"type":"Point","coordinates":[6.644831,52.358222]},"properties":{"category":"bus_halte","name":"Sweelincklaan","operator":""}},{"type":"Feature","geometry":{"type":"Point","coordinates":[6.640587,52.362083]},"properties":{"category":"bus_halte","name":"Valeriusstraat","operator":""}},{"type":"Feature","geometry":{"type":"Point","coordinates":[6.647516,52.331485]},"properties":{"category":"bus_halte","name":"De Specht","operator":""}},{"type":"Feature","geometry":{"type":"Point","coordinates":[6.66402,52.362316]},"properties":{"category":"bus_halte","name":"Tijhofslaan","operator":""}},{"type":"Feature","geometry":{"type":"Point","coordinates":[6.643566,52.36048]},"properties":{"category":"bus_halte","name":"Obrechtstraat","operator":""}},{"type":"Feature","geometry":{"type":"Point","coordinates":[6.634091,52.338304]},"properties":{"category":"bus_halte","name":"De Ara","operator":""}},{"type":"Feature","geometry":{"type":"Point","coordinates":[6.679178,52.366197]},"properties":{"category":"bus_halte","name":"Sint Josephstraat","operator":""}},{"type":"Feature","geometry":{"type":"Point","coordinates":[6.688421,52.378678]},"properties":{"category":"bus_halte","name":"Vredeveld","operator":""}},{"type":"Feature","geometry":{"type":"Point","coordinates":[6.647299,52.334162]},"properties":{"category":"bus_halte","name":"De Taling","operator":""}},{"type":"Feature","geometry":{"type":"Point","coordinates":[6.65329,52.356116]},"properties":{"category":"bus_halte","name":"Appelstraat","operator":""}},{"type":"Feature","geometry":{"type":"Point","coordinates":[6.66824,52.364062]},"properties":{"category":"bus_halte","name":"de Klokkenbelt","operator":""}},{"type":"Feature","geometry":{"type":"Point","coordinates":[6.639579,52.330374]},"properties":{"category":"bus_halte","name":"De Putter","operator":""}},{"type":"Feature","geometry":{"type":"Point","coordinates":[6.676897,52.373235]},"properties":{"category":"bus_halte","name":"Blikkenburg","operator":""}},{"type":"Feature","geometry":{"type":"Point","coordinates":[6.647775,52.337838]},"properties":{"category":"bus_halte","name":"Stadion","operator":""}},{"type":"Feature","geometry":{"type":"Point","coordinates":[6.681914,52.367424]},"properties":{"category":"bus_halte","name":"Baniersweg","operator":""}},{"type":"Feature","geometry":{"type":"Point","coordinates":[6.649801,52.350712]},"properties":{"category":"bus_halte","name":"Zwaluwenstraat","operator":""}},{"type":"Feature","geometry":{"type":"Point","coordinates":[6.636948,52.332352]},"properties":{"category":"bus_halte","name":"De Mees","operator":""}},{"type":"Feature","geometry":{"type":"Point","coordinates":[6.688675,52.376768]},"properties":{"category":"bus_halte","name":"Keppel","operator":""}},{"type":"Feature","geometry":{"type":"Point","coordinates":[6.678449,52.372323]},"properties":{"category":"bus_halte","name":"Groot Bokhove","operator":""}},{"type":"Feature","geometry":{"type":"Point","coordinates":[6.629816,52.336278]},"properties":{"category":"bus_halte","name":"Winkelcentrum Windmolenbroek","operator":""}},{"type":"Feature","geometry":{"type":"Point","coordinates":[6.677503,52.382287]},"properties":{"category":"bus_halte","name":"De Haere","operator":""}},{"type":"Feature","geometry":{"type":"Point","coordinates":[6.660056,52.358484]},"properties":{"category":"bus_halte","name":"Boddenstraat","operator":""}},{"type":"Feature","geometry":{"type":"Point","coordinates":[6.639286,52.342966]},"properties":{"category":"bus_halte","name":"ROC de Sumpel","operator":""}},{"type":"Feature","geometry":{"type":"Point","coordinates":[6.63015,52.338083]},"properties":{"category":"bus_halte","name":"De Boerenzwaluw","operator":""}},{"type":"Feature","geometry":{"type":"Point","coordinates":[6.644979,52.358215]},"properties":{"category":"bus_halte","name":"Sweelincklaan","operator":""}},{"type":"Feature","geometry":{"type":"Point","coordinates":[6.641559,52.344894]},"properties":{"category":"bus_halte","name":"Nico van Werkmanlaan","operator":""}},{"type":"Feature","geometry":{"type":"Point","coordinates":[6.639547,52.337494]},"properties":{"category":"bus_halte","name":"Ziekenhuisgroep Twente","operator":""}},{"type":"Feature","geometry":{"type":"Point","coordinates":[6.647743,52.357307]},"properties":{"category":"bus_halte","name":"Groen van Prinstererstraat","operator":""}},{"type":"Feature","geometry":{"type":"Point","coordinates":[6.662602,52.361828]},"properties":{"category":"bus_halte","name":"Brugstraat","operator":""}},{"type":"Feature","geometry":{"type":"Point","coordinates":[6.643693,52.330778]},"properties":{"category":"bus_halte","name":"De Patrijs","operator":""}},{"type":"Feature","geometry":{"type":"Point","coordinates":[6.643803,52.360489]},"properties":{"category":"bus_halte","name":"Obrechtstraat","operator":""}},{"type":"Feature","geometry":{"type":"Point","coordinates":[6.653533,52.344187]},"properties":{"category":"bus_halte","name":"Frans Halsstraat","operator":""}},{"type":"Feature","geometry":{"type":"Point","coordinates":[6.634048,52.33346]},"properties":{"category":"bus_halte","name":"De Kolibrie","operator":""}},{"type":"Feature","geometry":{"type":"Point","coordinates":[6.647983,52.336524]},"properties":{"category":"bus_halte","name":"Nieuw Witvoet","operator":""}},{"type":"Feature","geometry":{"type":"Point","coordinates":[6.649953,52.351056]},"properties":{"category":"bus_halte","name":"Zwaluwenstraat","operator":""}},{"type":"Feature","geometry":{"type":"Point","coordinates":[6.636804,52.332255]},"properties":{"category":"bus_halte","name":"De Mees","operator":""}},{"type":"Feature","geometry":{"type":"Point","coordinates":[6.634675,52.360441]},"properties":{"category":"bus_halte","name":"Sibeliusstraat","operator":""}},{"type":"Feature","geometry":{"type":"Point","coordinates":[6.676874,52.375566]},"properties":{"category":"bus_halte","name":"Sandenburg","operator":""}},{"type":"Feature","geometry":{"type":"Point","coordinates":[6.688942,52.376264]},"properties":{"category":"bus_halte","name":"Keppel","operator":""}},{"type":"Feature","geometry":{"type":"Point","coordinates":[6.688472,52.374331]},"properties":{"category":"bus_halte","name":"K.S.G. Sint Canisius","operator":""}},{"type":"Feature","geometry":{"type":"Point","coordinates":[6.629547,52.335661]},"properties":{"category":"bus_halte","name":"Winkelcentrum Windmolenbroek","operator":""}},{"type":"Feature","geometry":{"type":"Point","coordinates":[6.64002,52.359999]},"properties":{"category":"bus_halte","name":"C. van Renneslaan","operator":""}},{"type":"Feature","geometry":{"type":"Point","coordinates":[6.655628,52.33117]},"properties":{"category":"bus_halte","name":"Pergola","operator":""}},{"type":"Feature","geometry":{"type":"Point","coordinates":[6.677254,52.382373]},"properties":{"category":"bus_halte","name":"De Haere","operator":""}},{"type":"Feature","geometry":{"type":"Point","coordinates":[6.668205,52.365371]},"properties":{"category":"bus_halte","name":"de Klokkenbelt","operator":""}},{"type":"Feature","geometry":{"type":"Point","coordinates":[6.676106,52.37995]},"properties":{"category":"bus_halte","name":"Winkelcentrum Schelfhorst","operator":""}},{"type":"Feature","geometry":{"type":"Point","coordinates":[6.68862,52.373238]},"properties":{"category":"bus_halte","name":"Koningshoek","operator":""}},{"type":"Feature","geometry":{"type":"Point","coordinates":[6.677016,52.37569]},"properties":{"category":"bus_halte","name":"Sandenburg","operator":""}},{"type":"Feature","geometry":{"type":"Point","coordinates":[6.643705,52.345306]},"properties":{"category":"bus_halte","name":"Vincent van Goghplein","operator":""}},{"type":"Feature","geometry":{"type":"Point","coordinates":[6.641867,52.344945]},"properties":{"category":"bus_halte","name":"Nico van Werkmanlaan","operator":""}},{"type":"Feature","geometry":{"type":"Point","coordinates":[6.647577,52.357414]},"properties":{"category":"bus_halte","name":"Groen van Prinstererstraat","operator":""}},{"type":"Feature","geometry":{"type":"Point","coordinates":[6.643843,52.330686]},"properties":{"category":"bus_halte","name":"De Patrijs","operator":""}},{"type":"Feature","geometry":{"type":"Point","coordinates":[6.653254,52.344288]},"properties":{"category":"bus_halte","name":"Frans Halsstraat","operator":""}},{"type":"Feature","geometry":{"type":"Point","coordinates":[6.647746,52.338166]},"properties":{"category":"bus_halte","name":"Stadion","operator":""}},{"type":"Feature","geometry":{"type":"Point","coordinates":[6.677037,52.373304]},"properties":{"category":"bus_halte","name":"Blikkenburg","operator":""}},{"type":"Feature","geometry":{"type":"Point","coordinates":[6.643121,52.338838]},"properties":{"category":"bus_halte","name":"Woonboulevard","operator":""}},{"type":"Feature","geometry":{"type":"Point","coordinates":[6.634427,52.333359]},"properties":{"category":"bus_halte","name":"De Kolibrie","operator":""}},{"type":"Feature","geometry":{"type":"Point","coordinates":[6.648124,52.336621]},"properties":{"category":"bus_halte","name":"Nieuw Witvoet","operator":""}},{"type":"Feature","geometry":{"type":"Point","coordinates":[6.629852,52.333824]},"properties":{"category":"bus_halte","name":"De Hop","operator":""}},{"type":"Feature","geometry":{"type":"Point","coordinates":[6.639269,52.337591]},"properties":{"category":"bus_halte","name":"Ziekenhuisgroep Twente","operator":""}},{"type":"Feature","geometry":{"type":"Point","coordinates":[6.674357,52.36562]},"properties":{"category":"bus_halte","name":"Brandersweg","operator":""}},{"type":"Feature","geometry":{"type":"Point","coordinates":[6.686719,52.371015]},"properties":{"category":"bus_halte","name":"Bevrijdingslaan","operator":""}},{"type":"Feature","geometry":{"type":"Point","coordinates":[6.651583,52.346759]},"properties":{"category":"bus_halte","name":"Wondestraat","operator":""}},{"type":"Feature","geometry":{"type":"Point","coordinates":[6.674183,52.367768]},"properties":{"category":"bus_halte","name":"Schelfhorstpark","operator":""}},{"type":"Feature","geometry":{"type":"Point","coordinates":[6.688442,52.372572]},"properties":{"category":"bus_halte","name":"Koningshoek","operator":""}},{"type":"Feature","geometry":{"type":"Point","coordinates":[6.64353,52.345543]},"properties":{"category":"bus_halte","name":"Vincent van Goghplein","operator":""}},{"type":"Feature","geometry":{"type":"Point","coordinates":[6.633866,52.33828]},"properties":{"category":"bus_halte","name":"De Ara","operator":""}},{"type":"Feature","geometry":{"type":"Point","coordinates":[6.668344,52.366689]},"properties":{"category":"bus_halte","name":"Buurstede","operator":""}},{"type":"Feature","geometry":{"type":"Point","coordinates":[6.635078,52.362318]},"properties":{"category":"bus_halte","name":"Tsjaikowskystraat","operator":""}},{"type":"Feature","geometry":{"type":"Point","coordinates":[6.6762,52.378011]},"properties":{"category":"bus_halte","name":"Wickenburg","operator":""}},{"type":"Feature","geometry":{"type":"Point","coordinates":[6.648717,52.34472]},"properties":{"category":"bus_halte","name":"Jacob van Ruysdaelstraat","operator":""}},{"type":"Feature","geometry":{"type":"Point","coordinates":[6.678167,52.372288]},"properties":{"category":"bus_halte","name":"Groot Bokhove","operator":""}},{"type":"Feature","geometry":{"type":"Point","coordinates":[6.682257,52.345054]},"properties":{"category":"bus_halte","name":"Smaragdstraat","operator":""}},{"type":"Feature","geometry":{"type":"Point","coordinates":[6.68833,52.341882]},"properties":{"category":"bus_halte","name":"Karelskamp","operator":""}},{"type":"Feature","geometry":{"type":"Point","coordinates":[6.695277,52.337674]},"properties":{"category":"bus_halte","name":"De Niendure","operator":""}},{"type":"Feature","geometry":{"type":"Point","coordinates":[6.707204,52.332138]},"properties":{"category":"bus_halte","name":"Mastboersweg","operator":""}},{"type":"Feature","geometry":{"type":"Point","coordinates":[6.67448,52.348659]},"properties":{"category":"bus_halte","name":"Violierstraat","operator":""}},{"type":"Feature","geometry":{"type":"Point","coordinates":[6.680463,52.342472]},"properties":{"category":"bus_halte","name":"Nieuwland","operator":""}},{"type":"Feature","geometry":{"type":"Point","coordinates":[6.690345,52.341039]},"properties":{"category":"bus_halte","name":"Planthofsweg","operator":""}},{"type":"Feature","geometry":{"type":"Point","coordinates":[6.697067,52.337133]},"properties":{"category":"bus_halte","name":"Bavinkelsweg","operator":""}},{"type":"Feature","geometry":{"type":"Point","coordinates":[6.666283,52.351131]},"properties":{"category":"bus_halte","name":"Oude Veemarkt","operator":""}},{"type":"Feature","geometry":{"type":"Point","coordinates":[6.681227,52.345428]},"properties":{"category":"bus_halte","name":"Smaragdstraat","operator":""}},{"type":"Feature","geometry":{"type":"Point","coordinates":[6.683218,52.342931]},"properties":{"category":"bus_halte","name":"Nijreessingel","operator":""}},{"type":"Feature","geometry":{"type":"Point","coordinates":[6.690648,52.340805]},"properties":{"category":"bus_halte","name":"Planthofsweg","operator":""}},{"type":"Feature","geometry":{"type":"Point","coordinates":[6.706381,52.332851]},"properties":{"category":"bus_halte","name":"Mastboersweg","operator":""}},{"type":"Feature","geometry":{"type":"Point","coordinates":[6.680654,52.342487]},"properties":{"category":"bus_halte","name":"Nieuwland","operator":""}},{"type":"Feature","geometry":{"type":"Point","coordinates":[6.687814,52.342218]},"properties":{"category":"bus_halte","name":"Karelskamp","operator":""}},{"type":"Feature","geometry":{"type":"Point","coordinates":[6.695157,52.337776]},"properties":{"category":"bus_halte","name":"De Niendure","operator":""}},{"type":"Feature","geometry":{"type":"Point","coordinates":[6.676138,52.347819]},"properties":{"category":"bus_halte","name":"Violierstraat","operator":""}},{"type":"Feature","geometry":{"type":"Point","coordinates":[6.684153,52.343353]},"properties":{"category":"bus_halte","name":"Nijreessingel","operator":""}},{"type":"Feature","geometry":{"type":"Point","coordinates":[6.697904,52.336836]},"properties":{"category":"bus_halte","name":"Bavinkelsweg","operator":""}},{"type":"Feature","geometry":{"type":"Point","coordinates":[6.666604,52.351187]},"properties":{"category":"bus_halte","name":"Oude Veemarkt","operator":""}},{"type":"Feature","geometry":{"type":"Point","coordinates":[6.689873,52.373109]},"properties":{"category":"bus_halte","name":"Koningshoek","operator":""}},{"type":"Feature","geometry":{"type":"Point","coordinates":[6.687905,52.372974]},"properties":{"category":"bus_halte","name":"Koningshoek","operator":""}},{"type":"Feature","geometry":{"type":"Point","coordinates":[6.696529,52.374927]},"properties":{"category":"bus_halte","name":"Robbenhaarsweg","operator":""}},{"type":"Feature","geometry":{"type":"Point","coordinates":[6.698592,52.375375]},"properties":{"category":"bus_halte","name":"Robbenhaarsweg","operator":""}},{"type":"Feature","geometry":{"type":"Point","coordinates":[6.679459,52.369427]},"properties":{"category":"bus_halte","name":"Heetveldsweg","operator":""}},{"type":"Feature","geometry":{"type":"Point","coordinates":[6.692693,52.37382]},"properties":{"category":"bus_halte","name":"Markgraven","operator":""}},{"type":"Feature","geometry":{"type":"Point","coordinates":[6.693799,52.373933]},"properties":{"category":"bus_halte","name":"Markgraven","operator":""}},{"type":"Feature","geometry":{"type":"Point","coordinates":[6.664334,52.371726]},"properties":{"category":"bus_halte","name":"Meulenbeldlaan","operator":""}},{"type":"Feature","geometry":{"type":"Point","coordinates":[6.706769,52.377035]},"properties":{"category":"bus_halte","name":"Mariaparochie","operator":""}},{"type":"Feature","geometry":{"type":"Point","coordinates":[6.62577,52.378526]},"properties":{"category":"bus_halte","name":"Berkenlaan","operator":""}},{"type":"Feature","geometry":{"type":"Point","coordinates":[6.664644,52.372096]},"properties":{"category":"bus_halte","name":"Meulenbeldlaan","operator":""}},{"type":"Feature","geometry":{"type":"Point","coordinates":[6.706504,52.377233]},"properties":{"category":"bus_halte","name":"Mariaparochie","operator":""}},{"type":"Feature","geometry":{"type":"Point","coordinates":[6.625356,52.378942]},"properties":{"category":"bus_halte","name":"Berkenlaan","operator":""}},{"type":"Feature","geometry":{"type":"Point","coordinates":[6.666221,52.37414]},"properties":{"category":"bus_halte","name":"Huize Alexandra","operator":""}},{"type":"Feature","geometry":{"type":"Point","coordinates":[6.630076,52.375296]},"properties":{"category":"bus_halte","name":"Albardastraat","operator":""}},{"type":"Feature","geometry":{"type":"Point","coordinates":[6.633966,52.373133]},"properties":{"category":"bus_halte","name":"Sluisweg","operator":""}},{"type":"Feature","geometry":{"type":"Point","coordinates":[6.654063,52.392074]},"properties":{"category":"bus_halte","name":"Oostermaatweg","operator":""}},{"type":"Feature","geometry":{"type":"Point","coordinates":[6.666117,52.37403]},"properties":{"category":"bus_halte","name":"Huize Alexandra","operator":""}},{"type":"Feature","geometry":{"type":"Point","coordinates":[6.630384,52.375215]},"properties":{"category":"bus_halte","name":"Albardastraat","operator":""}},{"type":"Feature","geometry":{"type":"Point","coordinates":[6.634006,52.37305]},"properties":{"category":"bus_halte","name":"Sluisweg","operator":""}},{"type":"Feature","geometry":{"type":"Point","coordinates":[6.668615,52.367456]},"properties":{"category":"bus_halte","name":"Buurstede","operator":""}},{"type":"Feature","geometry":{"type":"Point","coordinates":[6.649625,52.367629]},"properties":{"category":"bus_halte","name":"Van Riemsdijkweg","operator":""}},{"type":"Feature","geometry":{"type":"Point","coordinates":[6.663843,52.380661]},"properties":{"category":"bus_halte","name":"Het Meulenbelt","operator":""}},{"type":"Feature","geometry":{"type":"Point","coordinates":[6.639207,52.373055]},"properties":{"category":"bus_halte","name":"Van den Broekeweg","operator":""}},{"type":"Feature","geometry":{"type":"Point","coordinates":[6.650393,52.367315]},"properties":{"category":"bus_halte","name":"Van Riemsdijkweg","operator":""}},{"type":"Feature","geometry":{"type":"Point","coordinates":[6.664757,52.369135]},"properties":{"category":"bus_halte","name":"Elsboerlaan","operator":""}},{"type":"Feature","geometry":{"type":"Point","coordinates":[6.639538,52.372749]},"properties":{"category":"bus_halte","name":"Van den Broekeweg","operator":""}},{"type":"Feature","geometry":{"type":"Point","coordinates":[6.645296,52.369074]},"properties":{"category":"bus_halte","name":"Beatrix de Rijkweg","operator":""}},{"type":"Feature","geometry":{"type":"Point","coordinates":[6.664742,52.36921]},"properties":{"category":"bus_halte","name":"Elsboerlaan","operator":""}},{"type":"Feature","geometry":{"type":"Point","coordinates":[6.647005,52.368443]},"properties":{"category":"bus_halte","name":"Beatrix de Rijkweg","operator":""}},{"type":"Feature","geometry":{"type":"Point","coordinates":[6.663725,52.381567]},"properties":{"category":"bus_halte","name":"Het Meulenbelt","operator":""}},{"type":"Feature","geometry":{"type":"Point","coordinates":[6.652796,52.392827]},"properties":{"category":"bus_halte","name":"Oostermaatweg","operator":""}},{"type":"Feature","geometry":{"type":"Point","coordinates":[6.65579,52.357537]},"properties":{"category":"bus_halte","name":"Centraal Station","operator":""}},{"type":"Feature","geometry":{"type":"Point","coordinates":[6.628259,52.381954]},"properties":{"category":"bus_halte","name":"Peppellaan","operator":""}},{"type":"Feature","geometry":{"type":"Point","coordinates":[6.629058,52.382369]},"properties":{"category":"bus_halte","name":"Peppellaan","operator":""}},{"type":"Feature","geometry":{"type":"Point","coordinates":[6.678052,52.370651]},"properties":{"category":"bus_halte","name":"Rustweg","operator":""}},{"type":"Feature","geometry":{"type":"Point","coordinates":[6.658618,52.334775]},"properties":{"category":"bus_halte","name":"Betuining","operator":""}},{"type":"Feature","geometry":{"type":"Point","coordinates":[6.659592,52.332431]},"properties":{"category":"bus_halte","name":"Grand Canal","operator":""}},{"type":"Feature","geometry":{"type":"Point","coordinates":[6.655351,52.330974]},"properties":{"category":"bus_halte","name":"Pergola","operator":""}},{"type":"Feature","geometry":{"type":"Point","coordinates":[6.654248,52.32852]},"properties":{"category":"bus_halte","name":"Ten Dam","operator":""}},{"type":"Feature","geometry":{"type":"Point","coordinates":[6.654674,52.317366]},"properties":{"category":"bus_halte","name":"Businesspark Twente","operator":""}},{"type":"Feature","geometry":{"type":"Point","coordinates":[6.654599,52.319043]},"properties":{"category":"bus_halte","name":"Businesspark Twente","operator":""}},{"type":"Feature","geometry":{"type":"Point","coordinates":[6.655495,52.357607]},"properties":{"category":"bus_halte","name":"Centraal Station","operator":""}},{"type":"Feature","geometry":{"type":"Point","coordinates":[6.655618,52.3576]},"properties":{"category":"bus_halte","name":"Centraal Station","operator":""}},{"type":"Feature","geometry":{"type":"Point","coordinates":[6.655914,52.35751]},"properties":{"category":"bus_halte","name":"Centraal Station","operator":""}},{"type":"Feature","geometry":{"type":"Point","coordinates":[6.656073,52.357468]},"properties":{"category":"bus_halte","name":"Centraal Station","operator":""}},{"type":"Feature","geometry":{"type":"Point","coordinates":[6.655861,52.35784]},"properties":{"category":"bus_halte","name":"Centraal Station","operator":""}},{"type":"Feature","geometry":{"type":"Point","coordinates":[6.655224,52.364329]},"properties":{"category":"bus_halte","name":"Kalverstraat","operator":""}},{"type":"Feature","geometry":{"type":"Point","coordinates":[6.655103,52.364538]},"properties":{"category":"bus_halte","name":"Kalverstraat","operator":""}},{"type":"Feature","geometry":{"type":"Point","coordinates":[6.662194,52.355207]},"properties":{"category":"bus_halte","name":"Centrumplein","operator":""}},{"type":"Feature","geometry":{"type":"Point","coordinates":[6.661739,52.355162]},"properties":{"category":"bus_halte","name":"Centrumplein","operator":""}},{"type":"Feature","geometry":{"type":"Point","coordinates":[6.636383,52.357286]},"properties":{"category":"bus_halte","name":"Mozartstraat","operator":""}},{"type":"Feature","geometry":{"type":"Point","coordinates":[6.658504,52.345772]},"properties":{"category":"bus_halte","name":"Schoolstraat","operator":""}},{"type":"Feature","geometry":{"type":"Point","coordinates":[6.658407,52.346023]},"properties":{"category":"bus_halte","name":"Schoolstraat","operator":""}},{"type":"Feature","geometry":{"type":"Point","coordinates":[6.661951,52.355173]},"properties":{"category":"bus_halte","name":"Centrumplein","operator":""}},{"type":"Feature","geometry":{"type":"Point","coordinates":[6.694943,52.316488]},"properties":{"category":"bus_halte","name":"Rustpunt Tusveld","operator":""}},{"type":"Feature","geometry":{"type":"Point","coordinates":[6.689928,52.324013]},"properties":{"category":"bus_halte","name":"Restaurant Liedenbaum","operator":""}},{"type":"Feature","geometry":{"type":"Point","coordinates":[6.689099,52.323249]},"properties":{"category":"bus_halte","name":"Autobedrijf Zuithof","operator":""}},{"type":"Feature","geometry":{"type":"Point","coordinates":[6.670358,52.311328]},"properties":{"category":"bus_halte","name":"Zorgboerderij de Zegger","operator":""}},{"type":"Feature","geometry":{"type":"Point","coordinates":[6.657256,52.307515]},"properties":{"category":"bus_halte","name":"TMZ Theresiahof","operator":""}},{"type":"Feature","geometry":{"type":"Point","coordinates":[6.655643,52.357687]},"properties":{"category":"ov_knooppunt","name":"","operator":""}},{"type":"Feature","geometry":{"type":"Point","coordinates":[6.654414,52.357705]},"properties":{"category":"ov_knooppunt","name":"Almelo","operator":""}},{"type":"Feature","geometry":{"type":"Point","coordinates":[6.666647,52.342099]},"properties":{"category":"ov_knooppunt","name":"Almelo de Riet","operator":""}},{"type":"Feature","geometry":{"type":"Point","coordinates":[6.65929,52.357217]},"properties":{"category":"gemeentehuis","name":"Stadhuis Almelo","operator":"Gemeente Almelo"}},{"type":"Feature","geometry":{"type":"Point","coordinates":[6.635813,52.356725]},"properties":{"category":"inzamelpunt","name":"Verzamelcontainer adval","operator":"Twente Milieu"}},{"type":"Feature","geometry":{"type":"Point","coordinates":[6.634796,52.356814]},"properties":{"category":"inzamelpunt","name":"Verzamelcontainer afval","operator":"Twente Milieu"}},{"type":"Feature","geometry":{"type":"Point","coordinates":[6.633787,52.356885]},"properties":{"category":"inzamelpunt","name":"Verzamelcontainer afval","operator":"Twente Milieu"}},{"type":"Feature","geometry":{"type":"Point","coordinates":[6.632846,52.357002]},"properties":{"category":"inzamelpunt","name":"Verzamelcontainer afval","operator":"Twente Milieu"}},{"type":"Feature","geometry":{"type":"Point","coordinates":[6.679419,52.378937]},"properties":{"category":"inzamelpunt","name":"","operator":""}},{"type":"Feature","geometry":{"type":"Point","coordinates":[6.676577,52.379023]},"properties":{"category":"bibliotheek","name":"Bibliotheek Schelfhorst","operator":""}},{"type":"Feature","geometry":{"type":"Point","coordinates":[6.661618,52.357464]},"properties":{"category":"bibliotheek","name":"Bibliotheek Almelo","operator":""}},{"type":"Feature","geometry":{"type":"Point","coordinates":[6.640803,52.337155]},"properties":{"category":"ziekenhuis","name":"ZGT Almelo","operator":""}},{"type":"Feature","geometry":{"type":"Point","coordinates":[6.688713,52.331745]},"properties":{"category":"transformatorhuisje","name":"","operator":""}},{"type":"Feature","geometry":{"type":"Point","coordinates":[6.688336,52.331877]},"properties":{"category":"transformatorhuisje","name":"","operator":""}},{"type":"Feature","geometry":{"type":"Point","coordinates":[6.688734,52.331893]},"properties":{"category":"transformatorhuisje","name":"","operator":""}},{"type":"Feature","geometry":{"type":"Point","coordinates":[6.688639,52.331944]},"properties":{"category":"transformatorhuisje","name":"","operator":""}},{"type":"Feature","geometry":{"type":"Point","coordinates":[6.630018,52.356491]},"properties":{"category":"transformatorhuisje","name":"","operator":""}},{"type":"Feature","geometry":{"type":"Point","coordinates":[6.629879,52.356496]},"properties":{"category":"transformatorhuisje","name":"","operator":""}},{"type":"Feature","geometry":{"type":"Point","coordinates":[6.629737,52.356505]},"properties":{"category":"transformatorhuisje","name":"","operator":""}},{"type":"Feature","geometry":{"type":"Point","coordinates":[6.631036,52.356524]},"properties":{"category":"transformatorhuisje","name":"","operator":""}},{"type":"Feature","geometry":{"type":"Point","coordinates":[6.630626,52.356533]},"properties":{"category":"transformatorhuisje","name":"","operator":""}},{"type":"Feature","geometry":{"type":"Point","coordinates":[6.634054,52.357302]},"properties":{"category":"transformatorhuisje","name":"","operator":""}},{"type":"Feature","geometry":{"type":"Point","coordinates":[6.687298,52.370253]},"properties":{"category":"transformatorhuisje","name":"","operator":"Cogas"}},{"type":"Feature","geometry":{"type":"Point","coordinates":[6.66902,52.361887]},"properties":{"category":"transformatorhuisje","name":"","operator":""}},{"type":"Feature","geometry":{"type":"Point","coordinates":[6.656814,52.332509]},"properties":{"category":"transformatorhuisje","name":"","operator":"GEB"}},{"type":"Feature","geometry":{"type":"Point","coordinates":[6.63,52.357287]},"properties":{"category":"transformatorhuisje","name":"","operator":""}},{"type":"Feature","geometry":{"type":"Point","coordinates":[6.646146,52.356401]},"properties":{"category":"transformatorhuisje","name":"","operator":""}},{"type":"Feature","geometry":{"type":"Point","coordinates":[6.658594,52.369232]},"properties":{"category":"transformatorhuisje","name":"","operator":""}},{"type":"Feature","geometry":{"type":"Point","coordinates":[6.686331,52.370376]},"properties":{"category":"transformatorhuisje","name":"","operator":""}},{"type":"Feature","geometry":{"type":"Point","coordinates":[6.660664,52.364234]},"properties":{"category":"transformatorhuisje","name":"","operator":""}},{"type":"Feature","geometry":{"type":"Point","coordinates":[6.670407,52.362904]},"properties":{"category":"transformatorhuisje","name":"","operator":""}},{"type":"Feature","geometry":{"type":"Point","coordinates":[6.63727,52.357708]},"properties":{"category":"transformatorhuisje","name":"","operator":""}},{"type":"Feature","geometry":{"type":"Point","coordinates":[6.658986,52.335796]},"properties":{"category":"transformatorhuisje","name":"Nijreesmiddenweg","operator":"Essent"}},{"type":"Feature","geometry":{"type":"Point","coordinates":[6.654526,52.34434]},"properties":{"category":"transformatorhuisje","name":"","operator":""}},{"type":"Feature","geometry":{"type":"Point","coordinates":[6.679466,52.342403]},"properties":{"category":"transformatorhuisje","name":"","operator":""}},{"type":"Feature","geometry":{"type":"Point","coordinates":[6.679651,52.343042]},"properties":{"category":"transformatorhuisje","name":"","operator":""}},{"type":"Feature","geometry":{"type":"Point","coordinates":[6.624582,52.3375]},"properties":{"category":"transformatorhuisje","name":"","operator":"Cogas"}},{"type":"Feature","geometry":{"type":"Point","coordinates":[6.625569,52.341224]},"properties":{"category":"transformatorhuisje","name":"Bosuil 1","operator":"Cogas"}},{"type":"Feature","geometry":{"type":"Point","coordinates":[6.628045,52.336444]},"properties":{"category":"transformatorhuisje","name":"","operator":"Cogas"}},{"type":"Feature","geometry":{"type":"Point","coordinates":[6.626741,52.333702]},"properties":{"category":"transformatorhuisje","name":"","operator":""}},{"type":"Feature","geometry":{"type":"Point","coordinates":[6.628901,52.338464]},"properties":{"category":"transformatorhuisje","name":"","operator":"Cogas"}},{"type":"Feature","geometry":{"type":"Point","coordinates":[6.677572,52.346522]},"properties":{"category":"transformatorhuisje","name":"","operator":""}},{"type":"Feature","geometry":{"type":"Point","coordinates":[6.66035,52.33945]},"properties":{"category":"transformatorhuisje","name":"Bornerbroeksestraat 367","operator":""}},{"type":"Feature","geometry":{"type":"Point","coordinates":[6.664229,52.351389]},"properties":{"category":"transformatorhuisje","name":"","operator":"noname"}},{"type":"Feature","geometry":{"type":"Point","coordinates":[6.668615,52.353874]},"properties":{"category":"transformatorhuisje","name":"","operator":"Liander"}},{"type":"Feature","geometry":{"type":"Point","coordinates":[6.665983,52.352886]},"properties":{"category":"transformatorhuisje","name":"","operator":""}},{"type":"Feature","geometry":{"type":"Point","coordinates":[6.670283,52.353819]},"properties":{"category":"transformatorhuisje","name":"","operator":"Liander"}},{"type":"Feature","geometry":{"type":"Point","coordinates":[6.640269,52.341785]},"properties":{"category":"hogeschool","name":"ROC van Twente","operator":"ROC van Twente"}},{"type":"Feature","geometry":{"type":"Point","coordinates":[6.669634,52.341873]},"properties":{"category":"sportveld","name":"","operator":""}},{"type":"Feature","geometry":{"type":"Point","coordinates":[6.68694,52.345033]},"properties":{"category":"sportveld","name":"Sportpark Heracles","operator":""}},{"type":"Feature","geometry":{"type":"Point","coordinates":[6.647114,52.352806]},"properties":{"category":"sportveld","name":"Het Groenendal","operator":""}},{"type":"Feature","geometry":{"type":"Point","coordinates":[6.674421,52.363909]},"properties":{"category":"sportveld","name":"Het Sportpark","operator":"Sportbedrijf Almelo"}},{"type":"Feature","geometry":{"type":"Point","coordinates":[6.677897,52.347649]},"properties":{"category":"sportveld","name":"","operator":""}},{"type":"Feature","geometry":{"type":"Point","coordinates":[6.684805,52.341474]},"properties":{"category":"sportveld","name":"","operator":""}},{"type":"Feature","geometry":{"type":"Point","coordinates":[6.66719,52.356014]},"properties":{"category":"sportveld","name":"","operator":""}},{"type":"Feature","geometry":{"type":"Point","coordinates":[6.670073,52.314551]},"properties":{"category":"sportveld","name":"Sportcomplex 't Brook","operator":""}},{"type":"Feature","geometry":{"type":"Point","coordinates":[6.650831,52.338842]},"properties":{"category":"sportveld","name":"Asito stadion","operator":""}},{"type":"Feature","geometry":{"type":"Point","coordinates":[6.670311,52.383725]},"properties":{"category":"sportveld","name":"De Schelfhorst","operator":""}},{"type":"Feature","geometry":{"type":"Point","coordinates":[6.642963,52.340301]},"properties":{"category":"winkelcentrum","name":"Woonboulevard Almelo","operator":""}},{"type":"Feature","geometry":{"type":"Point","coordinates":[6.64441,52.346334]},"properties":{"category":"supermarkt","name":"ALDI","operator":""}},{"type":"Feature","geometry":{"type":"Point","coordinates":[6.630282,52.33594]},"properties":{"category":"supermarkt","name":"Albert Heijn","operator":"Albert Heijn"}},{"type":"Feature","geometry":{"type":"Point","coordinates":[6.678552,52.37911]},"properties":{"category":"supermarkt","name":"Albert Heijn","operator":""}},{"type":"Feature","geometry":{"type":"Point","coordinates":[6.640564,52.358802]},"properties":{"category":"supermarkt","name":"PLUS","operator":""}},{"type":"Feature","geometry":{"type":"Point","coordinates":[6.677783,52.378948]},"properties":{"category":"supermarkt","name":"Dirk","operator":""}},{"type":"Feature","geometry":{"type":"Point","coordinates":[6.649872,52.338313]},"properties":{"category":"supermarkt","name":"PLUS Brughuis","operator":""}},{"type":"Feature","geometry":{"type":"Point","coordinates":[6.643908,52.346272]},"properties":{"category":"supermarkt","name":"DekaMarkt","operator":""}},{"type":"Feature","geometry":{"type":"Point","coordinates":[6.667078,52.351174]},"properties":{"category":"supermarkt","name":"PLUS Van Limbeek","operator":""}},{"type":"Feature","geometry":{"type":"Point","coordinates":[6.678982,52.365689]},"properties":{"category":"supermarkt","name":"PLUS Schuldink","operator":""}},{"type":"Feature","geometry":{"type":"Point","coordinates":[6.679372,52.365788]},"properties":{"category":"supermarkt","name":"Lidl","operator":"Lidl Nederland GmbH"}},{"type":"Feature","geometry":{"type":"Point","coordinates":[6.67949,52.346742]},"properties":{"category":"supermarkt","name":"Lidl","operator":"Lidl Nederland GmbH"}},{"type":"Feature","geometry":{"type":"Point","coordinates":[6.660767,52.349682]},"properties":{"category":"supermarkt","name":"ALDI","operator":""}},{"type":"Feature","geometry":{"type":"Point","coordinates":[6.63118,52.335598]},"properties":{"category":"supermarkt","name":"ALDI","operator":""}},{"type":"Feature","geometry":{"type":"Point","coordinates":[6.630463,52.335767]},"properties":{"category":"supermarkt","name":"David Market","operator":""}},{"type":"Feature","geometry":{"type":"Point","coordinates":[6.651057,52.348508]},"properties":{"category":"supermarkt","name":"Albert Heijn","operator":""}},{"type":"Feature","geometry":{"type":"Point","coordinates":[6.643834,52.346161]},"properties":{"category":"supermarkt","name":"De Appel","operator":""}},{"type":"Feature","geometry":{"type":"Point","coordinates":[6.643901,52.345668]},"properties":{"category":"supermarkt","name":"Butlon","operator":""}},{"type":"Feature","geometry":{"type":"Point","coordinates":[6.666955,52.368688]},"properties":{"category":"supermarkt","name":"PLUS Wemekamp","operator":""}},{"type":"Feature","geometry":{"type":"Point","coordinates":[6.677437,52.366249]},"properties":{"category":"supermarkt","name":"ALDI","operator":""}},{"type":"Feature","geometry":{"type":"Point","coordinates":[6.685254,52.370356]},"properties":{"category":"supermarkt","name":"Nettorama","operator":""}},{"type":"Feature","geometry":{"type":"Point","coordinates":[6.665003,52.354559]},"properties":{"category":"supermarkt","name":"Han's Natuurvoeding","operator":""}},{"type":"Feature","geometry":{"type":"Point","coordinates":[6.660541,52.349787]},"properties":{"category":"supermarkt","name":"Jumbo","operator":""}},{"type":"Feature","geometry":{"type":"Point","coordinates":[6.666384,52.342121]},"properties":{"category":"fietsenstalling","name":"","operator":""}},{"type":"Feature","geometry":{"type":"Point","coordinates":[6.657275,52.355849]},"properties":{"category":"fietsenstalling","name":"","operator":""}},{"type":"Feature","geometry":{"type":"Point","coordinates":[6.659674,52.353677]},"properties":{"category":"fietsenstalling","name":"Raad voor de Kinderbescherming","operator":"Ministerie voor veiligheid en Justitie"}},{"type":"Feature","geometry":{"type":"Point","coordinates":[6.670197,52.354032]},"properties":{"category":"fietsenstalling","name":"","operator":""}},{"type":"Feature","geometry":{"type":"Point","coordinates":[6.666896,52.351229]},"properties":{"category":"fietsenstalling","name":"Plus van Limbeek","operator":""}},{"type":"Feature","geometry":{"type":"Point","coordinates":[6.697011,52.336838]},"properties":{"category":"fietsenstalling","name":"","operator":""}},{"type":"Feature","geometry":{"type":"Point","coordinates":[6.696675,52.336613]},"properties":{"category":"fietsenstalling","name":"","operator":""}},{"type":"Feature","geometry":{"type":"Point","coordinates":[6.679601,52.371436]},"properties":{"category":"fietsenstalling","name":"","operator":""}},{"type":"Feature","geometry":{"type":"Point","coordinates":[6.679397,52.371316]},"properties":{"category":"fietsenstalling","name":"","operator":""}},{"type":"Feature","geometry":{"type":"Point","coordinates":[6.656878,52.356153]},"properties":{"category":"fietsenstalling","name":"","operator":""}},{"type":"Feature","geometry":{"type":"Point","coordinates":[6.666355,52.342402]},"properties":{"category":"fietsenstalling","name":"","operator":""}},{"type":"Feature","geometry":{"type":"Point","coordinates":[6.666131,52.342521]},"properties":{"category":"fietsenstalling","name":"","operator":""}},{"type":"Feature","geometry":{"type":"Point","coordinates":[6.639396,52.337237]},"properties":{"category":"fietsenstalling","name":"","operator":"Ziekenhuisgroep Twente"}},{"type":"Feature","geometry":{"type":"Point","coordinates":[6.626241,52.362055]},"properties":{"category":"fietsenstalling","name":"","operator":""}},{"type":"Feature","geometry":{"type":"Point","coordinates":[6.636156,52.359761]},"properties":{"category":"fietsenstalling","name":"","operator":""}},{"type":"Feature","geometry":{"type":"Point","coordinates":[6.639377,52.337382]},"properties":{"category":"fietsenstalling","name":"","operator":"ZGT"}},{"type":"Feature","geometry":{"type":"Point","coordinates":[6.654986,52.357052]},"properties":{"category":"fietsenstalling","name":"","operator":""}},{"type":"Feature","geometry":{"type":"Point","coordinates":[6.648244,52.356684]},"properties":{"category":"fietsenstalling","name":"","operator":""}},{"type":"Feature","geometry":{"type":"Point","coordinates":[6.666181,52.342554]},"properties":{"category":"fietsenstalling","name":"","operator":""}},{"type":"Feature","geometry":{"type":"Point","coordinates":[6.666406,52.342435]},"properties":{"category":"fietsenstalling","name":"","operator":""}},{"type":"Feature","geometry":{"type":"Point","coordinates":[6.649294,52.339422]},"properties":{"category":"fietsenstalling","name":"","operator":""}},{"type":"Feature","geometry":{"type":"Point","coordinates":[6.644584,52.346404]},"properties":{"category":"parkeergarage","name":"","operator":""}},{"type":"Feature","geometry":{"type":"Point","coordinates":[6.670668,52.36134]},"properties":{"category":"parkeergarage","name":"Parkeergarage Oosterborgh","operator":""}},{"type":"Feature","geometry":{"type":"Point","coordinates":[6.667992,52.355663]},"properties":{"category":"parkeergarage","name":"Parkeergarage Stadserf P1","operator":""}},{"type":"Feature","geometry":{"type":"Point","coordinates":[6.667776,52.355061]},"properties":{"category":"parkeergarage","name":"Parkeergarage Stadserf P2","operator":""}},{"type":"Feature","geometry":{"type":"Point","coordinates":[6.667543,52.354937]},"properties":{"category":"parkeergarage","name":"Parkeergarage Stadserf P3","operator":""}},{"type":"Feature","geometry":{"type":"Point","coordinates":[6.661541,52.356449]},"properties":{"category":"parkeergarage","name":"Parkeergarage Havenpassage P14","operator":""}},{"type":"Feature","geometry":{"type":"Point","coordinates":[6.661938,52.356413]},"properties":{"category":"parkeergarage","name":"Parkeergarage Havenpassage P13","operator":""}},{"type":"Feature","geometry":{"type":"Point","coordinates":[6.667135,52.356081]},"properties":{"category":"parkeergarage","name":"","operator":""}},{"type":"Feature","geometry":{"type":"Point","coordinates":[6.654974,52.358532]},"properties":{"category":"parkeergarage","name":"Parkeergarage Javapark P+R","operator":""}},{"type":"Feature","geometry":{"type":"Point","coordinates":[6.662818,52.357315]},"properties":{"category":"parkeergarage","name":"Parkeergarage Stadhuisplein","operator":""}},{"type":"Feature","geometry":{"type":"Point","coordinates":[6.654974,52.358532]},"properties":{"category":"p_and_r","name":"Parkeergarage Javapark P+R","operator":""}}]}