{"type":"FeatureCollection","metadata":{"gemeente":"Alphen-Chaam","slug":"alphen-chaam","by_category":{"bus_halte":45,"sportveld":5,"supermarkt":4,"transformatorhuisje":2,"gemeentehuis":1,"bibliotheek":1},"total":58},"features":[{"type":"Feature","geometry":{"type":"Point","coordinates":[4.945017,51.457445]},"properties":{"category":"bus_halte","name":"Venweg","operator":""}},{"type":"Feature","geometry":{"type":"Point","coordinates":[4.95203,51.473583]},"properties":{"category":"bus_halte","name":"Kwaalburg","operator":""}},{"type":"Feature","geometry":{"type":"Point","coordinates":[4.960249,51.487866]},"properties":{"category":"bus_halte","name":"Goedentijd","operator":""}},{"type":"Feature","geometry":{"type":"Point","coordinates":[4.96571,51.499339]},"properties":{"category":"bus_halte","name":"'t Zand","operator":""}},{"type":"Feature","geometry":{"type":"Point","coordinates":[4.955159,51.48237]},"properties":{"category":"bus_halte","name":"Willibrordplein","operator":""}},{"type":"Feature","geometry":{"type":"Point","coordinates":[4.955342,51.483042]},"properties":{"category":"bus_halte","name":"Willibrordplein","operator":""}},{"type":"Feature","geometry":{"type":"Point","coordinates":[4.95478,51.479187]},"properties":{"category":"bus_halte","name":"Nieuwstraat","operator":""}},{"type":"Feature","geometry":{"type":"Point","coordinates":[4.944842,51.457814]},"properties":{"category":"bus_halte","name":"Venweg","operator":""}},{"type":"Feature","geometry":{"type":"Point","coordinates":[4.862361,51.490273]},"properties":{"category":"bus_halte","name":"Houtgoorstraat","operator":""}},{"type":"Feature","geometry":{"type":"Point","coordinates":[4.860661,51.498795]},"properties":{"category":"bus_halte","name":"Kleistraat","operator":""}},{"type":"Feature","geometry":{"type":"Point","coordinates":[4.863698,51.503403]},"properties":{"category":"bus_halte","name":"Ulicotenseweg","operator":""}},{"type":"Feature","geometry":{"type":"Point","coordinates":[4.874876,51.494055]},"properties":{"category":"bus_halte","name":"Legstraat","operator":""}},{"type":"Feature","geometry":{"type":"Point","coordinates":[4.870521,51.501161]},"properties":{"category":"bus_halte","name":"Meysberg","operator":""}},{"type":"Feature","geometry":{"type":"Point","coordinates":[4.819142,51.533617]},"properties":{"category":"bus_halte","name":"Geersbroekseweg","operator":""}},{"type":"Feature","geometry":{"type":"Point","coordinates":[4.848453,51.512367]},"properties":{"category":"bus_halte","name":"Meerleseweg","operator":""}},{"type":"Feature","geometry":{"type":"Point","coordinates":[4.861355,51.505361]},"properties":{"category":"bus_halte","name":"Dorpsstraat","operator":""}},{"type":"Feature","geometry":{"type":"Point","coordinates":[4.856444,51.507706]},"properties":{"category":"bus_halte","name":"Boterfabriekweg","operator":""}},{"type":"Feature","geometry":{"type":"Point","coordinates":[4.957602,51.486208]},"properties":{"category":"bus_halte","name":"Van Gaverenlaan","operator":""}},{"type":"Feature","geometry":{"type":"Point","coordinates":[4.973256,51.504139]},"properties":{"category":"bus_halte","name":"Oosterwijksestraat","operator":""}},{"type":"Feature","geometry":{"type":"Point","coordinates":[4.987322,51.51056]},"properties":{"category":"bus_halte","name":"Rielseweg","operator":""}},{"type":"Feature","geometry":{"type":"Point","coordinates":[4.778696,51.505453]},"properties":{"category":"bus_halte","name":"Markweg","operator":""}},{"type":"Feature","geometry":{"type":"Point","coordinates":[4.775349,51.512175]},"properties":{"category":"bus_halte","name":"Ballemanseweg","operator":""}},{"type":"Feature","geometry":{"type":"Point","coordinates":[4.773862,51.516346]},"properties":{"category":"bus_halte","name":"Smidshof","operator":""}},{"type":"Feature","geometry":{"type":"Point","coordinates":[4.947856,51.465744]},"properties":{"category":"bus_halte","name":"Boshoven","operator":""}},{"type":"Feature","geometry":{"type":"Point","coordinates":[4.856357,51.507551]},"properties":{"category":"bus_halte","name":"Boterfabriekweg","operator":""}},{"type":"Feature","geometry":{"type":"Point","coordinates":[4.860556,51.505569]},"properties":{"category":"bus_halte","name":"Dorpsstraat","operator":""}},{"type":"Feature","geometry":{"type":"Point","coordinates":[4.82265,51.533144]},"properties":{"category":"bus_halte","name":"Geersbroekseweg","operator":""}},{"type":"Feature","geometry":{"type":"Point","coordinates":[4.96036,51.487849]},"properties":{"category":"bus_halte","name":"Goedentijd","operator":""}},{"type":"Feature","geometry":{"type":"Point","coordinates":[4.862215,51.490254]},"properties":{"category":"bus_halte","name":"Houtgoorstraat","operator":""}},{"type":"Feature","geometry":{"type":"Point","coordinates":[4.860357,51.497934]},"properties":{"category":"bus_halte","name":"Kleistraat","operator":""}},{"type":"Feature","geometry":{"type":"Point","coordinates":[4.952202,51.473734]},"properties":{"category":"bus_halte","name":"Kwaalburg","operator":""}},{"type":"Feature","geometry":{"type":"Point","coordinates":[4.874739,51.494046]},"properties":{"category":"bus_halte","name":"Legstraat","operator":""}},{"type":"Feature","geometry":{"type":"Point","coordinates":[4.848273,51.512335]},"properties":{"category":"bus_halte","name":"Meerleseweg","operator":""}},{"type":"Feature","geometry":{"type":"Point","coordinates":[4.869493,51.501664]},"properties":{"category":"bus_halte","name":"Meysberg","operator":""}},{"type":"Feature","geometry":{"type":"Point","coordinates":[4.954746,51.479903]},"properties":{"category":"bus_halte","name":"Nieuwstraat","operator":""}},{"type":"Feature","geometry":{"type":"Point","coordinates":[4.973328,51.504067]},"properties":{"category":"bus_halte","name":"Oosterwijksestraat","operator":""}},{"type":"Feature","geometry":{"type":"Point","coordinates":[4.965835,51.499067]},"properties":{"category":"bus_halte","name":"'t Zand","operator":""}},{"type":"Feature","geometry":{"type":"Point","coordinates":[4.987399,51.510504]},"properties":{"category":"bus_halte","name":"Rielseweg","operator":""}},{"type":"Feature","geometry":{"type":"Point","coordinates":[4.957795,51.486186]},"properties":{"category":"bus_halte","name":"Van Gaverenlaan","operator":""}},{"type":"Feature","geometry":{"type":"Point","coordinates":[4.94737,51.465694]},"properties":{"category":"bus_halte","name":"Boshoven","operator":""}},{"type":"Feature","geometry":{"type":"Point","coordinates":[4.863596,51.503467]},"properties":{"category":"bus_halte","name":"Ulicotenseweg","operator":""}},{"type":"Feature","geometry":{"type":"Point","coordinates":[4.7788,51.505514]},"properties":{"category":"bus_halte","name":"Markweg","operator":""}},{"type":"Feature","geometry":{"type":"Point","coordinates":[4.775384,51.512251]},"properties":{"category":"bus_halte","name":"Ballemanseweg","operator":""}},{"type":"Feature","geometry":{"type":"Point","coordinates":[4.774023,51.516436]},"properties":{"category":"bus_halte","name":"Smidshof","operator":""}},{"type":"Feature","geometry":{"type":"Point","coordinates":[4.7957,51.502758]},"properties":{"category":"bus_halte","name":"Strijbeek","operator":""}},{"type":"Feature","geometry":{"type":"Point","coordinates":[4.954736,51.482988]},"properties":{"category":"gemeentehuis","name":"Gemeentehuis Alphen-Chaam","operator":"Gemeente Alphen-Chaam"}},{"type":"Feature","geometry":{"type":"Point","coordinates":[4.862627,51.506808]},"properties":{"category":"bibliotheek","name":"Bibliotheek Alphen-Chaam","operator":"Stichting Bibliotheek Alphen-Chaam"}},{"type":"Feature","geometry":{"type":"Point","coordinates":[4.977089,51.461127]},"properties":{"category":"transformatorhuisje","name":"","operator":""}},{"type":"Feature","geometry":{"type":"Point","coordinates":[4.769957,51.523588]},"properties":{"category":"transformatorhuisje","name":"064.515","operator":"Enexis"}},{"type":"Feature","geometry":{"type":"Point","coordinates":[4.775288,51.517307]},"properties":{"category":"sportveld","name":"Sportpark De Leeuwerik","operator":""}},{"type":"Feature","geometry":{"type":"Point","coordinates":[4.951608,51.485366]},"properties":{"category":"sportveld","name":"","operator":""}},{"type":"Feature","geometry":{"type":"Point","coordinates":[4.895017,51.489366]},"properties":{"category":"sportveld","name":"","operator":""}},{"type":"Feature","geometry":{"type":"Point","coordinates":[4.775136,51.518331]},"properties":{"category":"sportveld","name":"","operator":""}},{"type":"Feature","geometry":{"type":"Point","coordinates":[4.861854,51.509723]},"properties":{"category":"sportveld","name":"Sportpark Groot Heivelt","operator":""}},{"type":"Feature","geometry":{"type":"Point","coordinates":[4.860709,51.504896]},"properties":{"category":"supermarkt","name":"PLUS Laurijssen","operator":""}},{"type":"Feature","geometry":{"type":"Point","coordinates":[4.954256,51.483508]},"properties":{"category":"supermarkt","name":"PLUS Van Eekelen","operator":""}},{"type":"Feature","geometry":{"type":"Point","coordinates":[4.860358,51.505471]},"properties":{"category":"supermarkt","name":"Lidl","operator":"Lidl Nederland GmbH"}},{"type":"Feature","geometry":{"type":"Point","coordinates":[4.895892,51.489991]},"properties":{"category":"supermarkt","name":"Supermarkt","operator":""}}]}