{"type":"FeatureCollection","metadata":{"gemeente":"Assen","slug":"assen","by_category":{"bus_halte":195,"fietsenstalling":37,"transformatorhuisje":22,"supermarkt":19,"sportveld":13,"hogeschool":7,"parkeergarage":7,"ov_knooppunt":4,"inzamelpunt":3,"universiteit":2,"middelbare_school":2,"winkelcentrum":2,"p_and_r":2,"ns_station":1,"gemeentehuis":1,"bibliotheek":1,"ziekenhuis":1},"total":319},"features":[{"type":"Feature","geometry":{"type":"Point","coordinates":[6.571245,52.992265]},"properties":{"category":"ns_station","name":"Assen","operator":""}},{"type":"Feature","geometry":{"type":"Point","coordinates":[6.59224,53.024294]},"properties":{"category":"bus_halte","name":"Sternmesschen","operator":""}},{"type":"Feature","geometry":{"type":"Point","coordinates":[6.591745,53.024371]},"properties":{"category":"bus_halte","name":"Sternmesschen","operator":""}},{"type":"Feature","geometry":{"type":"Point","coordinates":[6.596071,53.022881]},"properties":{"category":"bus_halte","name":"Fuutmesschen","operator":""}},{"type":"Feature","geometry":{"type":"Point","coordinates":[6.595618,53.023566]},"properties":{"category":"bus_halte","name":"Fuutmesschen","operator":""}},{"type":"Feature","geometry":{"type":"Point","coordinates":[6.595431,53.020187]},"properties":{"category":"bus_halte","name":"Enkeerdhamel","operator":""}},{"type":"Feature","geometry":{"type":"Point","coordinates":[6.595882,53.020175]},"properties":{"category":"bus_halte","name":"Enkeerdhamel","operator":""}},{"type":"Feature","geometry":{"type":"Point","coordinates":[6.592333,53.016175]},"properties":{"category":"bus_halte","name":"Gersthullen","operator":""}},{"type":"Feature","geometry":{"type":"Point","coordinates":[6.594014,53.016646]},"properties":{"category":"bus_halte","name":"Gersthullen","operator":""}},{"type":"Feature","geometry":{"type":"Point","coordinates":[6.590012,53.014544]},"properties":{"category":"bus_halte","name":"Kinderboerderij Marsdijk","operator":""}},{"type":"Feature","geometry":{"type":"Point","coordinates":[6.590659,53.015503]},"properties":{"category":"bus_halte","name":"Kinderboerderij Marsdijk","operator":""}},{"type":"Feature","geometry":{"type":"Point","coordinates":[6.491162,53.000663]},"properties":{"category":"bus_halte","name":"Domeinweg","operator":""}},{"type":"Feature","geometry":{"type":"Point","coordinates":[6.491102,53.000733]},"properties":{"category":"bus_halte","name":"Domeinweg","operator":""}},{"type":"Feature","geometry":{"type":"Point","coordinates":[6.505347,52.994633]},"properties":{"category":"bus_halte","name":"Polweg","operator":""}},{"type":"Feature","geometry":{"type":"Point","coordinates":[6.505622,52.994736]},"properties":{"category":"bus_halte","name":"Polweg","operator":""}},{"type":"Feature","geometry":{"type":"Point","coordinates":[6.512298,52.995597]},"properties":{"category":"bus_halte","name":"Kloosterbrug","operator":""}},{"type":"Feature","geometry":{"type":"Point","coordinates":[6.512065,52.995499]},"properties":{"category":"bus_halte","name":"Kloosterbrug","operator":""}},{"type":"Feature","geometry":{"type":"Point","coordinates":[6.519512,52.996527]},"properties":{"category":"bus_halte","name":"Balkendwarsweg","operator":""}},{"type":"Feature","geometry":{"type":"Point","coordinates":[6.520182,52.996546]},"properties":{"category":"bus_halte","name":"Balkendwarsweg","operator":""}},{"type":"Feature","geometry":{"type":"Point","coordinates":[6.5377,52.984642]},"properties":{"category":"bus_halte","name":"Rotonde Hoofdlaan","operator":""}},{"type":"Feature","geometry":{"type":"Point","coordinates":[6.540287,52.984711]},"properties":{"category":"bus_halte","name":"Stadsbroek","operator":""}},{"type":"Feature","geometry":{"type":"Point","coordinates":[6.541225,52.985468]},"properties":{"category":"bus_halte","name":"Stadsbroek","operator":""}},{"type":"Feature","geometry":{"type":"Point","coordinates":[6.533945,52.988782]},"properties":{"category":"bus_halte","name":"Witterstraat","operator":""}},{"type":"Feature","geometry":{"type":"Point","coordinates":[6.535239,52.987719]},"properties":{"category":"bus_halte","name":"Witterstraat","operator":""}},{"type":"Feature","geometry":{"type":"Point","coordinates":[6.55986,52.992291]},"properties":{"category":"bus_halte","name":"Kerkplein","operator":""}},{"type":"Feature","geometry":{"type":"Point","coordinates":[6.559989,52.992194]},"properties":{"category":"bus_halte","name":"Kerkplein","operator":""}},{"type":"Feature","geometry":{"type":"Point","coordinates":[6.565616,52.992973]},"properties":{"category":"bus_halte","name":"Zuidhaege","operator":""}},{"type":"Feature","geometry":{"type":"Point","coordinates":[6.565501,52.992897]},"properties":{"category":"bus_halte","name":"Zuidhaege","operator":""}},{"type":"Feature","geometry":{"type":"Point","coordinates":[6.558899,52.995069]},"properties":{"category":"bus_halte","name":"Weiersstraat HEMA","operator":""}},{"type":"Feature","geometry":{"type":"Point","coordinates":[6.559412,52.994093]},"properties":{"category":"bus_halte","name":"De Nieuwe Kolk","operator":""}},{"type":"Feature","geometry":{"type":"Point","coordinates":[6.506438,53.003122]},"properties":{"category":"bus_halte","name":"Domeinpad","operator":""}},{"type":"Feature","geometry":{"type":"Point","coordinates":[6.506116,53.002973]},"properties":{"category":"bus_halte","name":"Domeinpad","operator":""}},{"type":"Feature","geometry":{"type":"Point","coordinates":[6.51295,53.004951]},"properties":{"category":"bus_halte","name":"Hildegard van Bingenweg","operator":""}},{"type":"Feature","geometry":{"type":"Point","coordinates":[6.513692,53.004969]},"properties":{"category":"bus_halte","name":"Hildegard van Bingenweg","operator":""}},{"type":"Feature","geometry":{"type":"Point","coordinates":[6.519261,53.003944]},"properties":{"category":"bus_halte","name":"Caro van Eyckrotonde","operator":""}},{"type":"Feature","geometry":{"type":"Point","coordinates":[6.518808,53.004032]},"properties":{"category":"bus_halte","name":"Caro van Eyckrotonde","operator":""}},{"type":"Feature","geometry":{"type":"Point","coordinates":[6.539446,53.001974]},"properties":{"category":"bus_halte","name":"Maria in Campislaan","operator":""}},{"type":"Feature","geometry":{"type":"Point","coordinates":[6.548073,52.999747]},"properties":{"category":"bus_halte","name":"Selma Lagerlöflaan","operator":""}},{"type":"Feature","geometry":{"type":"Point","coordinates":[6.548029,52.999903]},"properties":{"category":"bus_halte","name":"Selma Lagerlöflaan","operator":""}},{"type":"Feature","geometry":{"type":"Point","coordinates":[6.551209,52.998997]},"properties":{"category":"bus_halte","name":"Nobellaan","operator":""}},{"type":"Feature","geometry":{"type":"Point","coordinates":[6.551984,52.998778]},"properties":{"category":"bus_halte","name":"Nobellaan","operator":""}},{"type":"Feature","geometry":{"type":"Point","coordinates":[6.537842,53.004241]},"properties":{"category":"bus_halte","name":"Scheldestraat","operator":""}},{"type":"Feature","geometry":{"type":"Point","coordinates":[6.540934,53.00687]},"properties":{"category":"bus_halte","name":"Winkelcentrum Maasstraat","operator":""}},{"type":"Feature","geometry":{"type":"Point","coordinates":[6.546972,53.00822]},"properties":{"category":"bus_halte","name":"Rijnstraat","operator":""}},{"type":"Feature","geometry":{"type":"Point","coordinates":[6.545564,53.026129]},"properties":{"category":"bus_halte","name":"Ter Aard","operator":""}},{"type":"Feature","geometry":{"type":"Point","coordinates":[6.545678,53.026508]},"properties":{"category":"bus_halte","name":"Ter Aard","operator":""}},{"type":"Feature","geometry":{"type":"Point","coordinates":[6.536762,53.035375]},"properties":{"category":"bus_halte","name":"Minister Cremerstraat","operator":""}},{"type":"Feature","geometry":{"type":"Point","coordinates":[6.536877,53.035399]},"properties":{"category":"bus_halte","name":"Minister Cremerstraat","operator":""}},{"type":"Feature","geometry":{"type":"Point","coordinates":[6.54902,53.00454]},"properties":{"category":"bus_halte","name":"Oostermoer","operator":""}},{"type":"Feature","geometry":{"type":"Point","coordinates":[6.549909,53.004961]},"properties":{"category":"bus_halte","name":"Oostermoer","operator":""}},{"type":"Feature","geometry":{"type":"Point","coordinates":[6.54794,53.007615]},"properties":{"category":"bus_halte","name":"Maasstraat","operator":""}},{"type":"Feature","geometry":{"type":"Point","coordinates":[6.549248,53.008438]},"properties":{"category":"bus_halte","name":"Maasstraat","operator":""}},{"type":"Feature","geometry":{"type":"Point","coordinates":[6.55142,53.015742]},"properties":{"category":"bus_halte","name":"Peelo","operator":""}},{"type":"Feature","geometry":{"type":"Point","coordinates":[6.551619,53.015244]},"properties":{"category":"bus_halte","name":"Peelo","operator":""}},{"type":"Feature","geometry":{"type":"Point","coordinates":[6.565476,52.993623]},"properties":{"category":"bus_halte","name":"Oostersingel","operator":""}},{"type":"Feature","geometry":{"type":"Point","coordinates":[6.565639,52.993829]},"properties":{"category":"bus_halte","name":"Oostersingel","operator":""}},{"type":"Feature","geometry":{"type":"Point","coordinates":[6.578709,52.995295]},"properties":{"category":"bus_halte","name":"Rembrandtlaan","operator":""}},{"type":"Feature","geometry":{"type":"Point","coordinates":[6.580407,52.995114]},"properties":{"category":"bus_halte","name":"Rembrandtlaan","operator":""}},{"type":"Feature","geometry":{"type":"Point","coordinates":[6.593474,52.991019]},"properties":{"category":"bus_halte","name":"Amelte","operator":""}},{"type":"Feature","geometry":{"type":"Point","coordinates":[6.591578,52.992201]},"properties":{"category":"bus_halte","name":"Amelte","operator":""}},{"type":"Feature","geometry":{"type":"Point","coordinates":[6.561739,53.002306]},"properties":{"category":"bus_halte","name":"Mr. G. v Prinstererlaan","operator":""}},{"type":"Feature","geometry":{"type":"Point","coordinates":[6.561821,53.002456]},"properties":{"category":"bus_halte","name":"Mr. G. v Prinstererlaan","operator":""}},{"type":"Feature","geometry":{"type":"Point","coordinates":[6.566003,53.003406]},"properties":{"category":"bus_halte","name":"A.H.G. Fokkerstraat","operator":""}},{"type":"Feature","geometry":{"type":"Point","coordinates":[6.565929,53.003516]},"properties":{"category":"bus_halte","name":"A.H.G. Fokkerstraat","operator":""}},{"type":"Feature","geometry":{"type":"Point","coordinates":[6.568007,53.008895]},"properties":{"category":"bus_halte","name":"Smetanalaan","operator":""}},{"type":"Feature","geometry":{"type":"Point","coordinates":[6.554795,53.014414]},"properties":{"category":"bus_halte","name":"Schanswal","operator":""}},{"type":"Feature","geometry":{"type":"Point","coordinates":[6.558221,53.015709]},"properties":{"category":"bus_halte","name":"Beuzeveen","operator":""}},{"type":"Feature","geometry":{"type":"Point","coordinates":[6.568361,53.009459]},"properties":{"category":"bus_halte","name":"Smetanalaan","operator":""}},{"type":"Feature","geometry":{"type":"Point","coordinates":[6.561646,53.015996]},"properties":{"category":"bus_halte","name":"Winkelcentrum Walakker","operator":""}},{"type":"Feature","geometry":{"type":"Point","coordinates":[6.571467,53.025153]},"properties":{"category":"bus_halte","name":"Peelerpark","operator":""}},{"type":"Feature","geometry":{"type":"Point","coordinates":[6.571815,53.026252]},"properties":{"category":"bus_halte","name":"Peelerpark","operator":""}},{"type":"Feature","geometry":{"type":"Point","coordinates":[6.571399,53.030379]},"properties":{"category":"bus_halte","name":"Doctor Johan Piccardtweg","operator":""}},{"type":"Feature","geometry":{"type":"Point","coordinates":[6.572348,53.044504]},"properties":{"category":"bus_halte","name":"Oudemolenseweg","operator":""}},{"type":"Feature","geometry":{"type":"Point","coordinates":[6.572931,53.045696]},"properties":{"category":"bus_halte","name":"Oudemolenseweg","operator":""}},{"type":"Feature","geometry":{"type":"Point","coordinates":[6.574589,53.051788]},"properties":{"category":"bus_halte","name":"Vriezerhoek","operator":""}},{"type":"Feature","geometry":{"type":"Point","coordinates":[6.575061,53.052857]},"properties":{"category":"bus_halte","name":"Vriezerhoek","operator":""}},{"type":"Feature","geometry":{"type":"Point","coordinates":[6.598958,53.004819]},"properties":{"category":"bus_halte","name":"Lonerstraat 132","operator":""}},{"type":"Feature","geometry":{"type":"Point","coordinates":[6.599474,53.00502]},"properties":{"category":"bus_halte","name":"Lonerstraat 132","operator":""}},{"type":"Feature","geometry":{"type":"Point","coordinates":[6.611988,53.013568]},"properties":{"category":"bus_halte","name":"Loneresweg","operator":""}},{"type":"Feature","geometry":{"type":"Point","coordinates":[6.61191,53.013229]},"properties":{"category":"bus_halte","name":"Loneresweg","operator":""}},{"type":"Feature","geometry":{"type":"Point","coordinates":[6.550975,52.953226]},"properties":{"category":"bus_halte","name":"Asserweg 32","operator":""}},{"type":"Feature","geometry":{"type":"Point","coordinates":[6.550534,52.952666]},"properties":{"category":"bus_halte","name":"Asserweg 32","operator":""}},{"type":"Feature","geometry":{"type":"Point","coordinates":[6.553181,52.960572]},"properties":{"category":"bus_halte","name":"Graswijk 22","operator":""}},{"type":"Feature","geometry":{"type":"Point","coordinates":[6.55358,52.961143]},"properties":{"category":"bus_halte","name":"Graswijk 22","operator":""}},{"type":"Feature","geometry":{"type":"Point","coordinates":[6.554732,52.965411]},"properties":{"category":"bus_halte","name":"Graswijk 14","operator":""}},{"type":"Feature","geometry":{"type":"Point","coordinates":[6.554553,52.966222]},"properties":{"category":"bus_halte","name":"Graswijk 14","operator":""}},{"type":"Feature","geometry":{"type":"Point","coordinates":[6.554696,52.971624]},"properties":{"category":"bus_halte","name":"Korenmaat","operator":""}},{"type":"Feature","geometry":{"type":"Point","coordinates":[6.555182,52.973109]},"properties":{"category":"bus_halte","name":"Korenmaat","operator":""}},{"type":"Feature","geometry":{"type":"Point","coordinates":[6.556179,52.976685]},"properties":{"category":"bus_halte","name":"Beilerstraat","operator":""}},{"type":"Feature","geometry":{"type":"Point","coordinates":[6.563314,52.979309]},"properties":{"category":"bus_halte","name":"Mandemaat","operator":""}},{"type":"Feature","geometry":{"type":"Point","coordinates":[6.566909,52.98246]},"properties":{"category":"bus_halte","name":"Ziekenhuis","operator":""}},{"type":"Feature","geometry":{"type":"Point","coordinates":[6.567774,52.983791]},"properties":{"category":"bus_halte","name":"Ziekenhuis","operator":""}},{"type":"Feature","geometry":{"type":"Point","coordinates":[6.512198,52.993189]},"properties":{"category":"bus_halte","name":"Torenrotonde","operator":""}},{"type":"Feature","geometry":{"type":"Point","coordinates":[6.512028,52.992931]},"properties":{"category":"bus_halte","name":"Torenrotonde","operator":""}},{"type":"Feature","geometry":{"type":"Point","coordinates":[6.507803,52.998541]},"properties":{"category":"bus_halte","name":"Aletta Jacobsweg","operator":""}},{"type":"Feature","geometry":{"type":"Point","coordinates":[6.507869,52.998755]},"properties":{"category":"bus_halte","name":"Aletta Jacobsweg","operator":""}},{"type":"Feature","geometry":{"type":"Point","coordinates":[6.568943,53.002387]},"properties":{"category":"bus_halte","name":"Industrieweg","operator":""}},{"type":"Feature","geometry":{"type":"Point","coordinates":[6.574079,53.003115]},"properties":{"category":"bus_halte","name":"W.A. Scholtenstraat","operator":""}},{"type":"Feature","geometry":{"type":"Point","coordinates":[6.575476,53.003586]},"properties":{"category":"bus_halte","name":"W.A. Scholtenstraat","operator":""}},{"type":"Feature","geometry":{"type":"Point","coordinates":[6.583144,53.00763]},"properties":{"category":"bus_halte","name":"Winkler Prinsstraat","operator":""}},{"type":"Feature","geometry":{"type":"Point","coordinates":[6.58341,53.007618]},"properties":{"category":"bus_halte","name":"Winkler Prinsstraat","operator":""}},{"type":"Feature","geometry":{"type":"Point","coordinates":[6.579006,53.015753]},"properties":{"category":"bus_halte","name":"Deelheugte","operator":""}},{"type":"Feature","geometry":{"type":"Point","coordinates":[6.587169,53.009254]},"properties":{"category":"bus_halte","name":"Stelmakerstraat","operator":""}},{"type":"Feature","geometry":{"type":"Point","coordinates":[6.586887,53.009244]},"properties":{"category":"bus_halte","name":"Stelmakerstraat","operator":""}},{"type":"Feature","geometry":{"type":"Point","coordinates":[6.589325,53.012082]},"properties":{"category":"bus_halte","name":"Stoepveldsingel","operator":""}},{"type":"Feature","geometry":{"type":"Point","coordinates":[6.589491,53.012756]},"properties":{"category":"bus_halte","name":"Stoepveldsingel","operator":""}},{"type":"Feature","geometry":{"type":"Point","coordinates":[6.582625,53.019158]},"properties":{"category":"bus_halte","name":"Kiepheugte","operator":""}},{"type":"Feature","geometry":{"type":"Point","coordinates":[6.582444,53.019621]},"properties":{"category":"bus_halte","name":"Kiepheugte","operator":""}},{"type":"Feature","geometry":{"type":"Point","coordinates":[6.584051,53.017352]},"properties":{"category":"bus_halte","name":"Winkelcentrum Marsdijk","operator":""}},{"type":"Feature","geometry":{"type":"Point","coordinates":[6.583659,53.021726]},"properties":{"category":"bus_halte","name":"Buitenbree","operator":""}},{"type":"Feature","geometry":{"type":"Point","coordinates":[6.583875,53.02175]},"properties":{"category":"bus_halte","name":"Buitenbree","operator":""}},{"type":"Feature","geometry":{"type":"Point","coordinates":[6.587532,53.023376]},"properties":{"category":"bus_halte","name":"Vlintdreef","operator":""}},{"type":"Feature","geometry":{"type":"Point","coordinates":[6.58747,53.023267]},"properties":{"category":"bus_halte","name":"Vlintdreef","operator":""}},{"type":"Feature","geometry":{"type":"Point","coordinates":[6.535456,52.983632]},"properties":{"category":"bus_halte","name":"Het Sticht Winkelcentrum","operator":""}},{"type":"Feature","geometry":{"type":"Point","coordinates":[6.529445,52.990146]},"properties":{"category":"bus_halte","name":"Hunsingostraat","operator":""}},{"type":"Feature","geometry":{"type":"Point","coordinates":[6.542654,52.979254]},"properties":{"category":"bus_halte","name":"De Boskamp","operator":""}},{"type":"Feature","geometry":{"type":"Point","coordinates":[6.571573,52.985827]},"properties":{"category":"bus_halte","name":"Anreperstraat","operator":""}},{"type":"Feature","geometry":{"type":"Point","coordinates":[6.574781,52.985338]},"properties":{"category":"bus_halte","name":"Brunelstraat","operator":""}},{"type":"Feature","geometry":{"type":"Point","coordinates":[6.575975,52.985954]},"properties":{"category":"bus_halte","name":"Zonnedauwstraat","operator":""}},{"type":"Feature","geometry":{"type":"Point","coordinates":[6.578375,52.984775]},"properties":{"category":"bus_halte","name":"Klaproosstraat","operator":""}},{"type":"Feature","geometry":{"type":"Point","coordinates":[6.58132,52.985497]},"properties":{"category":"bus_halte","name":"Speenkruidstraat","operator":""}},{"type":"Feature","geometry":{"type":"Point","coordinates":[6.58103,52.989319]},"properties":{"category":"bus_halte","name":"Platolaan","operator":""}},{"type":"Feature","geometry":{"type":"Point","coordinates":[6.577737,52.989583]},"properties":{"category":"bus_halte","name":"Tuinstraat","operator":""}},{"type":"Feature","geometry":{"type":"Point","coordinates":[6.537925,52.984716]},"properties":{"category":"bus_halte","name":"Rotonde Hoofdlaan","operator":""}},{"type":"Feature","geometry":{"type":"Point","coordinates":[6.595134,53.018202]},"properties":{"category":"bus_halte","name":"Beekeerdhamel","operator":""}},{"type":"Feature","geometry":{"type":"Point","coordinates":[6.595278,53.018546]},"properties":{"category":"bus_halte","name":"Beekeerdhamel","operator":""}},{"type":"Feature","geometry":{"type":"Point","coordinates":[6.564742,52.979898]},"properties":{"category":"bus_halte","name":"Mandemaat","operator":""}},{"type":"Feature","geometry":{"type":"Point","coordinates":[6.569691,53.012296]},"properties":{"category":"bus_halte","name":"Noorderstaete","operator":""}},{"type":"Feature","geometry":{"type":"Point","coordinates":[6.568162,53.011937]},"properties":{"category":"bus_halte","name":"Noorderstaete","operator":""}},{"type":"Feature","geometry":{"type":"Point","coordinates":[6.530946,53.000709]},"properties":{"category":"bus_halte","name":"Brandweerkazerne","operator":""}},{"type":"Feature","geometry":{"type":"Point","coordinates":[6.530912,53.000973]},"properties":{"category":"bus_halte","name":"Brandweerkazerne","operator":""}},{"type":"Feature","geometry":{"type":"Point","coordinates":[6.555247,53.011992]},"properties":{"category":"bus_halte","name":"Ter Aardseweg","operator":""}},{"type":"Feature","geometry":{"type":"Point","coordinates":[6.555521,53.011893]},"properties":{"category":"bus_halte","name":"Ter Aardseweg","operator":""}},{"type":"Feature","geometry":{"type":"Point","coordinates":[6.531161,52.993457]},"properties":{"category":"bus_halte","name":"Balkenweg","operator":""}},{"type":"Feature","geometry":{"type":"Point","coordinates":[6.529482,52.994093]},"properties":{"category":"bus_halte","name":"Balkenweg","operator":""}},{"type":"Feature","geometry":{"type":"Point","coordinates":[6.567193,52.997698]},"properties":{"category":"bus_halte","name":"Rolderstraat","operator":""}},{"type":"Feature","geometry":{"type":"Point","coordinates":[6.567534,52.996454]},"properties":{"category":"bus_halte","name":"Rolderstraat","operator":""}},{"type":"Feature","geometry":{"type":"Point","coordinates":[6.534094,52.966777]},"properties":{"category":"bus_halte","name":"TT-Circuit","operator":""}},{"type":"Feature","geometry":{"type":"Point","coordinates":[6.572632,53.017648]},"properties":{"category":"bus_halte","name":"Busstation Marsdijk","operator":""}},{"type":"Feature","geometry":{"type":"Point","coordinates":[6.572388,53.017696]},"properties":{"category":"bus_halte","name":"Busstation Marsdijk","operator":""}},{"type":"Feature","geometry":{"type":"Point","coordinates":[6.572748,53.017627]},"properties":{"category":"bus_halte","name":"Busstation Marsdijk","operator":""}},{"type":"Feature","geometry":{"type":"Point","coordinates":[6.57252,53.017667]},"properties":{"category":"bus_halte","name":"Busstation Marsdijk","operator":""}},{"type":"Feature","geometry":{"type":"Point","coordinates":[6.531383,52.99484]},"properties":{"category":"bus_halte","name":"Balkenweg","operator":""}},{"type":"Feature","geometry":{"type":"Point","coordinates":[6.554912,52.9775]},"properties":{"category":"bus_halte","name":"Beilerstraat","operator":""}},{"type":"Feature","geometry":{"type":"Point","coordinates":[6.569829,53.001782]},"properties":{"category":"bus_halte","name":"Industrieweg","operator":""}},{"type":"Feature","geometry":{"type":"Point","coordinates":[6.570743,53.002449]},"properties":{"category":"bus_halte","name":"Industrieweg","operator":""}},{"type":"Feature","geometry":{"type":"Point","coordinates":[6.558065,52.998016]},"properties":{"category":"bus_halte","name":"Triade","operator":""}},{"type":"Feature","geometry":{"type":"Point","coordinates":[6.560173,52.998498]},"properties":{"category":"bus_halte","name":"Triade","operator":""}},{"type":"Feature","geometry":{"type":"Point","coordinates":[6.541478,53.007936]},"properties":{"category":"bus_halte","name":"Amstelflat","operator":""}},{"type":"Feature","geometry":{"type":"Point","coordinates":[6.543419,53.007488]},"properties":{"category":"bus_halte","name":"Wolgastraat","operator":""}},{"type":"Feature","geometry":{"type":"Point","coordinates":[6.539107,52.999741]},"properties":{"category":"bus_halte","name":"Beek","operator":""}},{"type":"Feature","geometry":{"type":"Point","coordinates":[6.538819,52.996995]},"properties":{"category":"bus_halte","name":"Zwin","operator":""}},{"type":"Feature","geometry":{"type":"Point","coordinates":[6.539125,52.997627]},"properties":{"category":"bus_halte","name":"Lariks/Stroomflat","operator":""}},{"type":"Feature","geometry":{"type":"Point","coordinates":[6.540529,52.996392]},"properties":{"category":"bus_halte","name":"Leie","operator":""}},{"type":"Feature","geometry":{"type":"Point","coordinates":[6.54834,53.001307]},"properties":{"category":"bus_halte","name":"Winkelcentrum Nobellaan","operator":""}},{"type":"Feature","geometry":{"type":"Point","coordinates":[6.56971,52.986962]},"properties":{"category":"bus_halte","name":"Anemoonstraat","operator":""}},{"type":"Feature","geometry":{"type":"Point","coordinates":[6.573914,52.98835]},"properties":{"category":"bus_halte","name":"Pelikaanstraat","operator":""}},{"type":"Feature","geometry":{"type":"Point","coordinates":[6.58388,52.987396]},"properties":{"category":"bus_halte","name":"Vredeveldseweg 75","operator":""}},{"type":"Feature","geometry":{"type":"Point","coordinates":[6.564243,53.01071]},"properties":{"category":"bus_halte","name":"Smetanalaan","operator":""}},{"type":"Feature","geometry":{"type":"Point","coordinates":[6.563596,53.010858]},"properties":{"category":"bus_halte","name":"Smetanalaan","operator":""}},{"type":"Feature","geometry":{"type":"Point","coordinates":[6.563343,53.008249]},"properties":{"category":"bus_halte","name":"Mozartplaats","operator":""}},{"type":"Feature","geometry":{"type":"Point","coordinates":[6.563443,53.008217]},"properties":{"category":"bus_halte","name":"Mozartplaats","operator":""}},{"type":"Feature","geometry":{"type":"Point","coordinates":[6.557145,53.005182]},"properties":{"category":"bus_halte","name":"Oosterbroekstraat","operator":""}},{"type":"Feature","geometry":{"type":"Point","coordinates":[6.557257,53.005148]},"properties":{"category":"bus_halte","name":"Oosterbroekstraat","operator":""}},{"type":"Feature","geometry":{"type":"Point","coordinates":[6.560478,53.003315]},"properties":{"category":"bus_halte","name":"Rondeel Veste","operator":""}},{"type":"Feature","geometry":{"type":"Point","coordinates":[6.548035,52.998244]},"properties":{"category":"bus_halte","name":"Wijde Blik","operator":""}},{"type":"Feature","geometry":{"type":"Point","coordinates":[6.538648,52.980699]},"properties":{"category":"bus_halte","name":"De Vallei","operator":""}},{"type":"Feature","geometry":{"type":"Point","coordinates":[6.54192,52.984308]},"properties":{"category":"bus_halte","name":"De Bonte Wever","operator":""}},{"type":"Feature","geometry":{"type":"Point","coordinates":[6.557455,52.977198]},"properties":{"category":"bus_halte","name":"Beilerstraat","operator":""}},{"type":"Feature","geometry":{"type":"Point","coordinates":[6.566609,52.983446]},"properties":{"category":"bus_halte","name":"Ziekenhuis Ingang","operator":""}},{"type":"Feature","geometry":{"type":"Point","coordinates":[6.562136,52.985202]},"properties":{"category":"bus_halte","name":"De Boshof","operator":""}},{"type":"Feature","geometry":{"type":"Point","coordinates":[6.561946,52.985372]},"properties":{"category":"bus_halte","name":"De Boshof","operator":""}},{"type":"Feature","geometry":{"type":"Point","coordinates":[6.538672,53.001907]},"properties":{"category":"bus_halte","name":"Maria in Campislaan","operator":""}},{"type":"Feature","geometry":{"type":"Point","coordinates":[6.558243,52.978915]},"properties":{"category":"bus_halte","name":"Nieuw Graswijk","operator":""}},{"type":"Feature","geometry":{"type":"Point","coordinates":[6.568467,52.987339]},"properties":{"category":"bus_halte","name":"Port Natalweg","operator":""}},{"type":"Feature","geometry":{"type":"Point","coordinates":[6.567865,52.985891]},"properties":{"category":"bus_halte","name":"Port Natalweg","operator":""}},{"type":"Feature","geometry":{"type":"Point","coordinates":[6.570636,52.991574]},"properties":{"category":"bus_halte","name":"Station","operator":""}},{"type":"Feature","geometry":{"type":"Point","coordinates":[6.584147,53.01762]},"properties":{"category":"bus_halte","name":"Winkelcentrum Marsdijk","operator":""}},{"type":"Feature","geometry":{"type":"Point","coordinates":[6.578986,53.015649]},"properties":{"category":"bus_halte","name":"Deelheugte","operator":""}},{"type":"Feature","geometry":{"type":"Point","coordinates":[6.572833,53.017592]},"properties":{"category":"bus_halte","name":"Busstation Marsdijk","operator":""}},{"type":"Feature","geometry":{"type":"Point","coordinates":[6.570431,52.992078]},"properties":{"category":"bus_halte","name":"Station","operator":""}},{"type":"Feature","geometry":{"type":"Point","coordinates":[6.570819,52.991981]},"properties":{"category":"bus_halte","name":"Station","operator":""}},{"type":"Feature","geometry":{"type":"Point","coordinates":[6.570742,52.991984]},"properties":{"category":"bus_halte","name":"Station","operator":""}},{"type":"Feature","geometry":{"type":"Point","coordinates":[6.570665,52.992011]},"properties":{"category":"bus_halte","name":"Station","operator":""}},{"type":"Feature","geometry":{"type":"Point","coordinates":[6.570584,52.992031]},"properties":{"category":"bus_halte","name":"Station","operator":""}},{"type":"Feature","geometry":{"type":"Point","coordinates":[6.570508,52.992057]},"properties":{"category":"bus_halte","name":"Station","operator":""}},{"type":"Feature","geometry":{"type":"Point","coordinates":[6.57161,53.030505]},"properties":{"category":"bus_halte","name":"Doctor Johan Piccardtweg","operator":""}},{"type":"Feature","geometry":{"type":"Point","coordinates":[6.544239,52.973943]},"properties":{"category":"bus_halte","name":"Crematorium","operator":""}},{"type":"Feature","geometry":{"type":"Point","coordinates":[6.565353,52.983303]},"properties":{"category":"bus_halte","name":"Ziekenhuis","operator":""}},{"type":"Feature","geometry":{"type":"Point","coordinates":[6.533284,52.986178]},"properties":{"category":"bus_halte","name":"Salland","operator":""}},{"type":"Feature","geometry":{"type":"Point","coordinates":[6.539927,52.980255]},"properties":{"category":"bus_halte","name":"Kennemerland","operator":""}},{"type":"Feature","geometry":{"type":"Point","coordinates":[6.573018,53.011631]},"properties":{"category":"bus_halte","name":"Tuinland Marsdijk","operator":""}},{"type":"Feature","geometry":{"type":"Point","coordinates":[6.559819,53.015693]},"properties":{"category":"bus_halte","name":"Peelerhof","operator":""}},{"type":"Feature","geometry":{"type":"Point","coordinates":[6.552391,52.965488]},"properties":{"category":"bus_halte","name":"Burgemeester Masmanweg","operator":""}},{"type":"Feature","geometry":{"type":"Point","coordinates":[6.549333,52.960054]},"properties":{"category":"bus_halte","name":"Burgemeester Grollemanweg","operator":""}},{"type":"Feature","geometry":{"type":"Point","coordinates":[6.558097,52.978877]},"properties":{"category":"bus_halte","name":"Nieuw Graswijk","operator":""}},{"type":"Feature","geometry":{"type":"Point","coordinates":[6.571245,52.992265]},"properties":{"category":"ov_knooppunt","name":"Assen","operator":""}},{"type":"Feature","geometry":{"type":"Point","coordinates":[6.572654,53.017715]},"properties":{"category":"ov_knooppunt","name":"Busstation Marsdijk","operator":""}},{"type":"Feature","geometry":{"type":"Point","coordinates":[6.570577,52.991727]},"properties":{"category":"ov_knooppunt","name":"Station","operator":""}},{"type":"Feature","geometry":{"type":"Point","coordinates":[6.570422,52.991202]},"properties":{"category":"ov_knooppunt","name":"Station Assen","operator":""}},{"type":"Feature","geometry":{"type":"Point","coordinates":[6.565027,52.994653]},"properties":{"category":"gemeentehuis","name":"Stadhuis Assen","operator":"Gemeente Assen"}},{"type":"Feature","geometry":{"type":"Point","coordinates":[6.581694,53.001174]},"properties":{"category":"inzamelpunt","name":"Visser Recycling","operator":""}},{"type":"Feature","geometry":{"type":"Point","coordinates":[6.595759,53.007685]},"properties":{"category":"inzamelpunt","name":"Milieupark Het Kanaal - Veld A","operator":"Gemeente Assen"}},{"type":"Feature","geometry":{"type":"Point","coordinates":[6.595926,53.008135]},"properties":{"category":"inzamelpunt","name":"","operator":""}},{"type":"Feature","geometry":{"type":"Point","coordinates":[6.558544,52.994757]},"properties":{"category":"bibliotheek","name":"Bibliotheek Assen","operator":""}},{"type":"Feature","geometry":{"type":"Point","coordinates":[6.564796,52.983742]},"properties":{"category":"ziekenhuis","name":"Wilhelmina Ziekenhuis","operator":""}},{"type":"Feature","geometry":{"type":"Point","coordinates":[6.524254,53.009308]},"properties":{"category":"transformatorhuisje","name":"","operator":""}},{"type":"Feature","geometry":{"type":"Point","coordinates":[6.524745,53.009339]},"properties":{"category":"transformatorhuisje","name":"","operator":""}},{"type":"Feature","geometry":{"type":"Point","coordinates":[6.582267,53.013393]},"properties":{"category":"transformatorhuisje","name":"","operator":""}},{"type":"Feature","geometry":{"type":"Point","coordinates":[6.582551,53.013495]},"properties":{"category":"transformatorhuisje","name":"","operator":""}},{"type":"Feature","geometry":{"type":"Point","coordinates":[6.581919,53.013958]},"properties":{"category":"transformatorhuisje","name":"","operator":""}},{"type":"Feature","geometry":{"type":"Point","coordinates":[6.591141,52.996752]},"properties":{"category":"transformatorhuisje","name":"","operator":""}},{"type":"Feature","geometry":{"type":"Point","coordinates":[6.561146,53.017205]},"properties":{"category":"transformatorhuisje","name":"","operator":"Enexis"}},{"type":"Feature","geometry":{"type":"Point","coordinates":[6.562965,53.024748]},"properties":{"category":"transformatorhuisje","name":"","operator":""}},{"type":"Feature","geometry":{"type":"Point","coordinates":[6.584621,53.018091]},"properties":{"category":"transformatorhuisje","name":"","operator":""}},{"type":"Feature","geometry":{"type":"Point","coordinates":[6.525224,53.009386]},"properties":{"category":"transformatorhuisje","name":"","operator":""}},{"type":"Feature","geometry":{"type":"Point","coordinates":[6.524841,53.008788]},"properties":{"category":"transformatorhuisje","name":"","operator":"Enexis"}},{"type":"Feature","geometry":{"type":"Point","coordinates":[6.525167,53.008809]},"properties":{"category":"transformatorhuisje","name":"","operator":"Enexis"}},{"type":"Feature","geometry":{"type":"Point","coordinates":[6.525795,53.008842]},"properties":{"category":"transformatorhuisje","name":"","operator":"Enexis"}},{"type":"Feature","geometry":{"type":"Point","coordinates":[6.525508,53.008823]},"properties":{"category":"transformatorhuisje","name":"","operator":"Enexis"}},{"type":"Feature","geometry":{"type":"Point","coordinates":[6.524123,53.008744]},"properties":{"category":"transformatorhuisje","name":"","operator":"Enexis"}},{"type":"Feature","geometry":{"type":"Point","coordinates":[6.523818,53.008724]},"properties":{"category":"transformatorhuisje","name":"","operator":"Enexis"}},{"type":"Feature","geometry":{"type":"Point","coordinates":[6.569892,52.990847]},"properties":{"category":"transformatorhuisje","name":"ASN.751636","operator":"Enexis"}},{"type":"Feature","geometry":{"type":"Point","coordinates":[6.511317,53.003445]},"properties":{"category":"transformatorhuisje","name":"","operator":""}},{"type":"Feature","geometry":{"type":"Point","coordinates":[6.562834,52.998126]},"properties":{"category":"transformatorhuisje","name":"","operator":""}},{"type":"Feature","geometry":{"type":"Point","coordinates":[6.573051,53.018316]},"properties":{"category":"transformatorhuisje","name":"","operator":"Enexis"}},{"type":"Feature","geometry":{"type":"Point","coordinates":[6.501307,53.000121]},"properties":{"category":"transformatorhuisje","name":"","operator":""}},{"type":"Feature","geometry":{"type":"Point","coordinates":[6.500574,53.000028]},"properties":{"category":"transformatorhuisje","name":"","operator":""}},{"type":"Feature","geometry":{"type":"Point","coordinates":[6.570367,52.999244]},"properties":{"category":"universiteit","name":"TechHub Assen","operator":""}},{"type":"Feature","geometry":{"type":"Point","coordinates":[6.54966,52.995804]},"properties":{"category":"universiteit","name":"NHL Stenden Hogeschool","operator":""}},{"type":"Feature","geometry":{"type":"Point","coordinates":[6.569623,53.026138]},"properties":{"category":"hogeschool","name":"Drenthe College","operator":""}},{"type":"Feature","geometry":{"type":"Point","coordinates":[6.58241,52.988962]},"properties":{"category":"hogeschool","name":"","operator":""}},{"type":"Feature","geometry":{"type":"Point","coordinates":[6.569564,52.999826]},"properties":{"category":"hogeschool","name":"Drenthe College","operator":""}},{"type":"Feature","geometry":{"type":"Point","coordinates":[6.53478,52.963609]},"properties":{"category":"hogeschool","name":"Drenthe College","operator":""}},{"type":"Feature","geometry":{"type":"Point","coordinates":[6.55161,53.008852]},"properties":{"category":"hogeschool","name":"Pro Assen","operator":""}},{"type":"Feature","geometry":{"type":"Point","coordinates":[6.582565,52.988985]},"properties":{"category":"hogeschool","name":"Terra Assen","operator":""}},{"type":"Feature","geometry":{"type":"Point","coordinates":[6.535841,52.984049]},"properties":{"category":"hogeschool","name":"","operator":"Alfa-college"}},{"type":"Feature","geometry":{"type":"Point","coordinates":[6.536608,52.984477]},"properties":{"category":"middelbare_school","name":"Vincent van Gogh","operator":"NassauVincent"}},{"type":"Feature","geometry":{"type":"Point","coordinates":[6.545403,52.999769]},"properties":{"category":"middelbare_school","name":"Vincent van Gogh","operator":"NassauVincent"}},{"type":"Feature","geometry":{"type":"Point","coordinates":[6.561611,53.017086]},"properties":{"category":"sportveld","name":"Sporthal Peelo","operator":""}},{"type":"Feature","geometry":{"type":"Point","coordinates":[6.52334,52.999572]},"properties":{"category":"sportveld","name":"FC Assen","operator":""}},{"type":"Feature","geometry":{"type":"Point","coordinates":[6.523287,52.999153]},"properties":{"category":"sportveld","name":"IJsvereniging Kloosterveen","operator":""}},{"type":"Feature","geometry":{"type":"Point","coordinates":[6.523255,52.999289]},"properties":{"category":"sportveld","name":"VDW OLS","operator":""}},{"type":"Feature","geometry":{"type":"Point","coordinates":[6.561908,53.002911]},"properties":{"category":"sportveld","name":"Sporthal De Timp","operator":""}},{"type":"Feature","geometry":{"type":"Point","coordinates":[6.523954,53.00087]},"properties":{"category":"sportveld","name":"Sportpark de Hoogspanning","operator":""}},{"type":"Feature","geometry":{"type":"Point","coordinates":[6.52194,52.959461]},"properties":{"category":"sportveld","name":"TT Circuit Assen","operator":""}},{"type":"Feature","geometry":{"type":"Point","coordinates":[6.572635,53.018496]},"properties":{"category":"sportveld","name":"Achilles 1894","operator":""}},{"type":"Feature","geometry":{"type":"Point","coordinates":[6.573893,53.018903]},"properties":{"category":"sportveld","name":"Sportpark Marsdijk","operator":""}},{"type":"Feature","geometry":{"type":"Point","coordinates":[6.57298,53.019011]},"properties":{"category":"sportveld","name":"Stadion Marsdijk","operator":""}},{"type":"Feature","geometry":{"type":"Point","coordinates":[6.554179,52.988588]},"properties":{"category":"sportveld","name":"ATV De Hertenkamp","operator":""}},{"type":"Feature","geometry":{"type":"Point","coordinates":[6.542853,52.984095]},"properties":{"category":"sportveld","name":"De Bonte Wever","operator":""}},{"type":"Feature","geometry":{"type":"Point","coordinates":[6.560004,53.005444]},"properties":{"category":"sportveld","name":"","operator":"Dr. Nassaucollege"}},{"type":"Feature","geometry":{"type":"Point","coordinates":[6.559773,52.995939]},"properties":{"category":"winkelcentrum","name":"Mercuriuscentrum","operator":""}},{"type":"Feature","geometry":{"type":"Point","coordinates":[6.560291,52.997566]},"properties":{"category":"winkelcentrum","name":"De Triade","operator":""}},{"type":"Feature","geometry":{"type":"Point","coordinates":[6.548531,53.000548]},"properties":{"category":"supermarkt","name":"Jumbo","operator":""}},{"type":"Feature","geometry":{"type":"Point","coordinates":[6.569965,52.998792]},"properties":{"category":"supermarkt","name":"Jumbo","operator":""}},{"type":"Feature","geometry":{"type":"Point","coordinates":[6.580511,52.988885]},"properties":{"category":"supermarkt","name":"ALDI","operator":""}},{"type":"Feature","geometry":{"type":"Point","coordinates":[6.580722,52.988521]},"properties":{"category":"supermarkt","name":"Albert Heijn","operator":""}},{"type":"Feature","geometry":{"type":"Point","coordinates":[6.534985,52.983674]},"properties":{"category":"supermarkt","name":"Poiesz","operator":""}},{"type":"Feature","geometry":{"type":"Point","coordinates":[6.548745,53.000726]},"properties":{"category":"supermarkt","name":"Dikmen","operator":""}},{"type":"Feature","geometry":{"type":"Point","coordinates":[6.563343,53.009498]},"properties":{"category":"supermarkt","name":"Poiesz","operator":""}},{"type":"Feature","geometry":{"type":"Point","coordinates":[6.568592,53.008027]},"properties":{"category":"supermarkt","name":"ALDI","operator":""}},{"type":"Feature","geometry":{"type":"Point","coordinates":[6.560759,52.992676]},"properties":{"category":"supermarkt","name":"Ekoplaza","operator":""}},{"type":"Feature","geometry":{"type":"Point","coordinates":[6.56174,52.994299]},"properties":{"category":"supermarkt","name":"Baklava market","operator":""}},{"type":"Feature","geometry":{"type":"Point","coordinates":[6.561511,52.996079]},"properties":{"category":"supermarkt","name":"Nowy Market","operator":""}},{"type":"Feature","geometry":{"type":"Point","coordinates":[6.540522,53.006825]},"properties":{"category":"supermarkt","name":"Poiesz","operator":""}},{"type":"Feature","geometry":{"type":"Point","coordinates":[6.512996,52.999843]},"properties":{"category":"supermarkt","name":"Albert Heijn","operator":""}},{"type":"Feature","geometry":{"type":"Point","coordinates":[6.561043,53.016897]},"properties":{"category":"supermarkt","name":"Albert Heijn","operator":""}},{"type":"Feature","geometry":{"type":"Point","coordinates":[6.585534,53.017365]},"properties":{"category":"supermarkt","name":"Jumbo","operator":""}},{"type":"Feature","geometry":{"type":"Point","coordinates":[6.515047,53.000607]},"properties":{"category":"supermarkt","name":"Lidl","operator":"Lidl Nederland GmbH"}},{"type":"Feature","geometry":{"type":"Point","coordinates":[6.560988,52.997427]},"properties":{"category":"supermarkt","name":"Dirk","operator":""}},{"type":"Feature","geometry":{"type":"Point","coordinates":[6.560875,52.997927]},"properties":{"category":"supermarkt","name":"Albert Heijn","operator":""}},{"type":"Feature","geometry":{"type":"Point","coordinates":[6.584932,53.017927]},"properties":{"category":"supermarkt","name":"Lidl","operator":"Lidl Nederland GmbH"}},{"type":"Feature","geometry":{"type":"Point","coordinates":[6.558075,52.996435]},"properties":{"category":"fietsenstalling","name":"","operator":"Bicicletteria"}},{"type":"Feature","geometry":{"type":"Point","coordinates":[6.55881,52.994225]},"properties":{"category":"fietsenstalling","name":"","operator":"DNK"}},{"type":"Feature","geometry":{"type":"Point","coordinates":[6.560109,53.005322]},"properties":{"category":"fietsenstalling","name":"","operator":"Dr. Nassaucollege"}},{"type":"Feature","geometry":{"type":"Point","coordinates":[6.563379,53.009431]},"properties":{"category":"fietsenstalling","name":"","operator":""}},{"type":"Feature","geometry":{"type":"Point","coordinates":[6.568231,53.008034]},"properties":{"category":"fietsenstalling","name":"","operator":""}},{"type":"Feature","geometry":{"type":"Point","coordinates":[6.585647,53.009173]},"properties":{"category":"fietsenstalling","name":"Gamma","operator":""}},{"type":"Feature","geometry":{"type":"Point","coordinates":[6.560047,52.995173]},"properties":{"category":"fietsenstalling","name":"","operator":""}},{"type":"Feature","geometry":{"type":"Point","coordinates":[6.539142,53.002539]},"properties":{"category":"fietsenstalling","name":"","operator":""}},{"type":"Feature","geometry":{"type":"Point","coordinates":[6.514427,53.001125]},"properties":{"category":"fietsenstalling","name":"","operator":""}},{"type":"Feature","geometry":{"type":"Point","coordinates":[6.546196,52.973641]},"properties":{"category":"fietsenstalling","name":"","operator":""}},{"type":"Feature","geometry":{"type":"Point","coordinates":[6.528589,52.991994]},"properties":{"category":"fietsenstalling","name":"","operator":""}},{"type":"Feature","geometry":{"type":"Point","coordinates":[6.528894,52.991972]},"properties":{"category":"fietsenstalling","name":"","operator":""}},{"type":"Feature","geometry":{"type":"Point","coordinates":[6.584167,53.014203]},"properties":{"category":"fietsenstalling","name":"","operator":""}},{"type":"Feature","geometry":{"type":"Point","coordinates":[6.560734,53.017092]},"properties":{"category":"fietsenstalling","name":"","operator":""}},{"type":"Feature","geometry":{"type":"Point","coordinates":[6.572228,53.026262]},"properties":{"category":"fietsenstalling","name":"","operator":""}},{"type":"Feature","geometry":{"type":"Point","coordinates":[6.560269,52.997874]},"properties":{"category":"fietsenstalling","name":"","operator":""}},{"type":"Feature","geometry":{"type":"Point","coordinates":[6.560752,53.016542]},"properties":{"category":"fietsenstalling","name":"","operator":""}},{"type":"Feature","geometry":{"type":"Point","coordinates":[6.53162,52.994383]},"properties":{"category":"fietsenstalling","name":"","operator":""}},{"type":"Feature","geometry":{"type":"Point","coordinates":[6.563276,53.025294]},"properties":{"category":"fietsenstalling","name":"","operator":""}},{"type":"Feature","geometry":{"type":"Point","coordinates":[6.572225,53.026428]},"properties":{"category":"fietsenstalling","name":"","operator":""}},{"type":"Feature","geometry":{"type":"Point","coordinates":[6.570691,52.992499]},"properties":{"category":"fietsenstalling","name":"Fietsenstalling Assen","operator":"Nederlandse Spoorwegen"}},{"type":"Feature","geometry":{"type":"Point","coordinates":[6.554978,53.01173]},"properties":{"category":"fietsenstalling","name":"","operator":""}},{"type":"Feature","geometry":{"type":"Point","coordinates":[6.571855,53.026125]},"properties":{"category":"fietsenstalling","name":"","operator":""}},{"type":"Feature","geometry":{"type":"Point","coordinates":[6.572239,53.045019]},"properties":{"category":"fietsenstalling","name":"","operator":""}},{"type":"Feature","geometry":{"type":"Point","coordinates":[6.572896,53.017955]},"properties":{"category":"fietsenstalling","name":"","operator":"Gemeente Assen"}},{"type":"Feature","geometry":{"type":"Point","coordinates":[6.573162,53.017791]},"properties":{"category":"fietsenstalling","name":"","operator":"Gemeente Assen"}},{"type":"Feature","geometry":{"type":"Point","coordinates":[6.573402,53.017642]},"properties":{"category":"fietsenstalling","name":"","operator":"Gemeente Assen"}},{"type":"Feature","geometry":{"type":"Point","coordinates":[6.56045,52.997319]},"properties":{"category":"fietsenstalling","name":"","operator":""}},{"type":"Feature","geometry":{"type":"Point","coordinates":[6.56461,52.991274]},"properties":{"category":"fietsenstalling","name":"","operator":""}},{"type":"Feature","geometry":{"type":"Point","coordinates":[6.548344,53.000895]},"properties":{"category":"fietsenstalling","name":"","operator":""}},{"type":"Feature","geometry":{"type":"Point","coordinates":[6.570487,52.999051]},"properties":{"category":"fietsenstalling","name":"","operator":""}},{"type":"Feature","geometry":{"type":"Point","coordinates":[6.570467,52.999102]},"properties":{"category":"fietsenstalling","name":"","operator":""}},{"type":"Feature","geometry":{"type":"Point","coordinates":[6.546197,52.973572]},"properties":{"category":"fietsenstalling","name":"","operator":""}},{"type":"Feature","geometry":{"type":"Point","coordinates":[6.549099,53.008286]},"properties":{"category":"fietsenstalling","name":"","operator":""}},{"type":"Feature","geometry":{"type":"Point","coordinates":[6.551299,52.966217]},"properties":{"category":"fietsenstalling","name":"","operator":""}},{"type":"Feature","geometry":{"type":"Point","coordinates":[6.576209,52.978701]},"properties":{"category":"fietsenstalling","name":"","operator":""}},{"type":"Feature","geometry":{"type":"Point","coordinates":[6.576214,52.97867]},"properties":{"category":"fietsenstalling","name":"","operator":""}},{"type":"Feature","geometry":{"type":"Point","coordinates":[6.565671,52.994976]},"properties":{"category":"parkeergarage","name":"Parkeergarage Stadhuis","operator":""}},{"type":"Feature","geometry":{"type":"Point","coordinates":[6.557399,52.995243]},"properties":{"category":"parkeergarage","name":"De Nieuwe Kolk","operator":""}},{"type":"Feature","geometry":{"type":"Point","coordinates":[6.566427,52.997225]},"properties":{"category":"parkeergarage","name":"Parkeergarage Citadel","operator":""}},{"type":"Feature","geometry":{"type":"Point","coordinates":[6.558372,52.996301]},"properties":{"category":"parkeergarage","name":"Mercurius","operator":""}},{"type":"Feature","geometry":{"type":"Point","coordinates":[6.561195,52.993252]},"properties":{"category":"parkeergarage","name":"Drents Museum","operator":"Interparking"}},{"type":"Feature","geometry":{"type":"Point","coordinates":[6.559747,52.997505]},"properties":{"category":"parkeergarage","name":"Neptunus","operator":""}},{"type":"Feature","geometry":{"type":"Point","coordinates":[6.56079,52.997975]},"properties":{"category":"parkeergarage","name":"Triade","operator":""}},{"type":"Feature","geometry":{"type":"Point","coordinates":[6.572175,53.018311]},"properties":{"category":"p_and_r","name":"","operator":""}},{"type":"Feature","geometry":{"type":"Point","coordinates":[6.569697,52.989952]},"properties":{"category":"p_and_r","name":"P+R terrein Stationsplein","operator":"Q-Park"}}]}