{"type":"FeatureCollection","metadata":{"gemeente":"Beek","slug":"beek","by_category":{"bus_halte":29,"sportveld":8,"fietsenstalling":7,"supermarkt":4,"transformatorhuisje":3,"ns_station":2,"ov_knooppunt":2,"p_and_r":2,"gemeentehuis":1,"bibliotheek":1,"winkelcentrum":1,"parkeergarage":1},"total":61},"features":[{"type":"Feature","geometry":{"type":"Point","coordinates":[5.786488,50.94739]},"properties":{"category":"ns_station","name":"Beek-Elsloo","operator":""}},{"type":"Feature","geometry":{"type":"Point","coordinates":[5.84959,50.943425]},"properties":{"category":"ns_station","name":"Spaubeek","operator":""}},{"type":"Feature","geometry":{"type":"Point","coordinates":[5.785914,50.921075]},"properties":{"category":"bus_halte","name":"Europalaan","operator":""}},{"type":"Feature","geometry":{"type":"Point","coordinates":[5.810457,50.953429]},"properties":{"category":"bus_halte","name":"Prins Mauritslaan","operator":""}},{"type":"Feature","geometry":{"type":"Point","coordinates":[5.78659,50.947125]},"properties":{"category":"bus_halte","name":"Station Beek-Elsloo","operator":""}},{"type":"Feature","geometry":{"type":"Point","coordinates":[5.795035,50.941279]},"properties":{"category":"bus_halte","name":"Centrum","operator":""}},{"type":"Feature","geometry":{"type":"Point","coordinates":[5.801252,50.946225]},"properties":{"category":"bus_halte","name":"Kennedylaan","operator":""}},{"type":"Feature","geometry":{"type":"Point","coordinates":[5.782771,50.933118]},"properties":{"category":"bus_halte","name":"Viaduct","operator":""}},{"type":"Feature","geometry":{"type":"Point","coordinates":[5.791784,50.938142]},"properties":{"category":"bus_halte","name":"Professor Spronckpark","operator":""}},{"type":"Feature","geometry":{"type":"Point","coordinates":[5.782913,50.933027]},"properties":{"category":"bus_halte","name":"Viaduct","operator":""}},{"type":"Feature","geometry":{"type":"Point","coordinates":[5.777203,50.924805]},"properties":{"category":"bus_halte","name":"Bedrijvenpark","operator":""}},{"type":"Feature","geometry":{"type":"Point","coordinates":[5.77666,50.925587]},"properties":{"category":"bus_halte","name":"Bedrijvenpark","operator":""}},{"type":"Feature","geometry":{"type":"Point","coordinates":[5.76862,50.915859]},"properties":{"category":"bus_halte","name":"Maastricht-Aachen Airport","operator":""}},{"type":"Feature","geometry":{"type":"Point","coordinates":[5.785608,50.918039]},"properties":{"category":"bus_halte","name":"Horsterweg","operator":""}},{"type":"Feature","geometry":{"type":"Point","coordinates":[5.842021,50.933572]},"properties":{"category":"bus_halte","name":"Broekersteeg","operator":""}},{"type":"Feature","geometry":{"type":"Point","coordinates":[5.839893,50.930386]},"properties":{"category":"bus_halte","name":"Op het Broek","operator":""}},{"type":"Feature","geometry":{"type":"Point","coordinates":[5.840953,50.937287]},"properties":{"category":"bus_halte","name":"Centrum","operator":""}},{"type":"Feature","geometry":{"type":"Point","coordinates":[5.840929,50.943181]},"properties":{"category":"bus_halte","name":"Zandstraat","operator":""}},{"type":"Feature","geometry":{"type":"Point","coordinates":[5.840776,50.943694]},"properties":{"category":"bus_halte","name":"Zandstraat","operator":""}},{"type":"Feature","geometry":{"type":"Point","coordinates":[5.795392,50.941833]},"properties":{"category":"bus_halte","name":"Centrum","operator":""}},{"type":"Feature","geometry":{"type":"Point","coordinates":[5.801234,50.946396]},"properties":{"category":"bus_halte","name":"Kennedylaan","operator":""}},{"type":"Feature","geometry":{"type":"Point","coordinates":[5.808865,50.952427]},"properties":{"category":"bus_halte","name":"Prins Mauritslaan","operator":""}},{"type":"Feature","geometry":{"type":"Point","coordinates":[5.786799,50.94722]},"properties":{"category":"bus_halte","name":"Station Beek-Elsloo","operator":""}},{"type":"Feature","geometry":{"type":"Point","coordinates":[5.768925,50.9159]},"properties":{"category":"bus_halte","name":"Maastricht-Aachen Airport","operator":""}},{"type":"Feature","geometry":{"type":"Point","coordinates":[5.790077,50.937398]},"properties":{"category":"bus_halte","name":"Professor Spronckpark","operator":""}},{"type":"Feature","geometry":{"type":"Point","coordinates":[5.796465,50.9501]},"properties":{"category":"bus_halte","name":"Makado","operator":""}},{"type":"Feature","geometry":{"type":"Point","coordinates":[5.839729,50.929939]},"properties":{"category":"bus_halte","name":"Op het Broek","operator":""}},{"type":"Feature","geometry":{"type":"Point","coordinates":[5.842065,50.933245]},"properties":{"category":"bus_halte","name":"Broekersteeg","operator":""}},{"type":"Feature","geometry":{"type":"Point","coordinates":[5.841027,50.937337]},"properties":{"category":"bus_halte","name":"Centrum","operator":""}},{"type":"Feature","geometry":{"type":"Point","coordinates":[5.786816,50.915806]},"properties":{"category":"bus_halte","name":"","operator":"Corendon"}},{"type":"Feature","geometry":{"type":"Point","coordinates":[5.786371,50.947023]},"properties":{"category":"bus_halte","name":"Station Beek-Elsloo","operator":""}},{"type":"Feature","geometry":{"type":"Point","coordinates":[5.786488,50.94739]},"properties":{"category":"ov_knooppunt","name":"Beek-Elsloo","operator":""}},{"type":"Feature","geometry":{"type":"Point","coordinates":[5.84959,50.943425]},"properties":{"category":"ov_knooppunt","name":"Spaubeek","operator":""}},{"type":"Feature","geometry":{"type":"Point","coordinates":[5.794496,50.939103]},"properties":{"category":"gemeentehuis","name":"Gemeentehuis Beek","operator":"Gemeente Beek"}},{"type":"Feature","geometry":{"type":"Point","coordinates":[5.79588,50.94182]},"properties":{"category":"bibliotheek","name":"Bibliotheek Beek","operator":"Bibliotheek De Domijnen"}},{"type":"Feature","geometry":{"type":"Point","coordinates":[5.806986,50.943443]},"properties":{"category":"transformatorhuisje","name":"","operator":""}},{"type":"Feature","geometry":{"type":"Point","coordinates":[5.807114,50.943521]},"properties":{"category":"transformatorhuisje","name":"","operator":""}},{"type":"Feature","geometry":{"type":"Point","coordinates":[5.807197,50.943227]},"properties":{"category":"transformatorhuisje","name":"150 kV Beek","operator":""}},{"type":"Feature","geometry":{"type":"Point","coordinates":[5.816231,50.927812]},"properties":{"category":"sportveld","name":"Sportpark Genhout","operator":""}},{"type":"Feature","geometry":{"type":"Point","coordinates":[5.842534,50.947334]},"properties":{"category":"sportveld","name":"Geleense Tennis- en Padelvereniging Ready","operator":""}},{"type":"Feature","geometry":{"type":"Point","coordinates":[5.809001,50.947829]},"properties":{"category":"sportveld","name":"VV Neerbeek","operator":""}},{"type":"Feature","geometry":{"type":"Point","coordinates":[5.800119,50.935711]},"properties":{"category":"sportveld","name":"","operator":""}},{"type":"Feature","geometry":{"type":"Point","coordinates":[5.808296,50.945107]},"properties":{"category":"sportveld","name":"De Haamen","operator":""}},{"type":"Feature","geometry":{"type":"Point","coordinates":[5.791628,50.943589]},"properties":{"category":"sportveld","name":"Gymzaal Olterdissenstraat","operator":""}},{"type":"Feature","geometry":{"type":"Point","coordinates":[5.805708,50.944666]},"properties":{"category":"sportveld","name":"Sportpark de Carmel","operator":""}},{"type":"Feature","geometry":{"type":"Point","coordinates":[5.837541,50.937687]},"properties":{"category":"sportveld","name":"VV Spaubeek","operator":""}},{"type":"Feature","geometry":{"type":"Point","coordinates":[5.795154,50.949681]},"properties":{"category":"winkelcentrum","name":"Winkelcentrum Makado","operator":""}},{"type":"Feature","geometry":{"type":"Point","coordinates":[5.794116,50.949959]},"properties":{"category":"supermarkt","name":"Albert Heijn","operator":""}},{"type":"Feature","geometry":{"type":"Point","coordinates":[5.792198,50.938113]},"properties":{"category":"supermarkt","name":"Jumbo","operator":""}},{"type":"Feature","geometry":{"type":"Point","coordinates":[5.795216,50.950291]},"properties":{"category":"supermarkt","name":"Lidl","operator":"Lidl Nederland GmbH"}},{"type":"Feature","geometry":{"type":"Point","coordinates":[5.796362,50.940731]},"properties":{"category":"supermarkt","name":"PLUS","operator":""}},{"type":"Feature","geometry":{"type":"Point","coordinates":[5.811048,50.947645]},"properties":{"category":"fietsenstalling","name":"","operator":""}},{"type":"Feature","geometry":{"type":"Point","coordinates":[5.799932,50.935477]},"properties":{"category":"fietsenstalling","name":"","operator":""}},{"type":"Feature","geometry":{"type":"Point","coordinates":[5.793614,50.949278]},"properties":{"category":"fietsenstalling","name":"","operator":""}},{"type":"Feature","geometry":{"type":"Point","coordinates":[5.793669,50.949463]},"properties":{"category":"fietsenstalling","name":"","operator":""}},{"type":"Feature","geometry":{"type":"Point","coordinates":[5.785504,50.946678]},"properties":{"category":"fietsenstalling","name":"","operator":""}},{"type":"Feature","geometry":{"type":"Point","coordinates":[5.849293,50.943315]},"properties":{"category":"fietsenstalling","name":"","operator":""}},{"type":"Feature","geometry":{"type":"Point","coordinates":[5.849421,50.94366]},"properties":{"category":"fietsenstalling","name":"","operator":""}},{"type":"Feature","geometry":{"type":"Point","coordinates":[5.794561,50.950256]},"properties":{"category":"parkeergarage","name":"","operator":"Winkelcentrum Makado"}},{"type":"Feature","geometry":{"type":"Point","coordinates":[5.787389,50.947558]},"properties":{"category":"p_and_r","name":"P+R Beek-Elsloo","operator":""}},{"type":"Feature","geometry":{"type":"Point","coordinates":[5.849909,50.943595]},"properties":{"category":"p_and_r","name":"","operator":""}}]}