{"type":"FeatureCollection","metadata":{"gemeente":"Bergeijk","slug":"bergeijk","by_category":{"bus_halte":80,"sportveld":6,"supermarkt":5,"gemeentehuis":1,"inzamelpunt":1,"bibliotheek":1,"parkeergarage":1},"total":95},"features":[{"type":"Feature","geometry":{"type":"Point","coordinates":[5.326411,51.287773]},"properties":{"category":"bus_halte","name":"Doolhof","operator":""}},{"type":"Feature","geometry":{"type":"Point","coordinates":[5.330146,51.288987]},"properties":{"category":"bus_halte","name":"Schatersdijk","operator":""}},{"type":"Feature","geometry":{"type":"Point","coordinates":[5.337515,51.294105]},"properties":{"category":"bus_halte","name":"Mozekesweg","operator":""}},{"type":"Feature","geometry":{"type":"Point","coordinates":[5.344404,51.312996]},"properties":{"category":"bus_halte","name":"Loo","operator":""}},{"type":"Feature","geometry":{"type":"Point","coordinates":[5.38608,51.352348]},"properties":{"category":"bus_halte","name":"Kerk","operator":""}},{"type":"Feature","geometry":{"type":"Point","coordinates":[5.316382,51.28515]},"properties":{"category":"bus_halte","name":"Kapelstraat","operator":""}},{"type":"Feature","geometry":{"type":"Point","coordinates":[5.320568,51.286783]},"properties":{"category":"bus_halte","name":"Molenstraat","operator":""}},{"type":"Feature","geometry":{"type":"Point","coordinates":[5.331979,51.299968]},"properties":{"category":"bus_halte","name":"Sengelbroeksestraat","operator":""}},{"type":"Feature","geometry":{"type":"Point","coordinates":[5.349306,51.320192]},"properties":{"category":"bus_halte","name":"Churchilllaan","operator":""}},{"type":"Feature","geometry":{"type":"Point","coordinates":[5.387454,51.327834]},"properties":{"category":"bus_halte","name":"Heijerstraat","operator":""}},{"type":"Feature","geometry":{"type":"Point","coordinates":[5.392567,51.32942]},"properties":{"category":"bus_halte","name":"Dorpstraat","operator":""}},{"type":"Feature","geometry":{"type":"Point","coordinates":[5.364337,51.316786]},"properties":{"category":"bus_halte","name":"Dokter Rauppstraat","operator":""}},{"type":"Feature","geometry":{"type":"Point","coordinates":[5.368257,51.319255]},"properties":{"category":"bus_halte","name":"Koningin Julianastraat","operator":""}},{"type":"Feature","geometry":{"type":"Point","coordinates":[5.399465,51.334334]},"properties":{"category":"bus_halte","name":"Heuvel","operator":""}},{"type":"Feature","geometry":{"type":"Point","coordinates":[5.382218,51.36358]},"properties":{"category":"bus_halte","name":"Walik","operator":""}},{"type":"Feature","geometry":{"type":"Point","coordinates":[5.41372,51.380255]},"properties":{"category":"bus_halte","name":"Keersopperdreef","operator":""}},{"type":"Feature","geometry":{"type":"Point","coordinates":[5.412536,51.339312]},"properties":{"category":"bus_halte","name":"Loveren","operator":""}},{"type":"Feature","geometry":{"type":"Point","coordinates":[5.402022,51.331942]},"properties":{"category":"bus_halte","name":"Provincialeweg","operator":""}},{"type":"Feature","geometry":{"type":"Point","coordinates":[5.348996,51.33325]},"properties":{"category":"bus_halte","name":"De Paaldreef","operator":""}},{"type":"Feature","geometry":{"type":"Point","coordinates":[5.314157,51.283718]},"properties":{"category":"bus_halte","name":"Dorpstraat","operator":""}},{"type":"Feature","geometry":{"type":"Point","coordinates":[5.338758,51.309113]},"properties":{"category":"bus_halte","name":"Frater Romboutsstraat","operator":""}},{"type":"Feature","geometry":{"type":"Point","coordinates":[5.432489,51.322355]},"properties":{"category":"bus_halte","name":"Kempervennen","operator":""}},{"type":"Feature","geometry":{"type":"Point","coordinates":[5.321019,51.288898]},"properties":{"category":"bus_halte","name":"Kerk","operator":""}},{"type":"Feature","geometry":{"type":"Point","coordinates":[5.294615,51.308847]},"properties":{"category":"bus_halte","name":"Kerk","operator":""}},{"type":"Feature","geometry":{"type":"Point","coordinates":[5.31617,51.272834]},"properties":{"category":"bus_halte","name":"Lommelsedijk","operator":""}},{"type":"Feature","geometry":{"type":"Point","coordinates":[5.313321,51.294206]},"properties":{"category":"bus_halte","name":"Rijt","operator":""}},{"type":"Feature","geometry":{"type":"Point","coordinates":[5.358092,51.323767]},"properties":{"category":"bus_halte","name":"Van Beverwijkstraat","operator":""}},{"type":"Feature","geometry":{"type":"Point","coordinates":[5.297738,51.306486]},"properties":{"category":"bus_halte","name":"Weebosch","operator":""}},{"type":"Feature","geometry":{"type":"Point","coordinates":[5.303632,51.296967]},"properties":{"category":"bus_halte","name":"Zwartebergen","operator":""}},{"type":"Feature","geometry":{"type":"Point","coordinates":[5.300063,51.3122]},"properties":{"category":"bus_halte","name":"Weebosch (Noord)","operator":""}},{"type":"Feature","geometry":{"type":"Point","coordinates":[5.329078,51.31276]},"properties":{"category":"bus_halte","name":"Puttendijk","operator":""}},{"type":"Feature","geometry":{"type":"Point","coordinates":[5.314541,51.315901]},"properties":{"category":"bus_halte","name":"Muggenhool","operator":""}},{"type":"Feature","geometry":{"type":"Point","coordinates":[5.312594,51.282698]},"properties":{"category":"bus_halte","name":"Boscheind","operator":""}},{"type":"Feature","geometry":{"type":"Point","coordinates":[5.320232,51.286716]},"properties":{"category":"bus_halte","name":"Molenstraat","operator":""}},{"type":"Feature","geometry":{"type":"Point","coordinates":[5.344143,51.312926]},"properties":{"category":"bus_halte","name":"Loo","operator":""}},{"type":"Feature","geometry":{"type":"Point","coordinates":[5.361269,51.323101]},"properties":{"category":"bus_halte","name":"Hof","operator":""}},{"type":"Feature","geometry":{"type":"Point","coordinates":[5.361105,51.323018]},"properties":{"category":"bus_halte","name":"Hof","operator":""}},{"type":"Feature","geometry":{"type":"Point","coordinates":[5.355812,51.313662]},"properties":{"category":"bus_halte","name":"Kennedylaan","operator":""}},{"type":"Feature","geometry":{"type":"Point","coordinates":[5.355483,51.314204]},"properties":{"category":"bus_halte","name":"Kennedylaan","operator":""}},{"type":"Feature","geometry":{"type":"Point","coordinates":[5.352208,51.316251]},"properties":{"category":"bus_halte","name":"Kervelstraat","operator":""}},{"type":"Feature","geometry":{"type":"Point","coordinates":[5.352175,51.316412]},"properties":{"category":"bus_halte","name":"Kervelstraat","operator":""}},{"type":"Feature","geometry":{"type":"Point","coordinates":[5.348821,51.320885]},"properties":{"category":"bus_halte","name":"Churchilllaan","operator":""}},{"type":"Feature","geometry":{"type":"Point","coordinates":[5.358227,51.323739]},"properties":{"category":"bus_halte","name":"Van Beverwijkstraat","operator":""}},{"type":"Feature","geometry":{"type":"Point","coordinates":[5.352107,51.323559]},"properties":{"category":"bus_halte","name":"Nieuwstraat","operator":""}},{"type":"Feature","geometry":{"type":"Point","coordinates":[5.35206,51.323591]},"properties":{"category":"bus_halte","name":"Nieuwstraat","operator":""}},{"type":"Feature","geometry":{"type":"Point","coordinates":[5.351493,51.312055]},"properties":{"category":"bus_halte","name":"Broekstraat","operator":""}},{"type":"Feature","geometry":{"type":"Point","coordinates":[5.351295,51.312153]},"properties":{"category":"bus_halte","name":"Broekstraat","operator":""}},{"type":"Feature","geometry":{"type":"Point","coordinates":[5.37618,51.323573]},"properties":{"category":"bus_halte","name":"Eijkereind","operator":""}},{"type":"Feature","geometry":{"type":"Point","coordinates":[5.376246,51.323719]},"properties":{"category":"bus_halte","name":"Eijkereind","operator":""}},{"type":"Feature","geometry":{"type":"Point","coordinates":[5.369835,51.322148]},"properties":{"category":"bus_halte","name":"Schutsboom","operator":""}},{"type":"Feature","geometry":{"type":"Point","coordinates":[5.370065,51.322056]},"properties":{"category":"bus_halte","name":"Schutsboom","operator":""}},{"type":"Feature","geometry":{"type":"Point","coordinates":[5.366456,51.322437]},"properties":{"category":"bus_halte","name":"Mr. Pankenstraat","operator":""}},{"type":"Feature","geometry":{"type":"Point","coordinates":[5.366328,51.32251]},"properties":{"category":"bus_halte","name":"Mr. Pankenstraat","operator":""}},{"type":"Feature","geometry":{"type":"Point","coordinates":[5.388418,51.328589]},"properties":{"category":"bus_halte","name":"Heijerstraat","operator":""}},{"type":"Feature","geometry":{"type":"Point","coordinates":[5.392179,51.32948]},"properties":{"category":"bus_halte","name":"Dorpstraat","operator":""}},{"type":"Feature","geometry":{"type":"Point","coordinates":[5.399461,51.334222]},"properties":{"category":"bus_halte","name":"Heuvel","operator":""}},{"type":"Feature","geometry":{"type":"Point","coordinates":[5.38599,51.352284]},"properties":{"category":"bus_halte","name":"Kerk","operator":""}},{"type":"Feature","geometry":{"type":"Point","coordinates":[5.382147,51.363509]},"properties":{"category":"bus_halte","name":"Walik","operator":""}},{"type":"Feature","geometry":{"type":"Point","coordinates":[5.413496,51.380244]},"properties":{"category":"bus_halte","name":"Keersopperdreef","operator":""}},{"type":"Feature","geometry":{"type":"Point","coordinates":[5.317494,51.28551]},"properties":{"category":"bus_halte","name":"Kapelstraat","operator":""}},{"type":"Feature","geometry":{"type":"Point","coordinates":[5.326195,51.287795]},"properties":{"category":"bus_halte","name":"Doolhof","operator":""}},{"type":"Feature","geometry":{"type":"Point","coordinates":[5.329991,51.289004]},"properties":{"category":"bus_halte","name":"Schatersdijk","operator":""}},{"type":"Feature","geometry":{"type":"Point","coordinates":[5.337247,51.293776]},"properties":{"category":"bus_halte","name":"Mozekesweg","operator":""}},{"type":"Feature","geometry":{"type":"Point","coordinates":[5.332331,51.298701]},"properties":{"category":"bus_halte","name":"Sengelbroeksestraat","operator":""}},{"type":"Feature","geometry":{"type":"Point","coordinates":[5.337277,51.30865]},"properties":{"category":"bus_halte","name":"Frater Romboutsstraat","operator":""}},{"type":"Feature","geometry":{"type":"Point","coordinates":[5.401746,51.331986]},"properties":{"category":"bus_halte","name":"Provincialeweg","operator":""}},{"type":"Feature","geometry":{"type":"Point","coordinates":[5.41243,51.33957]},"properties":{"category":"bus_halte","name":"Loveren","operator":""}},{"type":"Feature","geometry":{"type":"Point","coordinates":[5.316081,51.272988]},"properties":{"category":"bus_halte","name":"Lommelsedijk","operator":""}},{"type":"Feature","geometry":{"type":"Point","coordinates":[5.313898,51.28367]},"properties":{"category":"bus_halte","name":"Dorpstraat","operator":""}},{"type":"Feature","geometry":{"type":"Point","coordinates":[5.320981,51.288781]},"properties":{"category":"bus_halte","name":"Kerk","operator":""}},{"type":"Feature","geometry":{"type":"Point","coordinates":[5.313608,51.293959]},"properties":{"category":"bus_halte","name":"Rijt","operator":""}},{"type":"Feature","geometry":{"type":"Point","coordinates":[5.303875,51.296831]},"properties":{"category":"bus_halte","name":"Zwartebergen","operator":""}},{"type":"Feature","geometry":{"type":"Point","coordinates":[5.297752,51.306415]},"properties":{"category":"bus_halte","name":"Weebosch","operator":""}},{"type":"Feature","geometry":{"type":"Point","coordinates":[5.294506,51.308911]},"properties":{"category":"bus_halte","name":"Kerk","operator":""}},{"type":"Feature","geometry":{"type":"Point","coordinates":[5.299888,51.312211]},"properties":{"category":"bus_halte","name":"Weebosch (Noord)","operator":""}},{"type":"Feature","geometry":{"type":"Point","coordinates":[5.31445,51.315967]},"properties":{"category":"bus_halte","name":"Muggenhool","operator":""}},{"type":"Feature","geometry":{"type":"Point","coordinates":[5.329017,51.3129]},"properties":{"category":"bus_halte","name":"Puttendijk","operator":""}},{"type":"Feature","geometry":{"type":"Point","coordinates":[5.363679,51.31673]},"properties":{"category":"bus_halte","name":"Dokter Rauppstraat","operator":""}},{"type":"Feature","geometry":{"type":"Point","coordinates":[5.36784,51.31906]},"properties":{"category":"bus_halte","name":"Koningin Julianastraat","operator":""}},{"type":"Feature","geometry":{"type":"Point","coordinates":[5.348933,51.33317]},"properties":{"category":"bus_halte","name":"De Paaldreef","operator":""}},{"type":"Feature","geometry":{"type":"Point","coordinates":[5.357676,51.320428]},"properties":{"category":"gemeentehuis","name":"Gemeentehuis Bergeijk","operator":"Gemeente Bergeijk"}},{"type":"Feature","geometry":{"type":"Point","coordinates":[5.419032,51.331947]},"properties":{"category":"inzamelpunt","name":"","operator":""}},{"type":"Feature","geometry":{"type":"Point","coordinates":[5.358439,51.322131]},"properties":{"category":"bibliotheek","name":"Bibliotheek Bergeijk","operator":"Bibliotheek De Kempen"}},{"type":"Feature","geometry":{"type":"Point","coordinates":[5.422925,51.325253]},"properties":{"category":"sportveld","name":"Paintball Outdoor","operator":""}},{"type":"Feature","geometry":{"type":"Point","coordinates":[5.422509,51.325531]},"properties":{"category":"sportveld","name":"Action Factory","operator":""}},{"type":"Feature","geometry":{"type":"Point","coordinates":[5.354003,51.334762]},"properties":{"category":"sportveld","name":"VTC de Paal Bergeijk","operator":""}},{"type":"Feature","geometry":{"type":"Point","coordinates":[5.423475,51.325735]},"properties":{"category":"sportveld","name":"Sport Center","operator":"Center Parcs"}},{"type":"Feature","geometry":{"type":"Point","coordinates":[5.385342,51.344445]},"properties":{"category":"sportveld","name":"VV Riethoven","operator":""}},{"type":"Feature","geometry":{"type":"Point","coordinates":[5.422528,51.326513]},"properties":{"category":"sportveld","name":"","operator":"Centerparcs"}},{"type":"Feature","geometry":{"type":"Point","coordinates":[5.356824,51.321654]},"properties":{"category":"supermarkt","name":"Jumbo","operator":""}},{"type":"Feature","geometry":{"type":"Point","coordinates":[5.419034,51.327778]},"properties":{"category":"supermarkt","name":"Daily Foodstore","operator":"Albron"}},{"type":"Feature","geometry":{"type":"Point","coordinates":[5.359122,51.322529]},"properties":{"category":"supermarkt","name":"Albert Heijn","operator":""}},{"type":"Feature","geometry":{"type":"Point","coordinates":[5.363395,51.322791]},"properties":{"category":"supermarkt","name":"Lidl","operator":"Lidl Nederland GmbH"}},{"type":"Feature","geometry":{"type":"Point","coordinates":[5.324906,51.286956]},"properties":{"category":"supermarkt","name":"PLUS Van de Huijgevoort","operator":""}},{"type":"Feature","geometry":{"type":"Point","coordinates":[5.358328,51.320427]},"properties":{"category":"parkeergarage","name":"","operator":""}}]}