{"type":"FeatureCollection","metadata":{"gemeente":"Bladel","slug":"bladel","by_category":{"bus_halte":53,"sportveld":3,"bibliotheek":2,"transformatorhuisje":2,"gemeentehuis":1,"middelbare_school":1,"fietsenstalling":1},"total":63},"features":[{"type":"Feature","geometry":{"type":"Point","coordinates":[5.265386,51.400815]},"properties":{"category":"bus_halte","name":"Vessemseweg","operator":""}},{"type":"Feature","geometry":{"type":"Point","coordinates":[5.200559,51.361721]},"properties":{"category":"bus_halte","name":"Nijverheidsstraat","operator":""}},{"type":"Feature","geometry":{"type":"Point","coordinates":[5.234831,51.371102]},"properties":{"category":"bus_halte","name":"Sniederslaan","operator":""}},{"type":"Feature","geometry":{"type":"Point","coordinates":[5.235022,51.371264]},"properties":{"category":"bus_halte","name":"Sniederslaan","operator":""}},{"type":"Feature","geometry":{"type":"Point","coordinates":[5.249793,51.37121]},"properties":{"category":"bus_halte","name":"Abdijstraat","operator":""}},{"type":"Feature","geometry":{"type":"Point","coordinates":[5.249311,51.371335]},"properties":{"category":"bus_halte","name":"Abdijstraat","operator":""}},{"type":"Feature","geometry":{"type":"Point","coordinates":[5.258862,51.370516]},"properties":{"category":"bus_halte","name":"Oude Provincialeweg","operator":""}},{"type":"Feature","geometry":{"type":"Point","coordinates":[5.265463,51.369952]},"properties":{"category":"bus_halte","name":"De Hoeven","operator":""}},{"type":"Feature","geometry":{"type":"Point","coordinates":[5.26769,51.369628]},"properties":{"category":"bus_halte","name":"De Hoeven","operator":""}},{"type":"Feature","geometry":{"type":"Point","coordinates":[5.212287,51.37371]},"properties":{"category":"bus_halte","name":"Helleneind","operator":""}},{"type":"Feature","geometry":{"type":"Point","coordinates":[5.22587,51.37599]},"properties":{"category":"bus_halte","name":"Doolandweg","operator":""}},{"type":"Feature","geometry":{"type":"Point","coordinates":[5.267252,51.395188]},"properties":{"category":"bus_halte","name":"Valensplein","operator":""}},{"type":"Feature","geometry":{"type":"Point","coordinates":[5.217737,51.361636]},"properties":{"category":"bus_halte","name":"Busstation Bladel","operator":""}},{"type":"Feature","geometry":{"type":"Point","coordinates":[5.21828,51.361867]},"properties":{"category":"bus_halte","name":"Busstation Bladel","operator":""}},{"type":"Feature","geometry":{"type":"Point","coordinates":[5.208319,51.404124]},"properties":{"category":"bus_halte","name":"Carolus Simplexplein","operator":""}},{"type":"Feature","geometry":{"type":"Point","coordinates":[5.238264,51.396209]},"properties":{"category":"bus_halte","name":"Kerkstraat","operator":""}},{"type":"Feature","geometry":{"type":"Point","coordinates":[5.235763,51.398855]},"properties":{"category":"bus_halte","name":"Kranenberg/Zandstraat","operator":""}},{"type":"Feature","geometry":{"type":"Point","coordinates":[5.213669,51.366229]},"properties":{"category":"bus_halte","name":"Markt","operator":""}},{"type":"Feature","geometry":{"type":"Point","coordinates":[5.267046,51.397959]},"properties":{"category":"bus_halte","name":"Hoofdstraat","operator":""}},{"type":"Feature","geometry":{"type":"Point","coordinates":[5.251986,51.370245]},"properties":{"category":"bus_halte","name":"Markt","operator":""}},{"type":"Feature","geometry":{"type":"Point","coordinates":[5.260595,51.352605]},"properties":{"category":"bus_halte","name":"Dalem","operator":""}},{"type":"Feature","geometry":{"type":"Point","coordinates":[5.222054,51.354652]},"properties":{"category":"bus_halte","name":"Hooiberg","operator":""}},{"type":"Feature","geometry":{"type":"Point","coordinates":[5.214563,51.362839]},"properties":{"category":"bus_halte","name":"Floriaan","operator":""}},{"type":"Feature","geometry":{"type":"Point","coordinates":[5.231487,51.347336]},"properties":{"category":"bus_halte","name":"Troprijt","operator":""}},{"type":"Feature","geometry":{"type":"Point","coordinates":[5.199001,51.361722]},"properties":{"category":"bus_halte","name":"Nijverheidsstraat","operator":""}},{"type":"Feature","geometry":{"type":"Point","coordinates":[5.259074,51.370356]},"properties":{"category":"bus_halte","name":"Oude Provincialeweg","operator":""}},{"type":"Feature","geometry":{"type":"Point","coordinates":[5.213813,51.366236]},"properties":{"category":"bus_halte","name":"Markt","operator":""}},{"type":"Feature","geometry":{"type":"Point","coordinates":[5.212129,51.373597]},"properties":{"category":"bus_halte","name":"Helleneind","operator":""}},{"type":"Feature","geometry":{"type":"Point","coordinates":[5.225783,51.37611]},"properties":{"category":"bus_halte","name":"Doolandweg","operator":""}},{"type":"Feature","geometry":{"type":"Point","coordinates":[5.267326,51.395266]},"properties":{"category":"bus_halte","name":"Valensplein","operator":""}},{"type":"Feature","geometry":{"type":"Point","coordinates":[5.231426,51.34727]},"properties":{"category":"bus_halte","name":"Troprijt","operator":""}},{"type":"Feature","geometry":{"type":"Point","coordinates":[5.22201,51.354521]},"properties":{"category":"bus_halte","name":"Hooiberg","operator":""}},{"type":"Feature","geometry":{"type":"Point","coordinates":[5.208116,51.404057]},"properties":{"category":"bus_halte","name":"Carolus Simplexplein","operator":""}},{"type":"Feature","geometry":{"type":"Point","coordinates":[5.235956,51.398816]},"properties":{"category":"bus_halte","name":"Kranenberg/Zandstraat","operator":""}},{"type":"Feature","geometry":{"type":"Point","coordinates":[5.238434,51.396285]},"properties":{"category":"bus_halte","name":"Kerkstraat","operator":""}},{"type":"Feature","geometry":{"type":"Point","coordinates":[5.266746,51.398012]},"properties":{"category":"bus_halte","name":"Hoofdstraat","operator":""}},{"type":"Feature","geometry":{"type":"Point","coordinates":[5.265199,51.400851]},"properties":{"category":"bus_halte","name":"Vessemseweg","operator":""}},{"type":"Feature","geometry":{"type":"Point","coordinates":[5.251867,51.370233]},"properties":{"category":"bus_halte","name":"Markt","operator":""}},{"type":"Feature","geometry":{"type":"Point","coordinates":[5.260424,51.35265]},"properties":{"category":"bus_halte","name":"Dalem","operator":""}},{"type":"Feature","geometry":{"type":"Point","coordinates":[5.250252,51.344194]},"properties":{"category":"bus_halte","name":"Het Vennenbos","operator":""}},{"type":"Feature","geometry":{"type":"Point","coordinates":[5.218008,51.361953]},"properties":{"category":"bus_halte","name":"Busstation Bladel","operator":""}},{"type":"Feature","geometry":{"type":"Point","coordinates":[5.230263,51.369429]},"properties":{"category":"bus_halte","name":"Sniederslaan/Tuinstraat","operator":"Casters vervoer"}},{"type":"Feature","geometry":{"type":"Point","coordinates":[5.230299,51.369376]},"properties":{"category":"bus_halte","name":"Sniederslaan/Tuinstraat","operator":"Casters vervoer"}},{"type":"Feature","geometry":{"type":"Point","coordinates":[5.232454,51.373155]},"properties":{"category":"bus_halte","name":"Pius X-College","operator":""}},{"type":"Feature","geometry":{"type":"Point","coordinates":[5.232488,51.373075]},"properties":{"category":"bus_halte","name":"Pius X-College","operator":""}},{"type":"Feature","geometry":{"type":"Point","coordinates":[5.221185,51.368066]},"properties":{"category":"bus_halte","name":"Kerk","operator":""}},{"type":"Feature","geometry":{"type":"Point","coordinates":[5.232562,51.373266]},"properties":{"category":"bus_halte","name":"Pius X-College","operator":""}},{"type":"Feature","geometry":{"type":"Point","coordinates":[5.230969,51.385571]},"properties":{"category":"bus_halte","name":"Ganzenhof","operator":""}},{"type":"Feature","geometry":{"type":"Point","coordinates":[5.230758,51.385733]},"properties":{"category":"bus_halte","name":"Ganzenhof","operator":""}},{"type":"Feature","geometry":{"type":"Point","coordinates":[5.268415,51.370553]},"properties":{"category":"bus_halte","name":"Provinciale weg/De Weijer","operator":""}},{"type":"Feature","geometry":{"type":"Point","coordinates":[5.270089,51.369759]},"properties":{"category":"bus_halte","name":"Provinciale weg/De Weijer","operator":""}},{"type":"Feature","geometry":{"type":"Point","coordinates":[5.273371,51.355644]},"properties":{"category":"bus_halte","name":"Smaragdweg","operator":""}},{"type":"Feature","geometry":{"type":"Point","coordinates":[5.269892,51.363299]},"properties":{"category":"bus_halte","name":"Diamantweg","operator":""}},{"type":"Feature","geometry":{"type":"Point","coordinates":[5.214829,51.366549]},"properties":{"category":"gemeentehuis","name":"Gemeentehuis Bladel","operator":"Gemeente Bladel"}},{"type":"Feature","geometry":{"type":"Point","coordinates":[5.214943,51.367103]},"properties":{"category":"bibliotheek","name":"Bibliotheek Bladel","operator":"Bibliotheek De Kempen"}},{"type":"Feature","geometry":{"type":"Point","coordinates":[5.253004,51.37049]},"properties":{"category":"bibliotheek","name":"Bibliotheek Hapert","operator":"Bibliotheek De Kempen"}},{"type":"Feature","geometry":{"type":"Point","coordinates":[5.270566,51.373229]},"properties":{"category":"transformatorhuisje","name":"","operator":""}},{"type":"Feature","geometry":{"type":"Point","coordinates":[5.270261,51.373285]},"properties":{"category":"transformatorhuisje","name":"","operator":""}},{"type":"Feature","geometry":{"type":"Point","coordinates":[5.231749,51.37204]},"properties":{"category":"middelbare_school","name":"Pius X-College","operator":""}},{"type":"Feature","geometry":{"type":"Point","coordinates":[5.253833,51.378446]},"properties":{"category":"sportveld","name":"De Lemelvelden","operator":""}},{"type":"Feature","geometry":{"type":"Point","coordinates":[5.244649,51.391148]},"properties":{"category":"sportveld","name":"","operator":""}},{"type":"Feature","geometry":{"type":"Point","coordinates":[5.228332,51.342891]},"properties":{"category":"sportveld","name":"","operator":""}},{"type":"Feature","geometry":{"type":"Point","coordinates":[5.218484,51.361858]},"properties":{"category":"fietsenstalling","name":"","operator":""}}]}