{"type":"FeatureCollection","metadata":{"gemeente":"Blaricum","slug":"blaricum","by_category":{"bus_halte":18,"supermarkt":2,"fietsenstalling":2,"p_and_r":2,"gemeentehuis":1,"ziekenhuis":1,"parkeergarage":1},"total":27},"features":[{"type":"Feature","geometry":{"type":"Point","coordinates":[5.238253,52.270411]},"properties":{"category":"bus_halte","name":"Verbeeklaan","operator":""}},{"type":"Feature","geometry":{"type":"Point","coordinates":[5.270174,52.286027]},"properties":{"category":"bus_halte","name":"De Maten","operator":""}},{"type":"Feature","geometry":{"type":"Point","coordinates":[5.239028,52.270843]},"properties":{"category":"bus_halte","name":"Verbeeklaan","operator":""}},{"type":"Feature","geometry":{"type":"Point","coordinates":[5.266237,52.286064]},"properties":{"category":"bus_halte","name":"De Dam","operator":""}},{"type":"Feature","geometry":{"type":"Point","coordinates":[5.243122,52.273468]},"properties":{"category":"bus_halte","name":"Dorp","operator":""}},{"type":"Feature","geometry":{"type":"Point","coordinates":[5.266105,52.285992]},"properties":{"category":"bus_halte","name":"De Dam","operator":""}},{"type":"Feature","geometry":{"type":"Point","coordinates":[5.242956,52.273715]},"properties":{"category":"bus_halte","name":"Dorp","operator":""}},{"type":"Feature","geometry":{"type":"Point","coordinates":[5.261722,52.286203]},"properties":{"category":"bus_halte","name":"Viersloot","operator":""}},{"type":"Feature","geometry":{"type":"Point","coordinates":[5.204667,52.268137]},"properties":{"category":"bus_halte","name":"Crailo P+R","operator":""}},{"type":"Feature","geometry":{"type":"Point","coordinates":[5.239605,52.279833]},"properties":{"category":"bus_halte","name":"Huizerhoogt","operator":""}},{"type":"Feature","geometry":{"type":"Point","coordinates":[5.262513,52.286383]},"properties":{"category":"bus_halte","name":"Viersloot","operator":""}},{"type":"Feature","geometry":{"type":"Point","coordinates":[5.239804,52.279796]},"properties":{"category":"bus_halte","name":"Huizerhoogt","operator":""}},{"type":"Feature","geometry":{"type":"Point","coordinates":[5.234121,52.266379]},"properties":{"category":"bus_halte","name":"Professor van Reeslaan","operator":""}},{"type":"Feature","geometry":{"type":"Point","coordinates":[5.233594,52.266127]},"properties":{"category":"bus_halte","name":"Professor van Reeslaan","operator":""}},{"type":"Feature","geometry":{"type":"Point","coordinates":[5.271345,52.286104]},"properties":{"category":"bus_halte","name":"De Maten","operator":""}},{"type":"Feature","geometry":{"type":"Point","coordinates":[5.204569,52.267876]},"properties":{"category":"bus_halte","name":"Crailo P+R","operator":""}},{"type":"Feature","geometry":{"type":"Point","coordinates":[5.271306,52.283087]},"properties":{"category":"bus_halte","name":"Blaricum P+R","operator":""}},{"type":"Feature","geometry":{"type":"Point","coordinates":[5.270926,52.282885]},"properties":{"category":"bus_halte","name":"Blaricum P+R","operator":""}},{"type":"Feature","geometry":{"type":"Point","coordinates":[5.249957,52.271054]},"properties":{"category":"gemeentehuis","name":"Gemeentehuis Blaricum","operator":"Gemeente Blaricum"}},{"type":"Feature","geometry":{"type":"Point","coordinates":[5.206111,52.267705]},"properties":{"category":"ziekenhuis","name":"Regionaal Medisch Centrum Blaricum","operator":""}},{"type":"Feature","geometry":{"type":"Point","coordinates":[5.243552,52.273445]},"properties":{"category":"supermarkt","name":"Albert Heijn","operator":""}},{"type":"Feature","geometry":{"type":"Point","coordinates":[5.26521,52.286807]},"properties":{"category":"supermarkt","name":"PLUS Van den Hoven","operator":""}},{"type":"Feature","geometry":{"type":"Point","coordinates":[5.204669,52.267796]},"properties":{"category":"fietsenstalling","name":"","operator":""}},{"type":"Feature","geometry":{"type":"Point","coordinates":[5.270995,52.283041]},"properties":{"category":"fietsenstalling","name":"","operator":""}},{"type":"Feature","geometry":{"type":"Point","coordinates":[5.234044,52.268153]},"properties":{"category":"parkeergarage","name":"","operator":""}},{"type":"Feature","geometry":{"type":"Point","coordinates":[5.267567,52.28214]},"properties":{"category":"p_and_r","name":"Stichtseweg","operator":""}},{"type":"Feature","geometry":{"type":"Point","coordinates":[5.272962,52.284401]},"properties":{"category":"p_and_r","name":"Blaricum P+R","operator":""}}]}