{"type":"FeatureCollection","metadata":{"gemeente":"Boekel","slug":"boekel","by_category":{"bus_halte":31,"sportveld":6,"gemeentehuis":1,"inzamelpunt":1,"bibliotheek":1,"fietsenstalling":1},"total":41},"features":[{"type":"Feature","geometry":{"type":"Point","coordinates":[5.67708,51.597263]},"properties":{"category":"bus_halte","name":"Bergstraat","operator":""}},{"type":"Feature","geometry":{"type":"Point","coordinates":[5.665517,51.623419]},"properties":{"category":"bus_halte","name":"Peelse Huis","operator":""}},{"type":"Feature","geometry":{"type":"Point","coordinates":[5.683663,51.585454]},"properties":{"category":"bus_halte","name":"Berkhoek","operator":""}},{"type":"Feature","geometry":{"type":"Point","coordinates":[5.673475,51.603754]},"properties":{"category":"bus_halte","name":"Kerkstraat","operator":""}},{"type":"Feature","geometry":{"type":"Point","coordinates":[5.672082,51.609074]},"properties":{"category":"bus_halte","name":"Zuivelfabriek","operator":""}},{"type":"Feature","geometry":{"type":"Point","coordinates":[5.669855,51.614196]},"properties":{"category":"bus_halte","name":"Molenstraat","operator":""}},{"type":"Feature","geometry":{"type":"Point","coordinates":[5.686841,51.599715]},"properties":{"category":"bus_halte","name":"Grootveld","operator":""}},{"type":"Feature","geometry":{"type":"Point","coordinates":[5.686707,51.599867]},"properties":{"category":"bus_halte","name":"Grootveld","operator":""}},{"type":"Feature","geometry":{"type":"Point","coordinates":[5.671954,51.608981]},"properties":{"category":"bus_halte","name":"Zuivelfabriek","operator":""}},{"type":"Feature","geometry":{"type":"Point","coordinates":[5.669708,51.614027]},"properties":{"category":"bus_halte","name":"Molenstraat","operator":""}},{"type":"Feature","geometry":{"type":"Point","coordinates":[5.665427,51.623206]},"properties":{"category":"bus_halte","name":"Peelse Huis","operator":""}},{"type":"Feature","geometry":{"type":"Point","coordinates":[5.682519,51.585926]},"properties":{"category":"bus_halte","name":"Berkhoek","operator":""}},{"type":"Feature","geometry":{"type":"Point","coordinates":[5.676726,51.598159]},"properties":{"category":"bus_halte","name":"Bergstraat","operator":""}},{"type":"Feature","geometry":{"type":"Point","coordinates":[5.673375,51.603669]},"properties":{"category":"bus_halte","name":"Kerkstraat","operator":""}},{"type":"Feature","geometry":{"type":"Point","coordinates":[5.708894,51.586905]},"properties":{"category":"bus_halte","name":"Huize Padua","operator":""}},{"type":"Feature","geometry":{"type":"Point","coordinates":[5.708803,51.586872]},"properties":{"category":"bus_halte","name":"Huize Padua","operator":""}},{"type":"Feature","geometry":{"type":"Point","coordinates":[5.696149,51.594314]},"properties":{"category":"bus_halte","name":"Arendnest","operator":""}},{"type":"Feature","geometry":{"type":"Point","coordinates":[5.696268,51.594354]},"properties":{"category":"bus_halte","name":"Arendnest","operator":""}},{"type":"Feature","geometry":{"type":"Point","coordinates":[5.699798,51.591921]},"properties":{"category":"bus_halte","name":"Vliegberg","operator":""}},{"type":"Feature","geometry":{"type":"Point","coordinates":[5.699882,51.591968]},"properties":{"category":"bus_halte","name":"Vliegberg","operator":""}},{"type":"Feature","geometry":{"type":"Point","coordinates":[5.680433,51.602261]},"properties":{"category":"bus_halte","name":"Donkstraat","operator":""}},{"type":"Feature","geometry":{"type":"Point","coordinates":[5.681182,51.602016]},"properties":{"category":"bus_halte","name":"Donkstraat","operator":""}},{"type":"Feature","geometry":{"type":"Point","coordinates":[5.671037,51.602843]},"properties":{"category":"bus_halte","name":"Nia Domo","operator":""}},{"type":"Feature","geometry":{"type":"Point","coordinates":[5.671282,51.602771]},"properties":{"category":"bus_halte","name":"Nia Domo","operator":""}},{"type":"Feature","geometry":{"type":"Point","coordinates":[5.662349,51.601262]},"properties":{"category":"bus_halte","name":"Irenestraat","operator":""}},{"type":"Feature","geometry":{"type":"Point","coordinates":[5.6625,51.601208]},"properties":{"category":"bus_halte","name":"Irenestraat","operator":""}},{"type":"Feature","geometry":{"type":"Point","coordinates":[5.645165,51.601337]},"properties":{"category":"bus_halte","name":"Boekelseweg","operator":""}},{"type":"Feature","geometry":{"type":"Point","coordinates":[5.645416,51.601172]},"properties":{"category":"bus_halte","name":"Boekelseweg","operator":""}},{"type":"Feature","geometry":{"type":"Point","coordinates":[5.738991,51.608126]},"properties":{"category":"bus_halte","name":"Sint Josephplein","operator":""}},{"type":"Feature","geometry":{"type":"Point","coordinates":[5.711169,51.590001]},"properties":{"category":"bus_halte","name":"Kluisstraat","operator":""}},{"type":"Feature","geometry":{"type":"Point","coordinates":[5.711067,51.590013]},"properties":{"category":"bus_halte","name":"Kluisstraat","operator":""}},{"type":"Feature","geometry":{"type":"Point","coordinates":[5.673193,51.603285]},"properties":{"category":"gemeentehuis","name":"Gemeentehuis Boekel","operator":"Gemeente Boekel"}},{"type":"Feature","geometry":{"type":"Point","coordinates":[5.666529,51.609957]},"properties":{"category":"inzamelpunt","name":"Dutch Plantin","operator":""}},{"type":"Feature","geometry":{"type":"Point","coordinates":[5.67162,51.60302]},"properties":{"category":"bibliotheek","name":"Bibliotheek Boekel","operator":"Bibliotheek De Lage Beemden"}},{"type":"Feature","geometry":{"type":"Point","coordinates":[5.693072,51.605764]},"properties":{"category":"sportveld","name":"Sportpark De Donk","operator":""}},{"type":"Feature","geometry":{"type":"Point","coordinates":[5.698367,51.625791]},"properties":{"category":"sportveld","name":"Paintball-Games Venhorst","operator":""}},{"type":"Feature","geometry":{"type":"Point","coordinates":[5.73386,51.611724]},"properties":{"category":"sportveld","name":"Sportpark Voskuilen","operator":""}},{"type":"Feature","geometry":{"type":"Point","coordinates":[5.678463,51.604476]},"properties":{"category":"sportveld","name":"","operator":""}},{"type":"Feature","geometry":{"type":"Point","coordinates":[5.700114,51.585847]},"properties":{"category":"sportveld","name":"Circuit Bezuidenhout","operator":""}},{"type":"Feature","geometry":{"type":"Point","coordinates":[5.692669,51.626434]},"properties":{"category":"sportveld","name":"Schietbaan Eric Swinkels","operator":""}},{"type":"Feature","geometry":{"type":"Point","coordinates":[5.677994,51.604302]},"properties":{"category":"fietsenstalling","name":"","operator":""}}]}