{"type":"FeatureCollection","metadata":{"gemeente":"Bunschoten","slug":"bunschoten","by_category":{"bus_halte":47,"transformatorhuisje":5,"fietsenstalling":5,"bibliotheek":2,"parkeergarage":2,"gemeentehuis":1,"inzamelpunt":1,"middelbare_school":1,"sportveld":1},"total":65},"features":[{"type":"Feature","geometry":{"type":"Point","coordinates":[5.364493,52.210118]},"properties":{"category":"bus_halte","name":"Carpool/P+R Bunschoten","operator":""}},{"type":"Feature","geometry":{"type":"Point","coordinates":[5.364699,52.210339]},"properties":{"category":"bus_halte","name":"Carpool/P+R Bunschoten","operator":""}},{"type":"Feature","geometry":{"type":"Point","coordinates":[5.370473,52.227521]},"properties":{"category":"bus_halte","name":"Bisschopsweg","operator":""}},{"type":"Feature","geometry":{"type":"Point","coordinates":[5.370109,52.227491]},"properties":{"category":"bus_halte","name":"Bisschopsweg","operator":""}},{"type":"Feature","geometry":{"type":"Point","coordinates":[5.368219,52.233591]},"properties":{"category":"bus_halte","name":"De Kronkels","operator":""}},{"type":"Feature","geometry":{"type":"Point","coordinates":[5.366291,52.236526]},"properties":{"category":"bus_halte","name":"Blauwe Reiger","operator":""}},{"type":"Feature","geometry":{"type":"Point","coordinates":[5.367893,52.234586]},"properties":{"category":"bus_halte","name":"St. Nicolaasweg","operator":""}},{"type":"Feature","geometry":{"type":"Point","coordinates":[5.376724,52.232306]},"properties":{"category":"bus_halte","name":"Haarbrug-Noord","operator":""}},{"type":"Feature","geometry":{"type":"Point","coordinates":[5.378099,52.237548]},"properties":{"category":"bus_halte","name":"De Kleine Pol","operator":""}},{"type":"Feature","geometry":{"type":"Point","coordinates":[5.366572,52.240278]},"properties":{"category":"bus_halte","name":"Wilde Zwaan","operator":""}},{"type":"Feature","geometry":{"type":"Point","coordinates":[5.368106,52.246417]},"properties":{"category":"bus_halte","name":"Brahmslaan","operator":""}},{"type":"Feature","geometry":{"type":"Point","coordinates":[5.377167,52.243548]},"properties":{"category":"bus_halte","name":"Gemeentehuis","operator":""}},{"type":"Feature","geometry":{"type":"Point","coordinates":[5.375805,52.246606]},"properties":{"category":"bus_halte","name":"Boompjes","operator":""}},{"type":"Feature","geometry":{"type":"Point","coordinates":[5.376574,52.24922]},"properties":{"category":"bus_halte","name":"Huijgenlaan","operator":""}},{"type":"Feature","geometry":{"type":"Point","coordinates":[5.371757,52.251308]},"properties":{"category":"bus_halte","name":"Goudoever","operator":""}},{"type":"Feature","geometry":{"type":"Point","coordinates":[5.37715,52.251124]},"properties":{"category":"bus_halte","name":"Kuijperstraat","operator":""}},{"type":"Feature","geometry":{"type":"Point","coordinates":[5.376323,52.253122]},"properties":{"category":"bus_halte","name":"Broerswetering","operator":""}},{"type":"Feature","geometry":{"type":"Point","coordinates":[5.366011,52.243638]},"properties":{"category":"bus_halte","name":"Beethovenlaan","operator":""}},{"type":"Feature","geometry":{"type":"Point","coordinates":[5.365849,52.243749]},"properties":{"category":"bus_halte","name":"Beethovenlaan","operator":""}},{"type":"Feature","geometry":{"type":"Point","coordinates":[5.369061,52.247381]},"properties":{"category":"bus_halte","name":"Brahmslaan","operator":""}},{"type":"Feature","geometry":{"type":"Point","coordinates":[5.377143,52.252795]},"properties":{"category":"bus_halte","name":"Spakenburg, Broerswetering","operator":""}},{"type":"Feature","geometry":{"type":"Point","coordinates":[5.377754,52.236549]},"properties":{"category":"bus_halte","name":"De Kleine Pol","operator":""}},{"type":"Feature","geometry":{"type":"Point","coordinates":[5.377121,52.25142]},"properties":{"category":"bus_halte","name":"Kuijperstraat","operator":""}},{"type":"Feature","geometry":{"type":"Point","coordinates":[5.328718,52.254192]},"properties":{"category":"bus_halte","name":"Pontveer","operator":""}},{"type":"Feature","geometry":{"type":"Point","coordinates":[5.329975,52.253504]},"properties":{"category":"bus_halte","name":"Ringweg","operator":""}},{"type":"Feature","geometry":{"type":"Point","coordinates":[5.330054,52.253632]},"properties":{"category":"bus_halte","name":"Ringweg","operator":""}},{"type":"Feature","geometry":{"type":"Point","coordinates":[5.358445,52.244985]},"properties":{"category":"bus_halte","name":"Zwembad de Duker","operator":""}},{"type":"Feature","geometry":{"type":"Point","coordinates":[5.358538,52.245079]},"properties":{"category":"bus_halte","name":"Zwembad de Duker","operator":""}},{"type":"Feature","geometry":{"type":"Point","coordinates":[5.372125,52.251547]},"properties":{"category":"bus_halte","name":"Goudoever","operator":""}},{"type":"Feature","geometry":{"type":"Point","coordinates":[5.364139,52.229805]},"properties":{"category":"bus_halte","name":"Edisonweg","operator":""}},{"type":"Feature","geometry":{"type":"Point","coordinates":[5.36467,52.231107]},"properties":{"category":"bus_halte","name":"Edisonweg","operator":""}},{"type":"Feature","geometry":{"type":"Point","coordinates":[5.391398,52.22949]},"properties":{"category":"bus_halte","name":"Nijkerkerweg","operator":""}},{"type":"Feature","geometry":{"type":"Point","coordinates":[5.391304,52.229905]},"properties":{"category":"bus_halte","name":"Nijkerkerweg","operator":""}},{"type":"Feature","geometry":{"type":"Point","coordinates":[5.388625,52.209423]},"properties":{"category":"bus_halte","name":"Zevenhuizerstraat","operator":""}},{"type":"Feature","geometry":{"type":"Point","coordinates":[5.388515,52.209307]},"properties":{"category":"bus_halte","name":"Zevenhuizerstraat","operator":""}},{"type":"Feature","geometry":{"type":"Point","coordinates":[5.377271,52.243422]},"properties":{"category":"bus_halte","name":"Gemeentehuis","operator":""}},{"type":"Feature","geometry":{"type":"Point","coordinates":[5.375707,52.246644]},"properties":{"category":"bus_halte","name":"Boompjes","operator":""}},{"type":"Feature","geometry":{"type":"Point","coordinates":[5.376823,52.233162]},"properties":{"category":"bus_halte","name":"Haarbrug-Noord","operator":""}},{"type":"Feature","geometry":{"type":"Point","coordinates":[5.366904,52.240388]},"properties":{"category":"bus_halte","name":"Wilde Zwaan","operator":""}},{"type":"Feature","geometry":{"type":"Point","coordinates":[5.366355,52.2368]},"properties":{"category":"bus_halte","name":"Blauwe Reiger","operator":""}},{"type":"Feature","geometry":{"type":"Point","coordinates":[5.378465,52.232792]},"properties":{"category":"bus_halte","name":"Haarbrug - Noord","operator":""}},{"type":"Feature","geometry":{"type":"Point","coordinates":[5.37223,52.251359]},"properties":{"category":"bus_halte","name":"Goudoever","operator":""}},{"type":"Feature","geometry":{"type":"Point","coordinates":[5.376184,52.250442]},"properties":{"category":"bus_halte","name":"Talmastraat","operator":""}},{"type":"Feature","geometry":{"type":"Point","coordinates":[5.376152,52.250376]},"properties":{"category":"bus_halte","name":"Talmastraat","operator":""}},{"type":"Feature","geometry":{"type":"Point","coordinates":[5.372358,52.251252]},"properties":{"category":"bus_halte","name":"Goudoever","operator":""}},{"type":"Feature","geometry":{"type":"Point","coordinates":[5.389628,52.216889]},"properties":{"category":"bus_halte","name":"De Kastanjeboom","operator":""}},{"type":"Feature","geometry":{"type":"Point","coordinates":[5.389547,52.216991]},"properties":{"category":"bus_halte","name":"De Kastanjeboom","operator":""}},{"type":"Feature","geometry":{"type":"Point","coordinates":[5.373983,52.243262]},"properties":{"category":"gemeentehuis","name":"Gemeentehuis Bunschoten","operator":"Gemeente Bunschoten"}},{"type":"Feature","geometry":{"type":"Point","coordinates":[5.394867,52.249315]},"properties":{"category":"inzamelpunt","name":"Aanbiedstation Gemeente Bunschoten-Spakenburg","operator":""}},{"type":"Feature","geometry":{"type":"Point","coordinates":[5.377908,52.25422]},"properties":{"category":"bibliotheek","name":"de Bibliotheek Bunschoten","operator":"Bibliotheek Eemland"}},{"type":"Feature","geometry":{"type":"Point","coordinates":[5.331451,52.253073]},"properties":{"category":"bibliotheek","name":"Servicepunt Eemdijk","operator":"Bibliotheek Eemland"}},{"type":"Feature","geometry":{"type":"Point","coordinates":[5.393278,52.24888]},"properties":{"category":"transformatorhuisje","name":"","operator":""}},{"type":"Feature","geometry":{"type":"Point","coordinates":[5.393093,52.248972]},"properties":{"category":"transformatorhuisje","name":"","operator":""}},{"type":"Feature","geometry":{"type":"Point","coordinates":[5.373512,52.244311]},"properties":{"category":"transformatorhuisje","name":"","operator":""}},{"type":"Feature","geometry":{"type":"Point","coordinates":[5.372035,52.245917]},"properties":{"category":"transformatorhuisje","name":"","operator":""}},{"type":"Feature","geometry":{"type":"Point","coordinates":[5.364338,52.243265]},"properties":{"category":"transformatorhuisje","name":"","operator":""}},{"type":"Feature","geometry":{"type":"Point","coordinates":[5.378858,52.244387]},"properties":{"category":"middelbare_school","name":"Oostwende College","operator":"Meerscholen"}},{"type":"Feature","geometry":{"type":"Point","coordinates":[5.3781,52.257883]},"properties":{"category":"sportveld","name":"Sportpark De Westmaat","operator":""}},{"type":"Feature","geometry":{"type":"Point","coordinates":[5.373642,52.243347]},"properties":{"category":"fietsenstalling","name":"","operator":""}},{"type":"Feature","geometry":{"type":"Point","coordinates":[5.371519,52.251355]},"properties":{"category":"fietsenstalling","name":"","operator":""}},{"type":"Feature","geometry":{"type":"Point","coordinates":[5.370077,52.227726]},"properties":{"category":"fietsenstalling","name":"","operator":""}},{"type":"Feature","geometry":{"type":"Point","coordinates":[5.366414,52.23645]},"properties":{"category":"fietsenstalling","name":"","operator":""}},{"type":"Feature","geometry":{"type":"Point","coordinates":[5.366543,52.240193]},"properties":{"category":"fietsenstalling","name":"","operator":""}},{"type":"Feature","geometry":{"type":"Point","coordinates":[5.380382,52.251673]},"properties":{"category":"parkeergarage","name":"Oostpoort","operator":""}},{"type":"Feature","geometry":{"type":"Point","coordinates":[5.379458,52.251426]},"properties":{"category":"parkeergarage","name":"","operator":""}}]}