{"type":"FeatureCollection","metadata":{"gemeente":"Capelle aan den IJssel","slug":"capelle-aan-den-ijssel","by_category":{"bus_halte":119,"transformatorhuisje":9,"p_and_r":5,"ov_knooppunt":4,"sportveld":4,"metro_station":3,"bibliotheek":3,"winkelcentrum":3,"fietsenstalling":3,"parkeergarage":3,"ziekenhuis":2,"middelbare_school":2,"ns_station":1,"gemeentehuis":1,"inzamelpunt":1},"total":163},"features":[{"type":"Feature","geometry":{"type":"Point","coordinates":[4.584096,51.954118]},"properties":{"category":"ns_station","name":"Capelle Schollevaar","operator":""}},{"type":"Feature","geometry":{"type":"Point","coordinates":[4.589558,51.93138]},"properties":{"category":"metro_station","name":"Capelle Centrum","operator":""}},{"type":"Feature","geometry":{"type":"Point","coordinates":[4.600382,51.935947]},"properties":{"category":"metro_station","name":"De Terp","operator":"RET"}},{"type":"Feature","geometry":{"type":"Point","coordinates":[4.578324,51.928478]},"properties":{"category":"metro_station","name":"Slotlaan","operator":""}},{"type":"Feature","geometry":{"type":"Point","coordinates":[4.542124,51.912814]},"properties":{"category":"bus_halte","name":"Rivium 1e straat","operator":""}},{"type":"Feature","geometry":{"type":"Point","coordinates":[4.542191,51.912921]},"properties":{"category":"bus_halte","name":"Rivium 1e straat","operator":""}},{"type":"Feature","geometry":{"type":"Point","coordinates":[4.543131,51.911198]},"properties":{"category":"bus_halte","name":"Rivium 2e straat","operator":""}},{"type":"Feature","geometry":{"type":"Point","coordinates":[4.543111,51.911016]},"properties":{"category":"bus_halte","name":"Rivium 2e straat","operator":""}},{"type":"Feature","geometry":{"type":"Point","coordinates":[4.544379,51.909269]},"properties":{"category":"bus_halte","name":"Rivium 4e straat","operator":""}},{"type":"Feature","geometry":{"type":"Point","coordinates":[4.538972,51.917975]},"properties":{"category":"bus_halte","name":"Fascinatio","operator":""}},{"type":"Feature","geometry":{"type":"Point","coordinates":[4.538874,51.917904]},"properties":{"category":"bus_halte","name":"Fascinatio","operator":""}},{"type":"Feature","geometry":{"type":"Point","coordinates":[4.569009,51.953147]},"properties":{"category":"bus_halte","name":"Schinkelsebaan","operator":""}},{"type":"Feature","geometry":{"type":"Point","coordinates":[4.570811,51.953709]},"properties":{"category":"bus_halte","name":"Schinkelsebaan","operator":""}},{"type":"Feature","geometry":{"type":"Point","coordinates":[4.590447,51.931874]},"properties":{"category":"bus_halte","name":"Capelle Centrum","operator":""}},{"type":"Feature","geometry":{"type":"Point","coordinates":[4.601883,51.941107]},"properties":{"category":"bus_halte","name":"Schermerhoek","operator":""}},{"type":"Feature","geometry":{"type":"Point","coordinates":[4.547731,51.914246]},"properties":{"category":"bus_halte","name":"Rivium","operator":""}},{"type":"Feature","geometry":{"type":"Point","coordinates":[4.547222,51.91481]},"properties":{"category":"bus_halte","name":"Fascinatio","operator":""}},{"type":"Feature","geometry":{"type":"Point","coordinates":[4.578821,51.957351]},"properties":{"category":"bus_halte","name":"Rietbaan","operator":""}},{"type":"Feature","geometry":{"type":"Point","coordinates":[4.579358,51.957855]},"properties":{"category":"bus_halte","name":"Rietbaan","operator":""}},{"type":"Feature","geometry":{"type":"Point","coordinates":[4.582934,51.959476]},"properties":{"category":"bus_halte","name":"Schollevaartsedreef","operator":""}},{"type":"Feature","geometry":{"type":"Point","coordinates":[4.584876,51.960087]},"properties":{"category":"bus_halte","name":"Schollevaartsedreef","operator":""}},{"type":"Feature","geometry":{"type":"Point","coordinates":[4.583401,51.960402]},"properties":{"category":"bus_halte","name":"Schollevaartsedreef","operator":""}},{"type":"Feature","geometry":{"type":"Point","coordinates":[4.587268,51.96146]},"properties":{"category":"bus_halte","name":"Trade Centre","operator":""}},{"type":"Feature","geometry":{"type":"Point","coordinates":[4.587057,51.961094]},"properties":{"category":"bus_halte","name":"Trade Centre","operator":""}},{"type":"Feature","geometry":{"type":"Point","coordinates":[4.5747,51.955754]},"properties":{"category":"bus_halte","name":"Vlierbaan","operator":""}},{"type":"Feature","geometry":{"type":"Point","coordinates":[4.575234,51.955716]},"properties":{"category":"bus_halte","name":"Vlierbaan","operator":""}},{"type":"Feature","geometry":{"type":"Point","coordinates":[4.583708,51.953774]},"properties":{"category":"bus_halte","name":"Station Schollevaar","operator":""}},{"type":"Feature","geometry":{"type":"Point","coordinates":[4.584562,51.953937]},"properties":{"category":"bus_halte","name":"Station Schollevaar","operator":""}},{"type":"Feature","geometry":{"type":"Point","coordinates":[4.585569,51.932407]},"properties":{"category":"bus_halte","name":"Rivierweg","operator":""}},{"type":"Feature","geometry":{"type":"Point","coordinates":[4.588017,51.95132]},"properties":{"category":"bus_halte","name":"Operalaan","operator":""}},{"type":"Feature","geometry":{"type":"Point","coordinates":[4.579804,51.950773]},"properties":{"category":"bus_halte","name":"Posthoorn","operator":""}},{"type":"Feature","geometry":{"type":"Point","coordinates":[4.58136,51.951095]},"properties":{"category":"bus_halte","name":"Posthoorn","operator":""}},{"type":"Feature","geometry":{"type":"Point","coordinates":[4.576265,51.950057]},"properties":{"category":"bus_halte","name":"Sara Burgerhart Erf","operator":""}},{"type":"Feature","geometry":{"type":"Point","coordinates":[4.576404,51.950134]},"properties":{"category":"bus_halte","name":"Sara Burgerhart Erf","operator":""}},{"type":"Feature","geometry":{"type":"Point","coordinates":[4.571488,51.948846]},"properties":{"category":"bus_halte","name":"Heksendans","operator":""}},{"type":"Feature","geometry":{"type":"Point","coordinates":[4.572327,51.94932]},"properties":{"category":"bus_halte","name":"Heksendans","operator":""}},{"type":"Feature","geometry":{"type":"Point","coordinates":[4.591929,51.950991]},"properties":{"category":"bus_halte","name":"Hermitage","operator":""}},{"type":"Feature","geometry":{"type":"Point","coordinates":[4.591406,51.951703]},"properties":{"category":"bus_halte","name":"Hermitage","operator":""}},{"type":"Feature","geometry":{"type":"Point","coordinates":[4.597788,51.938847]},"properties":{"category":"bus_halte","name":"Beemsterhoek","operator":""}},{"type":"Feature","geometry":{"type":"Point","coordinates":[4.575802,51.940754]},"properties":{"category":"bus_halte","name":"Capelseweg","operator":""}},{"type":"Feature","geometry":{"type":"Point","coordinates":[4.575316,51.941432]},"properties":{"category":"bus_halte","name":"Capelseweg","operator":""}},{"type":"Feature","geometry":{"type":"Point","coordinates":[4.597803,51.93422]},"properties":{"category":"bus_halte","name":"De Linie","operator":""}},{"type":"Feature","geometry":{"type":"Point","coordinates":[4.59892,51.934561]},"properties":{"category":"bus_halte","name":"De Linie","operator":""}},{"type":"Feature","geometry":{"type":"Point","coordinates":[4.595243,51.933196]},"properties":{"category":"bus_halte","name":"Duikerlaan","operator":""}},{"type":"Feature","geometry":{"type":"Point","coordinates":[4.595061,51.933214]},"properties":{"category":"bus_halte","name":"Duikerlaan","operator":""}},{"type":"Feature","geometry":{"type":"Point","coordinates":[4.580611,51.936899]},"properties":{"category":"bus_halte","name":"Kanaalweg","operator":"RET"}},{"type":"Feature","geometry":{"type":"Point","coordinates":[4.580867,51.93687]},"properties":{"category":"bus_halte","name":"Kanaalweg","operator":"RET"}},{"type":"Feature","geometry":{"type":"Point","coordinates":[4.609039,51.935347]},"properties":{"category":"bus_halte","name":"Maasdal","operator":""}},{"type":"Feature","geometry":{"type":"Point","coordinates":[4.59051,51.932093]},"properties":{"category":"bus_halte","name":"Capelle Centrum","operator":""}},{"type":"Feature","geometry":{"type":"Point","coordinates":[4.604355,51.940355]},"properties":{"category":"bus_halte","name":"Oosterlengte","operator":""}},{"type":"Feature","geometry":{"type":"Point","coordinates":[4.585616,51.9322]},"properties":{"category":"bus_halte","name":"Rivierweg","operator":""}},{"type":"Feature","geometry":{"type":"Point","coordinates":[4.604651,51.937741]},"properties":{"category":"bus_halte","name":"Scheldedal","operator":""}},{"type":"Feature","geometry":{"type":"Point","coordinates":[4.608208,51.930213]},"properties":{"category":"bus_halte","name":"Sint Annabaai","operator":""}},{"type":"Feature","geometry":{"type":"Point","coordinates":[4.571048,51.944953]},"properties":{"category":"bus_halte","name":"Tochtbrug","operator":""}},{"type":"Feature","geometry":{"type":"Point","coordinates":[4.571047,51.94518]},"properties":{"category":"bus_halte","name":"Tochtbrug","operator":""}},{"type":"Feature","geometry":{"type":"Point","coordinates":[4.613123,51.934063]},"properties":{"category":"bus_halte","name":"Toendra","operator":""}},{"type":"Feature","geometry":{"type":"Point","coordinates":[4.601378,51.934821]},"properties":{"category":"bus_halte","name":"Westerlengte","operator":""}},{"type":"Feature","geometry":{"type":"Point","coordinates":[4.610595,51.932249]},"properties":{"category":"bus_halte","name":"Wijnkoopsbaai","operator":""}},{"type":"Feature","geometry":{"type":"Point","coordinates":[4.566011,51.937361]},"properties":{"category":"bus_halte","name":"Beltmolen","operator":""}},{"type":"Feature","geometry":{"type":"Point","coordinates":[4.566431,51.937655]},"properties":{"category":"bus_halte","name":"Beltmolen","operator":""}},{"type":"Feature","geometry":{"type":"Point","coordinates":[4.580927,51.92438]},"properties":{"category":"bus_halte","name":"Da Costasingel","operator":""}},{"type":"Feature","geometry":{"type":"Point","coordinates":[4.582075,51.924219]},"properties":{"category":"bus_halte","name":"Slotplein","operator":""}},{"type":"Feature","geometry":{"type":"Point","coordinates":[4.581079,51.92435]},"properties":{"category":"bus_halte","name":"Da Costasingel","operator":""}},{"type":"Feature","geometry":{"type":"Point","coordinates":[4.573479,51.923414]},"properties":{"category":"bus_halte","name":"De Blinkert","operator":""}},{"type":"Feature","geometry":{"type":"Point","coordinates":[4.573199,51.923462]},"properties":{"category":"bus_halte","name":"De Blinkert","operator":""}},{"type":"Feature","geometry":{"type":"Point","coordinates":[4.566688,51.935278]},"properties":{"category":"bus_halte","name":"Dotterlei","operator":""}},{"type":"Feature","geometry":{"type":"Point","coordinates":[4.56635,51.935707]},"properties":{"category":"bus_halte","name":"Dotterlei","operator":""}},{"type":"Feature","geometry":{"type":"Point","coordinates":[4.576813,51.935927]},"properties":{"category":"bus_halte","name":"Goudenregenstraat","operator":""}},{"type":"Feature","geometry":{"type":"Point","coordinates":[4.577117,51.93598]},"properties":{"category":"bus_halte","name":"Goudenregenstraat","operator":""}},{"type":"Feature","geometry":{"type":"Point","coordinates":[4.564061,51.939494]},"properties":{"category":"bus_halte","name":"IJsselland Ziekenhuis","operator":""}},{"type":"Feature","geometry":{"type":"Point","coordinates":[4.592335,51.929643]},"properties":{"category":"bus_halte","name":"Kerklaan","operator":""}},{"type":"Feature","geometry":{"type":"Point","coordinates":[4.592377,51.929778]},"properties":{"category":"bus_halte","name":"Kerklaan","operator":""}},{"type":"Feature","geometry":{"type":"Point","coordinates":[4.593788,51.927074]},"properties":{"category":"bus_halte","name":"Kievitlaan","operator":""}},{"type":"Feature","geometry":{"type":"Point","coordinates":[4.593583,51.9271]},"properties":{"category":"bus_halte","name":"Kievitlaan","operator":""}},{"type":"Feature","geometry":{"type":"Point","coordinates":[4.571701,51.933145]},"properties":{"category":"bus_halte","name":"Lupinestraat","operator":""}},{"type":"Feature","geometry":{"type":"Point","coordinates":[4.572873,51.933767]},"properties":{"category":"bus_halte","name":"Lupinestraat","operator":""}},{"type":"Feature","geometry":{"type":"Point","coordinates":[4.590095,51.926549]},"properties":{"category":"bus_halte","name":"Meeuwensingel","operator":""}},{"type":"Feature","geometry":{"type":"Point","coordinates":[4.590671,51.926614]},"properties":{"category":"bus_halte","name":"Meeuwensingel","operator":""}},{"type":"Feature","geometry":{"type":"Point","coordinates":[4.565487,51.918668]},"properties":{"category":"bus_halte","name":"Mendelssohnstraat","operator":""}},{"type":"Feature","geometry":{"type":"Point","coordinates":[4.568386,51.921879]},"properties":{"category":"bus_halte","name":"Scarlattistraat","operator":""}},{"type":"Feature","geometry":{"type":"Point","coordinates":[4.559609,51.918095]},"properties":{"category":"bus_halte","name":"Sibeliusweg","operator":""}},{"type":"Feature","geometry":{"type":"Point","coordinates":[4.560515,51.917315]},"properties":{"category":"bus_halte","name":"Sibeliusweg","operator":""}},{"type":"Feature","geometry":{"type":"Point","coordinates":[4.576275,51.921178]},"properties":{"category":"bus_halte","name":"Valeriusrondeel","operator":""}},{"type":"Feature","geometry":{"type":"Point","coordinates":[4.567589,51.933046]},"properties":{"category":"bus_halte","name":"Wingerd","operator":""}},{"type":"Feature","geometry":{"type":"Point","coordinates":[4.567396,51.933254]},"properties":{"category":"bus_halte","name":"Wingerd","operator":""}},{"type":"Feature","geometry":{"type":"Point","coordinates":[4.565954,51.91903]},"properties":{"category":"bus_halte","name":"Mendelssohnstraat","operator":""}},{"type":"Feature","geometry":{"type":"Point","coordinates":[4.586694,51.925409]},"properties":{"category":"bus_halte","name":"Rembrandtsingel","operator":""}},{"type":"Feature","geometry":{"type":"Point","coordinates":[4.586502,51.925425]},"properties":{"category":"bus_halte","name":"Rembrandtsingel","operator":""}},{"type":"Feature","geometry":{"type":"Point","coordinates":[4.563743,51.917106]},"properties":{"category":"bus_halte","name":"Rossinistraat","operator":""}},{"type":"Feature","geometry":{"type":"Point","coordinates":[4.563423,51.917245]},"properties":{"category":"bus_halte","name":"Rossinistraat","operator":""}},{"type":"Feature","geometry":{"type":"Point","coordinates":[4.56866,51.922004]},"properties":{"category":"bus_halte","name":"Scarlattistraat","operator":""}},{"type":"Feature","geometry":{"type":"Point","coordinates":[4.559582,51.912015]},"properties":{"category":"bus_halte","name":"Admiraal Helfrichweg","operator":""}},{"type":"Feature","geometry":{"type":"Point","coordinates":[4.559127,51.912115]},"properties":{"category":"bus_halte","name":"Admiraal Helfrichweg","operator":""}},{"type":"Feature","geometry":{"type":"Point","coordinates":[4.564283,51.912154]},"properties":{"category":"bus_halte","name":"Doormanstraat","operator":""}},{"type":"Feature","geometry":{"type":"Point","coordinates":[4.563891,51.912193]},"properties":{"category":"bus_halte","name":"Doormanstraat","operator":""}},{"type":"Feature","geometry":{"type":"Point","coordinates":[4.546162,51.91206]},"properties":{"category":"bus_halte","name":"Rivium 1e Straat","operator":""}},{"type":"Feature","geometry":{"type":"Point","coordinates":[4.545987,51.910754]},"properties":{"category":"bus_halte","name":"Rivium 3e Straat","operator":""}},{"type":"Feature","geometry":{"type":"Point","coordinates":[4.577667,51.91896]},"properties":{"category":"bus_halte","name":"Ketensedijk","operator":""}},{"type":"Feature","geometry":{"type":"Point","coordinates":[4.587547,51.957302]},"properties":{"category":"bus_halte","name":"Burgemeester Schalijlaan","operator":""}},{"type":"Feature","geometry":{"type":"Point","coordinates":[4.60013,51.935604]},"properties":{"category":"bus_halte","name":"De Terp","operator":""}},{"type":"Feature","geometry":{"type":"Point","coordinates":[4.600114,51.935828]},"properties":{"category":"bus_halte","name":"De Terp","operator":""}},{"type":"Feature","geometry":{"type":"Point","coordinates":[4.542571,51.912371]},"properties":{"category":"bus_halte","name":"Rivium 1e Straat","operator":""}},{"type":"Feature","geometry":{"type":"Point","coordinates":[4.543303,51.911082]},"properties":{"category":"bus_halte","name":"Rivium 2e Straat","operator":""}},{"type":"Feature","geometry":{"type":"Point","coordinates":[4.544472,51.909296]},"properties":{"category":"bus_halte","name":"Rivium 4e Straat","operator":""}},{"type":"Feature","geometry":{"type":"Point","coordinates":[4.600917,51.940897]},"properties":{"category":"bus_halte","name":"Schermerhoek","operator":""}},{"type":"Feature","geometry":{"type":"Point","coordinates":[4.555919,51.910033]},"properties":{"category":"bus_halte","name":"IJsselwerf","operator":""}},{"type":"Feature","geometry":{"type":"Point","coordinates":[4.55617,51.909902]},"properties":{"category":"bus_halte","name":"IJsselwerf","operator":""}},{"type":"Feature","geometry":{"type":"Point","coordinates":[4.597627,51.938881]},"properties":{"category":"bus_halte","name":"Beemsterhoek","operator":""}},{"type":"Feature","geometry":{"type":"Point","coordinates":[4.587671,51.950942]},"properties":{"category":"bus_halte","name":"Operalaan","operator":""}},{"type":"Feature","geometry":{"type":"Point","coordinates":[4.593745,51.955199]},"properties":{"category":"bus_halte","name":"Grafiek","operator":""}},{"type":"Feature","geometry":{"type":"Point","coordinates":[4.592281,51.955048]},"properties":{"category":"bus_halte","name":"Grafiek","operator":""}},{"type":"Feature","geometry":{"type":"Point","coordinates":[4.598119,51.953061]},"properties":{"category":"bus_halte","name":"Pastel","operator":""}},{"type":"Feature","geometry":{"type":"Point","coordinates":[4.598691,51.9522]},"properties":{"category":"bus_halte","name":"Pastel","operator":""}},{"type":"Feature","geometry":{"type":"Point","coordinates":[4.596532,51.948834]},"properties":{"category":"bus_halte","name":"Ringvaartpark","operator":""}},{"type":"Feature","geometry":{"type":"Point","coordinates":[4.598197,51.949674]},"properties":{"category":"bus_halte","name":"Ringvaartpark","operator":""}},{"type":"Feature","geometry":{"type":"Point","coordinates":[4.599619,51.944097]},"properties":{"category":"bus_halte","name":"Avanze","operator":""}},{"type":"Feature","geometry":{"type":"Point","coordinates":[4.599581,51.943899]},"properties":{"category":"bus_halte","name":"Avanze","operator":""}},{"type":"Feature","geometry":{"type":"Point","coordinates":[4.591493,51.931868]},"properties":{"category":"bus_halte","name":"Metro Centrum/Duikerlaan","operator":""}},{"type":"Feature","geometry":{"type":"Point","coordinates":[4.591487,51.931758]},"properties":{"category":"bus_halte","name":"Metro Centrum/Duikerlaan","operator":""}},{"type":"Feature","geometry":{"type":"Point","coordinates":[4.566594,51.912728]},"properties":{"category":"bus_halte","name":"Doormanplein","operator":""}},{"type":"Feature","geometry":{"type":"Point","coordinates":[4.566651,51.912831]},"properties":{"category":"bus_halte","name":"Doormanplein","operator":""}},{"type":"Feature","geometry":{"type":"Point","coordinates":[4.567875,51.917145]},"properties":{"category":"bus_halte","name":"Puccinistraat","operator":""}},{"type":"Feature","geometry":{"type":"Point","coordinates":[4.573105,51.916889]},"properties":{"category":"bus_halte","name":"Franckstraat","operator":""}},{"type":"Feature","geometry":{"type":"Point","coordinates":[4.589558,51.93138]},"properties":{"category":"ov_knooppunt","name":"Capelle Centrum","operator":""}},{"type":"Feature","geometry":{"type":"Point","coordinates":[4.600382,51.935947]},"properties":{"category":"ov_knooppunt","name":"De Terp","operator":"RET"}},{"type":"Feature","geometry":{"type":"Point","coordinates":[4.578324,51.928478]},"properties":{"category":"ov_knooppunt","name":"Slotlaan","operator":""}},{"type":"Feature","geometry":{"type":"Point","coordinates":[4.584096,51.954118]},"properties":{"category":"ov_knooppunt","name":"Capelle Schollevaar","operator":""}},{"type":"Feature","geometry":{"type":"Point","coordinates":[4.587785,51.930247]},"properties":{"category":"gemeentehuis","name":"Stadhuis Capelle aan den IJssel","operator":"Gemeente Capelle aan den IJssel"}},{"type":"Feature","geometry":{"type":"Point","coordinates":[4.599889,51.927939]},"properties":{"category":"inzamelpunt","name":"Milieustraat Capelle","operator":"Irado"}},{"type":"Feature","geometry":{"type":"Point","coordinates":[4.592836,51.950948]},"properties":{"category":"bibliotheek","name":"Haal- en Brengpunt Capelle Schollevaar","operator":"Bibliotheek aan den IJssel"}},{"type":"Feature","geometry":{"type":"Point","coordinates":[4.588564,51.931742]},"properties":{"category":"bibliotheek","name":"Bibliotheek Capelle Centrum","operator":"Bibliotheek aan den IJssel"}},{"type":"Feature","geometry":{"type":"Point","coordinates":[4.562331,51.914206]},"properties":{"category":"bibliotheek","name":"Kinderbibliotheek Capelle 's-Gravenland","operator":"Bibliotheek aan den IJssel"}},{"type":"Feature","geometry":{"type":"Point","coordinates":[4.571483,51.933948]},"properties":{"category":"ziekenhuis","name":"De Lupine","operator":"Youz"}},{"type":"Feature","geometry":{"type":"Point","coordinates":[4.562682,51.938664]},"properties":{"category":"ziekenhuis","name":"IJsselland Ziekenhuis","operator":""}},{"type":"Feature","geometry":{"type":"Point","coordinates":[4.576341,51.918626]},"properties":{"category":"transformatorhuisje","name":"","operator":"Stedin"}},{"type":"Feature","geometry":{"type":"Point","coordinates":[4.566697,51.954874]},"properties":{"category":"transformatorhuisje","name":"H 5190","operator":"Stedin"}},{"type":"Feature","geometry":{"type":"Point","coordinates":[4.565391,51.954058]},"properties":{"category":"transformatorhuisje","name":"H 5205","operator":"Stedin"}},{"type":"Feature","geometry":{"type":"Point","coordinates":[4.565755,51.952334]},"properties":{"category":"transformatorhuisje","name":"H5306","operator":"Stedin"}},{"type":"Feature","geometry":{"type":"Point","coordinates":[4.568664,51.955722]},"properties":{"category":"transformatorhuisje","name":"A5196","operator":"Stedin"}},{"type":"Feature","geometry":{"type":"Point","coordinates":[4.567433,51.953844]},"properties":{"category":"transformatorhuisje","name":"H5195","operator":"Stedin"}},{"type":"Feature","geometry":{"type":"Point","coordinates":[4.565826,51.930922]},"properties":{"category":"transformatorhuisje","name":"","operator":"Stedin"}},{"type":"Feature","geometry":{"type":"Point","coordinates":[4.576532,51.938628]},"properties":{"category":"transformatorhuisje","name":"50 kV Capelle","operator":"Stedin"}},{"type":"Feature","geometry":{"type":"Point","coordinates":[4.581221,51.959055]},"properties":{"category":"transformatorhuisje","name":"25 kV Capelle Noord","operator":"Stedin"}},{"type":"Feature","geometry":{"type":"Point","coordinates":[4.593732,51.930642]},"properties":{"category":"middelbare_school","name":"EYE college","operator":"BLICK op onderwijs"}},{"type":"Feature","geometry":{"type":"Point","coordinates":[4.581304,51.928181]},"properties":{"category":"middelbare_school","name":"Comenius College","operator":""}},{"type":"Feature","geometry":{"type":"Point","coordinates":[4.602172,51.931924]},"properties":{"category":"sportveld","name":"Sportpark Couwenhoek","operator":""}},{"type":"Feature","geometry":{"type":"Point","coordinates":[4.604651,51.942968]},"properties":{"category":"sportveld","name":"","operator":""}},{"type":"Feature","geometry":{"type":"Point","coordinates":[4.604922,51.927637]},"properties":{"category":"sportveld","name":"Tennispark 't Hooghe Dorp","operator":""}},{"type":"Feature","geometry":{"type":"Point","coordinates":[4.594502,51.931428]},"properties":{"category":"sportveld","name":"Aquapelle","operator":""}},{"type":"Feature","geometry":{"type":"Point","coordinates":[4.584638,51.953166]},"properties":{"category":"winkelcentrum","name":"Winkelcentrum De Scholver","operator":""}},{"type":"Feature","geometry":{"type":"Point","coordinates":[4.58955,51.929876]},"properties":{"category":"winkelcentrum","name":"Winkelcentrum Koperwiek","operator":""}},{"type":"Feature","geometry":{"type":"Point","coordinates":[4.567814,51.955134]},"properties":{"category":"winkelcentrum","name":"Woonboulevard Capelle XL","operator":""}},{"type":"Feature","geometry":{"type":"Point","coordinates":[4.584831,51.954305]},"properties":{"category":"fietsenstalling","name":"","operator":""}},{"type":"Feature","geometry":{"type":"Point","coordinates":[4.584512,51.954268]},"properties":{"category":"fietsenstalling","name":"","operator":""}},{"type":"Feature","geometry":{"type":"Point","coordinates":[4.584912,51.954057]},"properties":{"category":"fietsenstalling","name":"","operator":""}},{"type":"Feature","geometry":{"type":"Point","coordinates":[4.546554,51.913728]},"properties":{"category":"parkeergarage","name":"","operator":""}},{"type":"Feature","geometry":{"type":"Point","coordinates":[4.546816,51.90733]},"properties":{"category":"parkeergarage","name":"","operator":""}},{"type":"Feature","geometry":{"type":"Point","coordinates":[4.561764,51.939747]},"properties":{"category":"parkeergarage","name":"IJsselland Ziekenhuis","operator":""}},{"type":"Feature","geometry":{"type":"Point","coordinates":[4.558488,51.920291]},"properties":{"category":"p_and_r","name":"P+R Capelsebrug","operator":"Gemeente Rotterdam"}},{"type":"Feature","geometry":{"type":"Point","coordinates":[4.58228,51.954326]},"properties":{"category":"p_and_r","name":"","operator":""}},{"type":"Feature","geometry":{"type":"Point","coordinates":[4.582511,51.953656]},"properties":{"category":"p_and_r","name":"","operator":""}},{"type":"Feature","geometry":{"type":"Point","coordinates":[4.577862,51.927974]},"properties":{"category":"p_and_r","name":"","operator":""}},{"type":"Feature","geometry":{"type":"Point","coordinates":[4.602742,51.937007]},"properties":{"category":"p_and_r","name":"","operator":""}}]}