{"type":"FeatureCollection","metadata":{"gemeente":"Deventer","slug":"deventer","by_category":{"bus_halte":291,"transformatorhuisje":30,"sportveld":18,"fietsenstalling":15,"middelbare_school":7,"bibliotheek":5,"parkeergarage":5,"hogeschool":3,"ns_station":2,"ov_knooppunt":2,"gemeentehuis":2,"p_and_r":2,"inzamelpunt":1,"ziekenhuis":1,"universiteit":1,"winkelcentrum":1},"total":386},"features":[{"type":"Feature","geometry":{"type":"Point","coordinates":[6.161105,52.257293]},"properties":{"category":"ns_station","name":"Deventer","operator":""}},{"type":"Feature","geometry":{"type":"Point","coordinates":[6.215679,52.25035]},"properties":{"category":"ns_station","name":"Deventer Colmschate","operator":"Nederlandse Spoorwegen"}},{"type":"Feature","geometry":{"type":"Point","coordinates":[6.156553,52.262813]},"properties":{"category":"bus_halte","name":"Papenblik","operator":""}},{"type":"Feature","geometry":{"type":"Point","coordinates":[6.188059,52.289997]},"properties":{"category":"bus_halte","name":"Frieswijk","operator":""}},{"type":"Feature","geometry":{"type":"Point","coordinates":[6.202319,52.306274]},"properties":{"category":"bus_halte","name":"Klooster Nieuw Sion","operator":""}},{"type":"Feature","geometry":{"type":"Point","coordinates":[6.203307,52.306941]},"properties":{"category":"bus_halte","name":"Klooster Nieuw Sion","operator":""}},{"type":"Feature","geometry":{"type":"Point","coordinates":[6.149112,52.284754]},"properties":{"category":"bus_halte","name":"Wetermansweg","operator":""}},{"type":"Feature","geometry":{"type":"Point","coordinates":[6.145203,52.290117]},"properties":{"category":"bus_halte","name":"Centrum","operator":""}},{"type":"Feature","geometry":{"type":"Point","coordinates":[6.138288,52.264944]},"properties":{"category":"bus_halte","name":"Vermeerstraat","operator":""}},{"type":"Feature","geometry":{"type":"Point","coordinates":[6.13866,52.265109]},"properties":{"category":"bus_halte","name":"Vermeerstraat","operator":""}},{"type":"Feature","geometry":{"type":"Point","coordinates":[6.153749,52.259422]},"properties":{"category":"bus_halte","name":"Nijverheidstraat","operator":""}},{"type":"Feature","geometry":{"type":"Point","coordinates":[6.218602,52.263947]},"properties":{"category":"bus_halte","name":"Willem Witsenstraat","operator":""}},{"type":"Feature","geometry":{"type":"Point","coordinates":[6.314742,52.26649]},"properties":{"category":"bus_halte","name":"Java","operator":""}},{"type":"Feature","geometry":{"type":"Point","coordinates":[6.169405,52.253428]},"properties":{"category":"bus_halte","name":"Saxion Hogeschool","operator":""}},{"type":"Feature","geometry":{"type":"Point","coordinates":[6.203267,52.241177]},"properties":{"category":"bus_halte","name":"Koningsbergenstraat","operator":""}},{"type":"Feature","geometry":{"type":"Point","coordinates":[6.23352,52.287408]},"properties":{"category":"bus_halte","name":"Zandbelterbrug","operator":""}},{"type":"Feature","geometry":{"type":"Point","coordinates":[6.145704,52.262308]},"properties":{"category":"bus_halte","name":"Radstakeweg","operator":""}},{"type":"Feature","geometry":{"type":"Point","coordinates":[6.225647,52.256989]},"properties":{"category":"bus_halte","name":"Albertus van Leusenweg","operator":""}},{"type":"Feature","geometry":{"type":"Point","coordinates":[6.287997,52.252265]},"properties":{"category":"bus_halte","name":"Gemeentewerken","operator":""}},{"type":"Feature","geometry":{"type":"Point","coordinates":[6.180994,52.281115]},"properties":{"category":"bus_halte","name":"Crematorium","operator":""}},{"type":"Feature","geometry":{"type":"Point","coordinates":[6.190073,52.23683]},"properties":{"category":"bus_halte","name":"Keulenstraat 2","operator":""}},{"type":"Feature","geometry":{"type":"Point","coordinates":[6.240869,52.287809]},"properties":{"category":"bus_halte","name":"Heihoeve","operator":""}},{"type":"Feature","geometry":{"type":"Point","coordinates":[6.150099,52.258263]},"properties":{"category":"bus_halte","name":"Rijsterborgherweg","operator":""}},{"type":"Feature","geometry":{"type":"Point","coordinates":[6.212613,52.260467]},"properties":{"category":"bus_halte","name":"Cornelis Lelylaan","operator":""}},{"type":"Feature","geometry":{"type":"Point","coordinates":[6.196573,52.297446]},"properties":{"category":"bus_halte","name":"Frieswijkerweg","operator":""}},{"type":"Feature","geometry":{"type":"Point","coordinates":[6.145334,52.29013]},"properties":{"category":"bus_halte","name":"Centrum","operator":""}},{"type":"Feature","geometry":{"type":"Point","coordinates":[6.289423,52.248883]},"properties":{"category":"bus_halte","name":"Vegerinkskamp","operator":""}},{"type":"Feature","geometry":{"type":"Point","coordinates":[6.203781,52.275256]},"properties":{"category":"bus_halte","name":"Garderegimentsweg","operator":""}},{"type":"Feature","geometry":{"type":"Point","coordinates":[6.198853,52.246428]},"properties":{"category":"bus_halte","name":"Runshoppingcentre","operator":""}},{"type":"Feature","geometry":{"type":"Point","coordinates":[6.13143,52.264916]},"properties":{"category":"bus_halte","name":"Rubensstraat","operator":""}},{"type":"Feature","geometry":{"type":"Point","coordinates":[6.166026,52.269094]},"properties":{"category":"bus_halte","name":"Winkelcentrum Keizerslanden","operator":""}},{"type":"Feature","geometry":{"type":"Point","coordinates":[6.222496,52.284701]},"properties":{"category":"bus_halte","name":"Spikker","operator":""}},{"type":"Feature","geometry":{"type":"Point","coordinates":[6.192355,52.251117]},"properties":{"category":"bus_halte","name":"Snippeling","operator":""}},{"type":"Feature","geometry":{"type":"Point","coordinates":[6.16189,52.26258]},"properties":{"category":"bus_halte","name":"IJssel de Schepperstraat","operator":""}},{"type":"Feature","geometry":{"type":"Point","coordinates":[6.142586,52.266955]},"properties":{"category":"bus_halte","name":"Zamenhofplein","operator":""}},{"type":"Feature","geometry":{"type":"Point","coordinates":[6.164474,52.256517]},"properties":{"category":"bus_halte","name":"Beestenmarkt","operator":""}},{"type":"Feature","geometry":{"type":"Point","coordinates":[6.280726,52.247805]},"properties":{"category":"bus_halte","name":"Polakstraat","operator":""}},{"type":"Feature","geometry":{"type":"Point","coordinates":[6.26293,52.248753]},"properties":{"category":"bus_halte","name":"Peppelerdijk","operator":""}},{"type":"Feature","geometry":{"type":"Point","coordinates":[6.189589,52.267923]},"properties":{"category":"bus_halte","name":"Prins Bernhardweg","operator":""}},{"type":"Feature","geometry":{"type":"Point","coordinates":[6.189157,52.254765]},"properties":{"category":"bus_halte","name":"Douwelerwetering","operator":""}},{"type":"Feature","geometry":{"type":"Point","coordinates":[6.166734,52.264544]},"properties":{"category":"bus_halte","name":"Dapperstraat","operator":""}},{"type":"Feature","geometry":{"type":"Point","coordinates":[6.151861,52.278062]},"properties":{"category":"bus_halte","name":"Havezatelaan","operator":""}},{"type":"Feature","geometry":{"type":"Point","coordinates":[6.335346,52.27068]},"properties":{"category":"bus_halte","name":"Wagenvoorde","operator":""}},{"type":"Feature","geometry":{"type":"Point","coordinates":[6.134436,52.266665]},"properties":{"category":"bus_halte","name":"Sportveldenlaan","operator":""}},{"type":"Feature","geometry":{"type":"Point","coordinates":[6.178471,52.253479]},"properties":{"category":"bus_halte","name":"Amstellaan","operator":""}},{"type":"Feature","geometry":{"type":"Point","coordinates":[6.150029,52.275936]},"properties":{"category":"bus_halte","name":"Beugelskamp","operator":""}},{"type":"Feature","geometry":{"type":"Point","coordinates":[6.284033,52.247906]},"properties":{"category":"bus_halte","name":"'t Dijkhuis","operator":""}},{"type":"Feature","geometry":{"type":"Point","coordinates":[6.194807,52.269094]},"properties":{"category":"bus_halte","name":"Kerkweg","operator":""}},{"type":"Feature","geometry":{"type":"Point","coordinates":[6.210926,52.253554]},"properties":{"category":"bus_halte","name":"Slangenburg","operator":""}},{"type":"Feature","geometry":{"type":"Point","coordinates":[6.21596,52.24707]},"properties":{"category":"bus_halte","name":"Winkelcentrum Colmschate","operator":""}},{"type":"Feature","geometry":{"type":"Point","coordinates":[6.17175,52.271547]},"properties":{"category":"bus_halte","name":"Mecklenburgstraat","operator":""}},{"type":"Feature","geometry":{"type":"Point","coordinates":[6.169879,52.24989]},"properties":{"category":"bus_halte","name":"Teugseplein","operator":""}},{"type":"Feature","geometry":{"type":"Point","coordinates":[6.145135,52.274243]},"properties":{"category":"bus_halte","name":"Thomas Wildey","operator":""}},{"type":"Feature","geometry":{"type":"Point","coordinates":[6.174495,52.2689]},"properties":{"category":"bus_halte","name":"Wezenland","operator":""}},{"type":"Feature","geometry":{"type":"Point","coordinates":[6.288019,52.260409]},"properties":{"category":"bus_halte","name":"Oude Molen","operator":""}},{"type":"Feature","geometry":{"type":"Point","coordinates":[6.148904,52.277068]},"properties":{"category":"bus_halte","name":"Het Vlier","operator":""}},{"type":"Feature","geometry":{"type":"Point","coordinates":[6.141932,52.30323]},"properties":{"category":"bus_halte","name":"Randerstraat","operator":""}},{"type":"Feature","geometry":{"type":"Point","coordinates":[6.172299,52.261734]},"properties":{"category":"bus_halte","name":"Fesevurstraat","operator":""}},{"type":"Feature","geometry":{"type":"Point","coordinates":[6.166824,52.254288]},"properties":{"category":"bus_halte","name":"Saxion Hogeschool","operator":""}},{"type":"Feature","geometry":{"type":"Point","coordinates":[6.177505,52.273462]},"properties":{"category":"bus_halte","name":"Begraafplaats","operator":""}},{"type":"Feature","geometry":{"type":"Point","coordinates":[6.224781,52.242612]},"properties":{"category":"bus_halte","name":"J. Naberstraat","operator":""}},{"type":"Feature","geometry":{"type":"Point","coordinates":[6.144949,52.297113]},"properties":{"category":"bus_halte","name":"Baerselmansweg","operator":""}},{"type":"Feature","geometry":{"type":"Point","coordinates":[6.292619,52.249976]},"properties":{"category":"bus_halte","name":"Schipbeeksweg","operator":""}},{"type":"Feature","geometry":{"type":"Point","coordinates":[6.198241,52.272741]},"properties":{"category":"bus_halte","name":"Westenberg","operator":""}},{"type":"Feature","geometry":{"type":"Point","coordinates":[6.188733,52.241718]},"properties":{"category":"bus_halte","name":"Munsterstraat","operator":""}},{"type":"Feature","geometry":{"type":"Point","coordinates":[6.18143,52.260666]},"properties":{"category":"bus_halte","name":"de Bekkumer","operator":""}},{"type":"Feature","geometry":{"type":"Point","coordinates":[6.185516,52.255439]},"properties":{"category":"bus_halte","name":"Deltaplein","operator":""}},{"type":"Feature","geometry":{"type":"Point","coordinates":[6.181012,52.281478]},"properties":{"category":"bus_halte","name":"Crematorium","operator":""}},{"type":"Feature","geometry":{"type":"Point","coordinates":[6.143815,52.299818]},"properties":{"category":"bus_halte","name":"Molenveldsweg","operator":""}},{"type":"Feature","geometry":{"type":"Point","coordinates":[6.290746,52.251376]},"properties":{"category":"bus_halte","name":"Looweg/Kuiperij","operator":""}},{"type":"Feature","geometry":{"type":"Point","coordinates":[6.144163,52.265759]},"properties":{"category":"bus_halte","name":"Erasmusstraat","operator":""}},{"type":"Feature","geometry":{"type":"Point","coordinates":[6.187703,52.238857]},"properties":{"category":"bus_halte","name":"Keulenstraat 1","operator":""}},{"type":"Feature","geometry":{"type":"Point","coordinates":[6.163002,52.270367]},"properties":{"category":"bus_halte","name":"Balderikstraat","operator":""}},{"type":"Feature","geometry":{"type":"Point","coordinates":[6.20218,52.249526]},"properties":{"category":"bus_halte","name":"De Knoop","operator":""}},{"type":"Feature","geometry":{"type":"Point","coordinates":[6.175418,52.268452]},"properties":{"category":"bus_halte","name":"Wezenland","operator":""}},{"type":"Feature","geometry":{"type":"Point","coordinates":[6.155349,52.260106]},"properties":{"category":"bus_halte","name":"Schurenstraat","operator":""}},{"type":"Feature","geometry":{"type":"Point","coordinates":[6.139678,52.269723]},"properties":{"category":"bus_halte","name":"Joost van de Vondellaan","operator":""}},{"type":"Feature","geometry":{"type":"Point","coordinates":[6.156726,52.270573]},"properties":{"category":"bus_halte","name":"Beeckestein","operator":""}},{"type":"Feature","geometry":{"type":"Point","coordinates":[6.289161,52.248678]},"properties":{"category":"bus_halte","name":"Vegerinkskamp","operator":""}},{"type":"Feature","geometry":{"type":"Point","coordinates":[6.191034,52.251594]},"properties":{"category":"bus_halte","name":"Snippeling","operator":""}},{"type":"Feature","geometry":{"type":"Point","coordinates":[6.333748,52.270512]},"properties":{"category":"bus_halte","name":"Wagenvoorde","operator":""}},{"type":"Feature","geometry":{"type":"Point","coordinates":[6.178008,52.250918]},"properties":{"category":"bus_halte","name":"Schonenvaardersstraat","operator":""}},{"type":"Feature","geometry":{"type":"Point","coordinates":[6.199922,52.243186]},"properties":{"category":"bus_halte","name":"Rostockstraat","operator":""}},{"type":"Feature","geometry":{"type":"Point","coordinates":[6.136405,52.268225]},"properties":{"category":"bus_halte","name":"Verpleeghuis St. Jurrien","operator":""}},{"type":"Feature","geometry":{"type":"Point","coordinates":[6.159935,52.270496]},"properties":{"category":"bus_halte","name":"Ludgerstraat","operator":""}},{"type":"Feature","geometry":{"type":"Point","coordinates":[6.20116,52.254096]},"properties":{"category":"bus_halte","name":"Kleine Vos","operator":""}},{"type":"Feature","geometry":{"type":"Point","coordinates":[6.155747,52.266345]},"properties":{"category":"bus_halte","name":"Europaplein","operator":""}},{"type":"Feature","geometry":{"type":"Point","coordinates":[6.277787,52.249838]},"properties":{"category":"bus_halte","name":"Enklaan","operator":""}},{"type":"Feature","geometry":{"type":"Point","coordinates":[6.186077,52.267326]},"properties":{"category":"bus_halte","name":"Oerdijk","operator":""}},{"type":"Feature","geometry":{"type":"Point","coordinates":[6.153877,52.25955]},"properties":{"category":"bus_halte","name":"Nijverheidstraat","operator":""}},{"type":"Feature","geometry":{"type":"Point","coordinates":[6.197709,52.238959]},"properties":{"category":"bus_halte","name":"Arnsbergstraat","operator":""}},{"type":"Feature","geometry":{"type":"Point","coordinates":[6.21943,52.264162]},"properties":{"category":"bus_halte","name":"Willem Witsenstraat","operator":""}},{"type":"Feature","geometry":{"type":"Point","coordinates":[6.287697,52.259985]},"properties":{"category":"bus_halte","name":"Oude Molen","operator":""}},{"type":"Feature","geometry":{"type":"Point","coordinates":[6.145147,52.274414]},"properties":{"category":"bus_halte","name":"Thomas Wildey","operator":""}},{"type":"Feature","geometry":{"type":"Point","coordinates":[6.167043,52.271595]},"properties":{"category":"bus_halte","name":"Kon. Wilhelminalaan","operator":""}},{"type":"Feature","geometry":{"type":"Point","coordinates":[6.221034,52.255181]},"properties":{"category":"bus_halte","name":"David Wijnveldtweg","operator":""}},{"type":"Feature","geometry":{"type":"Point","coordinates":[6.233225,52.287475]},"properties":{"category":"bus_halte","name":"Zandbelterbrug","operator":""}},{"type":"Feature","geometry":{"type":"Point","coordinates":[6.150436,52.258488]},"properties":{"category":"bus_halte","name":"Rijsterborgherweg","operator":""}},{"type":"Feature","geometry":{"type":"Point","coordinates":[6.168657,52.25964]},"properties":{"category":"bus_halte","name":"Veenweg","operator":""}},{"type":"Feature","geometry":{"type":"Point","coordinates":[6.240706,52.287871]},"properties":{"category":"bus_halte","name":"Heihoeve","operator":""}},{"type":"Feature","geometry":{"type":"Point","coordinates":[6.194677,52.295553]},"properties":{"category":"bus_halte","name":"Frieswijkerweg","operator":""}},{"type":"Feature","geometry":{"type":"Point","coordinates":[6.194215,52.23777]},"properties":{"category":"bus_halte","name":"Herfordstraat","operator":""}},{"type":"Feature","geometry":{"type":"Point","coordinates":[6.17612,52.242094]},"properties":{"category":"bus_halte","name":"Visbystraat","operator":""}},{"type":"Feature","geometry":{"type":"Point","coordinates":[6.1436,52.293237]},"properties":{"category":"bus_halte","name":"Sallandsweg","operator":""}},{"type":"Feature","geometry":{"type":"Point","coordinates":[6.135007,52.262269]},"properties":{"category":"bus_halte","name":"Moreelsestraat","operator":""}},{"type":"Feature","geometry":{"type":"Point","coordinates":[6.168951,52.265901]},"properties":{"category":"bus_halte","name":"Van Marckelplein","operator":""}},{"type":"Feature","geometry":{"type":"Point","coordinates":[6.190279,52.25341]},"properties":{"category":"bus_halte","name":"Biesboschlaan","operator":""}},{"type":"Feature","geometry":{"type":"Point","coordinates":[6.162144,52.262766]},"properties":{"category":"bus_halte","name":"IJssel de Schepperstraat","operator":""}},{"type":"Feature","geometry":{"type":"Point","coordinates":[6.14444,52.296444]},"properties":{"category":"bus_halte","name":"Baerselmansweg","operator":""}},{"type":"Feature","geometry":{"type":"Point","coordinates":[6.142727,52.266893]},"properties":{"category":"bus_halte","name":"Zamenhofplein","operator":""}},{"type":"Feature","geometry":{"type":"Point","coordinates":[6.173788,52.248995]},"properties":{"category":"bus_halte","name":"Industrieweg","operator":""}},{"type":"Feature","geometry":{"type":"Point","coordinates":[6.164879,52.256642]},"properties":{"category":"bus_halte","name":"Beestenmarkt","operator":""}},{"type":"Feature","geometry":{"type":"Point","coordinates":[6.185456,52.255614]},"properties":{"category":"bus_halte","name":"Deltaplein","operator":""}},{"type":"Feature","geometry":{"type":"Point","coordinates":[6.171052,52.266233]},"properties":{"category":"bus_halte","name":"St. Jozef Verpleeghuis","operator":""}},{"type":"Feature","geometry":{"type":"Point","coordinates":[6.14913,52.284414]},"properties":{"category":"bus_halte","name":"Wetermansweg","operator":""}},{"type":"Feature","geometry":{"type":"Point","coordinates":[6.195215,52.24439]},"properties":{"category":"bus_halte","name":"Dortmundstraat","operator":""}},{"type":"Feature","geometry":{"type":"Point","coordinates":[6.140047,52.271531]},"properties":{"category":"bus_halte","name":"Lookersdijk","operator":""}},{"type":"Feature","geometry":{"type":"Point","coordinates":[6.178149,52.250994]},"properties":{"category":"bus_halte","name":"Schonenvaardersstraat","operator":""}},{"type":"Feature","geometry":{"type":"Point","coordinates":[6.151294,52.273791]},"properties":{"category":"bus_halte","name":"Winkelcentrum Borgele","operator":""}},{"type":"Feature","geometry":{"type":"Point","coordinates":[6.257597,52.294624]},"properties":{"category":"bus_halte","name":"Militair Complex","operator":""}},{"type":"Feature","geometry":{"type":"Point","coordinates":[6.154352,52.270878]},"properties":{"category":"bus_halte","name":"Beeckestein","operator":""}},{"type":"Feature","geometry":{"type":"Point","coordinates":[6.17214,52.271503]},"properties":{"category":"bus_halte","name":"Mecklenburgstraat","operator":""}},{"type":"Feature","geometry":{"type":"Point","coordinates":[6.199745,52.240097]},"properties":{"category":"bus_halte","name":"Rigastraat","operator":""}},{"type":"Feature","geometry":{"type":"Point","coordinates":[6.228041,52.244204]},"properties":{"category":"bus_halte","name":"Hannie Schaftpad","operator":""}},{"type":"Feature","geometry":{"type":"Point","coordinates":[6.150303,52.275827]},"properties":{"category":"bus_halte","name":"Beugelskamp","operator":""}},{"type":"Feature","geometry":{"type":"Point","coordinates":[6.203202,52.240971]},"properties":{"category":"bus_halte","name":"Koningsbergenstraat","operator":""}},{"type":"Feature","geometry":{"type":"Point","coordinates":[6.213219,52.260837]},"properties":{"category":"bus_halte","name":"Cornelis Lelylaan","operator":""}},{"type":"Feature","geometry":{"type":"Point","coordinates":[6.307066,52.2649]},"properties":{"category":"bus_halte","name":"Wilmink","operator":""}},{"type":"Feature","geometry":{"type":"Point","coordinates":[6.287872,52.251962]},"properties":{"category":"bus_halte","name":"Gemeentewerken","operator":""}},{"type":"Feature","geometry":{"type":"Point","coordinates":[6.146079,52.262034]},"properties":{"category":"bus_halte","name":"Radstakeweg","operator":""}},{"type":"Feature","geometry":{"type":"Point","coordinates":[6.189943,52.23677]},"properties":{"category":"bus_halte","name":"Keulenstraat 2","operator":""}},{"type":"Feature","geometry":{"type":"Point","coordinates":[6.221148,52.2416]},"properties":{"category":"bus_halte","name":"Maagdenburg","operator":""}},{"type":"Feature","geometry":{"type":"Point","coordinates":[6.172335,52.261868]},"properties":{"category":"bus_halte","name":"Fesevurstraat","operator":""}},{"type":"Feature","geometry":{"type":"Point","coordinates":[6.178429,52.274685]},"properties":{"category":"bus_halte","name":"Begraafplaats","operator":""}},{"type":"Feature","geometry":{"type":"Point","coordinates":[6.197767,52.238902]},"properties":{"category":"bus_halte","name":"Arnsbergstraat","operator":""}},{"type":"Feature","geometry":{"type":"Point","coordinates":[6.194321,52.237884]},"properties":{"category":"bus_halte","name":"Herfordstraat","operator":""}},{"type":"Feature","geometry":{"type":"Point","coordinates":[6.17618,52.242184]},"properties":{"category":"bus_halte","name":"Visbystraat","operator":""}},{"type":"Feature","geometry":{"type":"Point","coordinates":[6.191057,52.260999]},"properties":{"category":"bus_halte","name":"Ziekenhuis","operator":""}},{"type":"Feature","geometry":{"type":"Point","coordinates":[6.29288,52.250242]},"properties":{"category":"bus_halte","name":"Schipbeeksweg","operator":""}},{"type":"Feature","geometry":{"type":"Point","coordinates":[6.198085,52.272741]},"properties":{"category":"bus_halte","name":"Westenberg","operator":""}},{"type":"Feature","geometry":{"type":"Point","coordinates":[6.186301,52.288972]},"properties":{"category":"bus_halte","name":"Frieswijk","operator":""}},{"type":"Feature","geometry":{"type":"Point","coordinates":[6.188458,52.241721]},"properties":{"category":"bus_halte","name":"Munsterstraat","operator":""}},{"type":"Feature","geometry":{"type":"Point","coordinates":[6.141833,52.303621]},"properties":{"category":"bus_halte","name":"Randerstraat","operator":""}},{"type":"Feature","geometry":{"type":"Point","coordinates":[6.221938,52.284473]},"properties":{"category":"bus_halte","name":"Spikker","operator":""}},{"type":"Feature","geometry":{"type":"Point","coordinates":[6.131305,52.264938]},"properties":{"category":"bus_halte","name":"Rubensstraat","operator":""}},{"type":"Feature","geometry":{"type":"Point","coordinates":[6.165945,52.268827]},"properties":{"category":"bus_halte","name":"Winkelcentrum Keizerslanden","operator":""}},{"type":"Feature","geometry":{"type":"Point","coordinates":[6.290549,52.251281]},"properties":{"category":"bus_halte","name":"Looweg/Kuiperij","operator":""}},{"type":"Feature","geometry":{"type":"Point","coordinates":[6.196377,52.250423]},"properties":{"category":"bus_halte","name":"Hunneperweg","operator":""}},{"type":"Feature","geometry":{"type":"Point","coordinates":[6.187773,52.238926]},"properties":{"category":"bus_halte","name":"Keulenstraat 1","operator":""}},{"type":"Feature","geometry":{"type":"Point","coordinates":[6.154883,52.260117]},"properties":{"category":"bus_halte","name":"Schurenstraat","operator":""}},{"type":"Feature","geometry":{"type":"Point","coordinates":[6.280669,52.247729]},"properties":{"category":"bus_halte","name":"Polakstraat","operator":""}},{"type":"Feature","geometry":{"type":"Point","coordinates":[6.188783,52.267649]},"properties":{"category":"bus_halte","name":"Prins Bernhardweg","operator":""}},{"type":"Feature","geometry":{"type":"Point","coordinates":[6.139787,52.269849]},"properties":{"category":"bus_halte","name":"Joost van de Vondellaan","operator":""}},{"type":"Feature","geometry":{"type":"Point","coordinates":[6.173556,52.242388]},"properties":{"category":"bus_halte","name":"Gotlandstraat","operator":""}},{"type":"Feature","geometry":{"type":"Point","coordinates":[6.169199,52.265966]},"properties":{"category":"bus_halte","name":"Van Marckelplein","operator":""}},{"type":"Feature","geometry":{"type":"Point","coordinates":[6.190635,52.253517]},"properties":{"category":"bus_halte","name":"Biesboschlaan","operator":""}},{"type":"Feature","geometry":{"type":"Point","coordinates":[6.151829,52.278304]},"properties":{"category":"bus_halte","name":"Havezatelaan","operator":""}},{"type":"Feature","geometry":{"type":"Point","coordinates":[6.283979,52.247969]},"properties":{"category":"bus_halte","name":"'t Dijkhuis","operator":""}},{"type":"Feature","geometry":{"type":"Point","coordinates":[6.255465,52.25108]},"properties":{"category":"bus_halte","name":"Bannink","operator":""}},{"type":"Feature","geometry":{"type":"Point","coordinates":[6.194474,52.269049]},"properties":{"category":"bus_halte","name":"Kerkweg","operator":""}},{"type":"Feature","geometry":{"type":"Point","coordinates":[6.134474,52.26682]},"properties":{"category":"bus_halte","name":"Sportveldenlaan","operator":""}},{"type":"Feature","geometry":{"type":"Point","coordinates":[6.163003,52.270574]},"properties":{"category":"bus_halte","name":"Balderikstraat","operator":""}},{"type":"Feature","geometry":{"type":"Point","coordinates":[6.214428,52.253521]},"properties":{"category":"bus_halte","name":"Verpleeghuis P.W. Janssen","operator":""}},{"type":"Feature","geometry":{"type":"Point","coordinates":[6.228779,52.24677]},"properties":{"category":"bus_halte","name":"Bonenkamp","operator":""}},{"type":"Feature","geometry":{"type":"Point","coordinates":[6.155385,52.26627]},"properties":{"category":"bus_halte","name":"Europaplein","operator":""}},{"type":"Feature","geometry":{"type":"Point","coordinates":[6.139205,52.274373]},"properties":{"category":"bus_halte","name":"Platvoet","operator":""}},{"type":"Feature","geometry":{"type":"Point","coordinates":[6.277317,52.249616]},"properties":{"category":"bus_halte","name":"Enklaan","operator":""}},{"type":"Feature","geometry":{"type":"Point","coordinates":[6.185322,52.267117]},"properties":{"category":"bus_halte","name":"Oerdijk","operator":""}},{"type":"Feature","geometry":{"type":"Point","coordinates":[6.225771,52.25749]},"properties":{"category":"bus_halte","name":"Albertus van Leusenweg","operator":""}},{"type":"Feature","geometry":{"type":"Point","coordinates":[6.316553,52.26674]},"properties":{"category":"bus_halte","name":"Java","operator":""}},{"type":"Feature","geometry":{"type":"Point","coordinates":[6.148789,52.277055]},"properties":{"category":"bus_halte","name":"Het Vlier","operator":""}},{"type":"Feature","geometry":{"type":"Point","coordinates":[6.167656,52.271908]},"properties":{"category":"bus_halte","name":"Kon. Wilhelminalaan","operator":""}},{"type":"Feature","geometry":{"type":"Point","coordinates":[6.220244,52.254952]},"properties":{"category":"bus_halte","name":"David Wijnveldtweg","operator":""}},{"type":"Feature","geometry":{"type":"Point","coordinates":[6.308692,52.265068]},"properties":{"category":"bus_halte","name":"Wilmink","operator":""}},{"type":"Feature","geometry":{"type":"Point","coordinates":[6.170117,52.260398]},"properties":{"category":"bus_halte","name":"Veenweg","operator":""}},{"type":"Feature","geometry":{"type":"Point","coordinates":[6.173898,52.267787]},"properties":{"category":"bus_halte","name":"Wezenland","operator":""}},{"type":"Feature","geometry":{"type":"Point","coordinates":[6.143304,52.294303]},"properties":{"category":"bus_halte","name":"Sallandsweg","operator":""}},{"type":"Feature","geometry":{"type":"Point","coordinates":[6.135348,52.26235]},"properties":{"category":"bus_halte","name":"Moreelsestraat","operator":""}},{"type":"Feature","geometry":{"type":"Point","coordinates":[6.209872,52.240999]},"properties":{"category":"bus_halte","name":"Hondsroos","operator":""}},{"type":"Feature","geometry":{"type":"Point","coordinates":[6.181177,52.260505]},"properties":{"category":"bus_halte","name":"de Bekkumer","operator":""}},{"type":"Feature","geometry":{"type":"Point","coordinates":[6.199914,52.246823]},"properties":{"category":"bus_halte","name":"Runshoppingcentre","operator":""}},{"type":"Feature","geometry":{"type":"Point","coordinates":[6.188701,52.254855]},"properties":{"category":"bus_halte","name":"Douwelerwetering","operator":""}},{"type":"Feature","geometry":{"type":"Point","coordinates":[6.167169,52.264596]},"properties":{"category":"bus_halte","name":"Dapperstraat","operator":""}},{"type":"Feature","geometry":{"type":"Point","coordinates":[6.21573,52.241289]},"properties":{"category":"bus_halte","name":"Solingenstraat","operator":""}},{"type":"Feature","geometry":{"type":"Point","coordinates":[6.143688,52.300195]},"properties":{"category":"bus_halte","name":"Molenveldsweg","operator":""}},{"type":"Feature","geometry":{"type":"Point","coordinates":[6.144116,52.26541]},"properties":{"category":"bus_halte","name":"Erasmusstraat","operator":""}},{"type":"Feature","geometry":{"type":"Point","coordinates":[6.167563,52.258846]},"properties":{"category":"bus_halte","name":"Bleekstraat","operator":""}},{"type":"Feature","geometry":{"type":"Point","coordinates":[6.170567,52.266082]},"properties":{"category":"bus_halte","name":"St. Jozef Verpleeghuis","operator":""}},{"type":"Feature","geometry":{"type":"Point","coordinates":[6.263068,52.248686]},"properties":{"category":"bus_halte","name":"Peppelerdijk","operator":""}},{"type":"Feature","geometry":{"type":"Point","coordinates":[6.139875,52.271253]},"properties":{"category":"bus_halte","name":"Lookersdijk","operator":""}},{"type":"Feature","geometry":{"type":"Point","coordinates":[6.151518,52.274332]},"properties":{"category":"bus_halte","name":"Winkelcentrum Borgele","operator":""}},{"type":"Feature","geometry":{"type":"Point","coordinates":[6.255438,52.251188]},"properties":{"category":"bus_halte","name":"Bannink","operator":""}},{"type":"Feature","geometry":{"type":"Point","coordinates":[6.199687,52.243045]},"properties":{"category":"bus_halte","name":"Rostockstraat","operator":""}},{"type":"Feature","geometry":{"type":"Point","coordinates":[6.208181,52.253782]},"properties":{"category":"bus_halte","name":"Toutenburg","operator":""}},{"type":"Feature","geometry":{"type":"Point","coordinates":[6.136575,52.268211]},"properties":{"category":"bus_halte","name":"Verpleeghuis St. Jurrien","operator":""}},{"type":"Feature","geometry":{"type":"Point","coordinates":[6.159967,52.270685]},"properties":{"category":"bus_halte","name":"Ludgerstraat","operator":""}},{"type":"Feature","geometry":{"type":"Point","coordinates":[6.195431,52.244343]},"properties":{"category":"bus_halte","name":"Dortmundstraat","operator":""}},{"type":"Feature","geometry":{"type":"Point","coordinates":[6.205793,52.25462]},"properties":{"category":"bus_halte","name":"Zwaluwenburg","operator":""}},{"type":"Feature","geometry":{"type":"Point","coordinates":[6.258075,52.294737]},"properties":{"category":"bus_halte","name":"Militair Complex","operator":""}},{"type":"Feature","geometry":{"type":"Point","coordinates":[6.214268,52.247337]},"properties":{"category":"bus_halte","name":"Fonteinkruid","operator":""}},{"type":"Feature","geometry":{"type":"Point","coordinates":[6.1704,52.249619]},"properties":{"category":"bus_halte","name":"Teugseplein","operator":""}},{"type":"Feature","geometry":{"type":"Point","coordinates":[6.200033,52.240061]},"properties":{"category":"bus_halte","name":"Rigastraat","operator":""}},{"type":"Feature","geometry":{"type":"Point","coordinates":[6.15648,52.263202]},"properties":{"category":"bus_halte","name":"Papenblik","operator":""}},{"type":"Feature","geometry":{"type":"Point","coordinates":[6.175796,52.23969]},"properties":{"category":"bus_halte","name":"Zweedsestraat","operator":""}},{"type":"Feature","geometry":{"type":"Point","coordinates":[6.171344,52.242754]},"properties":{"category":"bus_halte","name":"Hanzeweg","operator":""}},{"type":"Feature","geometry":{"type":"Point","coordinates":[6.173251,52.242489]},"properties":{"category":"bus_halte","name":"Gotlandstraat","operator":""}},{"type":"Feature","geometry":{"type":"Point","coordinates":[6.168629,52.247998]},"properties":{"category":"bus_halte","name":"Mr. de Boerplein","operator":""}},{"type":"Feature","geometry":{"type":"Point","coordinates":[6.171954,52.242101]},"properties":{"category":"bus_halte","name":"Hanzeweg","operator":""}},{"type":"Feature","geometry":{"type":"Point","coordinates":[6.176455,52.239845]},"properties":{"category":"bus_halte","name":"Zweedsestraat","operator":""}},{"type":"Feature","geometry":{"type":"Point","coordinates":[6.166855,52.254139]},"properties":{"category":"bus_halte","name":"Saxion Hogeschool","operator":""}},{"type":"Feature","geometry":{"type":"Point","coordinates":[6.266151,52.3006]},"properties":{"category":"bus_halte","name":"Bathmenseweg","operator":""}},{"type":"Feature","geometry":{"type":"Point","coordinates":[6.26699,52.300879]},"properties":{"category":"bus_halte","name":"Bathmenseweg","operator":""}},{"type":"Feature","geometry":{"type":"Point","coordinates":[6.190905,52.250931]},"properties":{"category":"bus_halte","name":"Snippeling","operator":""}},{"type":"Feature","geometry":{"type":"Point","coordinates":[6.22605,52.261405]},"properties":{"category":"bus_halte","name":"Alphons Diepenbrocklaan","operator":""}},{"type":"Feature","geometry":{"type":"Point","coordinates":[6.225467,52.261772]},"properties":{"category":"bus_halte","name":"Alphons Diepenbrocklaan","operator":""}},{"type":"Feature","geometry":{"type":"Point","coordinates":[6.321676,52.298645]},"properties":{"category":"bus_halte","name":"Kerk","operator":""}},{"type":"Feature","geometry":{"type":"Point","coordinates":[6.321498,52.298673]},"properties":{"category":"bus_halte","name":"Kerk","operator":""}},{"type":"Feature","geometry":{"type":"Point","coordinates":[6.229579,52.26786]},"properties":{"category":"bus_halte","name":"Nieuwedijk","operator":""}},{"type":"Feature","geometry":{"type":"Point","coordinates":[6.229514,52.267926]},"properties":{"category":"bus_halte","name":"Nieuwedijk","operator":""}},{"type":"Feature","geometry":{"type":"Point","coordinates":[6.326043,52.300876]},"properties":{"category":"bus_halte","name":"Koerselmansweg","operator":""}},{"type":"Feature","geometry":{"type":"Point","coordinates":[6.255941,52.272769]},"properties":{"category":"bus_halte","name":"Doldermansweg","operator":""}},{"type":"Feature","geometry":{"type":"Point","coordinates":[6.255792,52.27279]},"properties":{"category":"bus_halte","name":"Doldermansweg","operator":""}},{"type":"Feature","geometry":{"type":"Point","coordinates":[6.245099,52.2724]},"properties":{"category":"bus_halte","name":"Schooldijk","operator":""}},{"type":"Feature","geometry":{"type":"Point","coordinates":[6.245124,52.272453]},"properties":{"category":"bus_halte","name":"Schooldijk","operator":""}},{"type":"Feature","geometry":{"type":"Point","coordinates":[6.299835,52.284073]},"properties":{"category":"bus_halte","name":"Butersdijk","operator":""}},{"type":"Feature","geometry":{"type":"Point","coordinates":[6.157917,52.261157]},"properties":{"category":"bus_halte","name":"Oude Begraafplaats","operator":""}},{"type":"Feature","geometry":{"type":"Point","coordinates":[6.159083,52.261488]},"properties":{"category":"bus_halte","name":"Oude Begraafplaats","operator":""}},{"type":"Feature","geometry":{"type":"Point","coordinates":[6.305969,52.291575]},"properties":{"category":"bus_halte","name":"Ten Havesweg","operator":""}},{"type":"Feature","geometry":{"type":"Point","coordinates":[6.306049,52.291519]},"properties":{"category":"bus_halte","name":"Ten Havesweg","operator":""}},{"type":"Feature","geometry":{"type":"Point","coordinates":[6.15829,52.268092]},"properties":{"category":"bus_halte","name":"Splithofstraat","operator":""}},{"type":"Feature","geometry":{"type":"Point","coordinates":[6.158144,52.268097]},"properties":{"category":"bus_halte","name":"Splithofstraat","operator":""}},{"type":"Feature","geometry":{"type":"Point","coordinates":[6.314615,52.295459]},"properties":{"category":"bus_halte","name":"Okkenbroekerveldweg","operator":""}},{"type":"Feature","geometry":{"type":"Point","coordinates":[6.314531,52.295478]},"properties":{"category":"bus_halte","name":"Okkenbroekerveldweg","operator":""}},{"type":"Feature","geometry":{"type":"Point","coordinates":[6.215539,52.251914]},"properties":{"category":"bus_halte","name":"Station Colmschate","operator":""}},{"type":"Feature","geometry":{"type":"Point","coordinates":[6.203481,52.2613]},"properties":{"category":"bus_halte","name":"Wijtenhorst","operator":""}},{"type":"Feature","geometry":{"type":"Point","coordinates":[6.174907,52.253552]},"properties":{"category":"bus_halte","name":"Brandweerdam","operator":""}},{"type":"Feature","geometry":{"type":"Point","coordinates":[6.174327,52.253746]},"properties":{"category":"bus_halte","name":"Brandweerdam","operator":""}},{"type":"Feature","geometry":{"type":"Point","coordinates":[6.203399,52.249237]},"properties":{"category":"bus_halte","name":"De Knoop","operator":""}},{"type":"Feature","geometry":{"type":"Point","coordinates":[6.216222,52.248435]},"properties":{"category":"bus_halte","name":"De Scheg","operator":""}},{"type":"Feature","geometry":{"type":"Point","coordinates":[6.229224,52.249413]},"properties":{"category":"bus_halte","name":"Huize Salland","operator":""}},{"type":"Feature","geometry":{"type":"Point","coordinates":[6.229423,52.249535]},"properties":{"category":"bus_halte","name":"Huize Salland","operator":""}},{"type":"Feature","geometry":{"type":"Point","coordinates":[6.216106,52.254007]},"properties":{"category":"bus_halte","name":"Oostriklaan","operator":""}},{"type":"Feature","geometry":{"type":"Point","coordinates":[6.216536,52.25418]},"properties":{"category":"bus_halte","name":"Oostriklaan","operator":""}},{"type":"Feature","geometry":{"type":"Point","coordinates":[6.215657,52.252042]},"properties":{"category":"bus_halte","name":"Station Colmschate","operator":""}},{"type":"Feature","geometry":{"type":"Point","coordinates":[6.203039,52.261432]},"properties":{"category":"bus_halte","name":"Wijtenhorst","operator":""}},{"type":"Feature","geometry":{"type":"Point","coordinates":[6.190085,52.244519]},"properties":{"category":"bus_halte","name":"Westfalenstraat","operator":""}},{"type":"Feature","geometry":{"type":"Point","coordinates":[6.190817,52.244288]},"properties":{"category":"bus_halte","name":"Westfalenstraat","operator":""}},{"type":"Feature","geometry":{"type":"Point","coordinates":[6.173858,52.248886]},"properties":{"category":"bus_halte","name":"Industrieweg","operator":""}},{"type":"Feature","geometry":{"type":"Point","coordinates":[6.178301,52.253736]},"properties":{"category":"bus_halte","name":"Amstellaan","operator":""}},{"type":"Feature","geometry":{"type":"Point","coordinates":[6.179924,52.240502]},"properties":{"category":"bus_halte","name":"Van Wijnen","operator":""}},{"type":"Feature","geometry":{"type":"Point","coordinates":[6.179506,52.240507]},"properties":{"category":"bus_halte","name":"Van Wijnen","operator":""}},{"type":"Feature","geometry":{"type":"Point","coordinates":[6.185377,52.241553]},"properties":{"category":"bus_halte","name":"Osnabrückstraat","operator":""}},{"type":"Feature","geometry":{"type":"Point","coordinates":[6.184583,52.24148]},"properties":{"category":"bus_halte","name":"Osnabrückstraat","operator":""}},{"type":"Feature","geometry":{"type":"Point","coordinates":[6.303891,52.287341]},"properties":{"category":"bus_halte","name":"De Grote Brander","operator":""}},{"type":"Feature","geometry":{"type":"Point","coordinates":[6.30396,52.2873]},"properties":{"category":"bus_halte","name":"De Grote Brander","operator":""}},{"type":"Feature","geometry":{"type":"Point","coordinates":[6.272503,52.276574]},"properties":{"category":"bus_halte","name":"Lettele","operator":""}},{"type":"Feature","geometry":{"type":"Point","coordinates":[6.214999,52.266991]},"properties":{"category":"bus_halte","name":"Cröddenbrug","operator":""}},{"type":"Feature","geometry":{"type":"Point","coordinates":[6.215012,52.266913]},"properties":{"category":"bus_halte","name":"Cröddenbrug","operator":""}},{"type":"Feature","geometry":{"type":"Point","coordinates":[6.16883,52.248082]},"properties":{"category":"bus_halte","name":"Mr. de Boerplein","operator":""}},{"type":"Feature","geometry":{"type":"Point","coordinates":[6.16012,52.257165]},"properties":{"category":"bus_halte","name":"Station","operator":""}},{"type":"Feature","geometry":{"type":"Point","coordinates":[6.159738,52.257326]},"properties":{"category":"bus_halte","name":"Station","operator":""}},{"type":"Feature","geometry":{"type":"Point","coordinates":[6.159348,52.257497]},"properties":{"category":"bus_halte","name":"Station","operator":""}},{"type":"Feature","geometry":{"type":"Point","coordinates":[6.159039,52.257585]},"properties":{"category":"bus_halte","name":"Station","operator":""}},{"type":"Feature","geometry":{"type":"Point","coordinates":[6.159402,52.2574]},"properties":{"category":"bus_halte","name":"Station","operator":""}},{"type":"Feature","geometry":{"type":"Point","coordinates":[6.159798,52.257231]},"properties":{"category":"bus_halte","name":"Station","operator":""}},{"type":"Feature","geometry":{"type":"Point","coordinates":[6.162616,52.255361]},"properties":{"category":"bus_halte","name":"Schouwburg/Centrum","operator":""}},{"type":"Feature","geometry":{"type":"Point","coordinates":[6.162418,52.255626]},"properties":{"category":"bus_halte","name":"Schouwburg/Centrum","operator":""}},{"type":"Feature","geometry":{"type":"Point","coordinates":[6.21422,52.24884]},"properties":{"category":"bus_halte","name":"De Scheg","operator":""}},{"type":"Feature","geometry":{"type":"Point","coordinates":[6.326131,52.300819]},"properties":{"category":"bus_halte","name":"Koerselmansweg","operator":""}},{"type":"Feature","geometry":{"type":"Point","coordinates":[6.27255,52.276499]},"properties":{"category":"bus_halte","name":"Lettele","operator":""}},{"type":"Feature","geometry":{"type":"Point","coordinates":[6.299777,52.284132]},"properties":{"category":"bus_halte","name":"Butersdijk","operator":""}},{"type":"Feature","geometry":{"type":"Point","coordinates":[6.215518,52.249245]},"properties":{"category":"bus_halte","name":"De Scheg","operator":""}},{"type":"Feature","geometry":{"type":"Point","coordinates":[6.203624,52.231115]},"properties":{"category":"bus_halte","name":"Nering Bögelweg/Sligro","operator":""}},{"type":"Feature","geometry":{"type":"Point","coordinates":[6.200183,52.233879]},"properties":{"category":"bus_halte","name":"Nering Bögelweg","operator":""}},{"type":"Feature","geometry":{"type":"Point","coordinates":[6.208989,52.234361]},"properties":{"category":"bus_halte","name":"Birnieweg/Hotel","operator":""}},{"type":"Feature","geometry":{"type":"Point","coordinates":[6.20968,52.232248]},"properties":{"category":"bus_halte","name":"Bedrijvenpark A1","operator":""}},{"type":"Feature","geometry":{"type":"Point","coordinates":[6.209735,52.232026]},"properties":{"category":"bus_halte","name":"Bedrijvenpark A1","operator":""}},{"type":"Feature","geometry":{"type":"Point","coordinates":[6.214033,52.253447]},"properties":{"category":"bus_halte","name":"Verpleeghuis P.W. Janssen","operator":""}},{"type":"Feature","geometry":{"type":"Point","coordinates":[6.211691,52.253482]},"properties":{"category":"bus_halte","name":"Slangenburg","operator":""}},{"type":"Feature","geometry":{"type":"Point","coordinates":[6.206007,52.254636]},"properties":{"category":"bus_halte","name":"Zwaluwenburg","operator":""}},{"type":"Feature","geometry":{"type":"Point","coordinates":[6.208489,52.253653]},"properties":{"category":"bus_halte","name":"Toutenburg","operator":""}},{"type":"Feature","geometry":{"type":"Point","coordinates":[6.201281,52.254059]},"properties":{"category":"bus_halte","name":"Kleine Vos","operator":""}},{"type":"Feature","geometry":{"type":"Point","coordinates":[6.228933,52.246598]},"properties":{"category":"bus_halte","name":"Bonenkamp","operator":""}},{"type":"Feature","geometry":{"type":"Point","coordinates":[6.22887,52.244855]},"properties":{"category":"bus_halte","name":"Hannie Schaftpad","operator":""}},{"type":"Feature","geometry":{"type":"Point","coordinates":[6.22527,52.242899]},"properties":{"category":"bus_halte","name":"J. Naberstraat","operator":""}},{"type":"Feature","geometry":{"type":"Point","coordinates":[6.221467,52.241539]},"properties":{"category":"bus_halte","name":"Maagdenburg","operator":""}},{"type":"Feature","geometry":{"type":"Point","coordinates":[6.216694,52.24126]},"properties":{"category":"bus_halte","name":"Solingenstraat","operator":""}},{"type":"Feature","geometry":{"type":"Point","coordinates":[6.15521,52.270183]},"properties":{"category":"bus_halte","name":"Keurkampstraat","operator":""}},{"type":"Feature","geometry":{"type":"Point","coordinates":[6.154948,52.269847]},"properties":{"category":"bus_halte","name":"Keurkampstraat","operator":""}},{"type":"Feature","geometry":{"type":"Point","coordinates":[6.155562,52.273402]},"properties":{"category":"bus_halte","name":"Spiraalstraat","operator":""}},{"type":"Feature","geometry":{"type":"Point","coordinates":[6.15538,52.272775]},"properties":{"category":"bus_halte","name":"Spiraalstraat","operator":""}},{"type":"Feature","geometry":{"type":"Point","coordinates":[6.271355,52.249778]},"properties":{"category":"bus_halte","name":"Grote Molenakker","operator":""}},{"type":"Feature","geometry":{"type":"Point","coordinates":[6.271834,52.249613]},"properties":{"category":"bus_halte","name":"Grote Molenakker","operator":""}},{"type":"Feature","geometry":{"type":"Point","coordinates":[6.161105,52.257293]},"properties":{"category":"ov_knooppunt","name":"Deventer","operator":""}},{"type":"Feature","geometry":{"type":"Point","coordinates":[6.215679,52.25035]},"properties":{"category":"ov_knooppunt","name":"Deventer Colmschate","operator":"Nederlandse Spoorwegen"}},{"type":"Feature","geometry":{"type":"Point","coordinates":[6.156016,52.251838]},"properties":{"category":"gemeentehuis","name":"Stadhuis Deventer","operator":"Gemeente Deventer"}},{"type":"Feature","geometry":{"type":"Point","coordinates":[6.156634,52.251535]},"properties":{"category":"gemeentehuis","name":"Gemeente Deventer Publiekszaken","operator":"Gemeente Deventer"}},{"type":"Feature","geometry":{"type":"Point","coordinates":[6.190653,52.246727]},"properties":{"category":"inzamelpunt","name":"Recycleplein","operator":"Circulus"}},{"type":"Feature","geometry":{"type":"Point","coordinates":[6.213262,52.248084]},"properties":{"category":"bibliotheek","name":"de Bibliotheek en Wijkwinkel Colmschate","operator":"de Bibliotheek Deventer"}},{"type":"Feature","geometry":{"type":"Point","coordinates":[6.152634,52.253293]},"properties":{"category":"bibliotheek","name":"Athenaeumbibliotheek Deventer","operator":""}},{"type":"Feature","geometry":{"type":"Point","coordinates":[6.145567,52.290183]},"properties":{"category":"bibliotheek","name":"Openbare Bibliotheek","operator":""}},{"type":"Feature","geometry":{"type":"Point","coordinates":[6.163496,52.268216]},"properties":{"category":"bibliotheek","name":"Bibliotheek Keizerslanden","operator":""}},{"type":"Feature","geometry":{"type":"Point","coordinates":[6.155548,52.253359]},"properties":{"category":"bibliotheek","name":"de Bibliotheek Deventer","operator":""}},{"type":"Feature","geometry":{"type":"Point","coordinates":[6.191656,52.261312]},"properties":{"category":"ziekenhuis","name":"Deventer Ziekenhuis","operator":""}},{"type":"Feature","geometry":{"type":"Point","coordinates":[6.187917,52.242859]},"properties":{"category":"transformatorhuisje","name":"","operator":""}},{"type":"Feature","geometry":{"type":"Point","coordinates":[6.188187,52.24291]},"properties":{"category":"transformatorhuisje","name":"","operator":""}},{"type":"Feature","geometry":{"type":"Point","coordinates":[6.135088,52.277483]},"properties":{"category":"transformatorhuisje","name":"","operator":""}},{"type":"Feature","geometry":{"type":"Point","coordinates":[6.224062,52.241492]},"properties":{"category":"transformatorhuisje","name":"","operator":""}},{"type":"Feature","geometry":{"type":"Point","coordinates":[6.194632,52.244726]},"properties":{"category":"transformatorhuisje","name":"","operator":""}},{"type":"Feature","geometry":{"type":"Point","coordinates":[6.16934,52.243329]},"properties":{"category":"transformatorhuisje","name":"","operator":""}},{"type":"Feature","geometry":{"type":"Point","coordinates":[6.141969,52.274494]},"properties":{"category":"transformatorhuisje","name":"","operator":""}},{"type":"Feature","geometry":{"type":"Point","coordinates":[6.151722,52.253281]},"properties":{"category":"transformatorhuisje","name":"","operator":""}},{"type":"Feature","geometry":{"type":"Point","coordinates":[6.154591,52.262888]},"properties":{"category":"transformatorhuisje","name":"","operator":""}},{"type":"Feature","geometry":{"type":"Point","coordinates":[6.141459,52.252923]},"properties":{"category":"transformatorhuisje","name":"","operator":""}},{"type":"Feature","geometry":{"type":"Point","coordinates":[6.300864,52.238972]},"properties":{"category":"transformatorhuisje","name":"","operator":"Liander"}},{"type":"Feature","geometry":{"type":"Point","coordinates":[6.333343,52.240622]},"properties":{"category":"transformatorhuisje","name":"","operator":""}},{"type":"Feature","geometry":{"type":"Point","coordinates":[6.367422,52.244973]},"properties":{"category":"transformatorhuisje","name":"","operator":""}},{"type":"Feature","geometry":{"type":"Point","coordinates":[6.347352,52.242514]},"properties":{"category":"transformatorhuisje","name":"","operator":""}},{"type":"Feature","geometry":{"type":"Point","coordinates":[6.24513,52.287738]},"properties":{"category":"transformatorhuisje","name":"","operator":""}},{"type":"Feature","geometry":{"type":"Point","coordinates":[6.259855,52.287495]},"properties":{"category":"transformatorhuisje","name":"","operator":""}},{"type":"Feature","geometry":{"type":"Point","coordinates":[6.263655,52.282497]},"properties":{"category":"transformatorhuisje","name":"","operator":""}},{"type":"Feature","geometry":{"type":"Point","coordinates":[6.240617,52.266451]},"properties":{"category":"transformatorhuisje","name":"","operator":""}},{"type":"Feature","geometry":{"type":"Point","coordinates":[6.297157,52.282856]},"properties":{"category":"transformatorhuisje","name":"","operator":""}},{"type":"Feature","geometry":{"type":"Point","coordinates":[6.304096,52.287106]},"properties":{"category":"transformatorhuisje","name":"","operator":""}},{"type":"Feature","geometry":{"type":"Point","coordinates":[6.322632,52.298727]},"properties":{"category":"transformatorhuisje","name":"","operator":""}},{"type":"Feature","geometry":{"type":"Point","coordinates":[6.238381,52.246828]},"properties":{"category":"transformatorhuisje","name":"","operator":""}},{"type":"Feature","geometry":{"type":"Point","coordinates":[6.272164,52.245497]},"properties":{"category":"transformatorhuisje","name":"","operator":""}},{"type":"Feature","geometry":{"type":"Point","coordinates":[6.290407,52.248167]},"properties":{"category":"transformatorhuisje","name":"","operator":""}},{"type":"Feature","geometry":{"type":"Point","coordinates":[6.369186,52.259196]},"properties":{"category":"transformatorhuisje","name":"","operator":""}},{"type":"Feature","geometry":{"type":"Point","coordinates":[6.327266,52.245222]},"properties":{"category":"transformatorhuisje","name":"","operator":""}},{"type":"Feature","geometry":{"type":"Point","coordinates":[6.29154,52.25563]},"properties":{"category":"transformatorhuisje","name":"","operator":""}},{"type":"Feature","geometry":{"type":"Point","coordinates":[6.135751,52.277412]},"properties":{"category":"transformatorhuisje","name":"","operator":""}},{"type":"Feature","geometry":{"type":"Point","coordinates":[6.345013,52.250882]},"properties":{"category":"transformatorhuisje","name":"","operator":""}},{"type":"Feature","geometry":{"type":"Point","coordinates":[6.188047,52.2429]},"properties":{"category":"transformatorhuisje","name":"","operator":""}},{"type":"Feature","geometry":{"type":"Point","coordinates":[6.168188,52.254351]},"properties":{"category":"universiteit","name":"Saxion Hogeschool Deventer","operator":""}},{"type":"Feature","geometry":{"type":"Point","coordinates":[6.168871,52.253284]},"properties":{"category":"hogeschool","name":"Zone.college","operator":""}},{"type":"Feature","geometry":{"type":"Point","coordinates":[6.178619,52.251297]},"properties":{"category":"hogeschool","name":"KonnecteD","operator":""}},{"type":"Feature","geometry":{"type":"Point","coordinates":[6.169548,52.253802]},"properties":{"category":"hogeschool","name":"ROC Aventus","operator":""}},{"type":"Feature","geometry":{"type":"Point","coordinates":[6.193227,52.252123]},"properties":{"category":"middelbare_school","name":"Het Stormink","operator":""}},{"type":"Feature","geometry":{"type":"Point","coordinates":[6.144113,52.274648]},"properties":{"category":"middelbare_school","name":"Het Vlier","operator":""}},{"type":"Feature","geometry":{"type":"Point","coordinates":[6.155792,52.271248]},"properties":{"category":"middelbare_school","name":"De Marke Noord","operator":""}},{"type":"Feature","geometry":{"type":"Point","coordinates":[6.153949,52.272375]},"properties":{"category":"middelbare_school","name":"Arkelstein","operator":""}},{"type":"Feature","geometry":{"type":"Point","coordinates":[6.170059,52.266202]},"properties":{"category":"middelbare_school","name":"De Boerhaave","operator":""}},{"type":"Feature","geometry":{"type":"Point","coordinates":[6.157315,52.269446]},"properties":{"category":"middelbare_school","name":"De Marke Zuid","operator":""}},{"type":"Feature","geometry":{"type":"Point","coordinates":[6.132668,52.265111]},"properties":{"category":"middelbare_school","name":"De Linde","operator":"De Onderwijsspecialisten"}},{"type":"Feature","geometry":{"type":"Point","coordinates":[6.134249,52.273274]},"properties":{"category":"sportveld","name":"DTC","operator":""}},{"type":"Feature","geometry":{"type":"Point","coordinates":[6.229977,52.252388]},"properties":{"category":"sportveld","name":"Deventer Hockey Vereniging","operator":""}},{"type":"Feature","geometry":{"type":"Point","coordinates":[6.22653,52.25143]},"properties":{"category":"sportveld","name":"","operator":""}},{"type":"Feature","geometry":{"type":"Point","coordinates":[6.226529,52.252495]},"properties":{"category":"sportveld","name":"","operator":""}},{"type":"Feature","geometry":{"type":"Point","coordinates":[6.206504,52.263027]},"properties":{"category":"sportveld","name":"Sportpark De Wijtenhorst","operator":""}},{"type":"Feature","geometry":{"type":"Point","coordinates":[6.161073,52.276416]},"properties":{"category":"sportveld","name":"","operator":""}},{"type":"Feature","geometry":{"type":"Point","coordinates":[6.180669,52.258368]},"properties":{"category":"sportveld","name":"kracht- /vechtsportcentrum KDO","operator":""}},{"type":"Feature","geometry":{"type":"Point","coordinates":[6.184929,52.258104]},"properties":{"category":"sportveld","name":"Tafeltennisvereniging Swift","operator":""}},{"type":"Feature","geometry":{"type":"Point","coordinates":[6.226207,52.252463]},"properties":{"category":"sportveld","name":"Sportpark De Achterhoek","operator":""}},{"type":"Feature","geometry":{"type":"Point","coordinates":[6.144986,52.278084]},"properties":{"category":"sportveld","name":"Voetbalvereniging RDC","operator":""}},{"type":"Feature","geometry":{"type":"Point","coordinates":[6.163713,52.26376]},"properties":{"category":"sportveld","name":"","operator":""}},{"type":"Feature","geometry":{"type":"Point","coordinates":[6.132147,52.269564]},"properties":{"category":"sportveld","name":"","operator":""}},{"type":"Feature","geometry":{"type":"Point","coordinates":[6.172664,52.260405]},"properties":{"category":"sportveld","name":"De Adelaarshorst","operator":"Go Ahead Eagles"}},{"type":"Feature","geometry":{"type":"Point","coordinates":[6.191411,52.257982]},"properties":{"category":"sportveld","name":"Sportpark Rielerenk","operator":""}},{"type":"Feature","geometry":{"type":"Point","coordinates":[6.159822,52.276705]},"properties":{"category":"sportveld","name":"Sportpark Keizerslanden","operator":""}},{"type":"Feature","geometry":{"type":"Point","coordinates":[6.224958,52.239892]},"properties":{"category":"sportveld","name":"SV Helios","operator":""}},{"type":"Feature","geometry":{"type":"Point","coordinates":[6.221997,52.252476]},"properties":{"category":"sportveld","name":"Jeu de Boulesvereniging De Vijfhoek","operator":""}},{"type":"Feature","geometry":{"type":"Point","coordinates":[6.216395,52.255196]},"properties":{"category":"sportveld","name":"Tennis & Padel Colmschate","operator":""}},{"type":"Feature","geometry":{"type":"Point","coordinates":[6.165623,52.253727]},"properties":{"category":"winkelcentrum","name":"De Boreel","operator":""}},{"type":"Feature","geometry":{"type":"Point","coordinates":[6.162153,52.256132]},"properties":{"category":"fietsenstalling","name":"","operator":""}},{"type":"Feature","geometry":{"type":"Point","coordinates":[6.312163,52.243782]},"properties":{"category":"fietsenstalling","name":"","operator":""}},{"type":"Feature","geometry":{"type":"Point","coordinates":[6.188932,52.236455]},"properties":{"category":"fietsenstalling","name":"","operator":""}},{"type":"Feature","geometry":{"type":"Point","coordinates":[6.160877,52.257748]},"properties":{"category":"fietsenstalling","name":"","operator":""}},{"type":"Feature","geometry":{"type":"Point","coordinates":[6.161529,52.257473]},"properties":{"category":"fietsenstalling","name":"","operator":""}},{"type":"Feature","geometry":{"type":"Point","coordinates":[6.160928,52.256676]},"properties":{"category":"fietsenstalling","name":"Stationsplein","operator":"NS"}},{"type":"Feature","geometry":{"type":"Point","coordinates":[6.21461,52.250013]},"properties":{"category":"fietsenstalling","name":"","operator":"NS"}},{"type":"Feature","geometry":{"type":"Point","coordinates":[6.214856,52.250469]},"properties":{"category":"fietsenstalling","name":"","operator":"NS"}},{"type":"Feature","geometry":{"type":"Point","coordinates":[6.191069,52.260708]},"properties":{"category":"fietsenstalling","name":"","operator":""}},{"type":"Feature","geometry":{"type":"Point","coordinates":[6.190648,52.261018]},"properties":{"category":"fietsenstalling","name":"","operator":""}},{"type":"Feature","geometry":{"type":"Point","coordinates":[6.147931,52.257091]},"properties":{"category":"fietsenstalling","name":"","operator":""}},{"type":"Feature","geometry":{"type":"Point","coordinates":[6.214531,52.250099]},"properties":{"category":"fietsenstalling","name":"","operator":"NS"}},{"type":"Feature","geometry":{"type":"Point","coordinates":[6.155268,52.252585]},"properties":{"category":"fietsenstalling","name":"Botermarkt","operator":""}},{"type":"Feature","geometry":{"type":"Point","coordinates":[6.214772,52.253826]},"properties":{"category":"fietsenstalling","name":"","operator":""}},{"type":"Feature","geometry":{"type":"Point","coordinates":[6.177369,52.240995]},"properties":{"category":"fietsenstalling","name":"","operator":""}},{"type":"Feature","geometry":{"type":"Point","coordinates":[6.16381,52.256996]},"properties":{"category":"parkeergarage","name":"Beestenmarkt","operator":""}},{"type":"Feature","geometry":{"type":"Point","coordinates":[6.1621,52.256142]},"properties":{"category":"parkeergarage","name":"","operator":""}},{"type":"Feature","geometry":{"type":"Point","coordinates":[6.15922,52.254879]},"properties":{"category":"parkeergarage","name":"Centrumgarage","operator":""}},{"type":"Feature","geometry":{"type":"Point","coordinates":[6.173095,52.243264]},"properties":{"category":"parkeergarage","name":"","operator":""}},{"type":"Feature","geometry":{"type":"Point","coordinates":[6.195326,52.233093]},"properties":{"category":"parkeergarage","name":"","operator":""}},{"type":"Feature","geometry":{"type":"Point","coordinates":[6.166772,52.255122]},"properties":{"category":"p_and_r","name":"P+R Handelskade","operator":"Q-Park"}},{"type":"Feature","geometry":{"type":"Point","coordinates":[6.17723,52.236538]},"properties":{"category":"p_and_r","name":"P+R","operator":""}}]}