{"type":"FeatureCollection","metadata":{"gemeente":"Dordrecht","slug":"dordrecht","by_category":{"bus_halte":240,"transformatorhuisje":35,"sportveld":18,"middelbare_school":12,"fietsenstalling":12,"ov_knooppunt":8,"parkeergarage":6,"bibliotheek":5,"hogeschool":5,"p_and_r":4,"ns_station":3,"inzamelpunt":3,"winkelcentrum":3,"gemeentehuis":2,"ziekenhuis":2,"universiteit":2},"total":360},"features":[{"type":"Feature","geometry":{"type":"Point","coordinates":[4.667748,51.807532]},"properties":{"category":"ns_station","name":"Dordrecht","operator":"Nederlandse Spoorwegen"}},{"type":"Feature","geometry":{"type":"Point","coordinates":[4.671574,51.79017]},"properties":{"category":"ns_station","name":"Dordrecht Zuid","operator":""}},{"type":"Feature","geometry":{"type":"Point","coordinates":[4.716209,51.801972]},"properties":{"category":"ns_station","name":"Dordrecht Stadspolders","operator":"Qbuzz"}},{"type":"Feature","geometry":{"type":"Point","coordinates":[4.643885,51.772391]},"properties":{"category":"bus_halte","name":"Keerweer","operator":""}},{"type":"Feature","geometry":{"type":"Point","coordinates":[4.674245,51.79011]},"properties":{"category":"bus_halte","name":"Station Zuid","operator":""}},{"type":"Feature","geometry":{"type":"Point","coordinates":[4.678671,51.790479]},"properties":{"category":"bus_halte","name":"Kapteynweg","operator":""}},{"type":"Feature","geometry":{"type":"Point","coordinates":[4.668976,51.793055]},"properties":{"category":"bus_halte","name":"Spirea","operator":""}},{"type":"Feature","geometry":{"type":"Point","coordinates":[4.656646,51.797141]},"properties":{"category":"bus_halte","name":"Marisplein","operator":""}},{"type":"Feature","geometry":{"type":"Point","coordinates":[4.666706,51.798624]},"properties":{"category":"bus_halte","name":"Patersweg","operator":""}},{"type":"Feature","geometry":{"type":"Point","coordinates":[4.663234,51.805959]},"properties":{"category":"bus_halte","name":"Weizigtpark","operator":""}},{"type":"Feature","geometry":{"type":"Point","coordinates":[4.677542,51.806466]},"properties":{"category":"bus_halte","name":"Transvaalstraat","operator":""}},{"type":"Feature","geometry":{"type":"Point","coordinates":[4.655339,51.811371]},"properties":{"category":"bus_halte","name":"Maasplaza","operator":""}},{"type":"Feature","geometry":{"type":"Point","coordinates":[4.721151,51.815472]},"properties":{"category":"bus_halte","name":"Grevelingenweg","operator":""}},{"type":"Feature","geometry":{"type":"Point","coordinates":[4.688833,51.818293]},"properties":{"category":"bus_halte","name":"Maasstraat","operator":""}},{"type":"Feature","geometry":{"type":"Point","coordinates":[4.682703,51.811551]},"properties":{"category":"bus_halte","name":"Oranjelaan","operator":""}},{"type":"Feature","geometry":{"type":"Point","coordinates":[4.681439,51.811154]},"properties":{"category":"bus_halte","name":"Oranjelaan","operator":""}},{"type":"Feature","geometry":{"type":"Point","coordinates":[4.67567,51.809255]},"properties":{"category":"bus_halte","name":"Oranjepark","operator":""}},{"type":"Feature","geometry":{"type":"Point","coordinates":[4.643777,51.772701]},"properties":{"category":"bus_halte","name":"Keerweer","operator":""}},{"type":"Feature","geometry":{"type":"Point","coordinates":[4.646765,51.788138]},"properties":{"category":"bus_halte","name":"Kreekweg","operator":""}},{"type":"Feature","geometry":{"type":"Point","coordinates":[4.647038,51.788186]},"properties":{"category":"bus_halte","name":"Kreekweg","operator":""}},{"type":"Feature","geometry":{"type":"Point","coordinates":[4.65293,51.785181]},"properties":{"category":"bus_halte","name":"Watersteyn","operator":""}},{"type":"Feature","geometry":{"type":"Point","coordinates":[4.653201,51.785522]},"properties":{"category":"bus_halte","name":"Watersteyn","operator":""}},{"type":"Feature","geometry":{"type":"Point","coordinates":[4.649877,51.788932]},"properties":{"category":"bus_halte","name":"Admiraal de Ruyterweg","operator":""}},{"type":"Feature","geometry":{"type":"Point","coordinates":[4.64995,51.789157]},"properties":{"category":"bus_halte","name":"Admiraal de Ruyterweg","operator":""}},{"type":"Feature","geometry":{"type":"Point","coordinates":[4.65559,51.793592]},"properties":{"category":"bus_halte","name":"Karel Doormanweg","operator":""}},{"type":"Feature","geometry":{"type":"Point","coordinates":[4.656605,51.797305]},"properties":{"category":"bus_halte","name":"Marisplein","operator":""}},{"type":"Feature","geometry":{"type":"Point","coordinates":[4.654364,51.801667]},"properties":{"category":"bus_halte","name":"Frans Lebretlaan","operator":""}},{"type":"Feature","geometry":{"type":"Point","coordinates":[4.65506,51.801687]},"properties":{"category":"bus_halte","name":"Frans Lebretlaan","operator":""}},{"type":"Feature","geometry":{"type":"Point","coordinates":[4.667725,51.773452]},"properties":{"category":"bus_halte","name":"Heimerstein","operator":""}},{"type":"Feature","geometry":{"type":"Point","coordinates":[4.667898,51.773104]},"properties":{"category":"bus_halte","name":"Heimerstein","operator":""}},{"type":"Feature","geometry":{"type":"Point","coordinates":[4.666917,51.775177]},"properties":{"category":"bus_halte","name":"Puttenstein","operator":""}},{"type":"Feature","geometry":{"type":"Point","coordinates":[4.6672,51.77547]},"properties":{"category":"bus_halte","name":"Puttenstein","operator":""}},{"type":"Feature","geometry":{"type":"Point","coordinates":[4.668455,51.777443]},"properties":{"category":"bus_halte","name":"Ockenburg","operator":""}},{"type":"Feature","geometry":{"type":"Point","coordinates":[4.668306,51.777393]},"properties":{"category":"bus_halte","name":"Ockenburg","operator":""}},{"type":"Feature","geometry":{"type":"Point","coordinates":[4.671031,51.772601]},"properties":{"category":"bus_halte","name":"Goudestein","operator":""}},{"type":"Feature","geometry":{"type":"Point","coordinates":[4.67135,51.773015]},"properties":{"category":"bus_halte","name":"Goudestein","operator":""}},{"type":"Feature","geometry":{"type":"Point","coordinates":[4.67285,51.775837]},"properties":{"category":"bus_halte","name":"Schuilenburg","operator":""}},{"type":"Feature","geometry":{"type":"Point","coordinates":[4.672522,51.776031]},"properties":{"category":"bus_halte","name":"Schuilenburg","operator":""}},{"type":"Feature","geometry":{"type":"Point","coordinates":[4.668697,51.77943]},"properties":{"category":"bus_halte","name":"Indus","operator":""}},{"type":"Feature","geometry":{"type":"Point","coordinates":[4.668853,51.779444]},"properties":{"category":"bus_halte","name":"Indus","operator":""}},{"type":"Feature","geometry":{"type":"Point","coordinates":[4.66359,51.787452]},"properties":{"category":"bus_halte","name":"Cort van der Lindenstraat","operator":""}},{"type":"Feature","geometry":{"type":"Point","coordinates":[4.674499,51.779931]},"properties":{"category":"bus_halte","name":"Wega","operator":""}},{"type":"Feature","geometry":{"type":"Point","coordinates":[4.674081,51.780107]},"properties":{"category":"bus_halte","name":"Wega","operator":""}},{"type":"Feature","geometry":{"type":"Point","coordinates":[4.672665,51.783054]},"properties":{"category":"bus_halte","name":"Octant","operator":""}},{"type":"Feature","geometry":{"type":"Point","coordinates":[4.673329,51.782958]},"properties":{"category":"bus_halte","name":"Octant","operator":""}},{"type":"Feature","geometry":{"type":"Point","coordinates":[4.675824,51.781121]},"properties":{"category":"bus_halte","name":"Blaauwweg","operator":""}},{"type":"Feature","geometry":{"type":"Point","coordinates":[4.67609,51.781023]},"properties":{"category":"bus_halte","name":"Blaauwweg","operator":""}},{"type":"Feature","geometry":{"type":"Point","coordinates":[4.672075,51.785771]},"properties":{"category":"bus_halte","name":"Kometenlaan","operator":""}},{"type":"Feature","geometry":{"type":"Point","coordinates":[4.672253,51.785812]},"properties":{"category":"bus_halte","name":"Kometenlaan","operator":""}},{"type":"Feature","geometry":{"type":"Point","coordinates":[4.675573,51.786268]},"properties":{"category":"bus_halte","name":"Planetenlaan","operator":""}},{"type":"Feature","geometry":{"type":"Point","coordinates":[4.675794,51.786617]},"properties":{"category":"bus_halte","name":"Planetenlaan","operator":""}},{"type":"Feature","geometry":{"type":"Point","coordinates":[4.678811,51.787466]},"properties":{"category":"bus_halte","name":"Keplerweg","operator":""}},{"type":"Feature","geometry":{"type":"Point","coordinates":[4.678555,51.787342]},"properties":{"category":"bus_halte","name":"Keplerweg","operator":""}},{"type":"Feature","geometry":{"type":"Point","coordinates":[4.681016,51.774951]},"properties":{"category":"bus_halte","name":"Vredenburg","operator":""}},{"type":"Feature","geometry":{"type":"Point","coordinates":[4.681188,51.775001]},"properties":{"category":"bus_halte","name":"Vredenburg","operator":""}},{"type":"Feature","geometry":{"type":"Point","coordinates":[4.682745,51.777061]},"properties":{"category":"bus_halte","name":"Cannenburg","operator":""}},{"type":"Feature","geometry":{"type":"Point","coordinates":[4.682988,51.777309]},"properties":{"category":"bus_halte","name":"Cannenburg","operator":""}},{"type":"Feature","geometry":{"type":"Point","coordinates":[4.682763,51.780882]},"properties":{"category":"bus_halte","name":"De Jagerweg","operator":""}},{"type":"Feature","geometry":{"type":"Point","coordinates":[4.683111,51.780324]},"properties":{"category":"bus_halte","name":"De Jagerweg","operator":""}},{"type":"Feature","geometry":{"type":"Point","coordinates":[4.684008,51.782682]},"properties":{"category":"bus_halte","name":"Minnaertweg","operator":""}},{"type":"Feature","geometry":{"type":"Point","coordinates":[4.683969,51.782789]},"properties":{"category":"bus_halte","name":"Minnaertweg","operator":""}},{"type":"Feature","geometry":{"type":"Point","coordinates":[4.684559,51.78508]},"properties":{"category":"bus_halte","name":"Leeuwstraat","operator":""}},{"type":"Feature","geometry":{"type":"Point","coordinates":[4.684685,51.785214]},"properties":{"category":"bus_halte","name":"Leeuwstraat","operator":""}},{"type":"Feature","geometry":{"type":"Point","coordinates":[4.683021,51.787135]},"properties":{"category":"bus_halte","name":"Herschelstraat","operator":""}},{"type":"Feature","geometry":{"type":"Point","coordinates":[4.68336,51.786947]},"properties":{"category":"bus_halte","name":"Herschelstraat","operator":""}},{"type":"Feature","geometry":{"type":"Point","coordinates":[4.66846,51.793512]},"properties":{"category":"bus_halte","name":"Spirea","operator":""}},{"type":"Feature","geometry":{"type":"Point","coordinates":[4.667537,51.796345]},"properties":{"category":"bus_halte","name":"Campanula","operator":""}},{"type":"Feature","geometry":{"type":"Point","coordinates":[4.668061,51.795915]},"properties":{"category":"bus_halte","name":"Campanula","operator":""}},{"type":"Feature","geometry":{"type":"Point","coordinates":[4.666372,51.798577]},"properties":{"category":"bus_halte","name":"Patersweg","operator":""}},{"type":"Feature","geometry":{"type":"Point","coordinates":[4.67408,51.789927]},"properties":{"category":"bus_halte","name":"Station Zuid","operator":""}},{"type":"Feature","geometry":{"type":"Point","coordinates":[4.677723,51.789815]},"properties":{"category":"bus_halte","name":"Kapteynweg","operator":""}},{"type":"Feature","geometry":{"type":"Point","coordinates":[4.678646,51.798211]},"properties":{"category":"bus_halte","name":"Leerpark","operator":""}},{"type":"Feature","geometry":{"type":"Point","coordinates":[4.67911,51.798819]},"properties":{"category":"bus_halte","name":"Leerpark","operator":""}},{"type":"Feature","geometry":{"type":"Point","coordinates":[4.664841,51.801982]},"properties":{"category":"bus_halte","name":"J.P. Heijeplein","operator":""}},{"type":"Feature","geometry":{"type":"Point","coordinates":[4.665004,51.801961]},"properties":{"category":"bus_halte","name":"J.P. Heijeplein","operator":""}},{"type":"Feature","geometry":{"type":"Point","coordinates":[4.66376,51.804443]},"properties":{"category":"bus_halte","name":"Weizigtpark","operator":""}},{"type":"Feature","geometry":{"type":"Point","coordinates":[4.661321,51.809263]},"properties":{"category":"bus_halte","name":"Kilwijkstraat","operator":""}},{"type":"Feature","geometry":{"type":"Point","coordinates":[4.663152,51.810533]},"properties":{"category":"bus_halte","name":"Spuiweg","operator":""}},{"type":"Feature","geometry":{"type":"Point","coordinates":[4.668313,51.810701]},"properties":{"category":"bus_halte","name":"Centrum","operator":""}},{"type":"Feature","geometry":{"type":"Point","coordinates":[4.676817,51.806621]},"properties":{"category":"bus_halte","name":"Transvaalstraat","operator":""}},{"type":"Feature","geometry":{"type":"Point","coordinates":[4.67643,51.808633]},"properties":{"category":"bus_halte","name":"Toulonselaan","operator":""}},{"type":"Feature","geometry":{"type":"Point","coordinates":[4.679928,51.808557]},"properties":{"category":"bus_halte","name":"Riouwstraat","operator":""}},{"type":"Feature","geometry":{"type":"Point","coordinates":[4.680762,51.808316]},"properties":{"category":"bus_halte","name":"Riouwstraat","operator":""}},{"type":"Feature","geometry":{"type":"Point","coordinates":[4.681545,51.792879]},"properties":{"category":"bus_halte","name":"Gezondheidspark","operator":""}},{"type":"Feature","geometry":{"type":"Point","coordinates":[4.681877,51.792814]},"properties":{"category":"bus_halte","name":"Gezondheidspark","operator":""}},{"type":"Feature","geometry":{"type":"Point","coordinates":[4.69365,51.790183]},"properties":{"category":"bus_halte","name":"Eikenlaan","operator":""}},{"type":"Feature","geometry":{"type":"Point","coordinates":[4.693527,51.790116]},"properties":{"category":"bus_halte","name":"Eikenlaan","operator":""}},{"type":"Feature","geometry":{"type":"Point","coordinates":[4.700883,51.791053]},"properties":{"category":"bus_halte","name":"Kastanjelaan","operator":""}},{"type":"Feature","geometry":{"type":"Point","coordinates":[4.688502,51.80539]},"properties":{"category":"bus_halte","name":"Halmaheiraplein","operator":""}},{"type":"Feature","geometry":{"type":"Point","coordinates":[4.688326,51.805541]},"properties":{"category":"bus_halte","name":"Halmaheiraplein","operator":""}},{"type":"Feature","geometry":{"type":"Point","coordinates":[4.684579,51.806862]},"properties":{"category":"bus_halte","name":"Ceramstraat","operator":""}},{"type":"Feature","geometry":{"type":"Point","coordinates":[4.685169,51.806561]},"properties":{"category":"bus_halte","name":"Ceramstraat","operator":""}},{"type":"Feature","geometry":{"type":"Point","coordinates":[4.687568,51.8112]},"properties":{"category":"bus_halte","name":"Baden Powelllaan","operator":""}},{"type":"Feature","geometry":{"type":"Point","coordinates":[4.687349,51.811187]},"properties":{"category":"bus_halte","name":"Baden Powelllaan","operator":""}},{"type":"Feature","geometry":{"type":"Point","coordinates":[4.690806,51.80922]},"properties":{"category":"bus_halte","name":"Reigerstraat","operator":""}},{"type":"Feature","geometry":{"type":"Point","coordinates":[4.691058,51.808962]},"properties":{"category":"bus_halte","name":"Reigerstraat","operator":""}},{"type":"Feature","geometry":{"type":"Point","coordinates":[4.697125,51.806388]},"properties":{"category":"bus_halte","name":"Nieuwe Noordpolderweg","operator":""}},{"type":"Feature","geometry":{"type":"Point","coordinates":[4.697161,51.806559]},"properties":{"category":"bus_halte","name":"Nieuwe Noordpolderweg","operator":""}},{"type":"Feature","geometry":{"type":"Point","coordinates":[4.704148,51.800101]},"properties":{"category":"bus_halte","name":"Hastingsweg","operator":""}},{"type":"Feature","geometry":{"type":"Point","coordinates":[4.704503,51.800278]},"properties":{"category":"bus_halte","name":"Hastingsweg","operator":""}},{"type":"Feature","geometry":{"type":"Point","coordinates":[4.706868,51.799378]},"properties":{"category":"bus_halte","name":"Vissersdijk","operator":""}},{"type":"Feature","geometry":{"type":"Point","coordinates":[4.713944,51.797309]},"properties":{"category":"bus_halte","name":"Recklinghausenweg","operator":""}},{"type":"Feature","geometry":{"type":"Point","coordinates":[4.709131,51.7982]},"properties":{"category":"bus_halte","name":"Vissersdijk","operator":""}},{"type":"Feature","geometry":{"type":"Point","coordinates":[4.714623,51.797292]},"properties":{"category":"bus_halte","name":"Recklinghausenweg","operator":""}},{"type":"Feature","geometry":{"type":"Point","coordinates":[4.724198,51.797903]},"properties":{"category":"bus_halte","name":"Pearl Buck-erf","operator":""}},{"type":"Feature","geometry":{"type":"Point","coordinates":[4.703515,51.8046]},"properties":{"category":"bus_halte","name":"Jan Valsterweg","operator":""}},{"type":"Feature","geometry":{"type":"Point","coordinates":[4.703511,51.804713]},"properties":{"category":"bus_halte","name":"Jan Valsterweg","operator":""}},{"type":"Feature","geometry":{"type":"Point","coordinates":[4.711442,51.80317]},"properties":{"category":"bus_halte","name":"Merbau","operator":""}},{"type":"Feature","geometry":{"type":"Point","coordinates":[4.706178,51.807279]},"properties":{"category":"bus_halte","name":"Amazone","operator":""}},{"type":"Feature","geometry":{"type":"Point","coordinates":[4.708456,51.809608]},"properties":{"category":"bus_halte","name":"Iroko","operator":""}},{"type":"Feature","geometry":{"type":"Point","coordinates":[4.713158,51.805729]},"properties":{"category":"bus_halte","name":"Meranti","operator":""}},{"type":"Feature","geometry":{"type":"Point","coordinates":[4.720429,51.803816]},"properties":{"category":"bus_halte","name":"Maaskant-erf","operator":""}},{"type":"Feature","geometry":{"type":"Point","coordinates":[4.713827,51.809852]},"properties":{"category":"bus_halte","name":"Balsa","operator":""}},{"type":"Feature","geometry":{"type":"Point","coordinates":[4.729785,51.797418]},"properties":{"category":"bus_halte","name":"Albert Camus-erf","operator":""}},{"type":"Feature","geometry":{"type":"Point","coordinates":[4.726834,51.804552]},"properties":{"category":"bus_halte","name":"Van Ravesteyn-erf","operator":""}},{"type":"Feature","geometry":{"type":"Point","coordinates":[4.731993,51.800629]},"properties":{"category":"bus_halte","name":"Jean-Paul Sartre-erf","operator":""}},{"type":"Feature","geometry":{"type":"Point","coordinates":[4.730124,51.80331]},"properties":{"category":"bus_halte","name":"Rietveld-erf","operator":""}},{"type":"Feature","geometry":{"type":"Point","coordinates":[4.660007,51.8123]},"properties":{"category":"bus_halte","name":"Stadskantoor","operator":""}},{"type":"Feature","geometry":{"type":"Point","coordinates":[4.661973,51.811375]},"properties":{"category":"bus_halte","name":"Stadskantoor","operator":""}},{"type":"Feature","geometry":{"type":"Point","coordinates":[4.685395,51.813914]},"properties":{"category":"bus_halte","name":"Noordendijk","operator":""}},{"type":"Feature","geometry":{"type":"Point","coordinates":[4.687294,51.815441]},"properties":{"category":"bus_halte","name":"Parklaan","operator":""}},{"type":"Feature","geometry":{"type":"Point","coordinates":[4.6961,51.818416]},"properties":{"category":"bus_halte","name":"Alblasstraat","operator":""}},{"type":"Feature","geometry":{"type":"Point","coordinates":[4.697038,51.818453]},"properties":{"category":"bus_halte","name":"Alblasstraat","operator":""}},{"type":"Feature","geometry":{"type":"Point","coordinates":[4.710405,51.816793]},"properties":{"category":"bus_halte","name":"Kerkeplaat","operator":""}},{"type":"Feature","geometry":{"type":"Point","coordinates":[4.711288,51.815547]},"properties":{"category":"bus_halte","name":"Volkerakweg","operator":""}},{"type":"Feature","geometry":{"type":"Point","coordinates":[4.710659,51.815899]},"properties":{"category":"bus_halte","name":"Volkerakweg","operator":""}},{"type":"Feature","geometry":{"type":"Point","coordinates":[4.70285,51.817059]},"properties":{"category":"bus_halte","name":"Plein 1940-1945","operator":""}},{"type":"Feature","geometry":{"type":"Point","coordinates":[4.704264,51.817208]},"properties":{"category":"bus_halte","name":"Plein 1940-1945","operator":""}},{"type":"Feature","geometry":{"type":"Point","coordinates":[4.708722,51.817098]},"properties":{"category":"bus_halte","name":"Kerkeplaat","operator":""}},{"type":"Feature","geometry":{"type":"Point","coordinates":[4.71766,51.812683]},"properties":{"category":"bus_halte","name":"Zijldiep","operator":""}},{"type":"Feature","geometry":{"type":"Point","coordinates":[4.715098,51.815176]},"properties":{"category":"bus_halte","name":"Rivierenplein","operator":""}},{"type":"Feature","geometry":{"type":"Point","coordinates":[4.72074,51.811832]},"properties":{"category":"bus_halte","name":"Haringvlietstraat","operator":""}},{"type":"Feature","geometry":{"type":"Point","coordinates":[4.720179,51.81445]},"properties":{"category":"bus_halte","name":"Boterdiepstraat","operator":""}},{"type":"Feature","geometry":{"type":"Point","coordinates":[4.700447,51.790771]},"properties":{"category":"bus_halte","name":"Kastanjelaan","operator":""}},{"type":"Feature","geometry":{"type":"Point","coordinates":[4.692283,51.819437]},"properties":{"category":"bus_halte","name":"IJsselstraat","operator":""}},{"type":"Feature","geometry":{"type":"Point","coordinates":[4.682112,51.793984]},"properties":{"category":"bus_halte","name":"Gezondheidspark","operator":""}},{"type":"Feature","geometry":{"type":"Point","coordinates":[4.719556,51.798887]},"properties":{"category":"bus_halte","name":"Selma Lagerlöf-erf","operator":""}},{"type":"Feature","geometry":{"type":"Point","coordinates":[4.697613,51.797899]},"properties":{"category":"bus_halte","name":"Groenekruislaan","operator":""}},{"type":"Feature","geometry":{"type":"Point","coordinates":[4.656059,51.79435]},"properties":{"category":"bus_halte","name":"Karel Doormanweg","operator":""}},{"type":"Feature","geometry":{"type":"Point","coordinates":[4.707765,51.805353]},"properties":{"category":"bus_halte","name":"Palissander","operator":""}},{"type":"Feature","geometry":{"type":"Point","coordinates":[4.664619,51.790678]},"properties":{"category":"bus_halte","name":"Van Oldenbarneveltplein","operator":""}},{"type":"Feature","geometry":{"type":"Point","coordinates":[4.664773,51.790615]},"properties":{"category":"bus_halte","name":"Van Oldenbarneveltplein","operator":""}},{"type":"Feature","geometry":{"type":"Point","coordinates":[4.664295,51.789397]},"properties":{"category":"bus_halte","name":"Henri Polakstraat","operator":""}},{"type":"Feature","geometry":{"type":"Point","coordinates":[4.664459,51.789316]},"properties":{"category":"bus_halte","name":"Henri Polakstraat","operator":""}},{"type":"Feature","geometry":{"type":"Point","coordinates":[4.67026,51.807422]},"properties":{"category":"bus_halte","name":"Centraal Station","operator":""}},{"type":"Feature","geometry":{"type":"Point","coordinates":[4.698688,51.79375]},"properties":{"category":"bus_halte","name":"Dubbelsteynlaan-West","operator":""}},{"type":"Feature","geometry":{"type":"Point","coordinates":[4.697095,51.79522]},"properties":{"category":"bus_halte","name":"Drakensteynlaan","operator":""}},{"type":"Feature","geometry":{"type":"Point","coordinates":[4.70161,51.797186]},"properties":{"category":"bus_halte","name":"Nijhofflaan","operator":""}},{"type":"Feature","geometry":{"type":"Point","coordinates":[4.706486,51.796574]},"properties":{"category":"bus_halte","name":"Rechte Zandweg","operator":""}},{"type":"Feature","geometry":{"type":"Point","coordinates":[4.708652,51.793912]},"properties":{"category":"bus_halte","name":"Prunuslaan","operator":""}},{"type":"Feature","geometry":{"type":"Point","coordinates":[4.681778,51.803224]},"properties":{"category":"bus_halte","name":"Eemsteynplein","operator":""}},{"type":"Feature","geometry":{"type":"Point","coordinates":[4.670043,51.807477]},"properties":{"category":"bus_halte","name":"Centraal Station","operator":""}},{"type":"Feature","geometry":{"type":"Point","coordinates":[4.66784,51.810129]},"properties":{"category":"bus_halte","name":"Centrum","operator":""}},{"type":"Feature","geometry":{"type":"Point","coordinates":[4.709731,51.791534]},"properties":{"category":"bus_halte","name":"Lindelaan","operator":""}},{"type":"Feature","geometry":{"type":"Point","coordinates":[4.705579,51.7909]},"properties":{"category":"bus_halte","name":"Elzenlaan","operator":""}},{"type":"Feature","geometry":{"type":"Point","coordinates":[4.679883,51.801016]},"properties":{"category":"bus_halte","name":"Professor Waterinklaan","operator":""}},{"type":"Feature","geometry":{"type":"Point","coordinates":[4.680193,51.801352]},"properties":{"category":"bus_halte","name":"Professor Waterinklaan","operator":""}},{"type":"Feature","geometry":{"type":"Point","coordinates":[4.681858,51.803629]},"properties":{"category":"bus_halte","name":"Eemsteynplein","operator":""}},{"type":"Feature","geometry":{"type":"Point","coordinates":[4.675085,51.774805]},"properties":{"category":"bus_halte","name":"Slangenburg","operator":""}},{"type":"Feature","geometry":{"type":"Point","coordinates":[4.670819,51.80739]},"properties":{"category":"bus_halte","name":"Centraal Station","operator":""}},{"type":"Feature","geometry":{"type":"Point","coordinates":[4.669436,51.807513]},"properties":{"category":"bus_halte","name":"Centraal Station","operator":""}},{"type":"Feature","geometry":{"type":"Point","coordinates":[4.639541,51.772368]},"properties":{"category":"bus_halte","name":"Kiltunnel","operator":""}},{"type":"Feature","geometry":{"type":"Point","coordinates":[4.639887,51.772863]},"properties":{"category":"bus_halte","name":"Kiltunnel","operator":""}},{"type":"Feature","geometry":{"type":"Point","coordinates":[4.629742,51.784593]},"properties":{"category":"bus_halte","name":"Wieldrecht","operator":""}},{"type":"Feature","geometry":{"type":"Point","coordinates":[4.629437,51.784475]},"properties":{"category":"bus_halte","name":"Wieldrecht","operator":""}},{"type":"Feature","geometry":{"type":"Point","coordinates":[4.638528,51.784897]},"properties":{"category":"bus_halte","name":"Wieldrechtseweg","operator":""}},{"type":"Feature","geometry":{"type":"Point","coordinates":[4.638951,51.784801]},"properties":{"category":"bus_halte","name":"Wieldrechtseweg","operator":""}},{"type":"Feature","geometry":{"type":"Point","coordinates":[4.63185,51.76786]},"properties":{"category":"bus_halte","name":"Opaal","operator":""}},{"type":"Feature","geometry":{"type":"Point","coordinates":[4.631609,51.764738]},"properties":{"category":"bus_halte","name":"Jade","operator":""}},{"type":"Feature","geometry":{"type":"Point","coordinates":[4.633798,51.763335]},"properties":{"category":"bus_halte","name":"Saffier","operator":""}},{"type":"Feature","geometry":{"type":"Point","coordinates":[4.637167,51.763599]},"properties":{"category":"bus_halte","name":"Amethist","operator":""}},{"type":"Feature","geometry":{"type":"Point","coordinates":[4.642039,51.779718]},"properties":{"category":"bus_halte","name":"Drechtwerk/Kamerlingh Onnesweg","operator":""}},{"type":"Feature","geometry":{"type":"Point","coordinates":[4.640415,51.780057]},"properties":{"category":"bus_halte","name":"Drechtwerk/Kamerlingh Onnesweg","operator":""}},{"type":"Feature","geometry":{"type":"Point","coordinates":[4.634256,51.769161]},"properties":{"category":"bus_halte","name":"Malachiet","operator":""}},{"type":"Feature","geometry":{"type":"Point","coordinates":[4.652606,51.775425]},"properties":{"category":"bus_halte","name":"Laan van Europa","operator":""}},{"type":"Feature","geometry":{"type":"Point","coordinates":[4.667451,51.812886]},"properties":{"category":"bus_halte","name":"Sarisgang","operator":""}},{"type":"Feature","geometry":{"type":"Point","coordinates":[4.653716,51.805443]},"properties":{"category":"bus_halte","name":"Oud-Krispijn","operator":""}},{"type":"Feature","geometry":{"type":"Point","coordinates":[4.654438,51.805335]},"properties":{"category":"bus_halte","name":"Oud-Krispijn","operator":""}},{"type":"Feature","geometry":{"type":"Point","coordinates":[4.671888,51.819646]},"properties":{"category":"bus_halte","name":"Bolwerk","operator":""}},{"type":"Feature","geometry":{"type":"Point","coordinates":[4.674721,51.819348]},"properties":{"category":"bus_halte","name":"Waterbus Merwekade","operator":""}},{"type":"Feature","geometry":{"type":"Point","coordinates":[4.637863,51.768777]},"properties":{"category":"bus_halte","name":"Olivijn","operator":""}},{"type":"Feature","geometry":{"type":"Point","coordinates":[4.638109,51.768315]},"properties":{"category":"bus_halte","name":"Olivijn","operator":""}},{"type":"Feature","geometry":{"type":"Point","coordinates":[4.642133,51.769567]},"properties":{"category":"bus_halte","name":"Robijn","operator":""}},{"type":"Feature","geometry":{"type":"Point","coordinates":[4.641767,51.769416]},"properties":{"category":"bus_halte","name":"Robijn","operator":""}},{"type":"Feature","geometry":{"type":"Point","coordinates":[4.6445,51.775487]},"properties":{"category":"bus_halte","name":"Rijksstraatweg","operator":""}},{"type":"Feature","geometry":{"type":"Point","coordinates":[4.644008,51.776171]},"properties":{"category":"bus_halte","name":"Rijksstraatweg","operator":""}},{"type":"Feature","geometry":{"type":"Point","coordinates":[4.644081,51.779392]},"properties":{"category":"bus_halte","name":"Calandstraat","operator":""}},{"type":"Feature","geometry":{"type":"Point","coordinates":[4.637152,51.780102]},"properties":{"category":"bus_halte","name":"Einsteinstraat","operator":""}},{"type":"Feature","geometry":{"type":"Point","coordinates":[4.637393,51.779861]},"properties":{"category":"bus_halte","name":"Einsteinstraat","operator":""}},{"type":"Feature","geometry":{"type":"Point","coordinates":[4.632716,51.780205]},"properties":{"category":"bus_halte","name":"Wieldrechtse Zeedijk","operator":""}},{"type":"Feature","geometry":{"type":"Point","coordinates":[4.632703,51.779971]},"properties":{"category":"bus_halte","name":"Wieldrechtse Zeedijk","operator":""}},{"type":"Feature","geometry":{"type":"Point","coordinates":[4.628382,51.792433]},"properties":{"category":"bus_halte","name":"Donker Duyvisweg","operator":""}},{"type":"Feature","geometry":{"type":"Point","coordinates":[4.628361,51.791767]},"properties":{"category":"bus_halte","name":"Donker Duyvisweg","operator":""}},{"type":"Feature","geometry":{"type":"Point","coordinates":[4.626157,51.795513]},"properties":{"category":"bus_halte","name":"J.C. Redeléstraat","operator":""}},{"type":"Feature","geometry":{"type":"Point","coordinates":[4.628073,51.796482]},"properties":{"category":"bus_halte","name":"Jacobus Lipsweg","operator":""}},{"type":"Feature","geometry":{"type":"Point","coordinates":[4.647186,51.790697]},"properties":{"category":"bus_halte","name":"Kilkade","operator":""}},{"type":"Feature","geometry":{"type":"Point","coordinates":[4.647709,51.79176]},"properties":{"category":"bus_halte","name":"Kilkade","operator":""}},{"type":"Feature","geometry":{"type":"Point","coordinates":[4.648346,51.797419]},"properties":{"category":"bus_halte","name":"Van Leeuwenhoekweg","operator":""}},{"type":"Feature","geometry":{"type":"Point","coordinates":[4.648112,51.797254]},"properties":{"category":"bus_halte","name":"Van Leeuwenhoekweg","operator":""}},{"type":"Feature","geometry":{"type":"Point","coordinates":[4.647619,51.801976]},"properties":{"category":"bus_halte","name":"Eerste Tolstraat","operator":""}},{"type":"Feature","geometry":{"type":"Point","coordinates":[4.650225,51.807289]},"properties":{"category":"bus_halte","name":"Laan der Verenigde Naties","operator":""}},{"type":"Feature","geometry":{"type":"Point","coordinates":[4.650772,51.807332]},"properties":{"category":"bus_halte","name":"Laan der Verenigde Naties","operator":""}},{"type":"Feature","geometry":{"type":"Point","coordinates":[4.654372,51.810579]},"properties":{"category":"bus_halte","name":"Maasplaza","operator":""}},{"type":"Feature","geometry":{"type":"Point","coordinates":[4.660784,51.812095]},"properties":{"category":"bus_halte","name":"Stadskantoor","operator":""}},{"type":"Feature","geometry":{"type":"Point","coordinates":[4.665354,51.814569]},"properties":{"category":"bus_halte","name":"Visbrug","operator":""}},{"type":"Feature","geometry":{"type":"Point","coordinates":[4.667057,51.81526]},"properties":{"category":"bus_halte","name":"Scheffersplein","operator":""}},{"type":"Feature","geometry":{"type":"Point","coordinates":[4.668082,51.816816]},"properties":{"category":"bus_halte","name":"Nieuwbrug","operator":""}},{"type":"Feature","geometry":{"type":"Point","coordinates":[4.669106,51.818665]},"properties":{"category":"bus_halte","name":"Mattensteiger","operator":""}},{"type":"Feature","geometry":{"type":"Point","coordinates":[4.670416,51.819386]},"properties":{"category":"bus_halte","name":"Groothoofd","operator":""}},{"type":"Feature","geometry":{"type":"Point","coordinates":[4.674163,51.817075]},"properties":{"category":"bus_halte","name":"Kromhout","operator":""}},{"type":"Feature","geometry":{"type":"Point","coordinates":[4.654607,51.799009]},"properties":{"category":"bus_halte","name":"Willy Martensstraat","operator":""}},{"type":"Feature","geometry":{"type":"Point","coordinates":[4.654766,51.798757]},"properties":{"category":"bus_halte","name":"Willy Martensstraat","operator":""}},{"type":"Feature","geometry":{"type":"Point","coordinates":[4.707981,51.805413]},"properties":{"category":"bus_halte","name":"Palissander","operator":""}},{"type":"Feature","geometry":{"type":"Point","coordinates":[4.70634,51.807284]},"properties":{"category":"bus_halte","name":"Amazone","operator":""}},{"type":"Feature","geometry":{"type":"Point","coordinates":[4.708616,51.809658]},"properties":{"category":"bus_halte","name":"Iroko","operator":""}},{"type":"Feature","geometry":{"type":"Point","coordinates":[4.713633,51.809743]},"properties":{"category":"bus_halte","name":"Balsa","operator":""}},{"type":"Feature","geometry":{"type":"Point","coordinates":[4.7129,51.805663]},"properties":{"category":"bus_halte","name":"Meranti","operator":""}},{"type":"Feature","geometry":{"type":"Point","coordinates":[4.711245,51.803181]},"properties":{"category":"bus_halte","name":"Merbau","operator":""}},{"type":"Feature","geometry":{"type":"Point","coordinates":[4.688553,51.818459]},"properties":{"category":"bus_halte","name":"Maasstraat","operator":""}},{"type":"Feature","geometry":{"type":"Point","coordinates":[4.720647,51.798702]},"properties":{"category":"bus_halte","name":"Selma Lagerlöf-erf","operator":""}},{"type":"Feature","geometry":{"type":"Point","coordinates":[4.724209,51.797693]},"properties":{"category":"bus_halte","name":"Pearl Buck-erf","operator":""}},{"type":"Feature","geometry":{"type":"Point","coordinates":[4.730403,51.797761]},"properties":{"category":"bus_halte","name":"Albert Camus-erf","operator":""}},{"type":"Feature","geometry":{"type":"Point","coordinates":[4.732348,51.800822]},"properties":{"category":"bus_halte","name":"Jean-Paul Sartre-erf","operator":""}},{"type":"Feature","geometry":{"type":"Point","coordinates":[4.729616,51.804057]},"properties":{"category":"bus_halte","name":"Rietveld-erf","operator":""}},{"type":"Feature","geometry":{"type":"Point","coordinates":[4.725452,51.804967]},"properties":{"category":"bus_halte","name":"Van Ravesteyn-erf","operator":""}},{"type":"Feature","geometry":{"type":"Point","coordinates":[4.720237,51.803846]},"properties":{"category":"bus_halte","name":"Maaskant-erf","operator":""}},{"type":"Feature","geometry":{"type":"Point","coordinates":[4.716258,51.802419]},"properties":{"category":"bus_halte","name":"Station Stadspolders","operator":""}},{"type":"Feature","geometry":{"type":"Point","coordinates":[4.71706,51.80245]},"properties":{"category":"bus_halte","name":"Station Stadspolders","operator":""}},{"type":"Feature","geometry":{"type":"Point","coordinates":[4.71498,51.81509]},"properties":{"category":"bus_halte","name":"Rivierenplein","operator":""}},{"type":"Feature","geometry":{"type":"Point","coordinates":[4.657605,51.790458]},"properties":{"category":"bus_halte","name":"Abel Tasmanstraat","operator":""}},{"type":"Feature","geometry":{"type":"Point","coordinates":[4.657267,51.790572]},"properties":{"category":"bus_halte","name":"Abel Tasmanstraat","operator":""}},{"type":"Feature","geometry":{"type":"Point","coordinates":[4.662005,51.79015]},"properties":{"category":"bus_halte","name":"De Savornin Lohmanweg","operator":""}},{"type":"Feature","geometry":{"type":"Point","coordinates":[4.661823,51.790267]},"properties":{"category":"bus_halte","name":"De Savornin Lohmanweg","operator":""}},{"type":"Feature","geometry":{"type":"Point","coordinates":[4.662989,51.792373]},"properties":{"category":"bus_halte","name":"Talmaweg","operator":""}},{"type":"Feature","geometry":{"type":"Point","coordinates":[4.651952,51.809565]},"properties":{"category":"bus_halte","name":"P+R Weeskinderendijk","operator":""}},{"type":"Feature","geometry":{"type":"Point","coordinates":[4.651441,51.809478]},"properties":{"category":"bus_halte","name":"P+R Weeskinderendijk","operator":""}},{"type":"Feature","geometry":{"type":"Point","coordinates":[4.679257,51.815406]},"properties":{"category":"bus_halte","name":"P+R Energiehuis/Noordendijk","operator":""}},{"type":"Feature","geometry":{"type":"Point","coordinates":[4.655974,51.79084]},"properties":{"category":"bus_halte","name":"Admiraalsplein-Oost","operator":""}},{"type":"Feature","geometry":{"type":"Point","coordinates":[4.653366,51.789924]},"properties":{"category":"bus_halte","name":"Van Kinsbergenstraat","operator":""}},{"type":"Feature","geometry":{"type":"Point","coordinates":[4.662809,51.792344]},"properties":{"category":"bus_halte","name":"Talmaweg","operator":""}},{"type":"Feature","geometry":{"type":"Point","coordinates":[4.656106,51.790719]},"properties":{"category":"bus_halte","name":"Admiraalsplein-Oost","operator":""}},{"type":"Feature","geometry":{"type":"Point","coordinates":[4.72047,51.815636]},"properties":{"category":"bus_halte","name":"","operator":""}},{"type":"Feature","geometry":{"type":"Point","coordinates":[4.668345,51.812102]},"properties":{"category":"bus_halte","name":"","operator":""}},{"type":"Feature","geometry":{"type":"Point","coordinates":[4.720293,51.808967]},"properties":{"category":"ov_knooppunt","name":"De Heen en weer Weerwolf","operator":"NIVON"}},{"type":"Feature","geometry":{"type":"Point","coordinates":[4.669385,51.807534]},"properties":{"category":"ov_knooppunt","name":"Centraal Station","operator":""}},{"type":"Feature","geometry":{"type":"Point","coordinates":[4.763352,51.806941]},"properties":{"category":"ov_knooppunt","name":"","operator":""}},{"type":"Feature","geometry":{"type":"Point","coordinates":[4.718755,51.808226]},"properties":{"category":"ov_knooppunt","name":"De Heen en weer Weerwolf","operator":"NIVON"}},{"type":"Feature","geometry":{"type":"Point","coordinates":[4.667748,51.807532]},"properties":{"category":"ov_knooppunt","name":"Dordrecht","operator":"Nederlandse Spoorwegen"}},{"type":"Feature","geometry":{"type":"Point","coordinates":[4.762859,51.806491]},"properties":{"category":"ov_knooppunt","name":"","operator":""}},{"type":"Feature","geometry":{"type":"Point","coordinates":[4.671574,51.79017]},"properties":{"category":"ov_knooppunt","name":"Dordrecht Zuid","operator":""}},{"type":"Feature","geometry":{"type":"Point","coordinates":[4.716209,51.801972]},"properties":{"category":"ov_knooppunt","name":"Dordrecht Stadspolders","operator":"Qbuzz"}},{"type":"Feature","geometry":{"type":"Point","coordinates":[4.66149,51.81195]},"properties":{"category":"gemeentehuis","name":"Stadskantoor Dordrecht","operator":"Gemeente Dordrecht"}},{"type":"Feature","geometry":{"type":"Point","coordinates":[4.66436,51.813944]},"properties":{"category":"gemeentehuis","name":"Stadhuis","operator":"Gemeente Dordrecht"}},{"type":"Feature","geometry":{"type":"Point","coordinates":[4.718723,51.816546]},"properties":{"category":"inzamelpunt","name":"Milieustraat","operator":""}},{"type":"Feature","geometry":{"type":"Point","coordinates":[4.763182,51.807691]},"properties":{"category":"inzamelpunt","name":"","operator":""}},{"type":"Feature","geometry":{"type":"Point","coordinates":[4.687335,51.815718]},"properties":{"category":"inzamelpunt","name":"","operator":""}},{"type":"Feature","geometry":{"type":"Point","coordinates":[4.662941,51.790013]},"properties":{"category":"bibliotheek","name":"Bibliotheek Dordrecht Crabbehof","operator":"Bibliotheek AanZet"}},{"type":"Feature","geometry":{"type":"Point","coordinates":[4.719024,51.802525]},"properties":{"category":"bibliotheek","name":"Bibliotheek Dordrecht Stadspolders","operator":"Bibliotheek AanZet"}},{"type":"Feature","geometry":{"type":"Point","coordinates":[4.664884,51.814475]},"properties":{"category":"bibliotheek","name":"Bibliotheek Dordrecht Centrum","operator":"Bibliotheek AanZet"}},{"type":"Feature","geometry":{"type":"Point","coordinates":[4.69848,51.792976]},"properties":{"category":"bibliotheek","name":"Bibliotheek Dordrecht Dubbeldam","operator":"Bibliotheek AanZet"}},{"type":"Feature","geometry":{"type":"Point","coordinates":[4.677885,51.78522]},"properties":{"category":"bibliotheek","name":"Bibliotheek Dordrecht Sterrenburg","operator":"Bibliotheek AanZet"}},{"type":"Feature","geometry":{"type":"Point","coordinates":[4.680169,51.791506]},"properties":{"category":"ziekenhuis","name":"DG&J-ZHZ","operator":""}},{"type":"Feature","geometry":{"type":"Point","coordinates":[4.682278,51.79209]},"properties":{"category":"ziekenhuis","name":"Albert Schweitzer Ziekenhuis, loc. Dordwijk","operator":"Albert Schweitzer Ziekenhuis"}},{"type":"Feature","geometry":{"type":"Point","coordinates":[4.749201,51.81341]},"properties":{"category":"transformatorhuisje","name":"","operator":""}},{"type":"Feature","geometry":{"type":"Point","coordinates":[4.748869,51.814383]},"properties":{"category":"transformatorhuisje","name":"","operator":""}},{"type":"Feature","geometry":{"type":"Point","coordinates":[4.748726,51.814767]},"properties":{"category":"transformatorhuisje","name":"","operator":""}},{"type":"Feature","geometry":{"type":"Point","coordinates":[4.712771,51.817479]},"properties":{"category":"transformatorhuisje","name":"","operator":"Stedin"}},{"type":"Feature","geometry":{"type":"Point","coordinates":[4.712621,51.817483]},"properties":{"category":"transformatorhuisje","name":"","operator":"Stedin"}},{"type":"Feature","geometry":{"type":"Point","coordinates":[4.664953,51.792893]},"properties":{"category":"transformatorhuisje","name":"","operator":""}},{"type":"Feature","geometry":{"type":"Point","coordinates":[4.667721,51.793473]},"properties":{"category":"transformatorhuisje","name":"","operator":""}},{"type":"Feature","geometry":{"type":"Point","coordinates":[4.661795,51.800093]},"properties":{"category":"transformatorhuisje","name":"","operator":""}},{"type":"Feature","geometry":{"type":"Point","coordinates":[4.663736,51.814976]},"properties":{"category":"transformatorhuisje","name":"","operator":""}},{"type":"Feature","geometry":{"type":"Point","coordinates":[4.803558,51.81468]},"properties":{"category":"transformatorhuisje","name":"","operator":"Gemeentelijk Energie Bedrijf Dordrecht"}},{"type":"Feature","geometry":{"type":"Point","coordinates":[4.712187,51.817489]},"properties":{"category":"transformatorhuisje","name":"","operator":"Stedin"}},{"type":"Feature","geometry":{"type":"Point","coordinates":[4.684612,51.814265]},"properties":{"category":"transformatorhuisje","name":"","operator":""}},{"type":"Feature","geometry":{"type":"Point","coordinates":[4.675956,51.806306]},"properties":{"category":"transformatorhuisje","name":"","operator":""}},{"type":"Feature","geometry":{"type":"Point","coordinates":[4.730161,51.816674]},"properties":{"category":"transformatorhuisje","name":"","operator":""}},{"type":"Feature","geometry":{"type":"Point","coordinates":[4.730136,51.8166]},"properties":{"category":"transformatorhuisje","name":"","operator":""}},{"type":"Feature","geometry":{"type":"Point","coordinates":[4.742196,51.817815]},"properties":{"category":"transformatorhuisje","name":"","operator":""}},{"type":"Feature","geometry":{"type":"Point","coordinates":[4.630944,51.732022]},"properties":{"category":"transformatorhuisje","name":"107.090.436","operator":"Stedin"}},{"type":"Feature","geometry":{"type":"Point","coordinates":[4.638261,51.749969]},"properties":{"category":"transformatorhuisje","name":"107.090.645","operator":"Stedin"}},{"type":"Feature","geometry":{"type":"Point","coordinates":[4.63673,51.753863]},"properties":{"category":"transformatorhuisje","name":"","operator":"Stedin"}},{"type":"Feature","geometry":{"type":"Point","coordinates":[4.661317,51.774337]},"properties":{"category":"transformatorhuisje","name":"","operator":"Stedin"}},{"type":"Feature","geometry":{"type":"Point","coordinates":[4.690796,51.808267]},"properties":{"category":"transformatorhuisje","name":"90-243","operator":"Stedin"}},{"type":"Feature","geometry":{"type":"Point","coordinates":[4.628316,51.726627]},"properties":{"category":"transformatorhuisje","name":"107.090.752","operator":"Stedin"}},{"type":"Feature","geometry":{"type":"Point","coordinates":[4.635895,51.743926]},"properties":{"category":"transformatorhuisje","name":"107.090.402","operator":"Stedin"}},{"type":"Feature","geometry":{"type":"Point","coordinates":[4.659026,51.796144]},"properties":{"category":"transformatorhuisje","name":"","operator":"Stedin"}},{"type":"Feature","geometry":{"type":"Point","coordinates":[4.684483,51.814315]},"properties":{"category":"transformatorhuisje","name":"50 kV Oranjelaan","operator":"Stedin"}},{"type":"Feature","geometry":{"type":"Point","coordinates":[4.708398,51.817555]},"properties":{"category":"transformatorhuisje","name":"50 kV Merwedehaven","operator":"Stedin"}},{"type":"Feature","geometry":{"type":"Point","coordinates":[4.654087,51.772024]},"properties":{"category":"transformatorhuisje","name":"","operator":"Stedin"}},{"type":"Feature","geometry":{"type":"Point","coordinates":[4.654122,51.772012]},"properties":{"category":"transformatorhuisje","name":"","operator":"Stedin"}},{"type":"Feature","geometry":{"type":"Point","coordinates":[4.654158,51.772]},"properties":{"category":"transformatorhuisje","name":"","operator":"Stedin"}},{"type":"Feature","geometry":{"type":"Point","coordinates":[4.629382,51.728042]},"properties":{"category":"transformatorhuisje","name":"107.090.830","operator":"Stedin"}},{"type":"Feature","geometry":{"type":"Point","coordinates":[4.639696,51.783767]},"properties":{"category":"transformatorhuisje","name":"50 kV Dordtse Kil","operator":"Stedin"}},{"type":"Feature","geometry":{"type":"Point","coordinates":[4.633512,51.721847]},"properties":{"category":"transformatorhuisje","name":"107.090.003","operator":"Stedin"}},{"type":"Feature","geometry":{"type":"Point","coordinates":[4.632005,51.734261]},"properties":{"category":"transformatorhuisje","name":"","operator":"Stedin"}},{"type":"Feature","geometry":{"type":"Point","coordinates":[4.632841,51.734522]},"properties":{"category":"transformatorhuisje","name":"","operator":"Stedin"}},{"type":"Feature","geometry":{"type":"Point","coordinates":[4.655529,51.793101]},"properties":{"category":"transformatorhuisje","name":"","operator":"HVC"}},{"type":"Feature","geometry":{"type":"Point","coordinates":[4.666288,51.811776]},"properties":{"category":"universiteit","name":"HBO Drechtsteden","operator":""}},{"type":"Feature","geometry":{"type":"Point","coordinates":[4.679158,51.797127]},"properties":{"category":"universiteit","name":"Dordrecht Academy","operator":""}},{"type":"Feature","geometry":{"type":"Point","coordinates":[4.67942,51.797861]},"properties":{"category":"hogeschool","name":"ROC Da Vinci College","operator":""}},{"type":"Feature","geometry":{"type":"Point","coordinates":[4.703576,51.805448]},"properties":{"category":"hogeschool","name":"Yuverta mbo","operator":"Yuverta"}},{"type":"Feature","geometry":{"type":"Point","coordinates":[4.66615,51.797708]},"properties":{"category":"hogeschool","name":"Da Vinci College Patersweg","operator":""}},{"type":"Feature","geometry":{"type":"Point","coordinates":[4.679696,51.797463]},"properties":{"category":"hogeschool","name":"De Duurzaamheidsfabriek","operator":""}},{"type":"Feature","geometry":{"type":"Point","coordinates":[4.651122,51.786795]},"properties":{"category":"hogeschool","name":"Bouw- en Inframensen ZHZ","operator":""}},{"type":"Feature","geometry":{"type":"Point","coordinates":[4.676262,51.79041]},"properties":{"category":"middelbare_school","name":"Stedelijk Dalton Lyceum","operator":""}},{"type":"Feature","geometry":{"type":"Point","coordinates":[4.70579,51.804628]},"properties":{"category":"middelbare_school","name":"Yuverta vmbo","operator":"Yuverta"}},{"type":"Feature","geometry":{"type":"Point","coordinates":[4.689222,51.805821]},"properties":{"category":"middelbare_school","name":"Insula College","operator":"H3O"}},{"type":"Feature","geometry":{"type":"Point","coordinates":[4.681802,51.798631]},"properties":{"category":"middelbare_school","name":"Stedelijk Dalton Lyceum","operator":""}},{"type":"Feature","geometry":{"type":"Point","coordinates":[4.685709,51.791031]},"properties":{"category":"middelbare_school","name":"Stedelijk Dalton Lyceum","operator":""}},{"type":"Feature","geometry":{"type":"Point","coordinates":[4.669806,51.783188]},"properties":{"category":"middelbare_school","name":"Stedelijk Dalton Lyceum","operator":""}},{"type":"Feature","geometry":{"type":"Point","coordinates":[4.694378,51.79767]},"properties":{"category":"middelbare_school","name":"Insula College","operator":"H3O"}},{"type":"Feature","geometry":{"type":"Point","coordinates":[4.657869,51.794443]},"properties":{"category":"middelbare_school","name":"Drechtster College","operator":"Yulius"}},{"type":"Feature","geometry":{"type":"Point","coordinates":[4.681673,51.79834]},"properties":{"category":"middelbare_school","name":"Insula College","operator":"H3O"}},{"type":"Feature","geometry":{"type":"Point","coordinates":[4.706014,51.804811]},"properties":{"category":"middelbare_school","name":"Yuverta mavo","operator":"Yuverta"}},{"type":"Feature","geometry":{"type":"Point","coordinates":[4.654053,51.784612]},"properties":{"category":"middelbare_school","name":"De Stroom","operator":"SPON"}},{"type":"Feature","geometry":{"type":"Point","coordinates":[4.6793,51.801366]},"properties":{"category":"middelbare_school","name":"Marnix","operator":"Driestar-Wartburg"}},{"type":"Feature","geometry":{"type":"Point","coordinates":[4.689885,51.802362]},"properties":{"category":"sportveld","name":"M-Scores Stadion","operator":""}},{"type":"Feature","geometry":{"type":"Point","coordinates":[4.699827,51.808429]},"properties":{"category":"sportveld","name":"","operator":""}},{"type":"Feature","geometry":{"type":"Point","coordinates":[4.707858,51.792428]},"properties":{"category":"sportveld","name":"Sportpark Gravensingel","operator":""}},{"type":"Feature","geometry":{"type":"Point","coordinates":[4.696424,51.805798]},"properties":{"category":"sportveld","name":"Reeweghal","operator":""}},{"type":"Feature","geometry":{"type":"Point","coordinates":[4.6784,51.798937]},"properties":{"category":"sportveld","name":"Sport+","operator":""}},{"type":"Feature","geometry":{"type":"Point","coordinates":[4.665299,51.78644]},"properties":{"category":"sportveld","name":"RetZef","operator":""}},{"type":"Feature","geometry":{"type":"Point","coordinates":[4.69376,51.77795]},"properties":{"category":"sportveld","name":"Sporthal De Dijk","operator":""}},{"type":"Feature","geometry":{"type":"Point","coordinates":[4.658656,51.797201]},"properties":{"category":"sportveld","name":"Sportpark Patersweg","operator":""}},{"type":"Feature","geometry":{"type":"Point","coordinates":[4.69551,51.816246]},"properties":{"category":"sportveld","name":"Koninklijke Dordrechtsche Roei- & Zeil-Vereeniging","operator":""}},{"type":"Feature","geometry":{"type":"Point","coordinates":[4.693528,51.815457]},"properties":{"category":"sportveld","name":"Wantijbad","operator":""}},{"type":"Feature","geometry":{"type":"Point","coordinates":[4.696768,51.816076]},"properties":{"category":"sportveld","name":"Scouting Willem de Zwijgergroep III","operator":""}},{"type":"Feature","geometry":{"type":"Point","coordinates":[4.663691,51.772494]},"properties":{"category":"sportveld","name":"Sportcomplex Smitsweg","operator":""}},{"type":"Feature","geometry":{"type":"Point","coordinates":[4.694954,51.805318]},"properties":{"category":"sportveld","name":"Sportpark Reeweg","operator":""}},{"type":"Feature","geometry":{"type":"Point","coordinates":[4.675796,51.798118]},"properties":{"category":"sportveld","name":"","operator":""}},{"type":"Feature","geometry":{"type":"Point","coordinates":[4.689645,51.776313]},"properties":{"category":"sportveld","name":"Tennis- en Padelvereniging C.C.","operator":""}},{"type":"Feature","geometry":{"type":"Point","coordinates":[4.763854,51.807747]},"properties":{"category":"sportveld","name":"Klimbos Dordrecht","operator":"Klimbos Nederland"}},{"type":"Feature","geometry":{"type":"Point","coordinates":[4.765964,51.806869]},"properties":{"category":"sportveld","name":"","operator":""}},{"type":"Feature","geometry":{"type":"Point","coordinates":[4.691996,51.779266]},"properties":{"category":"sportveld","name":"Sportcomplex Schenkeldijk","operator":""}},{"type":"Feature","geometry":{"type":"Point","coordinates":[4.717219,51.803271]},"properties":{"category":"winkelcentrum","name":"Winkelcentrum De Bieshof","operator":""}},{"type":"Feature","geometry":{"type":"Point","coordinates":[4.676622,51.785831]},"properties":{"category":"winkelcentrum","name":"Winkelcentrum Sterrenburg","operator":""}},{"type":"Feature","geometry":{"type":"Point","coordinates":[4.647247,51.793704]},"properties":{"category":"winkelcentrum","name":"Woonboulevard Dordt","operator":""}},{"type":"Feature","geometry":{"type":"Point","coordinates":[4.666281,51.812625]},"properties":{"category":"fietsenstalling","name":"Fietsenstalling Achterom","operator":""}},{"type":"Feature","geometry":{"type":"Point","coordinates":[4.684194,51.790965]},"properties":{"category":"fietsenstalling","name":"Fietsenstalling personeel","operator":""}},{"type":"Feature","geometry":{"type":"Point","coordinates":[4.669733,51.813566]},"properties":{"category":"fietsenstalling","name":"Fietsenstalling Drievriendenhof","operator":""}},{"type":"Feature","geometry":{"type":"Point","coordinates":[4.681077,51.815759]},"properties":{"category":"fietsenstalling","name":"Fietsenstalling Energiehuis","operator":""}},{"type":"Feature","geometry":{"type":"Point","coordinates":[4.656002,51.792244]},"properties":{"category":"fietsenstalling","name":"","operator":""}},{"type":"Feature","geometry":{"type":"Point","coordinates":[4.673093,51.790082]},"properties":{"category":"fietsenstalling","name":"","operator":""}},{"type":"Feature","geometry":{"type":"Point","coordinates":[4.671545,51.79071]},"properties":{"category":"fietsenstalling","name":"","operator":""}},{"type":"Feature","geometry":{"type":"Point","coordinates":[4.717478,51.802001]},"properties":{"category":"fietsenstalling","name":"","operator":""}},{"type":"Feature","geometry":{"type":"Point","coordinates":[4.717232,51.802027]},"properties":{"category":"fietsenstalling","name":"","operator":""}},{"type":"Feature","geometry":{"type":"Point","coordinates":[4.67328,51.808971]},"properties":{"category":"fietsenstalling","name":"","operator":""}},{"type":"Feature","geometry":{"type":"Point","coordinates":[4.668491,51.806652]},"properties":{"category":"fietsenstalling","name":"","operator":""}},{"type":"Feature","geometry":{"type":"Point","coordinates":[4.664937,51.807889]},"properties":{"category":"fietsenstalling","name":"","operator":""}},{"type":"Feature","geometry":{"type":"Point","coordinates":[4.655366,51.810749]},"properties":{"category":"parkeergarage","name":"Maasplaza","operator":""}},{"type":"Feature","geometry":{"type":"Point","coordinates":[4.670505,51.813141]},"properties":{"category":"parkeergarage","name":"Parkeergarage Drievriendenhof","operator":""}},{"type":"Feature","geometry":{"type":"Point","coordinates":[4.66698,51.813671]},"properties":{"category":"parkeergarage","name":"Parkeergarage Visstraat","operator":""}},{"type":"Feature","geometry":{"type":"Point","coordinates":[4.660599,51.811368]},"properties":{"category":"parkeergarage","name":"Spuihaven","operator":""}},{"type":"Feature","geometry":{"type":"Point","coordinates":[4.718936,51.803178]},"properties":{"category":"parkeergarage","name":"","operator":""}},{"type":"Feature","geometry":{"type":"Point","coordinates":[4.672132,51.817112]},"properties":{"category":"parkeergarage","name":"","operator":""}},{"type":"Feature","geometry":{"type":"Point","coordinates":[4.654202,51.808733]},"properties":{"category":"p_and_r","name":"Weeskinderendijk","operator":""}},{"type":"Feature","geometry":{"type":"Point","coordinates":[4.716665,51.802409]},"properties":{"category":"p_and_r","name":"Dordrecht Stadspolders","operator":""}},{"type":"Feature","geometry":{"type":"Point","coordinates":[4.670687,51.806487]},"properties":{"category":"p_and_r","name":"Q-Park P+R Station Dordrecht","operator":"Q-Park"}},{"type":"Feature","geometry":{"type":"Point","coordinates":[4.684021,51.814889]},"properties":{"category":"p_and_r","name":"Energiehuis","operator":""}}]}