{"type":"FeatureCollection","metadata":{"gemeente":"Ede","slug":"ede","by_category":{"bus_halte":254,"fietsenstalling":36,"supermarkt":28,"sportveld":18,"middelbare_school":9,"inzamelpunt":8,"transformatorhuisje":7,"parkeergarage":7,"hogeschool":5,"ns_station":4,"ov_knooppunt":4,"bibliotheek":4,"p_and_r":2,"gemeentehuis":1,"ziekenhuis":1,"universiteit":1,"winkelcentrum":1},"total":390},"features":[{"type":"Feature","geometry":{"type":"Point","coordinates":[5.674114,52.027411]},"properties":{"category":"ns_station","name":"Ede-Wageningen","operator":""}},{"type":"Feature","geometry":{"type":"Point","coordinates":[5.573927,52.045953]},"properties":{"category":"ns_station","name":"Veenendaal-De Klomp","operator":""}},{"type":"Feature","geometry":{"type":"Point","coordinates":[5.624301,52.085119]},"properties":{"category":"ns_station","name":"Lunteren","operator":""}},{"type":"Feature","geometry":{"type":"Point","coordinates":[5.66819,52.043254]},"properties":{"category":"ns_station","name":"Ede Centrum","operator":""}},{"type":"Feature","geometry":{"type":"Point","coordinates":[5.657263,52.046207]},"properties":{"category":"bus_halte","name":"Schaapsweg / Molenstraat","operator":""}},{"type":"Feature","geometry":{"type":"Point","coordinates":[5.630231,52.028067]},"properties":{"category":"bus_halte","name":"Niels Bohrstraat","operator":""}},{"type":"Feature","geometry":{"type":"Point","coordinates":[5.637751,52.026957]},"properties":{"category":"bus_halte","name":"Lumierestraat","operator":""}},{"type":"Feature","geometry":{"type":"Point","coordinates":[5.653652,52.046517]},"properties":{"category":"bus_halte","name":"Proosdijerveldweg","operator":""}},{"type":"Feature","geometry":{"type":"Point","coordinates":[5.666041,52.046526]},"properties":{"category":"bus_halte","name":"Cultura","operator":""}},{"type":"Feature","geometry":{"type":"Point","coordinates":[5.674625,52.046583]},"properties":{"category":"bus_halte","name":"Centrum/Raadhuis","operator":""}},{"type":"Feature","geometry":{"type":"Point","coordinates":[5.671696,52.047428]},"properties":{"category":"bus_halte","name":"Centrum/Grotestraat","operator":""}},{"type":"Feature","geometry":{"type":"Point","coordinates":[5.665123,52.046497]},"properties":{"category":"bus_halte","name":"Piet Heinstraat","operator":""}},{"type":"Feature","geometry":{"type":"Point","coordinates":[5.657541,52.046297]},"properties":{"category":"bus_halte","name":"Schaapsweg / Molenstraat","operator":""}},{"type":"Feature","geometry":{"type":"Point","coordinates":[5.647304,52.045746]},"properties":{"category":"bus_halte","name":"Kranenburg","operator":""}},{"type":"Feature","geometry":{"type":"Point","coordinates":[5.645567,52.046971]},"properties":{"category":"bus_halte","name":"Hoekenburg","operator":""}},{"type":"Feature","geometry":{"type":"Point","coordinates":[5.641836,52.046018]},"properties":{"category":"bus_halte","name":"Hogerhorst","operator":"Hermes"}},{"type":"Feature","geometry":{"type":"Point","coordinates":[5.635942,52.045141]},"properties":{"category":"bus_halte","name":"Binnenhof","operator":""}},{"type":"Feature","geometry":{"type":"Point","coordinates":[5.634445,52.04413]},"properties":{"category":"bus_halte","name":"Nienhof","operator":""}},{"type":"Feature","geometry":{"type":"Point","coordinates":[5.629749,52.04277]},"properties":{"category":"bus_halte","name":"Aalbeek","operator":""}},{"type":"Feature","geometry":{"type":"Point","coordinates":[5.63081,52.040486]},"properties":{"category":"bus_halte","name":"Middelbeek","operator":""}},{"type":"Feature","geometry":{"type":"Point","coordinates":[5.670971,52.000492]},"properties":{"category":"bus_halte","name":"Molenstraat","operator":""}},{"type":"Feature","geometry":{"type":"Point","coordinates":[5.67082,52.000633]},"properties":{"category":"bus_halte","name":"Molenstraat","operator":""}},{"type":"Feature","geometry":{"type":"Point","coordinates":[5.672958,52.01115]},"properties":{"category":"bus_halte","name":"Hoekelumse Brinkweg","operator":""}},{"type":"Feature","geometry":{"type":"Point","coordinates":[5.672335,52.021211]},"properties":{"category":"bus_halte","name":"Horalaan","operator":""}},{"type":"Feature","geometry":{"type":"Point","coordinates":[5.672072,52.020994]},"properties":{"category":"bus_halte","name":"Horalaan","operator":""}},{"type":"Feature","geometry":{"type":"Point","coordinates":[5.641423,52.016798]},"properties":{"category":"bus_halte","name":"Ben Goerionsingel","operator":""}},{"type":"Feature","geometry":{"type":"Point","coordinates":[5.634731,52.022326]},"properties":{"category":"bus_halte","name":"Coornhertstate","operator":""}},{"type":"Feature","geometry":{"type":"Point","coordinates":[5.637387,52.023429]},"properties":{"category":"bus_halte","name":"Professor Oudpark","operator":""}},{"type":"Feature","geometry":{"type":"Point","coordinates":[5.642844,52.023805]},"properties":{"category":"bus_halte","name":"Van Steenbergenweg","operator":""}},{"type":"Feature","geometry":{"type":"Point","coordinates":[5.648453,52.016387]},"properties":{"category":"bus_halte","name":"De Gelderhorst","operator":""}},{"type":"Feature","geometry":{"type":"Point","coordinates":[5.649191,52.016717]},"properties":{"category":"bus_halte","name":"Stadspoort","operator":""}},{"type":"Feature","geometry":{"type":"Point","coordinates":[5.649239,52.016892]},"properties":{"category":"bus_halte","name":"Stadspoort","operator":""}},{"type":"Feature","geometry":{"type":"Point","coordinates":[5.654556,52.016928]},"properties":{"category":"bus_halte","name":"Jan Vermeerstraat","operator":""}},{"type":"Feature","geometry":{"type":"Point","coordinates":[5.654459,52.016834]},"properties":{"category":"bus_halte","name":"Jan Vermeerstraat","operator":""}},{"type":"Feature","geometry":{"type":"Point","coordinates":[5.659057,52.018264]},"properties":{"category":"bus_halte","name":"Moreelsestraat","operator":""}},{"type":"Feature","geometry":{"type":"Point","coordinates":[5.658807,52.018312]},"properties":{"category":"bus_halte","name":"Moreelsestraat","operator":""}},{"type":"Feature","geometry":{"type":"Point","coordinates":[5.664454,52.019032]},"properties":{"category":"bus_halte","name":"Kenniscampus","operator":""}},{"type":"Feature","geometry":{"type":"Point","coordinates":[5.664796,52.019181]},"properties":{"category":"bus_halte","name":"Kenniscampus","operator":""}},{"type":"Feature","geometry":{"type":"Point","coordinates":[5.647278,52.023262]},"properties":{"category":"bus_halte","name":"Ziekenhuis Gelderse Vallei","operator":""}},{"type":"Feature","geometry":{"type":"Point","coordinates":[5.629861,52.041584]},"properties":{"category":"bus_halte","name":"Schoutenhof","operator":""}},{"type":"Feature","geometry":{"type":"Point","coordinates":[5.632902,52.040223]},"properties":{"category":"bus_halte","name":"Middelbeek","operator":""}},{"type":"Feature","geometry":{"type":"Point","coordinates":[5.637667,52.039217]},"properties":{"category":"bus_halte","name":"Durendaal","operator":""}},{"type":"Feature","geometry":{"type":"Point","coordinates":[5.63965,52.039571]},"properties":{"category":"bus_halte","name":"Durendaal","operator":""}},{"type":"Feature","geometry":{"type":"Point","coordinates":[5.641912,52.040283]},"properties":{"category":"bus_halte","name":"Mariendaal","operator":""}},{"type":"Feature","geometry":{"type":"Point","coordinates":[5.642996,52.040676]},"properties":{"category":"bus_halte","name":"Mariendaal","operator":""}},{"type":"Feature","geometry":{"type":"Point","coordinates":[5.630256,52.042891]},"properties":{"category":"bus_halte","name":"Aalbeek","operator":""}},{"type":"Feature","geometry":{"type":"Point","coordinates":[5.634841,52.044129]},"properties":{"category":"bus_halte","name":"Nienhof","operator":""}},{"type":"Feature","geometry":{"type":"Point","coordinates":[5.636939,52.045301]},"properties":{"category":"bus_halte","name":"Binnenhof","operator":""}},{"type":"Feature","geometry":{"type":"Point","coordinates":[5.641256,52.04576]},"properties":{"category":"bus_halte","name":"Hogerhorst","operator":"Hermes"}},{"type":"Feature","geometry":{"type":"Point","coordinates":[5.645965,52.046966]},"properties":{"category":"bus_halte","name":"Hoekenburg","operator":""}},{"type":"Feature","geometry":{"type":"Point","coordinates":[5.656608,52.041029]},"properties":{"category":"bus_halte","name":"Ganzeweide","operator":"Hermes"}},{"type":"Feature","geometry":{"type":"Point","coordinates":[5.656852,52.041045]},"properties":{"category":"bus_halte","name":"Ganzeweide","operator":"Hermes"}},{"type":"Feature","geometry":{"type":"Point","coordinates":[5.667455,52.041103]},"properties":{"category":"bus_halte","name":"Centrum/Maanderweg","operator":"Hermes"}},{"type":"Feature","geometry":{"type":"Point","coordinates":[5.667436,52.041035]},"properties":{"category":"bus_halte","name":"Centrum/Maanderweg","operator":"Hermes"}},{"type":"Feature","geometry":{"type":"Point","coordinates":[5.647226,52.045448]},"properties":{"category":"bus_halte","name":"Kranenburg","operator":""}},{"type":"Feature","geometry":{"type":"Point","coordinates":[5.653099,52.046082]},"properties":{"category":"bus_halte","name":"Proosdijerveldweg","operator":""}},{"type":"Feature","geometry":{"type":"Point","coordinates":[5.661997,52.04335]},"properties":{"category":"bus_halte","name":"Schaapsweg/Veenderweg","operator":"Hermes"}},{"type":"Feature","geometry":{"type":"Point","coordinates":[5.661669,52.043306]},"properties":{"category":"bus_halte","name":"Schaapsweg/Veenderweg","operator":"Hermes"}},{"type":"Feature","geometry":{"type":"Point","coordinates":[5.668175,52.04378]},"properties":{"category":"bus_halte","name":"Station Ede Centrum","operator":"Hermes"}},{"type":"Feature","geometry":{"type":"Point","coordinates":[5.668074,52.043814]},"properties":{"category":"bus_halte","name":"Station Ede Centrum","operator":"Hermes"}},{"type":"Feature","geometry":{"type":"Point","coordinates":[5.665982,52.045135]},"properties":{"category":"bus_halte","name":"Jadestraat","operator":"Hermes"}},{"type":"Feature","geometry":{"type":"Point","coordinates":[5.666021,52.045043]},"properties":{"category":"bus_halte","name":"Jadestraat","operator":"Hermes"}},{"type":"Feature","geometry":{"type":"Point","coordinates":[5.674281,52.046534]},"properties":{"category":"bus_halte","name":"Centrum/Raadhuis","operator":""}},{"type":"Feature","geometry":{"type":"Point","coordinates":[5.672121,52.047267]},"properties":{"category":"bus_halte","name":"Centrum/Grotestraat","operator":""}},{"type":"Feature","geometry":{"type":"Point","coordinates":[5.639447,52.051865]},"properties":{"category":"bus_halte","name":"Hogewoud","operator":"Hermes"}},{"type":"Feature","geometry":{"type":"Point","coordinates":[5.643599,52.052174]},"properties":{"category":"bus_halte","name":"Stakenberg","operator":"Hermes"}},{"type":"Feature","geometry":{"type":"Point","coordinates":[5.649885,52.049042]},"properties":{"category":"bus_halte","name":"N224/Veldhuizen","operator":"Hermes"}},{"type":"Feature","geometry":{"type":"Point","coordinates":[5.649839,52.051295]},"properties":{"category":"bus_halte","name":"N224/Veldhuizen","operator":"Hermes"}},{"type":"Feature","geometry":{"type":"Point","coordinates":[5.776057,52.088859]},"properties":{"category":"bus_halte","name":"'t Lage Veld","operator":""}},{"type":"Feature","geometry":{"type":"Point","coordinates":[5.775848,52.089063]},"properties":{"category":"bus_halte","name":"'t Lage Veld","operator":""}},{"type":"Feature","geometry":{"type":"Point","coordinates":[5.774084,52.093005]},"properties":{"category":"bus_halte","name":"De Zanding","operator":""}},{"type":"Feature","geometry":{"type":"Point","coordinates":[5.774206,52.093072]},"properties":{"category":"bus_halte","name":"De Zanding","operator":""}},{"type":"Feature","geometry":{"type":"Point","coordinates":[5.772087,52.097915]},"properties":{"category":"bus_halte","name":"Onderlangs","operator":""}},{"type":"Feature","geometry":{"type":"Point","coordinates":[5.772417,52.096916]},"properties":{"category":"bus_halte","name":"Onderlangs","operator":""}},{"type":"Feature","geometry":{"type":"Point","coordinates":[5.771779,52.101682]},"properties":{"category":"bus_halte","name":"Centrum","operator":""}},{"type":"Feature","geometry":{"type":"Point","coordinates":[5.771939,52.101817]},"properties":{"category":"bus_halte","name":"Centrum","operator":""}},{"type":"Feature","geometry":{"type":"Point","coordinates":[5.769265,52.103449]},"properties":{"category":"bus_halte","name":"Rotonde","operator":""}},{"type":"Feature","geometry":{"type":"Point","coordinates":[5.769637,52.103392]},"properties":{"category":"bus_halte","name":"Rotonde","operator":""}},{"type":"Feature","geometry":{"type":"Point","coordinates":[5.769498,52.104117]},"properties":{"category":"bus_halte","name":"Rotonde","operator":""}},{"type":"Feature","geometry":{"type":"Point","coordinates":[5.769442,52.103924]},"properties":{"category":"bus_halte","name":"Rotonde","operator":""}},{"type":"Feature","geometry":{"type":"Point","coordinates":[5.756129,52.126966]},"properties":{"category":"bus_halte","name":"Centrum","operator":""}},{"type":"Feature","geometry":{"type":"Point","coordinates":[5.755375,52.127486]},"properties":{"category":"bus_halte","name":"Centrum","operator":""}},{"type":"Feature","geometry":{"type":"Point","coordinates":[5.751917,52.130719]},"properties":{"category":"bus_halte","name":"De Spil","operator":""}},{"type":"Feature","geometry":{"type":"Point","coordinates":[5.75037,52.13359]},"properties":{"category":"bus_halte","name":"Kraatsweg","operator":""}},{"type":"Feature","geometry":{"type":"Point","coordinates":[5.750427,52.133175]},"properties":{"category":"bus_halte","name":"Kraatsweg","operator":""}},{"type":"Feature","geometry":{"type":"Point","coordinates":[5.751718,52.131058]},"properties":{"category":"bus_halte","name":"De Spil","operator":""}},{"type":"Feature","geometry":{"type":"Point","coordinates":[5.747689,52.138281]},"properties":{"category":"bus_halte","name":"Radioweg","operator":""}},{"type":"Feature","geometry":{"type":"Point","coordinates":[5.747738,52.138101]},"properties":{"category":"bus_halte","name":"Radioweg","operator":""}},{"type":"Feature","geometry":{"type":"Point","coordinates":[5.737431,52.146772]},"properties":{"category":"bus_halte","name":"Hoog Buurloseweg","operator":""}},{"type":"Feature","geometry":{"type":"Point","coordinates":[5.735977,52.147851]},"properties":{"category":"bus_halte","name":"Hoog Buurloseweg","operator":""}},{"type":"Feature","geometry":{"type":"Point","coordinates":[5.75973,52.122916]},"properties":{"category":"bus_halte","name":"Museum Schietkamp","operator":""}},{"type":"Feature","geometry":{"type":"Point","coordinates":[5.759675,52.123338]},"properties":{"category":"bus_halte","name":"Museum Schietkamp","operator":""}},{"type":"Feature","geometry":{"type":"Point","coordinates":[5.809577,52.043082]},"properties":{"category":"bus_halte","name":"Oud Reemsterweg","operator":""}},{"type":"Feature","geometry":{"type":"Point","coordinates":[5.80947,52.04304]},"properties":{"category":"bus_halte","name":"Oud Reemsterweg","operator":""}},{"type":"Feature","geometry":{"type":"Point","coordinates":[5.620369,52.027755]},"properties":{"category":"bus_halte","name":"Amperestraat","operator":""}},{"type":"Feature","geometry":{"type":"Point","coordinates":[5.620189,52.027864]},"properties":{"category":"bus_halte","name":"Amperestraat","operator":""}},{"type":"Feature","geometry":{"type":"Point","coordinates":[5.573844,52.046082]},"properties":{"category":"bus_halte","name":"Station Veenendaal-De Klomp","operator":""}},{"type":"Feature","geometry":{"type":"Point","coordinates":[5.599134,52.033901]},"properties":{"category":"bus_halte","name":"Pakhuisweg","operator":""}},{"type":"Feature","geometry":{"type":"Point","coordinates":[5.599149,52.033972]},"properties":{"category":"bus_halte","name":"Pakhuisweg","operator":""}},{"type":"Feature","geometry":{"type":"Point","coordinates":[5.657493,52.001868]},"properties":{"category":"bus_halte","name":"Halderbrink","operator":""}},{"type":"Feature","geometry":{"type":"Point","coordinates":[5.657101,52.003037]},"properties":{"category":"bus_halte","name":"Halderbrink","operator":""}},{"type":"Feature","geometry":{"type":"Point","coordinates":[5.629011,52.028185]},"properties":{"category":"bus_halte","name":"Niels Bohrstraat","operator":""}},{"type":"Feature","geometry":{"type":"Point","coordinates":[5.644771,52.026579]},"properties":{"category":"bus_halte","name":"Pascalstraat","operator":""}},{"type":"Feature","geometry":{"type":"Point","coordinates":[5.659263,52.024686]},"properties":{"category":"bus_halte","name":"Bovenbuurtweg","operator":""}},{"type":"Feature","geometry":{"type":"Point","coordinates":[5.659234,52.024811]},"properties":{"category":"bus_halte","name":"Bovenbuurtweg","operator":""}},{"type":"Feature","geometry":{"type":"Point","coordinates":[5.678108,52.05424]},"properties":{"category":"bus_halte","name":"De Bosrand","operator":""}},{"type":"Feature","geometry":{"type":"Point","coordinates":[5.67872,52.054292]},"properties":{"category":"bus_halte","name":"De Bosrand","operator":""}},{"type":"Feature","geometry":{"type":"Point","coordinates":[5.68921,52.065447]},"properties":{"category":"bus_halte","name":"Driesprong","operator":""}},{"type":"Feature","geometry":{"type":"Point","coordinates":[5.68986,52.065467]},"properties":{"category":"bus_halte","name":"Driesprong","operator":""}},{"type":"Feature","geometry":{"type":"Point","coordinates":[5.69216,52.07461]},"properties":{"category":"bus_halte","name":"Hoge Valksedijk","operator":""}},{"type":"Feature","geometry":{"type":"Point","coordinates":[5.692152,52.074159]},"properties":{"category":"bus_halte","name":"Hoge Valksedijk","operator":""}},{"type":"Feature","geometry":{"type":"Point","coordinates":[5.69548,52.08456]},"properties":{"category":"bus_halte","name":"De Valouwe","operator":""}},{"type":"Feature","geometry":{"type":"Point","coordinates":[5.695735,52.084529]},"properties":{"category":"bus_halte","name":"De Valouwe","operator":""}},{"type":"Feature","geometry":{"type":"Point","coordinates":[5.703654,52.102563]},"properties":{"category":"bus_halte","name":"Wekeromse Zand","operator":""}},{"type":"Feature","geometry":{"type":"Point","coordinates":[5.703579,52.102691]},"properties":{"category":"bus_halte","name":"Wekeromse Zand","operator":""}},{"type":"Feature","geometry":{"type":"Point","coordinates":[5.706631,52.106573]},"properties":{"category":"bus_halte","name":"Roekelseweg","operator":""}},{"type":"Feature","geometry":{"type":"Point","coordinates":[5.707637,52.107105]},"properties":{"category":"bus_halte","name":"Roekelseweg","operator":""}},{"type":"Feature","geometry":{"type":"Point","coordinates":[5.71271,52.110449]},"properties":{"category":"bus_halte","name":"Wekeromse Buurtweg","operator":""}},{"type":"Feature","geometry":{"type":"Point","coordinates":[5.711875,52.110179]},"properties":{"category":"bus_halte","name":"Wekeromse Buurtweg","operator":""}},{"type":"Feature","geometry":{"type":"Point","coordinates":[5.718439,52.113283]},"properties":{"category":"bus_halte","name":"Kruispunt","operator":""}},{"type":"Feature","geometry":{"type":"Point","coordinates":[5.717536,52.112896]},"properties":{"category":"bus_halte","name":"Kruispunt","operator":""}},{"type":"Feature","geometry":{"type":"Point","coordinates":[5.725758,52.123777]},"properties":{"category":"bus_halte","name":"Westenengerdijk","operator":""}},{"type":"Feature","geometry":{"type":"Point","coordinates":[5.725175,52.123613]},"properties":{"category":"bus_halte","name":"Westenengerdijk","operator":""}},{"type":"Feature","geometry":{"type":"Point","coordinates":[5.778491,52.102103]},"properties":{"category":"bus_halte","name":"Sterrenberg","operator":""}},{"type":"Feature","geometry":{"type":"Point","coordinates":[5.778403,52.102173]},"properties":{"category":"bus_halte","name":"Sterrenberg","operator":""}},{"type":"Feature","geometry":{"type":"Point","coordinates":[5.788367,52.102559]},"properties":{"category":"bus_halte","name":"Ingang Otterlo","operator":""}},{"type":"Feature","geometry":{"type":"Point","coordinates":[5.788391,52.102629]},"properties":{"category":"bus_halte","name":"Ingang Otterlo","operator":""}},{"type":"Feature","geometry":{"type":"Point","coordinates":[5.814342,52.09769]},"properties":{"category":"bus_halte","name":"Kroller Müller Museum","operator":""}},{"type":"Feature","geometry":{"type":"Point","coordinates":[5.814297,52.097594]},"properties":{"category":"bus_halte","name":"Kroller Müller Museum","operator":""}},{"type":"Feature","geometry":{"type":"Point","coordinates":[5.829093,52.101418]},"properties":{"category":"bus_halte","name":"Bezoekerscentrum","operator":""}},{"type":"Feature","geometry":{"type":"Point","coordinates":[5.829313,52.101271]},"properties":{"category":"bus_halte","name":"Bezoekerscentrum","operator":""}},{"type":"Feature","geometry":{"type":"Point","coordinates":[5.728735,52.091161]},"properties":{"category":"bus_halte","name":"Apeldoornseweg","operator":""}},{"type":"Feature","geometry":{"type":"Point","coordinates":[5.728166,52.090924]},"properties":{"category":"bus_halte","name":"Apeldoornseweg","operator":""}},{"type":"Feature","geometry":{"type":"Point","coordinates":[5.832663,52.124477]},"properties":{"category":"bus_halte","name":"Kronkelweg","operator":""}},{"type":"Feature","geometry":{"type":"Point","coordinates":[5.830846,52.124231]},"properties":{"category":"bus_halte","name":"Kronkelweg","operator":""}},{"type":"Feature","geometry":{"type":"Point","coordinates":[5.675946,51.996366]},"properties":{"category":"bus_halte","name":"Bart van Elstplantsoen","operator":""}},{"type":"Feature","geometry":{"type":"Point","coordinates":[5.675089,51.996526]},"properties":{"category":"bus_halte","name":"Bart van Elstplantsoen","operator":""}},{"type":"Feature","geometry":{"type":"Point","coordinates":[5.677592,51.994087]},"properties":{"category":"bus_halte","name":"Bosweg","operator":""}},{"type":"Feature","geometry":{"type":"Point","coordinates":[5.677618,51.993491]},"properties":{"category":"bus_halte","name":"Bosweg","operator":""}},{"type":"Feature","geometry":{"type":"Point","coordinates":[5.674546,52.005164]},"properties":{"category":"bus_halte","name":"Heidelaan","operator":""}},{"type":"Feature","geometry":{"type":"Point","coordinates":[5.674815,52.005194]},"properties":{"category":"bus_halte","name":"Heidelaan","operator":""}},{"type":"Feature","geometry":{"type":"Point","coordinates":[5.671927,51.99704]},"properties":{"category":"bus_halte","name":"Hof van Sint Pieter","operator":""}},{"type":"Feature","geometry":{"type":"Point","coordinates":[5.671898,51.997656]},"properties":{"category":"bus_halte","name":"Hof van Sint Pieter","operator":""}},{"type":"Feature","geometry":{"type":"Point","coordinates":[5.675382,52.00148]},"properties":{"category":"bus_halte","name":"Strooyweg","operator":""}},{"type":"Feature","geometry":{"type":"Point","coordinates":[5.675005,52.001585]},"properties":{"category":"bus_halte","name":"Strooyweg","operator":""}},{"type":"Feature","geometry":{"type":"Point","coordinates":[5.673726,52.008406]},"properties":{"category":"bus_halte","name":"Vossenweg","operator":""}},{"type":"Feature","geometry":{"type":"Point","coordinates":[5.674037,52.008035]},"properties":{"category":"bus_halte","name":"Vossenweg","operator":""}},{"type":"Feature","geometry":{"type":"Point","coordinates":[5.576857,52.061422]},"properties":{"category":"bus_halte","name":"Schras","operator":""}},{"type":"Feature","geometry":{"type":"Point","coordinates":[5.577009,52.0613]},"properties":{"category":"bus_halte","name":"Schras","operator":""}},{"type":"Feature","geometry":{"type":"Point","coordinates":[5.638125,52.027023]},"properties":{"category":"bus_halte","name":"Lumièrestraat","operator":""}},{"type":"Feature","geometry":{"type":"Point","coordinates":[5.645441,52.037169]},"properties":{"category":"bus_halte","name":"Koekeltseboslaan","operator":""}},{"type":"Feature","geometry":{"type":"Point","coordinates":[5.644823,52.037345]},"properties":{"category":"bus_halte","name":"Koekeltseboslaan","operator":""}},{"type":"Feature","geometry":{"type":"Point","coordinates":[5.700582,52.120372]},"properties":{"category":"bus_halte","name":"Lage Valkseweg","operator":""}},{"type":"Feature","geometry":{"type":"Point","coordinates":[5.693875,52.121185]},"properties":{"category":"bus_halte","name":"Gereformeerde Gemeente","operator":""}},{"type":"Feature","geometry":{"type":"Point","coordinates":[5.715704,52.115386]},"properties":{"category":"bus_halte","name":"A.G. Wijersweg","operator":""}},{"type":"Feature","geometry":{"type":"Point","coordinates":[5.715937,52.112092]},"properties":{"category":"bus_halte","name":"Dorpsplein","operator":""}},{"type":"Feature","geometry":{"type":"Point","coordinates":[5.700911,52.120212]},"properties":{"category":"bus_halte","name":"Lage Valkseweg","operator":""}},{"type":"Feature","geometry":{"type":"Point","coordinates":[5.694206,52.121203]},"properties":{"category":"bus_halte","name":"Gereformeerde Gemeente","operator":""}},{"type":"Feature","geometry":{"type":"Point","coordinates":[5.715776,52.115264]},"properties":{"category":"bus_halte","name":"A.G. Wijersweg","operator":""}},{"type":"Feature","geometry":{"type":"Point","coordinates":[5.684962,52.119028]},"properties":{"category":"bus_halte","name":"School met de Bijbel","operator":""}},{"type":"Feature","geometry":{"type":"Point","coordinates":[5.685035,52.119088]},"properties":{"category":"bus_halte","name":"School met de Bijbel","operator":""}},{"type":"Feature","geometry":{"type":"Point","coordinates":[5.654048,52.119932]},"properties":{"category":"bus_halte","name":"Rehoboth","operator":""}},{"type":"Feature","geometry":{"type":"Point","coordinates":[5.654156,52.119865]},"properties":{"category":"bus_halte","name":"Rehoboth","operator":""}},{"type":"Feature","geometry":{"type":"Point","coordinates":[5.618116,52.092082]},"properties":{"category":"bus_halte","name":"De Wormshoef","operator":""}},{"type":"Feature","geometry":{"type":"Point","coordinates":[5.618738,52.089419]},"properties":{"category":"bus_halte","name":"De Molen","operator":""}},{"type":"Feature","geometry":{"type":"Point","coordinates":[5.637493,52.104524]},"properties":{"category":"bus_halte","name":"Hessenweg","operator":""}},{"type":"Feature","geometry":{"type":"Point","coordinates":[5.617686,52.092817]},"properties":{"category":"bus_halte","name":"De Wormshoef","operator":""}},{"type":"Feature","geometry":{"type":"Point","coordinates":[5.637389,52.104577]},"properties":{"category":"bus_halte","name":"Hessenweg","operator":""}},{"type":"Feature","geometry":{"type":"Point","coordinates":[5.671089,52.120714]},"properties":{"category":"bus_halte","name":"Coöperatie","operator":""}},{"type":"Feature","geometry":{"type":"Point","coordinates":[5.623979,52.08517]},"properties":{"category":"bus_halte","name":"Station","operator":""}},{"type":"Feature","geometry":{"type":"Point","coordinates":[5.618561,52.089683]},"properties":{"category":"bus_halte","name":"De Molen","operator":""}},{"type":"Feature","geometry":{"type":"Point","coordinates":[5.642228,52.10813]},"properties":{"category":"bus_halte","name":"Bijweg","operator":""}},{"type":"Feature","geometry":{"type":"Point","coordinates":[5.642494,52.108196]},"properties":{"category":"bus_halte","name":"Bijweg","operator":""}},{"type":"Feature","geometry":{"type":"Point","coordinates":[5.670977,52.120816]},"properties":{"category":"bus_halte","name":"Coöperatie","operator":""}},{"type":"Feature","geometry":{"type":"Point","coordinates":[5.578456,52.067284]},"properties":{"category":"bus_halte","name":"Luntersekade","operator":""}},{"type":"Feature","geometry":{"type":"Point","coordinates":[5.614527,52.082174]},"properties":{"category":"bus_halte","name":"Everlaan","operator":""}},{"type":"Feature","geometry":{"type":"Point","coordinates":[5.577088,52.059659]},"properties":{"category":"bus_halte","name":"Schoolstraat","operator":""}},{"type":"Feature","geometry":{"type":"Point","coordinates":[5.603492,52.076315]},"properties":{"category":"bus_halte","name":"Viaduct","operator":""}},{"type":"Feature","geometry":{"type":"Point","coordinates":[5.62179,52.083367]},"properties":{"category":"bus_halte","name":"Roskammersteeg","operator":""}},{"type":"Feature","geometry":{"type":"Point","coordinates":[5.578671,52.067482]},"properties":{"category":"bus_halte","name":"Luntersekade","operator":""}},{"type":"Feature","geometry":{"type":"Point","coordinates":[5.591395,52.076299]},"properties":{"category":"bus_halte","name":"Drieënhuizerweg","operator":""}},{"type":"Feature","geometry":{"type":"Point","coordinates":[5.57726,52.059652]},"properties":{"category":"bus_halte","name":"Schoolstraat","operator":""}},{"type":"Feature","geometry":{"type":"Point","coordinates":[5.616817,52.083067]},"properties":{"category":"bus_halte","name":"Hertenlaan","operator":""}},{"type":"Feature","geometry":{"type":"Point","coordinates":[5.575254,52.050007]},"properties":{"category":"bus_halte","name":"Scheivoor","operator":""}},{"type":"Feature","geometry":{"type":"Point","coordinates":[5.591494,52.076138]},"properties":{"category":"bus_halte","name":"Drieënhuizerweg","operator":""}},{"type":"Feature","geometry":{"type":"Point","coordinates":[5.57729,52.062779]},"properties":{"category":"bus_halte","name":"Hortensiastraat","operator":""}},{"type":"Feature","geometry":{"type":"Point","coordinates":[5.603642,52.076276]},"properties":{"category":"bus_halte","name":"Viaduct","operator":""}},{"type":"Feature","geometry":{"type":"Point","coordinates":[5.581589,52.078389]},"properties":{"category":"bus_halte","name":"Kruisbeekweg","operator":""}},{"type":"Feature","geometry":{"type":"Point","coordinates":[5.617542,52.083429]},"properties":{"category":"bus_halte","name":"Hertenlaan","operator":""}},{"type":"Feature","geometry":{"type":"Point","coordinates":[5.577418,52.062737]},"properties":{"category":"bus_halte","name":"Hortensiastraat","operator":""}},{"type":"Feature","geometry":{"type":"Point","coordinates":[5.621909,52.083374]},"properties":{"category":"bus_halte","name":"Roskammersteeg","operator":""}},{"type":"Feature","geometry":{"type":"Point","coordinates":[5.575447,52.050429]},"properties":{"category":"bus_halte","name":"Scheivoor","operator":""}},{"type":"Feature","geometry":{"type":"Point","coordinates":[5.581568,52.078257]},"properties":{"category":"bus_halte","name":"Kruisbeekweg","operator":""}},{"type":"Feature","geometry":{"type":"Point","coordinates":[5.61465,52.082126]},"properties":{"category":"bus_halte","name":"Everlaan","operator":""}},{"type":"Feature","geometry":{"type":"Point","coordinates":[5.646863,52.017045]},"properties":{"category":"bus_halte","name":"De Gelderhorst","operator":""}},{"type":"Feature","geometry":{"type":"Point","coordinates":[5.646624,52.028547]},"properties":{"category":"bus_halte","name":"Einsteinstraat","operator":""}},{"type":"Feature","geometry":{"type":"Point","coordinates":[5.647756,52.02297]},"properties":{"category":"bus_halte","name":"Ziekenhuis Gelderse Vallei","operator":""}},{"type":"Feature","geometry":{"type":"Point","coordinates":[5.637947,52.020831]},"properties":{"category":"bus_halte","name":"'t Riet","operator":""}},{"type":"Feature","geometry":{"type":"Point","coordinates":[5.64159,52.016867]},"properties":{"category":"bus_halte","name":"Ben Goerionsingel","operator":""}},{"type":"Feature","geometry":{"type":"Point","coordinates":[5.6352,52.022772]},"properties":{"category":"bus_halte","name":"Coornhertstate","operator":""}},{"type":"Feature","geometry":{"type":"Point","coordinates":[5.646885,52.029392]},"properties":{"category":"bus_halte","name":"Einsteinstraat","operator":""}},{"type":"Feature","geometry":{"type":"Point","coordinates":[5.639352,52.023435]},"properties":{"category":"bus_halte","name":"Professor Oudpark","operator":""}},{"type":"Feature","geometry":{"type":"Point","coordinates":[5.653732,52.042868]},"properties":{"category":"bus_halte","name":"Billitonlaan/Timorlaan","operator":"Hermes"}},{"type":"Feature","geometry":{"type":"Point","coordinates":[5.654065,52.042727]},"properties":{"category":"bus_halte","name":"Billitonlaan/Timorlaan","operator":"Hermes"}},{"type":"Feature","geometry":{"type":"Point","coordinates":[5.635422,52.051186]},"properties":{"category":"bus_halte","name":"Cannenburgerbos","operator":"Hermes"}},{"type":"Feature","geometry":{"type":"Point","coordinates":[5.629498,52.048445]},"properties":{"category":"bus_halte","name":"Dalerveen","operator":""}},{"type":"Feature","geometry":{"type":"Point","coordinates":[5.629333,52.048448]},"properties":{"category":"bus_halte","name":"Dalerveen","operator":""}},{"type":"Feature","geometry":{"type":"Point","coordinates":[5.640119,52.051909]},"properties":{"category":"bus_halte","name":"Hogewoud","operator":"Hermes"}},{"type":"Feature","geometry":{"type":"Point","coordinates":[5.615742,52.045269]},"properties":{"category":"bus_halte","name":"Kievitsmeent","operator":"Hermes"}},{"type":"Feature","geometry":{"type":"Point","coordinates":[5.61273,52.045651]},"properties":{"category":"bus_halte","name":"Kievitsmeent","operator":"Hermes"}},{"type":"Feature","geometry":{"type":"Point","coordinates":[5.632302,52.050612]},"properties":{"category":"bus_halte","name":"Lagewoud","operator":"Hermes"}},{"type":"Feature","geometry":{"type":"Point","coordinates":[5.63023,52.050395]},"properties":{"category":"bus_halte","name":"Lagewoud","operator":"Hermes"}},{"type":"Feature","geometry":{"type":"Point","coordinates":[5.643426,52.051845]},"properties":{"category":"bus_halte","name":"Stakenberg","operator":"Hermes"}},{"type":"Feature","geometry":{"type":"Point","coordinates":[5.609342,52.030751]},"properties":{"category":"bus_halte","name":"Darwinstraat","operator":""}},{"type":"Feature","geometry":{"type":"Point","coordinates":[5.609369,52.03101]},"properties":{"category":"bus_halte","name":"Darwinstraat","operator":""}},{"type":"Feature","geometry":{"type":"Point","coordinates":[5.602963,52.033159]},"properties":{"category":"bus_halte","name":"Schutterweg","operator":""}},{"type":"Feature","geometry":{"type":"Point","coordinates":[5.603216,52.033253]},"properties":{"category":"bus_halte","name":"Schutterweg","operator":""}},{"type":"Feature","geometry":{"type":"Point","coordinates":[5.749096,52.129907]},"properties":{"category":"bus_halte","name":"Julianastraat","operator":""}},{"type":"Feature","geometry":{"type":"Point","coordinates":[5.748132,52.129852]},"properties":{"category":"bus_halte","name":"Julianastraat","operator":""}},{"type":"Feature","geometry":{"type":"Point","coordinates":[5.715698,52.112157]},"properties":{"category":"bus_halte","name":"Dorpsplein","operator":""}},{"type":"Feature","geometry":{"type":"Point","coordinates":[5.573808,52.046039]},"properties":{"category":"bus_halte","name":"Station Veenendaal-De Klomp","operator":""}},{"type":"Feature","geometry":{"type":"Point","coordinates":[5.638472,52.020178]},"properties":{"category":"bus_halte","name":"'t Riet","operator":""}},{"type":"Feature","geometry":{"type":"Point","coordinates":[5.828238,52.100263]},"properties":{"category":"bus_halte","name":"Bezoekerscentrum","operator":""}},{"type":"Feature","geometry":{"type":"Point","coordinates":[5.570286,52.042687]},"properties":{"category":"bus_halte","name":"Griftweg","operator":""}},{"type":"Feature","geometry":{"type":"Point","coordinates":[5.56951,52.041866]},"properties":{"category":"bus_halte","name":"Griftweg","operator":""}},{"type":"Feature","geometry":{"type":"Point","coordinates":[5.718487,52.114093]},"properties":{"category":"bus_halte","name":"De Maalderij","operator":""}},{"type":"Feature","geometry":{"type":"Point","coordinates":[5.7197,52.113712]},"properties":{"category":"bus_halte","name":"De Maalderij","operator":""}},{"type":"Feature","geometry":{"type":"Point","coordinates":[5.553682,52.112676]},"properties":{"category":"bus_halte","name":"Walderveen","operator":""}},{"type":"Feature","geometry":{"type":"Point","coordinates":[5.576541,52.089347]},"properties":{"category":"bus_halte","name":"Nederwoud","operator":""}},{"type":"Feature","geometry":{"type":"Point","coordinates":[5.735226,52.036757]},"properties":{"category":"bus_halte","name":"De Ginkel","operator":""}},{"type":"Feature","geometry":{"type":"Point","coordinates":[5.722547,52.00922]},"properties":{"category":"bus_halte","name":"Panoramahoeve","operator":""}},{"type":"Feature","geometry":{"type":"Point","coordinates":[5.648641,52.06174]},"properties":{"category":"bus_halte","name":"Doesburgerbuurt","operator":""}},{"type":"Feature","geometry":{"type":"Point","coordinates":[5.636196,52.003888]},"properties":{"category":"bus_halte","name":"De Kraats","operator":""}},{"type":"Feature","geometry":{"type":"Point","coordinates":[5.648071,52.017069]},"properties":{"category":"bus_halte","name":"Stadspoort","operator":""}},{"type":"Feature","geometry":{"type":"Point","coordinates":[5.674722,52.026418]},"properties":{"category":"bus_halte","name":"Station Ede-Wageningen","operator":""}},{"type":"Feature","geometry":{"type":"Point","coordinates":[5.674631,52.026431]},"properties":{"category":"bus_halte","name":"Station Ede-Wageningen","operator":""}},{"type":"Feature","geometry":{"type":"Point","coordinates":[5.674533,52.02645]},"properties":{"category":"bus_halte","name":"Station Ede-Wageningen","operator":""}},{"type":"Feature","geometry":{"type":"Point","coordinates":[5.674446,52.026471]},"properties":{"category":"bus_halte","name":"Station Ede-Wageningen","operator":""}},{"type":"Feature","geometry":{"type":"Point","coordinates":[5.67435,52.026487]},"properties":{"category":"bus_halte","name":"Station Ede-Wageningen","operator":""}},{"type":"Feature","geometry":{"type":"Point","coordinates":[5.674258,52.026505]},"properties":{"category":"bus_halte","name":"Station Ede-Wageningen","operator":"Hermes"}},{"type":"Feature","geometry":{"type":"Point","coordinates":[5.674164,52.026522]},"properties":{"category":"bus_halte","name":"Station Ede-Wageningen","operator":""}},{"type":"Feature","geometry":{"type":"Point","coordinates":[5.674072,52.026538]},"properties":{"category":"bus_halte","name":"Station Ede-Wageningen","operator":""}},{"type":"Feature","geometry":{"type":"Point","coordinates":[5.673981,52.026551]},"properties":{"category":"bus_halte","name":"Station Ede-Wageningen","operator":""}},{"type":"Feature","geometry":{"type":"Point","coordinates":[5.673166,52.011283]},"properties":{"category":"bus_halte","name":"Hoekelumse Brinkweg","operator":""}},{"type":"Feature","geometry":{"type":"Point","coordinates":[5.672059,52.024897]},"properties":{"category":"bus_halte","name":"De Reehorst","operator":""}},{"type":"Feature","geometry":{"type":"Point","coordinates":[5.672439,52.024848]},"properties":{"category":"bus_halte","name":"De Reehorst","operator":""}},{"type":"Feature","geometry":{"type":"Point","coordinates":[5.671891,52.034429]},"properties":{"category":"bus_halte","name":"Dennenlaan","operator":"Hermes"}},{"type":"Feature","geometry":{"type":"Point","coordinates":[5.6719,52.033922]},"properties":{"category":"bus_halte","name":"Dennenlaan","operator":"Hermes"}},{"type":"Feature","geometry":{"type":"Point","coordinates":[5.670888,52.037725]},"properties":{"category":"bus_halte","name":"Ericalaan","operator":"Hermes"}},{"type":"Feature","geometry":{"type":"Point","coordinates":[5.671178,52.037683]},"properties":{"category":"bus_halte","name":"Ericalaan","operator":"Hermes"}},{"type":"Feature","geometry":{"type":"Point","coordinates":[5.623966,52.085198]},"properties":{"category":"bus_halte","name":"Station","operator":""}},{"type":"Feature","geometry":{"type":"Point","coordinates":[5.57414,52.046153]},"properties":{"category":"bus_halte","name":"Station Veenendaal-De Klomp","operator":""}},{"type":"Feature","geometry":{"type":"Point","coordinates":[5.573876,52.046133]},"properties":{"category":"bus_halte","name":"Station Veenendaal-De Klomp","operator":""}},{"type":"Feature","geometry":{"type":"Point","coordinates":[5.626458,52.049338]},"properties":{"category":"bus_halte","name":"Veenwoud","operator":"Hermes"}},{"type":"Feature","geometry":{"type":"Point","coordinates":[5.626297,52.049266]},"properties":{"category":"bus_halte","name":"Veenwoud","operator":"Hermes"}},{"type":"Feature","geometry":{"type":"Point","coordinates":[5.647159,52.026191]},"properties":{"category":"bus_halte","name":"Pascalstraat","operator":""}},{"type":"Feature","geometry":{"type":"Point","coordinates":[5.571347,52.045772]},"properties":{"category":"bus_halte","name":"Station Veenendaal-De Klomp (Zuidzijde)","operator":""}},{"type":"Feature","geometry":{"type":"Point","coordinates":[5.571749,52.04582]},"properties":{"category":"bus_halte","name":"Station Veenendaal-De Klomp (Zuidzijde)","operator":""}},{"type":"Feature","geometry":{"type":"Point","coordinates":[5.674114,52.027411]},"properties":{"category":"ov_knooppunt","name":"Ede-Wageningen","operator":""}},{"type":"Feature","geometry":{"type":"Point","coordinates":[5.573927,52.045953]},"properties":{"category":"ov_knooppunt","name":"Veenendaal-De Klomp","operator":""}},{"type":"Feature","geometry":{"type":"Point","coordinates":[5.624301,52.085119]},"properties":{"category":"ov_knooppunt","name":"Lunteren","operator":""}},{"type":"Feature","geometry":{"type":"Point","coordinates":[5.66819,52.043254]},"properties":{"category":"ov_knooppunt","name":"Ede Centrum","operator":""}},{"type":"Feature","geometry":{"type":"Point","coordinates":[5.675198,52.04566]},"properties":{"category":"gemeentehuis","name":"Raadhuis Ede","operator":"Gemeente Ede"}},{"type":"Feature","geometry":{"type":"Point","coordinates":[5.769305,52.085796]},"properties":{"category":"inzamelpunt","name":"","operator":""}},{"type":"Feature","geometry":{"type":"Point","coordinates":[5.69286,52.040214]},"properties":{"category":"inzamelpunt","name":"","operator":""}},{"type":"Feature","geometry":{"type":"Point","coordinates":[5.613391,52.043855]},"properties":{"category":"inzamelpunt","name":"Restore kringloopbrengpunt","operator":""}},{"type":"Feature","geometry":{"type":"Point","coordinates":[5.682907,52.043165]},"properties":{"category":"inzamelpunt","name":"","operator":""}},{"type":"Feature","geometry":{"type":"Point","coordinates":[5.693606,52.039234]},"properties":{"category":"inzamelpunt","name":"","operator":""}},{"type":"Feature","geometry":{"type":"Point","coordinates":[5.692889,52.040332]},"properties":{"category":"inzamelpunt","name":"","operator":""}},{"type":"Feature","geometry":{"type":"Point","coordinates":[5.682253,52.03589]},"properties":{"category":"inzamelpunt","name":"","operator":""}},{"type":"Feature","geometry":{"type":"Point","coordinates":[5.613928,52.043549]},"properties":{"category":"inzamelpunt","name":"Waardepunt","operator":"ACV"}},{"type":"Feature","geometry":{"type":"Point","coordinates":[5.667136,52.04648]},"properties":{"category":"bibliotheek","name":"Cultura Ede","operator":"Stichting Cultura"}},{"type":"Feature","geometry":{"type":"Point","coordinates":[5.650021,52.01782]},"properties":{"category":"bibliotheek","name":"Cultura Stadspoort","operator":"Stichting Cultura"}},{"type":"Feature","geometry":{"type":"Point","coordinates":[5.622896,52.083271]},"properties":{"category":"bibliotheek","name":"Cultura Lunteren","operator":"Stichting Cultura"}},{"type":"Feature","geometry":{"type":"Point","coordinates":[5.673886,51.997002]},"properties":{"category":"bibliotheek","name":"Cultura Bennekom","operator":"Stichting Cultura"}},{"type":"Feature","geometry":{"type":"Point","coordinates":[5.645525,52.022032]},"properties":{"category":"ziekenhuis","name":"Ziekenhuis Gelderse Vallei","operator":""}},{"type":"Feature","geometry":{"type":"Point","coordinates":[5.66508,52.054587]},"properties":{"category":"transformatorhuisje","name":"","operator":""}},{"type":"Feature","geometry":{"type":"Point","coordinates":[5.665443,52.054648]},"properties":{"category":"transformatorhuisje","name":"","operator":""}},{"type":"Feature","geometry":{"type":"Point","coordinates":[5.665788,52.054722]},"properties":{"category":"transformatorhuisje","name":"","operator":""}},{"type":"Feature","geometry":{"type":"Point","coordinates":[5.666092,52.054778]},"properties":{"category":"transformatorhuisje","name":"","operator":""}},{"type":"Feature","geometry":{"type":"Point","coordinates":[5.665664,52.053575]},"properties":{"category":"transformatorhuisje","name":"50 kV Ede","operator":"Liander"}},{"type":"Feature","geometry":{"type":"Point","coordinates":[5.643886,52.043349]},"properties":{"category":"transformatorhuisje","name":"","operator":"Liander"}},{"type":"Feature","geometry":{"type":"Point","coordinates":[5.645527,52.041142]},"properties":{"category":"transformatorhuisje","name":"","operator":"Liander"}},{"type":"Feature","geometry":{"type":"Point","coordinates":[5.663916,52.019763]},"properties":{"category":"universiteit","name":"Christelijke Hogeschool Ede","operator":""}},{"type":"Feature","geometry":{"type":"Point","coordinates":[5.662448,52.02047]},"properties":{"category":"hogeschool","name":"Dulon College","operator":"ROC A12"}},{"type":"Feature","geometry":{"type":"Point","coordinates":[5.661971,52.021756]},"properties":{"category":"hogeschool","name":"Technova College","operator":"ROC A12"}},{"type":"Feature","geometry":{"type":"Point","coordinates":[5.662516,52.018164]},"properties":{"category":"hogeschool","name":"Aeres MBO","operator":"Aeres"}},{"type":"Feature","geometry":{"type":"Point","coordinates":[5.666008,52.018355]},"properties":{"category":"hogeschool","name":"ROC A12","operator":"ROC A12"}},{"type":"Feature","geometry":{"type":"Point","coordinates":[5.662103,52.021463]},"properties":{"category":"hogeschool","name":"ROC A12","operator":""}},{"type":"Feature","geometry":{"type":"Point","coordinates":[5.668773,52.018494]},"properties":{"category":"middelbare_school","name":"Het Streek College","operator":"CSG Het Streek"}},{"type":"Feature","geometry":{"type":"Point","coordinates":[5.662422,52.018432]},"properties":{"category":"middelbare_school","name":"Al Amana College","operator":"Al Amana Scholen"}},{"type":"Feature","geometry":{"type":"Point","coordinates":[5.668831,52.018236]},"properties":{"category":"middelbare_school","name":"Het Streek College Pro","operator":"CSG Het Streek"}},{"type":"Feature","geometry":{"type":"Point","coordinates":[5.661995,52.049816]},"properties":{"category":"middelbare_school","name":"Vester College","operator":"De Onderwijsspecialisten"}},{"type":"Feature","geometry":{"type":"Point","coordinates":[5.672295,52.052802]},"properties":{"category":"middelbare_school","name":"Meza College","operator":"De Onderwijsspecialisten"}},{"type":"Feature","geometry":{"type":"Point","coordinates":[5.654206,52.026065]},"properties":{"category":"middelbare_school","name":"Van Lodenstein College","operator":"Stichting voor Onderwijs op Reformatorische Grondslag"}},{"type":"Feature","geometry":{"type":"Point","coordinates":[5.661417,52.023568]},"properties":{"category":"middelbare_school","name":"Het Streek Lyceum","operator":"CSG Het Streek"}},{"type":"Feature","geometry":{"type":"Point","coordinates":[5.663695,52.01794]},"properties":{"category":"middelbare_school","name":"Aeres VMBO","operator":"Aeres"}},{"type":"Feature","geometry":{"type":"Point","coordinates":[5.664262,52.018639]},"properties":{"category":"middelbare_school","name":"Het Streek ISK","operator":"CSG Het Streek"}},{"type":"Feature","geometry":{"type":"Point","coordinates":[5.644408,52.033859]},"properties":{"category":"sportveld","name":"Tesqua","operator":""}},{"type":"Feature","geometry":{"type":"Point","coordinates":[5.741297,52.098073]},"properties":{"category":"sportveld","name":"Stoeterij Willemien","operator":""}},{"type":"Feature","geometry":{"type":"Point","coordinates":[5.569796,52.061571]},"properties":{"category":"sportveld","name":"Advendo","operator":""}},{"type":"Feature","geometry":{"type":"Point","coordinates":[5.635421,52.036202]},"properties":{"category":"sportveld","name":"","operator":""}},{"type":"Feature","geometry":{"type":"Point","coordinates":[5.636886,52.034888]},"properties":{"category":"sportveld","name":"Teskwik","operator":""}},{"type":"Feature","geometry":{"type":"Point","coordinates":[5.662194,52.048545]},"properties":{"category":"sportveld","name":"Gymzaal Van Zantenlaan","operator":""}},{"type":"Feature","geometry":{"type":"Point","coordinates":[5.676693,52.040373]},"properties":{"category":"sportveld","name":"Edese Tennis Club","operator":""}},{"type":"Feature","geometry":{"type":"Point","coordinates":[5.641959,52.036347]},"properties":{"category":"sportveld","name":"","operator":""}},{"type":"Feature","geometry":{"type":"Point","coordinates":[5.567174,52.062011]},"properties":{"category":"sportveld","name":"","operator":"Tennisvereniging Ederveen"}},{"type":"Feature","geometry":{"type":"Point","coordinates":[5.667579,52.015348]},"properties":{"category":"sportveld","name":"Sportpark Hoekelumse Eng","operator":""}},{"type":"Feature","geometry":{"type":"Point","coordinates":[5.636534,52.035465]},"properties":{"category":"sportveld","name":"","operator":""}},{"type":"Feature","geometry":{"type":"Point","coordinates":[5.65822,52.005026]},"properties":{"category":"sportveld","name":"Keltenwoud Tennis en Padel","operator":""}},{"type":"Feature","geometry":{"type":"Point","coordinates":[5.6585,52.006388]},"properties":{"category":"sportveld","name":"de Vrije slag","operator":""}},{"type":"Feature","geometry":{"type":"Point","coordinates":[5.630029,52.035889]},"properties":{"category":"sportveld","name":"Survivalteam Ede","operator":"Survival Team Ede"}},{"type":"Feature","geometry":{"type":"Point","coordinates":[5.664883,51.996228]},"properties":{"category":"sportveld","name":"Sportpark de Eikelhof","operator":""}},{"type":"Feature","geometry":{"type":"Point","coordinates":[5.615411,52.093473]},"properties":{"category":"sportveld","name":"Sportpark de Wormshoef","operator":""}},{"type":"Feature","geometry":{"type":"Point","coordinates":[5.776526,52.096958]},"properties":{"category":"sportveld","name":"Tennisvereniging Otterlo","operator":""}},{"type":"Feature","geometry":{"type":"Point","coordinates":[5.660572,52.011611]},"properties":{"category":"sportveld","name":"Manege zonder Drempels","operator":"Stichting Manege zonder Drempels"}},{"type":"Feature","geometry":{"type":"Point","coordinates":[5.650078,52.017774]},"properties":{"category":"winkelcentrum","name":"Stadspoort","operator":""}},{"type":"Feature","geometry":{"type":"Point","coordinates":[5.653937,52.030664]},"properties":{"category":"supermarkt","name":"ALDI","operator":"Aldi"}},{"type":"Feature","geometry":{"type":"Point","coordinates":[5.649202,52.017574]},"properties":{"category":"supermarkt","name":"Jumbo","operator":""}},{"type":"Feature","geometry":{"type":"Point","coordinates":[5.772468,52.101298]},"properties":{"category":"supermarkt","name":"SPAR","operator":""}},{"type":"Feature","geometry":{"type":"Point","coordinates":[5.643841,52.042686]},"properties":{"category":"supermarkt","name":"Jumbo","operator":""}},{"type":"Feature","geometry":{"type":"Point","coordinates":[5.676446,52.000225]},"properties":{"category":"supermarkt","name":"Lidl","operator":"Lidl Nederland GmbH"}},{"type":"Feature","geometry":{"type":"Point","coordinates":[5.666431,52.028182]},"properties":{"category":"supermarkt","name":"Jumbo","operator":""}},{"type":"Feature","geometry":{"type":"Point","coordinates":[5.666677,52.028171]},"properties":{"category":"supermarkt","name":"Lidl","operator":"Lidl Nederland GmbH"}},{"type":"Feature","geometry":{"type":"Point","coordinates":[5.651073,52.017513]},"properties":{"category":"supermarkt","name":"Albert Heijn","operator":""}},{"type":"Feature","geometry":{"type":"Point","coordinates":[5.656817,52.038464]},"properties":{"category":"supermarkt","name":"Albert Heijn","operator":""}},{"type":"Feature","geometry":{"type":"Point","coordinates":[5.667256,52.041719]},"properties":{"category":"supermarkt","name":"Hoogvliet","operator":""}},{"type":"Feature","geometry":{"type":"Point","coordinates":[5.6473,52.030591]},"properties":{"category":"supermarkt","name":"Albert Heijn XL","operator":""}},{"type":"Feature","geometry":{"type":"Point","coordinates":[5.576141,52.061312]},"properties":{"category":"supermarkt","name":"PLUS Van Rinsum","operator":""}},{"type":"Feature","geometry":{"type":"Point","coordinates":[5.676416,51.997359]},"properties":{"category":"supermarkt","name":"PLUS","operator":""}},{"type":"Feature","geometry":{"type":"Point","coordinates":[5.676367,51.998685]},"properties":{"category":"supermarkt","name":"Ekoplaza","operator":"Ekoplaza"}},{"type":"Feature","geometry":{"type":"Point","coordinates":[5.66336,52.026989]},"properties":{"category":"supermarkt","name":"Lale Market","operator":""}},{"type":"Feature","geometry":{"type":"Point","coordinates":[5.644315,52.041542]},"properties":{"category":"supermarkt","name":"Lidl","operator":"Lidl Nederland GmbH"}},{"type":"Feature","geometry":{"type":"Point","coordinates":[5.671421,52.047665]},"properties":{"category":"supermarkt","name":"Albert Heijn","operator":""}},{"type":"Feature","geometry":{"type":"Point","coordinates":[5.620608,52.084974]},"properties":{"category":"supermarkt","name":"DekaMarkt","operator":""}},{"type":"Feature","geometry":{"type":"Point","coordinates":[5.620093,52.086804]},"properties":{"category":"supermarkt","name":"ALDI","operator":""}},{"type":"Feature","geometry":{"type":"Point","coordinates":[5.754377,52.128769]},"properties":{"category":"supermarkt","name":"PLUS","operator":""}},{"type":"Feature","geometry":{"type":"Point","coordinates":[5.643078,52.050711]},"properties":{"category":"supermarkt","name":"ALDI","operator":""}},{"type":"Feature","geometry":{"type":"Point","coordinates":[5.644071,52.050797]},"properties":{"category":"supermarkt","name":"Albert Heijn","operator":""}},{"type":"Feature","geometry":{"type":"Point","coordinates":[5.675278,51.998364]},"properties":{"category":"supermarkt","name":"Albert Heijn","operator":""}},{"type":"Feature","geometry":{"type":"Point","coordinates":[5.62095,52.084829]},"properties":{"category":"supermarkt","name":"Albert Heijn","operator":""}},{"type":"Feature","geometry":{"type":"Point","coordinates":[5.643583,52.042893]},"properties":{"category":"supermarkt","name":"Safari Supermarket","operator":""}},{"type":"Feature","geometry":{"type":"Point","coordinates":[5.777442,52.092618]},"properties":{"category":"supermarkt","name":"Parkshop","operator":""}},{"type":"Feature","geometry":{"type":"Point","coordinates":[5.669632,52.046105]},"properties":{"category":"supermarkt","name":"Nettorama","operator":""}},{"type":"Feature","geometry":{"type":"Point","coordinates":[5.71878,52.114244]},"properties":{"category":"supermarkt","name":"Albert Heijn","operator":""}},{"type":"Feature","geometry":{"type":"Point","coordinates":[5.669537,52.045507]},"properties":{"category":"fietsenstalling","name":"","operator":""}},{"type":"Feature","geometry":{"type":"Point","coordinates":[5.657889,52.002377]},"properties":{"category":"fietsenstalling","name":"","operator":""}},{"type":"Feature","geometry":{"type":"Point","coordinates":[5.624682,52.045985]},"properties":{"category":"fietsenstalling","name":"","operator":""}},{"type":"Feature","geometry":{"type":"Point","coordinates":[5.674631,52.046403]},"properties":{"category":"fietsenstalling","name":"","operator":""}},{"type":"Feature","geometry":{"type":"Point","coordinates":[5.647655,52.023058]},"properties":{"category":"fietsenstalling","name":"","operator":""}},{"type":"Feature","geometry":{"type":"Point","coordinates":[5.675203,51.996552]},"properties":{"category":"fietsenstalling","name":"","operator":""}},{"type":"Feature","geometry":{"type":"Point","coordinates":[5.675669,52.003334]},"properties":{"category":"fietsenstalling","name":"","operator":"Alfa Accountants en Adviseurs"}},{"type":"Feature","geometry":{"type":"Point","coordinates":[5.619642,52.069354]},"properties":{"category":"fietsenstalling","name":"","operator":""}},{"type":"Feature","geometry":{"type":"Point","coordinates":[5.649053,52.016995]},"properties":{"category":"fietsenstalling","name":"","operator":""}},{"type":"Feature","geometry":{"type":"Point","coordinates":[5.646806,52.02246]},"properties":{"category":"fietsenstalling","name":"","operator":""}},{"type":"Feature","geometry":{"type":"Point","coordinates":[5.656904,52.025537]},"properties":{"category":"fietsenstalling","name":"","operator":""}},{"type":"Feature","geometry":{"type":"Point","coordinates":[5.648979,52.024898]},"properties":{"category":"fietsenstalling","name":"","operator":""}},{"type":"Feature","geometry":{"type":"Point","coordinates":[5.651084,52.024958]},"properties":{"category":"fietsenstalling","name":"","operator":""}},{"type":"Feature","geometry":{"type":"Point","coordinates":[5.652989,52.025119]},"properties":{"category":"fietsenstalling","name":"","operator":""}},{"type":"Feature","geometry":{"type":"Point","coordinates":[5.654904,52.025278]},"properties":{"category":"fietsenstalling","name":"","operator":""}},{"type":"Feature","geometry":{"type":"Point","coordinates":[5.648406,52.025825]},"properties":{"category":"fietsenstalling","name":"","operator":""}},{"type":"Feature","geometry":{"type":"Point","coordinates":[5.65863,52.025264]},"properties":{"category":"fietsenstalling","name":"","operator":""}},{"type":"Feature","geometry":{"type":"Point","coordinates":[5.728283,52.09115]},"properties":{"category":"fietsenstalling","name":"","operator":""}},{"type":"Feature","geometry":{"type":"Point","coordinates":[5.728686,52.090864]},"properties":{"category":"fietsenstalling","name":"","operator":""}},{"type":"Feature","geometry":{"type":"Point","coordinates":[5.573599,52.045619]},"properties":{"category":"fietsenstalling","name":"","operator":"NS Fiets"}},{"type":"Feature","geometry":{"type":"Point","coordinates":[5.733792,52.008224]},"properties":{"category":"fietsenstalling","name":"NIVON Bosbeek","operator":""}},{"type":"Feature","geometry":{"type":"Point","coordinates":[5.667656,52.035579]},"properties":{"category":"fietsenstalling","name":"","operator":""}},{"type":"Feature","geometry":{"type":"Point","coordinates":[5.62399,52.085387]},"properties":{"category":"fietsenstalling","name":"","operator":""}},{"type":"Feature","geometry":{"type":"Point","coordinates":[5.645358,52.08887]},"properties":{"category":"fietsenstalling","name":"","operator":""}},{"type":"Feature","geometry":{"type":"Point","coordinates":[5.656781,52.002285]},"properties":{"category":"fietsenstalling","name":"","operator":""}},{"type":"Feature","geometry":{"type":"Point","coordinates":[5.670029,52.006209]},"properties":{"category":"fietsenstalling","name":"","operator":""}},{"type":"Feature","geometry":{"type":"Point","coordinates":[5.677066,52.010261]},"properties":{"category":"fietsenstalling","name":"","operator":""}},{"type":"Feature","geometry":{"type":"Point","coordinates":[5.674794,52.02689]},"properties":{"category":"fietsenstalling","name":"","operator":""}},{"type":"Feature","geometry":{"type":"Point","coordinates":[5.634831,52.032501]},"properties":{"category":"fietsenstalling","name":"","operator":""}},{"type":"Feature","geometry":{"type":"Point","coordinates":[5.637866,52.031841]},"properties":{"category":"fietsenstalling","name":"","operator":""}},{"type":"Feature","geometry":{"type":"Point","coordinates":[5.63833,52.032801]},"properties":{"category":"fietsenstalling","name":"","operator":""}},{"type":"Feature","geometry":{"type":"Point","coordinates":[5.646049,52.020641]},"properties":{"category":"fietsenstalling","name":"","operator":""}},{"type":"Feature","geometry":{"type":"Point","coordinates":[5.645113,52.026985]},"properties":{"category":"fietsenstalling","name":"","operator":""}},{"type":"Feature","geometry":{"type":"Point","coordinates":[5.770479,52.103561]},"properties":{"category":"fietsenstalling","name":"","operator":""}},{"type":"Feature","geometry":{"type":"Point","coordinates":[5.770437,52.103589]},"properties":{"category":"fietsenstalling","name":"","operator":""}},{"type":"Feature","geometry":{"type":"Point","coordinates":[5.610611,52.081204]},"properties":{"category":"fietsenstalling","name":"","operator":""}},{"type":"Feature","geometry":{"type":"Point","coordinates":[5.670018,52.047037]},"properties":{"category":"parkeergarage","name":"Q-Park Markt","operator":"Q-Park"}},{"type":"Feature","geometry":{"type":"Point","coordinates":[5.64528,52.016066]},"properties":{"category":"parkeergarage","name":"Pathé Ede","operator":""}},{"type":"Feature","geometry":{"type":"Point","coordinates":[5.6939,52.039355]},"properties":{"category":"parkeergarage","name":"","operator":""}},{"type":"Feature","geometry":{"type":"Point","coordinates":[5.647291,52.021657]},"properties":{"category":"parkeergarage","name":"","operator":"Ziekenhuis Gelderse Vallei"}},{"type":"Feature","geometry":{"type":"Point","coordinates":[5.666831,52.041562]},"properties":{"category":"parkeergarage","name":"De Halte","operator":""}},{"type":"Feature","geometry":{"type":"Point","coordinates":[5.672088,52.0495]},"properties":{"category":"parkeergarage","name":"Bunschoterhof","operator":""}},{"type":"Feature","geometry":{"type":"Point","coordinates":[5.651899,52.016149]},"properties":{"category":"parkeergarage","name":"","operator":""}},{"type":"Feature","geometry":{"type":"Point","coordinates":[5.575854,52.045812]},"properties":{"category":"p_and_r","name":"P+R Dokter Hoolboomweg","operator":"Q-Park"}},{"type":"Feature","geometry":{"type":"Point","coordinates":[5.575356,52.045303]},"properties":{"category":"p_and_r","name":"P+R Veenendaal-De Klomp","operator":""}}]}