{"type":"FeatureCollection","metadata":{"gemeente":"Emmen","slug":"emmen","by_category":{"bus_halte":384,"sportveld":22,"fietsenstalling":17,"transformatorhuisje":14,"ov_knooppunt":12,"hogeschool":9,"middelbare_school":8,"p_and_r":5,"parkeergarage":4,"ns_station":3,"bibliotheek":3,"winkelcentrum":3,"inzamelpunt":2,"gemeentehuis":1,"ziekenhuis":1,"universiteit":1},"total":489},"features":[{"type":"Feature","geometry":{"type":"Point","coordinates":[6.848801,52.718366]},"properties":{"category":"ns_station","name":"Nieuw Amsterdam","operator":""}},{"type":"Feature","geometry":{"type":"Point","coordinates":[6.89972,52.790629]},"properties":{"category":"ns_station","name":"Emmen","operator":"Arriva"}},{"type":"Feature","geometry":{"type":"Point","coordinates":[6.87433,52.748715]},"properties":{"category":"ns_station","name":"Emmen Zuid","operator":"Arriva"}},{"type":"Feature","geometry":{"type":"Point","coordinates":[6.880717,52.663521]},"properties":{"category":"bus_halte","name":"Europaweg 140","operator":""}},{"type":"Feature","geometry":{"type":"Point","coordinates":[6.899653,52.795401]},"properties":{"category":"bus_halte","name":"Bendienplein","operator":""}},{"type":"Feature","geometry":{"type":"Point","coordinates":[6.899603,52.795636]},"properties":{"category":"bus_halte","name":"Bendienplein","operator":""}},{"type":"Feature","geometry":{"type":"Point","coordinates":[6.900995,52.798274]},"properties":{"category":"bus_halte","name":"Wolfsbergenweg","operator":""}},{"type":"Feature","geometry":{"type":"Point","coordinates":[6.902028,52.799997]},"properties":{"category":"bus_halte","name":"Wolfsbergenweg","operator":""}},{"type":"Feature","geometry":{"type":"Point","coordinates":[6.903742,52.803249]},"properties":{"category":"bus_halte","name":"Heidehiem","operator":""}},{"type":"Feature","geometry":{"type":"Point","coordinates":[6.903249,52.802585]},"properties":{"category":"bus_halte","name":"Heidehiem","operator":""}},{"type":"Feature","geometry":{"type":"Point","coordinates":[6.907885,52.81149]},"properties":{"category":"bus_halte","name":"Weerdingerstraat 156","operator":""}},{"type":"Feature","geometry":{"type":"Point","coordinates":[6.907998,52.811472]},"properties":{"category":"bus_halte","name":"Weerdingerstraat 156","operator":""}},{"type":"Feature","geometry":{"type":"Point","coordinates":[6.913597,52.817307]},"properties":{"category":"bus_halte","name":"Nolsstraat","operator":""}},{"type":"Feature","geometry":{"type":"Point","coordinates":[6.914253,52.817297]},"properties":{"category":"bus_halte","name":"Nolsstraat","operator":""}},{"type":"Feature","geometry":{"type":"Point","coordinates":[6.917875,52.819208]},"properties":{"category":"bus_halte","name":"Nieuwstraat","operator":""}},{"type":"Feature","geometry":{"type":"Point","coordinates":[6.918169,52.819752]},"properties":{"category":"bus_halte","name":"Nieuwstraat","operator":""}},{"type":"Feature","geometry":{"type":"Point","coordinates":[6.922542,52.825533]},"properties":{"category":"bus_halte","name":"Bergweg","operator":""}},{"type":"Feature","geometry":{"type":"Point","coordinates":[6.922042,52.825249]},"properties":{"category":"bus_halte","name":"Bergweg","operator":""}},{"type":"Feature","geometry":{"type":"Point","coordinates":[6.955723,52.845292]},"properties":{"category":"bus_halte","name":"Vledderdiep","operator":""}},{"type":"Feature","geometry":{"type":"Point","coordinates":[6.956506,52.845528]},"properties":{"category":"bus_halte","name":"Vledderdiep","operator":""}},{"type":"Feature","geometry":{"type":"Point","coordinates":[6.962313,52.847971]},"properties":{"category":"bus_halte","name":"Weerdingerkanaal NZ 60","operator":""}},{"type":"Feature","geometry":{"type":"Point","coordinates":[6.964042,52.848537]},"properties":{"category":"bus_halte","name":"Weerdingerkanaal NZ 60","operator":""}},{"type":"Feature","geometry":{"type":"Point","coordinates":[6.970134,52.851022]},"properties":{"category":"bus_halte","name":"Weerdingerkanaal NZ 97","operator":""}},{"type":"Feature","geometry":{"type":"Point","coordinates":[6.97084,52.851216]},"properties":{"category":"bus_halte","name":"Weerdingerkanaal NZ 97","operator":""}},{"type":"Feature","geometry":{"type":"Point","coordinates":[6.977644,52.854001]},"properties":{"category":"bus_halte","name":"Weerdingerkanaal NZ 117","operator":""}},{"type":"Feature","geometry":{"type":"Point","coordinates":[6.978002,52.854008]},"properties":{"category":"bus_halte","name":"Weerdingerkanaal NZ 117","operator":""}},{"type":"Feature","geometry":{"type":"Point","coordinates":[6.9827,52.855844]},"properties":{"category":"bus_halte","name":"Weerdingerkanaal NZ 140","operator":""}},{"type":"Feature","geometry":{"type":"Point","coordinates":[6.982712,52.85594]},"properties":{"category":"bus_halte","name":"Weerdingerkanaal NZ 140","operator":""}},{"type":"Feature","geometry":{"type":"Point","coordinates":[6.987716,52.857798]},"properties":{"category":"bus_halte","name":"Raiffeissenstraat","operator":""}},{"type":"Feature","geometry":{"type":"Point","coordinates":[6.98749,52.8578]},"properties":{"category":"bus_halte","name":"Raiffeissenstraat","operator":""}},{"type":"Feature","geometry":{"type":"Point","coordinates":[6.991617,52.859439]},"properties":{"category":"bus_halte","name":"Weerdingerkanaal NZ 187","operator":""}},{"type":"Feature","geometry":{"type":"Point","coordinates":[6.992917,52.859829]},"properties":{"category":"bus_halte","name":"Weerdingerkanaal NZ 187","operator":""}},{"type":"Feature","geometry":{"type":"Point","coordinates":[6.99555,52.860957]},"properties":{"category":"bus_halte","name":"Weerdingerkanaal NZ 203","operator":""}},{"type":"Feature","geometry":{"type":"Point","coordinates":[6.9964,52.861202]},"properties":{"category":"bus_halte","name":"Weerdingerkanaal NZ 203","operator":""}},{"type":"Feature","geometry":{"type":"Point","coordinates":[7.001014,52.863873]},"properties":{"category":"bus_halte","name":"Weerdingerkanaal NZ 217","operator":""}},{"type":"Feature","geometry":{"type":"Point","coordinates":[7.002715,52.864784]},"properties":{"category":"bus_halte","name":"Weerdingerkanaal NZ 217","operator":""}},{"type":"Feature","geometry":{"type":"Point","coordinates":[7.008136,52.868161]},"properties":{"category":"bus_halte","name":"Roswinkelerbrug","operator":""}},{"type":"Feature","geometry":{"type":"Point","coordinates":[7.008145,52.868285]},"properties":{"category":"bus_halte","name":"Roswinkelerbrug","operator":""}},{"type":"Feature","geometry":{"type":"Point","coordinates":[7.014625,52.872217]},"properties":{"category":"bus_halte","name":"Weerdingerkanaal NZ 273","operator":""}},{"type":"Feature","geometry":{"type":"Point","coordinates":[7.015146,52.872758]},"properties":{"category":"bus_halte","name":"Weerdingerkanaal NZ 273","operator":""}},{"type":"Feature","geometry":{"type":"Point","coordinates":[6.892641,52.788792]},"properties":{"category":"bus_halte","name":"Weerdingerstraat","operator":""}},{"type":"Feature","geometry":{"type":"Point","coordinates":[6.893167,52.789222]},"properties":{"category":"bus_halte","name":"Weerdingerstraat","operator":""}},{"type":"Feature","geometry":{"type":"Point","coordinates":[6.872868,52.810161]},"properties":{"category":"bus_halte","name":"Valterbospad","operator":""}},{"type":"Feature","geometry":{"type":"Point","coordinates":[6.874043,52.809541]},"properties":{"category":"bus_halte","name":"Valterbospad","operator":""}},{"type":"Feature","geometry":{"type":"Point","coordinates":[6.880634,52.805036]},"properties":{"category":"bus_halte","name":"Odoornerweg 81","operator":""}},{"type":"Feature","geometry":{"type":"Point","coordinates":[6.88124,52.804476]},"properties":{"category":"bus_halte","name":"Odoornerweg 81","operator":""}},{"type":"Feature","geometry":{"type":"Point","coordinates":[6.89212,52.785496]},"properties":{"category":"bus_halte","name":"Centrum","operator":""}},{"type":"Feature","geometry":{"type":"Point","coordinates":[6.98514,52.725]},"properties":{"category":"bus_halte","name":"Dordsebrug","operator":""}},{"type":"Feature","geometry":{"type":"Point","coordinates":[6.985655,52.725821]},"properties":{"category":"bus_halte","name":"Dordsebrug","operator":""}},{"type":"Feature","geometry":{"type":"Point","coordinates":[6.994538,52.724779]},"properties":{"category":"bus_halte","name":"Centrum","operator":""}},{"type":"Feature","geometry":{"type":"Point","coordinates":[6.994699,52.724855]},"properties":{"category":"bus_halte","name":"Centrum","operator":""}},{"type":"Feature","geometry":{"type":"Point","coordinates":[7.00053,52.724603]},"properties":{"category":"bus_halte","name":"Roedestraat","operator":""}},{"type":"Feature","geometry":{"type":"Point","coordinates":[6.999608,52.724542]},"properties":{"category":"bus_halte","name":"Roedestraat","operator":""}},{"type":"Feature","geometry":{"type":"Point","coordinates":[7.005,52.723998]},"properties":{"category":"bus_halte","name":"Kloostermanswijk","operator":""}},{"type":"Feature","geometry":{"type":"Point","coordinates":[7.004647,52.724092]},"properties":{"category":"bus_halte","name":"Kloostermanswijk","operator":""}},{"type":"Feature","geometry":{"type":"Point","coordinates":[7.02192,52.723363]},"properties":{"category":"bus_halte","name":"Langestraat 270","operator":""}},{"type":"Feature","geometry":{"type":"Point","coordinates":[7.021823,52.723292]},"properties":{"category":"bus_halte","name":"Langestraat 270","operator":""}},{"type":"Feature","geometry":{"type":"Point","coordinates":[7.027955,52.723033]},"properties":{"category":"bus_halte","name":"Eemslandweg","operator":""}},{"type":"Feature","geometry":{"type":"Point","coordinates":[7.027719,52.723118]},"properties":{"category":"bus_halte","name":"Eemslandweg","operator":""}},{"type":"Feature","geometry":{"type":"Point","coordinates":[7.012655,52.723755]},"properties":{"category":"bus_halte","name":"Langestraat 213","operator":""}},{"type":"Feature","geometry":{"type":"Point","coordinates":[7.012056,52.723708]},"properties":{"category":"bus_halte","name":"Langestraat 213","operator":""}},{"type":"Feature","geometry":{"type":"Point","coordinates":[6.889604,52.788417]},"properties":{"category":"bus_halte","name":"Frieslandweg","operator":""}},{"type":"Feature","geometry":{"type":"Point","coordinates":[6.890108,52.788818]},"properties":{"category":"bus_halte","name":"Frieslandweg","operator":""}},{"type":"Feature","geometry":{"type":"Point","coordinates":[6.910298,52.781188]},"properties":{"category":"bus_halte","name":"Boermarkeweg 23","operator":""}},{"type":"Feature","geometry":{"type":"Point","coordinates":[6.911254,52.77903]},"properties":{"category":"bus_halte","name":"Statenweg","operator":""}},{"type":"Feature","geometry":{"type":"Point","coordinates":[6.911211,52.77883]},"properties":{"category":"bus_halte","name":"Statenweg","operator":""}},{"type":"Feature","geometry":{"type":"Point","coordinates":[6.91083,52.78218]},"properties":{"category":"bus_halte","name":"Boermarkeweg 23","operator":""}},{"type":"Feature","geometry":{"type":"Point","coordinates":[6.916345,52.778904]},"properties":{"category":"bus_halte","name":"Oude Meerdijk","operator":""}},{"type":"Feature","geometry":{"type":"Point","coordinates":[6.918122,52.778832]},"properties":{"category":"bus_halte","name":"Oude Meerdijk","operator":""}},{"type":"Feature","geometry":{"type":"Point","coordinates":[6.910927,52.78547]},"properties":{"category":"bus_halte","name":"Ziekenhuis","operator":""}},{"type":"Feature","geometry":{"type":"Point","coordinates":[6.911307,52.785023]},"properties":{"category":"bus_halte","name":"Ziekenhuis","operator":""}},{"type":"Feature","geometry":{"type":"Point","coordinates":[6.92171,52.779082]},"properties":{"category":"bus_halte","name":"Holtlaan","operator":""}},{"type":"Feature","geometry":{"type":"Point","coordinates":[6.923924,52.779844]},"properties":{"category":"bus_halte","name":"Holtlaan","operator":""}},{"type":"Feature","geometry":{"type":"Point","coordinates":[6.925848,52.780272]},"properties":{"category":"bus_halte","name":"Dingspellaan","operator":""}},{"type":"Feature","geometry":{"type":"Point","coordinates":[6.927992,52.780302]},"properties":{"category":"bus_halte","name":"Dingspellaan","operator":""}},{"type":"Feature","geometry":{"type":"Point","coordinates":[6.932762,52.780806]},"properties":{"category":"bus_halte","name":"Kerspellaan","operator":""}},{"type":"Feature","geometry":{"type":"Point","coordinates":[6.934404,52.780477]},"properties":{"category":"bus_halte","name":"Kerspellaan","operator":""}},{"type":"Feature","geometry":{"type":"Point","coordinates":[6.936883,52.779512]},"properties":{"category":"bus_halte","name":"Boerschapslaan","operator":""}},{"type":"Feature","geometry":{"type":"Point","coordinates":[6.937506,52.780088]},"properties":{"category":"bus_halte","name":"Boerschapslaan","operator":""}},{"type":"Feature","geometry":{"type":"Point","coordinates":[6.96528,52.752251]},"properties":{"category":"bus_halte","name":"Boekweitveld","operator":""}},{"type":"Feature","geometry":{"type":"Point","coordinates":[6.965328,52.752339]},"properties":{"category":"bus_halte","name":"Boekweitveld","operator":""}},{"type":"Feature","geometry":{"type":"Point","coordinates":[6.967865,52.749291]},"properties":{"category":"bus_halte","name":"Klazienaveenschestraat 6","operator":""}},{"type":"Feature","geometry":{"type":"Point","coordinates":[6.96788,52.749408]},"properties":{"category":"bus_halte","name":"Klazienaveenschestraat 6","operator":""}},{"type":"Feature","geometry":{"type":"Point","coordinates":[6.96463,52.758682]},"properties":{"category":"bus_halte","name":"Klazienaveenschestraat 80","operator":""}},{"type":"Feature","geometry":{"type":"Point","coordinates":[6.964738,52.758672]},"properties":{"category":"bus_halte","name":"Klazienaveenschestraat 80","operator":""}},{"type":"Feature","geometry":{"type":"Point","coordinates":[6.961057,52.763822]},"properties":{"category":"bus_halte","name":"Oosterveldsestraat 155","operator":""}},{"type":"Feature","geometry":{"type":"Point","coordinates":[6.961132,52.763886]},"properties":{"category":"bus_halte","name":"Oosterveldsestraat 155","operator":""}},{"type":"Feature","geometry":{"type":"Point","coordinates":[7.033388,52.722803]},"properties":{"category":"bus_halte","name":"Kluinstraat","operator":""}},{"type":"Feature","geometry":{"type":"Point","coordinates":[7.033427,52.72287]},"properties":{"category":"bus_halte","name":"Kluinstraat","operator":""}},{"type":"Feature","geometry":{"type":"Point","coordinates":[7.038269,52.722594]},"properties":{"category":"bus_halte","name":"Brug Santing","operator":""}},{"type":"Feature","geometry":{"type":"Point","coordinates":[7.038786,52.72265]},"properties":{"category":"bus_halte","name":"Brug Santing","operator":""}},{"type":"Feature","geometry":{"type":"Point","coordinates":[7.0399,52.724954]},"properties":{"category":"bus_halte","name":"Zuidervaart Oostzijde 25","operator":""}},{"type":"Feature","geometry":{"type":"Point","coordinates":[7.039793,52.72523]},"properties":{"category":"bus_halte","name":"Zuidervaart Oostzijde 25","operator":""}},{"type":"Feature","geometry":{"type":"Point","coordinates":[7.040487,52.733643]},"properties":{"category":"bus_halte","name":"Verlengde Oosterdiep Oostzijde 205","operator":""}},{"type":"Feature","geometry":{"type":"Point","coordinates":[7.040627,52.733616]},"properties":{"category":"bus_halte","name":"Verlengde Oosterdiep Oostzijde 205","operator":""}},{"type":"Feature","geometry":{"type":"Point","coordinates":[7.041187,52.741898]},"properties":{"category":"bus_halte","name":"Verlengde Oosterdiep Oostzijde 165","operator":""}},{"type":"Feature","geometry":{"type":"Point","coordinates":[7.041414,52.742923]},"properties":{"category":"bus_halte","name":"Verlengde Oosterdiep Oostzijde 165","operator":""}},{"type":"Feature","geometry":{"type":"Point","coordinates":[7.041939,52.750997]},"properties":{"category":"bus_halte","name":"Verlengde Oosterdiep OZ 130","operator":""}},{"type":"Feature","geometry":{"type":"Point","coordinates":[7.042147,52.751707]},"properties":{"category":"bus_halte","name":"Verlengde Oosterdiep OZ 130","operator":""}},{"type":"Feature","geometry":{"type":"Point","coordinates":[7.042211,52.754348]},"properties":{"category":"bus_halte","name":"Centrum","operator":""}},{"type":"Feature","geometry":{"type":"Point","coordinates":[7.04233,52.754175]},"properties":{"category":"bus_halte","name":"Centrum","operator":""}},{"type":"Feature","geometry":{"type":"Point","coordinates":[6.863049,52.663403]},"properties":{"category":"bus_halte","name":"Europaweg 198","operator":""}},{"type":"Feature","geometry":{"type":"Point","coordinates":[6.862664,52.663451]},"properties":{"category":"bus_halte","name":"Europaweg 198","operator":""}},{"type":"Feature","geometry":{"type":"Point","coordinates":[6.875454,52.664745]},"properties":{"category":"bus_halte","name":"Lauensteinstraat","operator":""}},{"type":"Feature","geometry":{"type":"Point","coordinates":[6.87573,52.664869]},"properties":{"category":"bus_halte","name":"Lauensteinstraat","operator":""}},{"type":"Feature","geometry":{"type":"Point","coordinates":[6.880908,52.663283]},"properties":{"category":"bus_halte","name":"Europaweg 140","operator":""}},{"type":"Feature","geometry":{"type":"Point","coordinates":[6.889201,52.660419]},"properties":{"category":"bus_halte","name":"Europaweg 94","operator":""}},{"type":"Feature","geometry":{"type":"Point","coordinates":[6.889161,52.660348]},"properties":{"category":"bus_halte","name":"Europaweg 94","operator":""}},{"type":"Feature","geometry":{"type":"Point","coordinates":[6.8945,52.658644]},"properties":{"category":"bus_halte","name":"Europaweg 64","operator":""}},{"type":"Feature","geometry":{"type":"Point","coordinates":[6.894256,52.658811]},"properties":{"category":"bus_halte","name":"Europaweg 64","operator":""}},{"type":"Feature","geometry":{"type":"Point","coordinates":[6.901537,52.656393]},"properties":{"category":"bus_halte","name":"Europaweg 38","operator":""}},{"type":"Feature","geometry":{"type":"Point","coordinates":[6.901799,52.656424]},"properties":{"category":"bus_halte","name":"Europaweg 38","operator":""}},{"type":"Feature","geometry":{"type":"Point","coordinates":[6.914674,52.652547]},"properties":{"category":"bus_halte","name":"Europaweg 30","operator":""}},{"type":"Feature","geometry":{"type":"Point","coordinates":[6.914021,52.652685]},"properties":{"category":"bus_halte","name":"Europaweg 30","operator":""}},{"type":"Feature","geometry":{"type":"Point","coordinates":[6.939602,52.648883]},"properties":{"category":"bus_halte","name":"Europaweg 11","operator":""}},{"type":"Feature","geometry":{"type":"Point","coordinates":[6.93938,52.649031]},"properties":{"category":"bus_halte","name":"Europaweg 11","operator":""}},{"type":"Feature","geometry":{"type":"Point","coordinates":[6.965104,52.648461]},"properties":{"category":"bus_halte","name":"Europaweg 77","operator":""}},{"type":"Feature","geometry":{"type":"Point","coordinates":[6.965891,52.648412]},"properties":{"category":"bus_halte","name":"Europaweg 77","operator":""}},{"type":"Feature","geometry":{"type":"Point","coordinates":[6.975875,52.648598]},"properties":{"category":"bus_halte","name":"Europaweg 88","operator":""}},{"type":"Feature","geometry":{"type":"Point","coordinates":[6.975536,52.648727]},"properties":{"category":"bus_halte","name":"Europaweg 88","operator":""}},{"type":"Feature","geometry":{"type":"Point","coordinates":[6.986517,52.646986]},"properties":{"category":"bus_halte","name":"Kerk","operator":""}},{"type":"Feature","geometry":{"type":"Point","coordinates":[6.986498,52.647205]},"properties":{"category":"bus_halte","name":"Kerk","operator":""}},{"type":"Feature","geometry":{"type":"Point","coordinates":[6.975078,52.672045]},"properties":{"category":"bus_halte","name":"Zonnedauw","operator":""}},{"type":"Feature","geometry":{"type":"Point","coordinates":[6.975719,52.672097]},"properties":{"category":"bus_halte","name":"Zonnedauw","operator":""}},{"type":"Feature","geometry":{"type":"Point","coordinates":[6.981103,52.671795]},"properties":{"category":"bus_halte","name":"Varenhof","operator":""}},{"type":"Feature","geometry":{"type":"Point","coordinates":[6.979304,52.671934]},"properties":{"category":"bus_halte","name":"Varenhof","operator":""}},{"type":"Feature","geometry":{"type":"Point","coordinates":[6.985013,52.671683]},"properties":{"category":"bus_halte","name":"Vogelwikke","operator":""}},{"type":"Feature","geometry":{"type":"Point","coordinates":[6.985218,52.671607]},"properties":{"category":"bus_halte","name":"Vogelwikke","operator":""}},{"type":"Feature","geometry":{"type":"Point","coordinates":[6.976806,52.688349]},"properties":{"category":"bus_halte","name":"Verlengde Noordersloot","operator":""}},{"type":"Feature","geometry":{"type":"Point","coordinates":[6.976636,52.688158]},"properties":{"category":"bus_halte","name":"Verlengde Noordersloot","operator":""}},{"type":"Feature","geometry":{"type":"Point","coordinates":[6.988071,52.649838]},"properties":{"category":"bus_halte","name":"De Vierakkers","operator":""}},{"type":"Feature","geometry":{"type":"Point","coordinates":[6.988066,52.650039]},"properties":{"category":"bus_halte","name":"De Vierakkers","operator":""}},{"type":"Feature","geometry":{"type":"Point","coordinates":[6.993202,52.659149]},"properties":{"category":"bus_halte","name":"Boovenen","operator":""}},{"type":"Feature","geometry":{"type":"Point","coordinates":[6.993052,52.659082]},"properties":{"category":"bus_halte","name":"Boovenen","operator":""}},{"type":"Feature","geometry":{"type":"Point","coordinates":[6.998602,52.668865]},"properties":{"category":"bus_halte","name":"Kerkenweg 28","operator":""}},{"type":"Feature","geometry":{"type":"Point","coordinates":[6.998606,52.669091]},"properties":{"category":"bus_halte","name":"Kerkenweg 28","operator":""}},{"type":"Feature","geometry":{"type":"Point","coordinates":[6.998007,52.671102]},"properties":{"category":"bus_halte","name":"De Singel","operator":""}},{"type":"Feature","geometry":{"type":"Point","coordinates":[6.997865,52.671035]},"properties":{"category":"bus_halte","name":"De Singel","operator":""}},{"type":"Feature","geometry":{"type":"Point","coordinates":[6.977565,52.696089]},"properties":{"category":"bus_halte","name":"Schutwijk","operator":""}},{"type":"Feature","geometry":{"type":"Point","coordinates":[6.977716,52.69632]},"properties":{"category":"bus_halte","name":"Schutwijk","operator":""}},{"type":"Feature","geometry":{"type":"Point","coordinates":[6.983103,52.704778]},"properties":{"category":"bus_halte","name":"Veenhoeksweg","operator":""}},{"type":"Feature","geometry":{"type":"Point","coordinates":[6.983246,52.70501]},"properties":{"category":"bus_halte","name":"Veenhoeksweg","operator":""}},{"type":"Feature","geometry":{"type":"Point","coordinates":[6.983607,52.70931]},"properties":{"category":"bus_halte","name":"Moorweg","operator":""}},{"type":"Feature","geometry":{"type":"Point","coordinates":[6.983778,52.709527]},"properties":{"category":"bus_halte","name":"Moorweg","operator":""}},{"type":"Feature","geometry":{"type":"Point","coordinates":[6.984849,52.718885]},"properties":{"category":"bus_halte","name":"Broekweg","operator":""}},{"type":"Feature","geometry":{"type":"Point","coordinates":[6.984657,52.718359]},"properties":{"category":"bus_halte","name":"Broekweg","operator":""}},{"type":"Feature","geometry":{"type":"Point","coordinates":[6.985065,52.721913]},"properties":{"category":"bus_halte","name":"Dordsedijk 510","operator":""}},{"type":"Feature","geometry":{"type":"Point","coordinates":[6.985289,52.722431]},"properties":{"category":"bus_halte","name":"Dordsedijk 510","operator":""}},{"type":"Feature","geometry":{"type":"Point","coordinates":[6.987076,52.725105]},"properties":{"category":"bus_halte","name":"Dordsebrug","operator":""}},{"type":"Feature","geometry":{"type":"Point","coordinates":[6.895756,52.779351]},"properties":{"category":"bus_halte","name":"Wilhelminastraat","operator":""}},{"type":"Feature","geometry":{"type":"Point","coordinates":[6.89748,52.779195]},"properties":{"category":"bus_halte","name":"Wilhelminastraat","operator":""}},{"type":"Feature","geometry":{"type":"Point","coordinates":[6.903882,52.779235]},"properties":{"category":"bus_halte","name":"Van Schaikweg","operator":""}},{"type":"Feature","geometry":{"type":"Point","coordinates":[6.904064,52.779032]},"properties":{"category":"bus_halte","name":"Van Schaikweg","operator":""}},{"type":"Feature","geometry":{"type":"Point","coordinates":[6.939622,52.800439]},"properties":{"category":"bus_halte","name":"Emmerhoutstraat","operator":""}},{"type":"Feature","geometry":{"type":"Point","coordinates":[6.951533,52.802559]},"properties":{"category":"bus_halte","name":"Rondweg","operator":""}},{"type":"Feature","geometry":{"type":"Point","coordinates":[6.950728,52.80262]},"properties":{"category":"bus_halte","name":"Rondweg","operator":""}},{"type":"Feature","geometry":{"type":"Point","coordinates":[6.965081,52.802723]},"properties":{"category":"bus_halte","name":"Kanaal A 11","operator":""}},{"type":"Feature","geometry":{"type":"Point","coordinates":[6.964675,52.802601]},"properties":{"category":"bus_halte","name":"Kanaal A 11","operator":""}},{"type":"Feature","geometry":{"type":"Point","coordinates":[6.973006,52.803458]},"properties":{"category":"bus_halte","name":"Kanaal A 38","operator":""}},{"type":"Feature","geometry":{"type":"Point","coordinates":[6.971406,52.80337]},"properties":{"category":"bus_halte","name":"Kanaal A 38","operator":""}},{"type":"Feature","geometry":{"type":"Point","coordinates":[6.986244,52.804815]},"properties":{"category":"bus_halte","name":"Kanaal A 93","operator":""}},{"type":"Feature","geometry":{"type":"Point","coordinates":[6.985262,52.804794]},"properties":{"category":"bus_halte","name":"Kanaal A 93","operator":""}},{"type":"Feature","geometry":{"type":"Point","coordinates":[6.989627,52.805245]},"properties":{"category":"bus_halte","name":"Kanaal A 84","operator":""}},{"type":"Feature","geometry":{"type":"Point","coordinates":[6.989785,52.805181]},"properties":{"category":"bus_halte","name":"Kanaal A 84","operator":""}},{"type":"Feature","geometry":{"type":"Point","coordinates":[6.998129,52.806114]},"properties":{"category":"bus_halte","name":"Eerste Verbindingsweg","operator":""}},{"type":"Feature","geometry":{"type":"Point","coordinates":[6.999099,52.806133]},"properties":{"category":"bus_halte","name":"Eerste Verbindingsweg","operator":""}},{"type":"Feature","geometry":{"type":"Point","coordinates":[7.002406,52.806479]},"properties":{"category":"bus_halte","name":"Tweede Verbindingsweg","operator":""}},{"type":"Feature","geometry":{"type":"Point","coordinates":[7.00272,52.806593]},"properties":{"category":"bus_halte","name":"Tweede Verbindingsweg","operator":""}},{"type":"Feature","geometry":{"type":"Point","coordinates":[7.010523,52.807391]},"properties":{"category":"bus_halte","name":"Derde Verbindingsweg","operator":""}},{"type":"Feature","geometry":{"type":"Point","coordinates":[7.010179,52.807271]},"properties":{"category":"bus_halte","name":"Derde Verbindingsweg","operator":""}},{"type":"Feature","geometry":{"type":"Point","coordinates":[7.014904,52.807754]},"properties":{"category":"bus_halte","name":"Kanaal A NZ 223","operator":""}},{"type":"Feature","geometry":{"type":"Point","coordinates":[7.015144,52.807855]},"properties":{"category":"bus_halte","name":"Kanaal A NZ 223","operator":""}},{"type":"Feature","geometry":{"type":"Point","coordinates":[7.017188,52.810223]},"properties":{"category":"bus_halte","name":"Runde ZZ 3","operator":""}},{"type":"Feature","geometry":{"type":"Point","coordinates":[7.018878,52.810272]},"properties":{"category":"bus_halte","name":"Runde ZZ 3","operator":""}},{"type":"Feature","geometry":{"type":"Point","coordinates":[7.027059,52.81117]},"properties":{"category":"bus_halte","name":"Schuttingslaan","operator":""}},{"type":"Feature","geometry":{"type":"Point","coordinates":[7.027452,52.811124]},"properties":{"category":"bus_halte","name":"Schuttingslaan","operator":""}},{"type":"Feature","geometry":{"type":"Point","coordinates":[7.034084,52.811655]},"properties":{"category":"bus_halte","name":"Gruinten","operator":""}},{"type":"Feature","geometry":{"type":"Point","coordinates":[7.035328,52.811483]},"properties":{"category":"bus_halte","name":"Gruinten","operator":""}},{"type":"Feature","geometry":{"type":"Point","coordinates":[7.03921,52.811516]},"properties":{"category":"bus_halte","name":"Berkenlaan","operator":""}},{"type":"Feature","geometry":{"type":"Point","coordinates":[7.040458,52.811341]},"properties":{"category":"bus_halte","name":"Berkenlaan","operator":""}},{"type":"Feature","geometry":{"type":"Point","coordinates":[7.044522,52.811225]},"properties":{"category":"bus_halte","name":"De Spoel","operator":""}},{"type":"Feature","geometry":{"type":"Point","coordinates":[7.044868,52.811355]},"properties":{"category":"bus_halte","name":"De Spoel","operator":""}},{"type":"Feature","geometry":{"type":"Point","coordinates":[7.050411,52.813577]},"properties":{"category":"bus_halte","name":"Hoofdkanaal Westzijde","operator":""}},{"type":"Feature","geometry":{"type":"Point","coordinates":[7.04919,52.812824]},"properties":{"category":"bus_halte","name":"Hoofdkanaal Westzijde","operator":""}},{"type":"Feature","geometry":{"type":"Point","coordinates":[7.053398,52.815215]},"properties":{"category":"bus_halte","name":"Hoofdkanaal Westzijde 38","operator":""}},{"type":"Feature","geometry":{"type":"Point","coordinates":[7.053884,52.815393]},"properties":{"category":"bus_halte","name":"Hoofdkanaal Westzijde 38","operator":""}},{"type":"Feature","geometry":{"type":"Point","coordinates":[7.058063,52.81781]},"properties":{"category":"bus_halte","name":"Klein Draaigie","operator":""}},{"type":"Feature","geometry":{"type":"Point","coordinates":[7.057675,52.817709]},"properties":{"category":"bus_halte","name":"Klein Draaigie","operator":""}},{"type":"Feature","geometry":{"type":"Point","coordinates":[7.061947,52.820999]},"properties":{"category":"bus_halte","name":"Brug","operator":""}},{"type":"Feature","geometry":{"type":"Point","coordinates":[7.061602,52.82084]},"properties":{"category":"bus_halte","name":"Brug","operator":""}},{"type":"Feature","geometry":{"type":"Point","coordinates":[7.068971,52.826561]},"properties":{"category":"bus_halte","name":"Brug 1","operator":""}},{"type":"Feature","geometry":{"type":"Point","coordinates":[7.069057,52.826491]},"properties":{"category":"bus_halte","name":"Brug 1","operator":""}},{"type":"Feature","geometry":{"type":"Point","coordinates":[7.073318,52.830037]},"properties":{"category":"bus_halte","name":"Brug 2","operator":""}},{"type":"Feature","geometry":{"type":"Point","coordinates":[7.073228,52.830114]},"properties":{"category":"bus_halte","name":"Brug 2","operator":""}},{"type":"Feature","geometry":{"type":"Point","coordinates":[7.078265,52.834319]},"properties":{"category":"bus_halte","name":"Brug 3","operator":""}},{"type":"Feature","geometry":{"type":"Point","coordinates":[7.078373,52.834291]},"properties":{"category":"bus_halte","name":"Brug 3","operator":""}},{"type":"Feature","geometry":{"type":"Point","coordinates":[6.887259,52.666458]},"properties":{"category":"bus_halte","name":"Burg. Osselaan","operator":""}},{"type":"Feature","geometry":{"type":"Point","coordinates":[6.887529,52.666539]},"properties":{"category":"bus_halte","name":"Burg. Osselaan","operator":""}},{"type":"Feature","geometry":{"type":"Point","coordinates":[6.900094,52.679703]},"properties":{"category":"bus_halte","name":"Kanaalweg","operator":""}},{"type":"Feature","geometry":{"type":"Point","coordinates":[6.900235,52.679651]},"properties":{"category":"bus_halte","name":"Kanaalweg","operator":""}},{"type":"Feature","geometry":{"type":"Point","coordinates":[6.913969,52.687381]},"properties":{"category":"bus_halte","name":"Brug de Peel","operator":""}},{"type":"Feature","geometry":{"type":"Point","coordinates":[6.913777,52.687362]},"properties":{"category":"bus_halte","name":"Brug de Peel","operator":""}},{"type":"Feature","geometry":{"type":"Point","coordinates":[6.918352,52.693078]},"properties":{"category":"bus_halte","name":"Beekweg","operator":""}},{"type":"Feature","geometry":{"type":"Point","coordinates":[6.919388,52.694231]},"properties":{"category":"bus_halte","name":"Beekweg","operator":""}},{"type":"Feature","geometry":{"type":"Point","coordinates":[6.922215,52.698042]},"properties":{"category":"bus_halte","name":"Noordersloot","operator":""}},{"type":"Feature","geometry":{"type":"Point","coordinates":[6.923197,52.699785]},"properties":{"category":"bus_halte","name":"Noordersloot","operator":""}},{"type":"Feature","geometry":{"type":"Point","coordinates":[6.92413,52.704422]},"properties":{"category":"bus_halte","name":"Pannekoekendijk 66","operator":""}},{"type":"Feature","geometry":{"type":"Point","coordinates":[6.924262,52.704427]},"properties":{"category":"bus_halte","name":"Pannekoekendijk 66","operator":""}},{"type":"Feature","geometry":{"type":"Point","coordinates":[6.925133,52.708156]},"properties":{"category":"bus_halte","name":"Pannekoekendijk 10","operator":""}},{"type":"Feature","geometry":{"type":"Point","coordinates":[6.924987,52.708204]},"properties":{"category":"bus_halte","name":"Pannekoekendijk 10","operator":""}},{"type":"Feature","geometry":{"type":"Point","coordinates":[6.926015,52.712285]},"properties":{"category":"bus_halte","name":"Brug","operator":""}},{"type":"Feature","geometry":{"type":"Point","coordinates":[6.925742,52.711664]},"properties":{"category":"bus_halte","name":"Brug","operator":""}},{"type":"Feature","geometry":{"type":"Point","coordinates":[6.926637,52.715212]},"properties":{"category":"bus_halte","name":"Veenschapswijk","operator":""}},{"type":"Feature","geometry":{"type":"Point","coordinates":[6.926805,52.715411]},"properties":{"category":"bus_halte","name":"Veenschapswijk","operator":""}},{"type":"Feature","geometry":{"type":"Point","coordinates":[6.927505,52.718953]},"properties":{"category":"bus_halte","name":"Havenstraat 121","operator":""}},{"type":"Feature","geometry":{"type":"Point","coordinates":[6.926513,52.723345]},"properties":{"category":"bus_halte","name":"Ericasestraat 82","operator":""}},{"type":"Feature","geometry":{"type":"Point","coordinates":[6.926449,52.723249]},"properties":{"category":"bus_halte","name":"Ericasestraat 82","operator":""}},{"type":"Feature","geometry":{"type":"Point","coordinates":[6.922993,52.728144]},"properties":{"category":"bus_halte","name":"Verlengde Herendijk","operator":""}},{"type":"Feature","geometry":{"type":"Point","coordinates":[6.923026,52.72831]},"properties":{"category":"bus_halte","name":"Verlengde Herendijk","operator":""}},{"type":"Feature","geometry":{"type":"Point","coordinates":[6.897839,52.761504]},"properties":{"category":"bus_halte","name":"Nijbracht","operator":""}},{"type":"Feature","geometry":{"type":"Point","coordinates":[6.898379,52.761937]},"properties":{"category":"bus_halte","name":"Nijbracht","operator":""}},{"type":"Feature","geometry":{"type":"Point","coordinates":[6.896542,52.77036]},"properties":{"category":"bus_halte","name":"Hoenderkamp","operator":""}},{"type":"Feature","geometry":{"type":"Point","coordinates":[6.896045,52.771686]},"properties":{"category":"bus_halte","name":"Hoenderkamp","operator":""}},{"type":"Feature","geometry":{"type":"Point","coordinates":[6.893134,52.774759]},"properties":{"category":"bus_halte","name":"Noordbargerstraat","operator":""}},{"type":"Feature","geometry":{"type":"Point","coordinates":[6.893433,52.775021]},"properties":{"category":"bus_halte","name":"Noordbargerstraat","operator":""}},{"type":"Feature","geometry":{"type":"Point","coordinates":[6.914173,52.740154]},"properties":{"category":"bus_halte","name":"Ericasestraat 15","operator":""}},{"type":"Feature","geometry":{"type":"Point","coordinates":[6.918158,52.73503]},"properties":{"category":"bus_halte","name":"Rhodonietdreef","operator":""}},{"type":"Feature","geometry":{"type":"Point","coordinates":[6.918178,52.735188]},"properties":{"category":"bus_halte","name":"Rhodonietdreef","operator":""}},{"type":"Feature","geometry":{"type":"Point","coordinates":[6.914011,52.740515]},"properties":{"category":"bus_halte","name":"Ericasestraat 15","operator":""}},{"type":"Feature","geometry":{"type":"Point","coordinates":[6.909617,52.74557]},"properties":{"category":"bus_halte","name":"Veldstukken","operator":""}},{"type":"Feature","geometry":{"type":"Point","coordinates":[6.909904,52.745416]},"properties":{"category":"bus_halte","name":"Veldstukken","operator":""}},{"type":"Feature","geometry":{"type":"Point","coordinates":[6.913414,52.756389]},"properties":{"category":"bus_halte","name":"Rietlandstraat","operator":""}},{"type":"Feature","geometry":{"type":"Point","coordinates":[6.913098,52.757154]},"properties":{"category":"bus_halte","name":"Rietlandstraat","operator":""}},{"type":"Feature","geometry":{"type":"Point","coordinates":[6.897802,52.793152]},"properties":{"category":"bus_halte","name":"Nijkampenweg 2","operator":""}},{"type":"Feature","geometry":{"type":"Point","coordinates":[6.897818,52.793346]},"properties":{"category":"bus_halte","name":"Nijkampenweg 2","operator":""}},{"type":"Feature","geometry":{"type":"Point","coordinates":[6.893915,52.798853]},"properties":{"category":"bus_halte","name":"WCT Nijkampenweg","operator":""}},{"type":"Feature","geometry":{"type":"Point","coordinates":[6.895585,52.796475]},"properties":{"category":"bus_halte","name":"Nijkampenweg 67","operator":""}},{"type":"Feature","geometry":{"type":"Point","coordinates":[6.895416,52.796509]},"properties":{"category":"bus_halte","name":"Nijkampenweg 67","operator":""}},{"type":"Feature","geometry":{"type":"Point","coordinates":[6.893916,52.79828]},"properties":{"category":"bus_halte","name":"WCT Nijkampenweg","operator":""}},{"type":"Feature","geometry":{"type":"Point","coordinates":[6.892081,52.801167]},"properties":{"category":"bus_halte","name":"Nijkampenweg 220","operator":""}},{"type":"Feature","geometry":{"type":"Point","coordinates":[6.892024,52.801733]},"properties":{"category":"bus_halte","name":"Nijkampenweg 220","operator":""}},{"type":"Feature","geometry":{"type":"Point","coordinates":[6.881106,52.748085]},"properties":{"category":"bus_halte","name":"Eendenveld","operator":""}},{"type":"Feature","geometry":{"type":"Point","coordinates":[6.891355,52.745857]},"properties":{"category":"bus_halte","name":"Kraaienveld","operator":""}},{"type":"Feature","geometry":{"type":"Point","coordinates":[6.877292,52.761785]},"properties":{"category":"bus_halte","name":"Hesselterbrink","operator":""}},{"type":"Feature","geometry":{"type":"Point","coordinates":[6.88031,52.761099]},"properties":{"category":"bus_halte","name":"Rolderbrink","operator":""}},{"type":"Feature","geometry":{"type":"Point","coordinates":[6.88463,52.760482]},"properties":{"category":"bus_halte","name":"Ruinerbrink 2","operator":""}},{"type":"Feature","geometry":{"type":"Point","coordinates":[6.877719,52.763196]},"properties":{"category":"bus_halte","name":"Borgerbrink","operator":""}},{"type":"Feature","geometry":{"type":"Point","coordinates":[6.878351,52.765685]},"properties":{"category":"bus_halte","name":"Holtingerbrink","operator":""}},{"type":"Feature","geometry":{"type":"Point","coordinates":[6.887164,52.762168]},"properties":{"category":"bus_halte","name":"Ruinerbrink 1","operator":""}},{"type":"Feature","geometry":{"type":"Point","coordinates":[6.890238,52.764708]},"properties":{"category":"bus_halte","name":"Balingerbrink 2","operator":""}},{"type":"Feature","geometry":{"type":"Point","coordinates":[6.894349,52.765133]},"properties":{"category":"bus_halte","name":"Balingerbrink 1","operator":""}},{"type":"Feature","geometry":{"type":"Point","coordinates":[6.881698,52.767564]},"properties":{"category":"bus_halte","name":"Geuzingerbrink","operator":""}},{"type":"Feature","geometry":{"type":"Point","coordinates":[6.887586,52.768586]},"properties":{"category":"bus_halte","name":"Mantingerbrink","operator":""}},{"type":"Feature","geometry":{"type":"Point","coordinates":[6.893407,52.768305]},"properties":{"category":"bus_halte","name":"Druwerbrink Zuid","operator":""}},{"type":"Feature","geometry":{"type":"Point","coordinates":[6.891626,52.769765]},"properties":{"category":"bus_halte","name":"Druwerbrink Noord","operator":""}},{"type":"Feature","geometry":{"type":"Point","coordinates":[6.895256,52.770727]},"properties":{"category":"bus_halte","name":"Hoenderkamp","operator":""}},{"type":"Feature","geometry":{"type":"Point","coordinates":[6.924818,52.789172]},"properties":{"category":"bus_halte","name":"Laan v.d. Eekharst","operator":""}},{"type":"Feature","geometry":{"type":"Point","coordinates":[6.926333,52.789095]},"properties":{"category":"bus_halte","name":"Laan v.d. Eekharst","operator":""}},{"type":"Feature","geometry":{"type":"Point","coordinates":[6.931625,52.791375]},"properties":{"category":"bus_halte","name":"Laan van de Marel","operator":""}},{"type":"Feature","geometry":{"type":"Point","coordinates":[6.937458,52.79205]},"properties":{"category":"bus_halte","name":"Houtweg/WKC","operator":""}},{"type":"Feature","geometry":{"type":"Point","coordinates":[6.910698,52.759964]},"properties":{"category":"bus_halte","name":"Abel Tasmanstraat 1","operator":""}},{"type":"Feature","geometry":{"type":"Point","coordinates":[6.910755,52.760244]},"properties":{"category":"bus_halte","name":"Abel Tasmanstraat 1","operator":""}},{"type":"Feature","geometry":{"type":"Point","coordinates":[6.984135,52.713845]},"properties":{"category":"bus_halte","name":"Petatenweg","operator":""}},{"type":"Feature","geometry":{"type":"Point","coordinates":[6.984313,52.714078]},"properties":{"category":"bus_halte","name":"Petatenweg","operator":""}},{"type":"Feature","geometry":{"type":"Point","coordinates":[6.992312,52.671283]},"properties":{"category":"bus_halte","name":"Zuidersloot 56","operator":""}},{"type":"Feature","geometry":{"type":"Point","coordinates":[6.991416,52.67141]},"properties":{"category":"bus_halte","name":"Zuidersloot 56","operator":""}},{"type":"Feature","geometry":{"type":"Point","coordinates":[6.891599,52.785259]},"properties":{"category":"bus_halte","name":"Centrum","operator":""}},{"type":"Feature","geometry":{"type":"Point","coordinates":[6.939425,52.800447]},"properties":{"category":"bus_halte","name":"Emmerhoutstraat","operator":""}},{"type":"Feature","geometry":{"type":"Point","coordinates":[6.894828,52.754839]},"properties":{"category":"bus_halte","name":"Oranjekanaal","operator":""}},{"type":"Feature","geometry":{"type":"Point","coordinates":[6.943099,52.774841]},"properties":{"category":"bus_halte","name":"Stadion","operator":""}},{"type":"Feature","geometry":{"type":"Point","coordinates":[6.943468,52.774318]},"properties":{"category":"bus_halte","name":"Stadion","operator":""}},{"type":"Feature","geometry":{"type":"Point","coordinates":[6.976988,52.803944]},"properties":{"category":"bus_halte","name":"Kanaal A 55","operator":""}},{"type":"Feature","geometry":{"type":"Point","coordinates":[6.977943,52.803969]},"properties":{"category":"bus_halte","name":"Kanaal A 55","operator":""}},{"type":"Feature","geometry":{"type":"Point","coordinates":[6.960066,52.745756]},"properties":{"category":"bus_halte","name":"Provinciale Weg","operator":""}},{"type":"Feature","geometry":{"type":"Point","coordinates":[6.91777,52.751262]},"properties":{"category":"bus_halte","name":"Cornelis Houtmanstraat","operator":""}},{"type":"Feature","geometry":{"type":"Point","coordinates":[6.918,52.751111]},"properties":{"category":"bus_halte","name":"Cornelis Houtmanstraat","operator":""}},{"type":"Feature","geometry":{"type":"Point","coordinates":[6.964282,52.739431]},"properties":{"category":"bus_halte","name":"Edisonstraat","operator":""}},{"type":"Feature","geometry":{"type":"Point","coordinates":[6.927789,52.719612]},"properties":{"category":"bus_halte","name":"Havenstraat 121","operator":""}},{"type":"Feature","geometry":{"type":"Point","coordinates":[6.98065,52.730365]},"properties":{"category":"bus_halte","name":"Koriander","operator":""}},{"type":"Feature","geometry":{"type":"Point","coordinates":[6.980611,52.730625]},"properties":{"category":"bus_halte","name":"Koriander","operator":""}},{"type":"Feature","geometry":{"type":"Point","coordinates":[6.902836,52.762861]},"properties":{"category":"bus_halte","name":"Nijbracht 25","operator":""}},{"type":"Feature","geometry":{"type":"Point","coordinates":[6.902848,52.762963]},"properties":{"category":"bus_halte","name":"Nijbracht 25","operator":""}},{"type":"Feature","geometry":{"type":"Point","coordinates":[6.900614,52.769122]},"properties":{"category":"bus_halte","name":"Oosterbracht","operator":""}},{"type":"Feature","geometry":{"type":"Point","coordinates":[6.900509,52.769244]},"properties":{"category":"bus_halte","name":"Oosterbracht","operator":""}},{"type":"Feature","geometry":{"type":"Point","coordinates":[6.939738,52.7777]},"properties":{"category":"bus_halte","name":"Rondweg","operator":""}},{"type":"Feature","geometry":{"type":"Point","coordinates":[6.894717,52.754989]},"properties":{"category":"bus_halte","name":"Oranjekanaal","operator":""}},{"type":"Feature","geometry":{"type":"Point","coordinates":[6.898946,52.790478]},"properties":{"category":"bus_halte","name":"Station","operator":""}},{"type":"Feature","geometry":{"type":"Point","coordinates":[6.898766,52.790562]},"properties":{"category":"bus_halte","name":"Station","operator":""}},{"type":"Feature","geometry":{"type":"Point","coordinates":[6.898741,52.79023]},"properties":{"category":"bus_halte","name":"Station","operator":""}},{"type":"Feature","geometry":{"type":"Point","coordinates":[6.899246,52.790449]},"properties":{"category":"bus_halte","name":"Station","operator":""}},{"type":"Feature","geometry":{"type":"Point","coordinates":[6.898757,52.790337]},"properties":{"category":"bus_halte","name":"Station","operator":""}},{"type":"Feature","geometry":{"type":"Point","coordinates":[6.898759,52.790401]},"properties":{"category":"bus_halte","name":"Station","operator":""}},{"type":"Feature","geometry":{"type":"Point","coordinates":[6.898752,52.790287]},"properties":{"category":"bus_halte","name":"Station","operator":""}},{"type":"Feature","geometry":{"type":"Point","coordinates":[6.899168,52.790836]},"properties":{"category":"bus_halte","name":"Station","operator":""}},{"type":"Feature","geometry":{"type":"Point","coordinates":[6.899268,52.790697]},"properties":{"category":"bus_halte","name":"Station","operator":""}},{"type":"Feature","geometry":{"type":"Point","coordinates":[6.898769,52.790506]},"properties":{"category":"bus_halte","name":"Station","operator":""}},{"type":"Feature","geometry":{"type":"Point","coordinates":[7.05126,52.644048]},"properties":{"category":"bus_halte","name":"Grens","operator":""}},{"type":"Feature","geometry":{"type":"Point","coordinates":[7.047436,52.643471]},"properties":{"category":"bus_halte","name":"Europaweg 242","operator":""}},{"type":"Feature","geometry":{"type":"Point","coordinates":[7.040641,52.642278]},"properties":{"category":"bus_halte","name":"H.A. Stheemansstraat","operator":""}},{"type":"Feature","geometry":{"type":"Point","coordinates":[7.040237,52.642293]},"properties":{"category":"bus_halte","name":"H.A. Stheemansstraat","operator":""}},{"type":"Feature","geometry":{"type":"Point","coordinates":[7.030845,52.640183]},"properties":{"category":"bus_halte","name":"Km paal 21.1","operator":""}},{"type":"Feature","geometry":{"type":"Point","coordinates":[7.029982,52.640133]},"properties":{"category":"bus_halte","name":"Km paal 21.1","operator":""}},{"type":"Feature","geometry":{"type":"Point","coordinates":[7.018497,52.639458]},"properties":{"category":"bus_halte","name":"Europaweg 224","operator":""}},{"type":"Feature","geometry":{"type":"Point","coordinates":[7.018397,52.639571]},"properties":{"category":"bus_halte","name":"Europaweg 224","operator":""}},{"type":"Feature","geometry":{"type":"Point","coordinates":[7.009709,52.641735]},"properties":{"category":"bus_halte","name":"Europaweg 221","operator":""}},{"type":"Feature","geometry":{"type":"Point","coordinates":[7.010096,52.641547]},"properties":{"category":"bus_halte","name":"Europaweg 221","operator":""}},{"type":"Feature","geometry":{"type":"Point","coordinates":[7.001392,52.643729]},"properties":{"category":"bus_halte","name":"Europaweg 194","operator":""}},{"type":"Feature","geometry":{"type":"Point","coordinates":[7.001849,52.643691]},"properties":{"category":"bus_halte","name":"Europaweg 194","operator":""}},{"type":"Feature","geometry":{"type":"Point","coordinates":[6.992285,52.645735]},"properties":{"category":"bus_halte","name":"Europaweg 157","operator":""}},{"type":"Feature","geometry":{"type":"Point","coordinates":[6.992489,52.645624]},"properties":{"category":"bus_halte","name":"Europaweg 157","operator":""}},{"type":"Feature","geometry":{"type":"Point","coordinates":[6.899119,52.790474]},"properties":{"category":"bus_halte","name":"Station","operator":""}},{"type":"Feature","geometry":{"type":"Point","coordinates":[6.892242,52.785532]},"properties":{"category":"bus_halte","name":"Centrum","operator":""}},{"type":"Feature","geometry":{"type":"Point","coordinates":[6.939929,52.797808]},"properties":{"category":"bus_halte","name":"Ln v.h. Kwekebos 3","operator":""}},{"type":"Feature","geometry":{"type":"Point","coordinates":[6.939488,52.7973]},"properties":{"category":"bus_halte","name":"Ln v.h. Kwekebos 3","operator":""}},{"type":"Feature","geometry":{"type":"Point","coordinates":[6.933496,52.791438]},"properties":{"category":"bus_halte","name":"Laan van de Marel","operator":""}},{"type":"Feature","geometry":{"type":"Point","coordinates":[6.937502,52.792905]},"properties":{"category":"bus_halte","name":"Houtweg/WKC","operator":""}},{"type":"Feature","geometry":{"type":"Point","coordinates":[6.964658,52.739221]},"properties":{"category":"bus_halte","name":"Edisonstraat","operator":""}},{"type":"Feature","geometry":{"type":"Point","coordinates":[6.887361,52.801972]},"properties":{"category":"bus_halte","name":"W.B. Schragestraat","operator":""}},{"type":"Feature","geometry":{"type":"Point","coordinates":[6.88618,52.801591]},"properties":{"category":"bus_halte","name":"W.B. Schragestraat","operator":""}},{"type":"Feature","geometry":{"type":"Point","coordinates":[6.891894,52.779708]},"properties":{"category":"bus_halte","name":"Holdert","operator":""}},{"type":"Feature","geometry":{"type":"Point","coordinates":[6.892284,52.780817]},"properties":{"category":"bus_halte","name":"Holdert","operator":""}},{"type":"Feature","geometry":{"type":"Point","coordinates":[6.894398,52.749633]},"properties":{"category":"bus_halte","name":"Valkenveld","operator":""}},{"type":"Feature","geometry":{"type":"Point","coordinates":[6.882905,52.751281]},"properties":{"category":"bus_halte","name":"Duivenveld","operator":""}},{"type":"Feature","geometry":{"type":"Point","coordinates":[6.895111,52.746515]},"properties":{"category":"bus_halte","name":"Kuifleeuwerik","operator":""}},{"type":"Feature","geometry":{"type":"Point","coordinates":[6.880472,52.744063]},"properties":{"category":"bus_halte","name":"Ganzenveld","operator":""}},{"type":"Feature","geometry":{"type":"Point","coordinates":[6.909541,52.779083]},"properties":{"category":"bus_halte","name":"Statenweg","operator":""}},{"type":"Feature","geometry":{"type":"Point","coordinates":[6.889564,52.752053]},"properties":{"category":"bus_halte","name":"Uilenveld","operator":""}},{"type":"Feature","geometry":{"type":"Point","coordinates":[6.898394,52.771751]},"properties":{"category":"bus_halte","name":"Hoenderkamp","operator":""}},{"type":"Feature","geometry":{"type":"Point","coordinates":[6.983144,52.737214]},"properties":{"category":"bus_halte","name":"Vastenow 90","operator":""}},{"type":"Feature","geometry":{"type":"Point","coordinates":[6.976011,52.742795]},"properties":{"category":"bus_halte","name":"Vastenow 55","operator":""}},{"type":"Feature","geometry":{"type":"Point","coordinates":[6.97234,52.745688]},"properties":{"category":"bus_halte","name":"Vastenow 28","operator":""}},{"type":"Feature","geometry":{"type":"Point","coordinates":[6.972499,52.745681]},"properties":{"category":"bus_halte","name":"Vastenow 28","operator":""}},{"type":"Feature","geometry":{"type":"Point","coordinates":[6.976078,52.742884]},"properties":{"category":"bus_halte","name":"Vastenow 55","operator":""}},{"type":"Feature","geometry":{"type":"Point","coordinates":[6.983136,52.737367]},"properties":{"category":"bus_halte","name":"Vastenow 90","operator":""}},{"type":"Feature","geometry":{"type":"Point","coordinates":[6.89894,52.790341]},"properties":{"category":"bus_halte","name":"Station","operator":""}},{"type":"Feature","geometry":{"type":"Point","coordinates":[6.898737,52.790167]},"properties":{"category":"bus_halte","name":"Station","operator":""}},{"type":"Feature","geometry":{"type":"Point","coordinates":[7.04245,52.757238]},"properties":{"category":"bus_halte","name":"Posthoorn","operator":""}},{"type":"Feature","geometry":{"type":"Point","coordinates":[7.043599,52.771376]},"properties":{"category":"bus_halte","name":"Wethouder Hartmannbrug","operator":""}},{"type":"Feature","geometry":{"type":"Point","coordinates":[7.04426,52.786292]},"properties":{"category":"bus_halte","name":"Verlengde Tweede Groenedijk","operator":""}},{"type":"Feature","geometry":{"type":"Point","coordinates":[7.045049,52.795276]},"properties":{"category":"bus_halte","name":"Westelijke Doorsnee","operator":""}},{"type":"Feature","geometry":{"type":"Point","coordinates":[7.045486,52.800525]},"properties":{"category":"bus_halte","name":"Oosterdiep Westzijde 97","operator":""}},{"type":"Feature","geometry":{"type":"Point","coordinates":[7.045904,52.805636]},"properties":{"category":"bus_halte","name":"Schoollaan","operator":""}},{"type":"Feature","geometry":{"type":"Point","coordinates":[6.94436,52.796259]},"properties":{"category":"bus_halte","name":"Ln v.h. Kwekebos 2","operator":""}},{"type":"Feature","geometry":{"type":"Point","coordinates":[6.946247,52.795266]},"properties":{"category":"bus_halte","name":"Ln v.h. Kwekebos 1","operator":""}},{"type":"Feature","geometry":{"type":"Point","coordinates":[6.944146,52.79332]},"properties":{"category":"bus_halte","name":"De Schans","operator":""}},{"type":"Feature","geometry":{"type":"Point","coordinates":[6.943754,52.793369]},"properties":{"category":"bus_halte","name":"De Schans","operator":""}},{"type":"Feature","geometry":{"type":"Point","coordinates":[6.945901,52.794696]},"properties":{"category":"bus_halte","name":"Ln v.h. Kwekebos 1","operator":""}},{"type":"Feature","geometry":{"type":"Point","coordinates":[6.94428,52.796163]},"properties":{"category":"bus_halte","name":"Ln v.h. Kwekebos 2","operator":""}},{"type":"Feature","geometry":{"type":"Point","coordinates":[7.04604,52.805749]},"properties":{"category":"bus_halte","name":"Schoollaan","operator":""}},{"type":"Feature","geometry":{"type":"Point","coordinates":[7.045615,52.800641]},"properties":{"category":"bus_halte","name":"Oosterdiep Westzijde 97","operator":""}},{"type":"Feature","geometry":{"type":"Point","coordinates":[7.045178,52.795251]},"properties":{"category":"bus_halte","name":"Westelijke Doorsnee","operator":""}},{"type":"Feature","geometry":{"type":"Point","coordinates":[7.044384,52.786221]},"properties":{"category":"bus_halte","name":"Verlengde Tweede Groenedijk","operator":""}},{"type":"Feature","geometry":{"type":"Point","coordinates":[7.043745,52.771565]},"properties":{"category":"bus_halte","name":"Wethouder Hartmannbrug","operator":""}},{"type":"Feature","geometry":{"type":"Point","coordinates":[7.042577,52.757318]},"properties":{"category":"bus_halte","name":"Posthoorn","operator":""}},{"type":"Feature","geometry":{"type":"Point","coordinates":[6.986462,52.73445]},"properties":{"category":"bus_halte","name":"Kazerneweg","operator":""}},{"type":"Feature","geometry":{"type":"Point","coordinates":[6.979499,52.740074]},"properties":{"category":"bus_halte","name":"Vastenow 148","operator":""}},{"type":"Feature","geometry":{"type":"Point","coordinates":[6.955281,52.767647]},"properties":{"category":"bus_halte","name":"Bargerweg West","operator":""}},{"type":"Feature","geometry":{"type":"Point","coordinates":[6.948263,52.771276]},"properties":{"category":"bus_halte","name":"Splitting","operator":""}},{"type":"Feature","geometry":{"type":"Point","coordinates":[6.948532,52.771235]},"properties":{"category":"bus_halte","name":"Splitting","operator":""}},{"type":"Feature","geometry":{"type":"Point","coordinates":[6.955341,52.767711]},"properties":{"category":"bus_halte","name":"Bargerweg West","operator":""}},{"type":"Feature","geometry":{"type":"Point","coordinates":[6.979737,52.740018]},"properties":{"category":"bus_halte","name":"Vastenow 148","operator":""}},{"type":"Feature","geometry":{"type":"Point","coordinates":[6.986457,52.734629]},"properties":{"category":"bus_halte","name":"Kazerneweg","operator":""}},{"type":"Feature","geometry":{"type":"Point","coordinates":[6.954278,52.648361]},"properties":{"category":"bus_halte","name":"Hoek Dordseweg","operator":""}},{"type":"Feature","geometry":{"type":"Point","coordinates":[6.954706,52.64825]},"properties":{"category":"bus_halte","name":"Hoek Dordseweg","operator":""}},{"type":"Feature","geometry":{"type":"Point","coordinates":[6.954895,52.745478]},"properties":{"category":"bus_halte","name":"James Cookstraat","operator":""}},{"type":"Feature","geometry":{"type":"Point","coordinates":[6.942934,52.748213]},"properties":{"category":"bus_halte","name":"Roald Amundsenstraat","operator":""}},{"type":"Feature","geometry":{"type":"Point","coordinates":[6.93429,52.755101]},"properties":{"category":"bus_halte","name":"Karel Doormanstraat","operator":""}},{"type":"Feature","geometry":{"type":"Point","coordinates":[6.926799,52.765068]},"properties":{"category":"bus_halte","name":"Phileas Foggstraat","operator":""}},{"type":"Feature","geometry":{"type":"Point","coordinates":[6.926872,52.763592]},"properties":{"category":"bus_halte","name":"Phileas Foggstraat","operator":""}},{"type":"Feature","geometry":{"type":"Point","coordinates":[6.934617,52.754996]},"properties":{"category":"bus_halte","name":"Karel Doormanstraat","operator":""}},{"type":"Feature","geometry":{"type":"Point","coordinates":[6.94309,52.748491]},"properties":{"category":"bus_halte","name":"Roald Amundsenstraat","operator":""}},{"type":"Feature","geometry":{"type":"Point","coordinates":[6.95414,52.745581]},"properties":{"category":"bus_halte","name":"James Cookstraat","operator":""}},{"type":"Feature","geometry":{"type":"Point","coordinates":[6.938019,52.752588]},"properties":{"category":"bus_halte","name":"Jacob Roggeveenstraat","operator":""}},{"type":"Feature","geometry":{"type":"Point","coordinates":[6.93865,52.752293]},"properties":{"category":"bus_halte","name":"Jacob Roggeveenstraat","operator":""}},{"type":"Feature","geometry":{"type":"Point","coordinates":[6.973695,52.732834]},"properties":{"category":"bus_halte","name":"Tijm","operator":""}},{"type":"Feature","geometry":{"type":"Point","coordinates":[6.973954,52.732477]},"properties":{"category":"bus_halte","name":"Tijm","operator":""}},{"type":"Feature","geometry":{"type":"Point","coordinates":[6.96425,52.732331]},"properties":{"category":"bus_halte","name":"Heemst","operator":""}},{"type":"Feature","geometry":{"type":"Point","coordinates":[6.964371,52.732248]},"properties":{"category":"bus_halte","name":"Heemst","operator":""}},{"type":"Feature","geometry":{"type":"Point","coordinates":[6.959517,52.737426]},"properties":{"category":"bus_halte","name":"Bellstraat","operator":""}},{"type":"Feature","geometry":{"type":"Point","coordinates":[6.959265,52.737698]},"properties":{"category":"bus_halte","name":"Bellstraat","operator":""}},{"type":"Feature","geometry":{"type":"Point","coordinates":[6.923778,52.685011]},"properties":{"category":"bus_halte","name":"Berkenlaan","operator":""}},{"type":"Feature","geometry":{"type":"Point","coordinates":[6.949201,52.677717]},"properties":{"category":"bus_halte","name":"Smalspoormuseum","operator":""}},{"type":"Feature","geometry":{"type":"Point","coordinates":[6.948781,52.785859]},"properties":{"category":"bus_halte","name":"De Horst","operator":""}},{"type":"Feature","geometry":{"type":"Point","coordinates":[7.046791,52.643297]},"properties":{"category":"bus_halte","name":"Europaweg 242","operator":""}},{"type":"Feature","geometry":{"type":"Point","coordinates":[7.051972,52.644002]},"properties":{"category":"bus_halte","name":"Grens","operator":""}},{"type":"Feature","geometry":{"type":"Point","coordinates":[6.908022,52.778929]},"properties":{"category":"bus_halte","name":"Statenweg","operator":""}},{"type":"Feature","geometry":{"type":"Point","coordinates":[6.898346,52.790378]},"properties":{"category":"bus_halte","name":"Station","operator":""}},{"type":"Feature","geometry":{"type":"Point","coordinates":[6.92177,52.685778]},"properties":{"category":"ov_knooppunt","name":"","operator":""}},{"type":"Feature","geometry":{"type":"Point","coordinates":[6.848801,52.718366]},"properties":{"category":"ov_knooppunt","name":"Nieuw Amsterdam","operator":""}},{"type":"Feature","geometry":{"type":"Point","coordinates":[6.89972,52.790629]},"properties":{"category":"ov_knooppunt","name":"Emmen","operator":"Arriva"}},{"type":"Feature","geometry":{"type":"Point","coordinates":[6.87433,52.748715]},"properties":{"category":"ov_knooppunt","name":"Emmen Zuid","operator":"Arriva"}},{"type":"Feature","geometry":{"type":"Point","coordinates":[7.030854,52.754698]},"properties":{"category":"ov_knooppunt","name":"S3 Bargermond","operator":""}},{"type":"Feature","geometry":{"type":"Point","coordinates":[7.034488,52.75629]},"properties":{"category":"ov_knooppunt","name":"S2' Aole Compas","operator":""}},{"type":"Feature","geometry":{"type":"Point","coordinates":[7.027469,52.756103]},"properties":{"category":"ov_knooppunt","name":"S1 Berkenrode","operator":""}},{"type":"Feature","geometry":{"type":"Point","coordinates":[7.026068,52.757769]},"properties":{"category":"ov_knooppunt","name":"S4 Twee Provinciën","operator":""}},{"type":"Feature","geometry":{"type":"Point","coordinates":[7.021407,52.758314]},"properties":{"category":"ov_knooppunt","name":"S5 Hoogveengebied","operator":""}},{"type":"Feature","geometry":{"type":"Point","coordinates":[7.032895,52.756271]},"properties":{"category":"ov_knooppunt","name":"S2 Aole Compas","operator":""}},{"type":"Feature","geometry":{"type":"Point","coordinates":[6.921668,52.685653]},"properties":{"category":"ov_knooppunt","name":"","operator":""}},{"type":"Feature","geometry":{"type":"Point","coordinates":[6.898804,52.790607]},"properties":{"category":"ov_knooppunt","name":"Station","operator":"Qbuzz"}},{"type":"Feature","geometry":{"type":"Point","coordinates":[6.892479,52.784537]},"properties":{"category":"gemeentehuis","name":"Gemeentehuis Emmen","operator":"Gemeente Emmen"}},{"type":"Feature","geometry":{"type":"Point","coordinates":[6.897785,52.778673]},"properties":{"category":"inzamelpunt","name":"","operator":""}},{"type":"Feature","geometry":{"type":"Point","coordinates":[6.91783,52.759667]},"properties":{"category":"inzamelpunt","name":"","operator":"Area Reiniging"}},{"type":"Feature","geometry":{"type":"Point","coordinates":[6.88123,52.66304]},"properties":{"category":"bibliotheek","name":"Bibliotheek Schoonebeek","operator":""}},{"type":"Feature","geometry":{"type":"Point","coordinates":[6.892349,52.78822]},"properties":{"category":"bibliotheek","name":"Bibliotheek Emmen","operator":""}},{"type":"Feature","geometry":{"type":"Point","coordinates":[6.857058,52.713876]},"properties":{"category":"bibliotheek","name":"Bibliotheek Nieuw-Amsterdam","operator":""}},{"type":"Feature","geometry":{"type":"Point","coordinates":[6.913252,52.785908]},"properties":{"category":"ziekenhuis","name":"Scheper Ziekenhuis","operator":""}},{"type":"Feature","geometry":{"type":"Point","coordinates":[6.842088,52.714962]},"properties":{"category":"transformatorhuisje","name":"","operator":""}},{"type":"Feature","geometry":{"type":"Point","coordinates":[6.842216,52.714984]},"properties":{"category":"transformatorhuisje","name":"","operator":""}},{"type":"Feature","geometry":{"type":"Point","coordinates":[6.842344,52.715006]},"properties":{"category":"transformatorhuisje","name":"","operator":""}},{"type":"Feature","geometry":{"type":"Point","coordinates":[6.909273,52.807745]},"properties":{"category":"transformatorhuisje","name":"","operator":""}},{"type":"Feature","geometry":{"type":"Point","coordinates":[6.926505,52.761808]},"properties":{"category":"transformatorhuisje","name":"","operator":""}},{"type":"Feature","geometry":{"type":"Point","coordinates":[6.92636,52.761988]},"properties":{"category":"transformatorhuisje","name":"","operator":""}},{"type":"Feature","geometry":{"type":"Point","coordinates":[6.926287,52.762078]},"properties":{"category":"transformatorhuisje","name":"","operator":""}},{"type":"Feature","geometry":{"type":"Point","coordinates":[6.911168,52.771559]},"properties":{"category":"transformatorhuisje","name":"","operator":""}},{"type":"Feature","geometry":{"type":"Point","coordinates":[6.911095,52.771647]},"properties":{"category":"transformatorhuisje","name":"","operator":""}},{"type":"Feature","geometry":{"type":"Point","coordinates":[7.010985,52.737879]},"properties":{"category":"transformatorhuisje","name":"","operator":""}},{"type":"Feature","geometry":{"type":"Point","coordinates":[7.010797,52.737885]},"properties":{"category":"transformatorhuisje","name":"","operator":""}},{"type":"Feature","geometry":{"type":"Point","coordinates":[6.925698,52.761458]},"properties":{"category":"transformatorhuisje","name":"","operator":""}},{"type":"Feature","geometry":{"type":"Point","coordinates":[6.909547,52.807836]},"properties":{"category":"transformatorhuisje","name":"","operator":""}},{"type":"Feature","geometry":{"type":"Point","coordinates":[6.895429,52.681421]},"properties":{"category":"transformatorhuisje","name":"","operator":""}},{"type":"Feature","geometry":{"type":"Point","coordinates":[6.912038,52.77823]},"properties":{"category":"universiteit","name":"NHL Stenden Hogeschool","operator":""}},{"type":"Feature","geometry":{"type":"Point","coordinates":[6.913932,52.77665]},"properties":{"category":"hogeschool","name":"Drenthe College (Atlantis)","operator":""}},{"type":"Feature","geometry":{"type":"Point","coordinates":[6.913162,52.778134]},"properties":{"category":"hogeschool","name":"Drenthe College (Van Schaikweg 94)","operator":""}},{"type":"Feature","geometry":{"type":"Point","coordinates":[6.874858,52.755194]},"properties":{"category":"hogeschool","name":"Flair Scholing","operator":""}},{"type":"Feature","geometry":{"type":"Point","coordinates":[6.926083,52.780797]},"properties":{"category":"hogeschool","name":"Drenthe College (Ubbekingecamp)","operator":""}},{"type":"Feature","geometry":{"type":"Point","coordinates":[6.902177,52.778552]},"properties":{"category":"hogeschool","name":"Drenthe College (Anna Paulownalaan)","operator":""}},{"type":"Feature","geometry":{"type":"Point","coordinates":[6.926966,52.779158]},"properties":{"category":"hogeschool","name":"Carmel College","operator":""}},{"type":"Feature","geometry":{"type":"Point","coordinates":[6.915943,52.777789]},"properties":{"category":"hogeschool","name":"Drenthe College","operator":""}},{"type":"Feature","geometry":{"type":"Point","coordinates":[6.929733,52.779953]},"properties":{"category":"hogeschool","name":"Drenthe College","operator":""}},{"type":"Feature","geometry":{"type":"Point","coordinates":[6.944888,52.776901]},"properties":{"category":"hogeschool","name":"Pro Emmen","operator":""}},{"type":"Feature","geometry":{"type":"Point","coordinates":[6.914842,52.786283]},"properties":{"category":"middelbare_school","name":"De Springplank","operator":"Onderwijs en Opvang Emmen"}},{"type":"Feature","geometry":{"type":"Point","coordinates":[6.944677,52.777747]},"properties":{"category":"middelbare_school","name":"VSO De Atlas","operator":""}},{"type":"Feature","geometry":{"type":"Point","coordinates":[6.90958,52.784829]},"properties":{"category":"middelbare_school","name":"Esdal Vakcollege","operator":"Aurelia Onderwijs"}},{"type":"Feature","geometry":{"type":"Point","coordinates":[6.98663,52.722026]},"properties":{"category":"middelbare_school","name":"Esdal College","operator":"Aurelia Onderwijs"}},{"type":"Feature","geometry":{"type":"Point","coordinates":[6.909536,52.783487]},"properties":{"category":"middelbare_school","name":"Esdal College","operator":"Aurelia Onderwijs"}},{"type":"Feature","geometry":{"type":"Point","coordinates":[6.909676,52.784164]},"properties":{"category":"middelbare_school","name":"Esdal College","operator":"Aurelia Onderwijs"}},{"type":"Feature","geometry":{"type":"Point","coordinates":[6.90931,52.782547]},"properties":{"category":"middelbare_school","name":"Esdal College","operator":"Aurelia Onderwijs"}},{"type":"Feature","geometry":{"type":"Point","coordinates":[6.944225,52.773348]},"properties":{"category":"middelbare_school","name":"Thriantaschool","operator":"Onderwijs en Opvang Emmen"}},{"type":"Feature","geometry":{"type":"Point","coordinates":[6.946397,52.777939]},"properties":{"category":"sportveld","name":"Sportpark Meerdijk","operator":""}},{"type":"Feature","geometry":{"type":"Point","coordinates":[6.883099,52.662945]},"properties":{"category":"sportveld","name":"","operator":""}},{"type":"Feature","geometry":{"type":"Point","coordinates":[6.989359,52.64467]},"properties":{"category":"sportveld","name":"Sportpark “de Gruinte”","operator":""}},{"type":"Feature","geometry":{"type":"Point","coordinates":[6.99031,52.73334]},"properties":{"category":"sportveld","name":"Sporthal de Zon","operator":""}},{"type":"Feature","geometry":{"type":"Point","coordinates":[6.988818,52.73343]},"properties":{"category":"sportveld","name":"Fietscrossbaan Rapid Wheels","operator":""}},{"type":"Feature","geometry":{"type":"Point","coordinates":[6.947888,52.775717]},"properties":{"category":"sportveld","name":"WSV Emmen","operator":""}},{"type":"Feature","geometry":{"type":"Point","coordinates":[6.947282,52.774416]},"properties":{"category":"sportveld","name":"COVS HZO Drenthe","operator":""}},{"type":"Feature","geometry":{"type":"Point","coordinates":[6.947228,52.77531]},"properties":{"category":"sportveld","name":"vv Emmen","operator":""}},{"type":"Feature","geometry":{"type":"Point","coordinates":[6.884122,52.755926]},"properties":{"category":"sportveld","name":"vv Bargeres","operator":""}},{"type":"Feature","geometry":{"type":"Point","coordinates":[6.886207,52.747354]},"properties":{"category":"sportveld","name":"DZOH","operator":""}},{"type":"Feature","geometry":{"type":"Point","coordinates":[6.885152,52.747197]},"properties":{"category":"sportveld","name":"EKC 2000 'De Uitwijk'","operator":""}},{"type":"Feature","geometry":{"type":"Point","coordinates":[6.880899,52.665529]},"properties":{"category":"sportveld","name":"Zwembad De Slagen","operator":""}},{"type":"Feature","geometry":{"type":"Point","coordinates":[6.905482,52.730027]},"properties":{"category":"sportveld","name":"Fitnesszaal Parc Sandur","operator":""}},{"type":"Feature","geometry":{"type":"Point","coordinates":[6.905522,52.730726]},"properties":{"category":"sportveld","name":"Sporthal / Indoor Tennisbanen","operator":""}},{"type":"Feature","geometry":{"type":"Point","coordinates":[6.905426,52.730239]},"properties":{"category":"sportveld","name":"Squashbanen","operator":""}},{"type":"Feature","geometry":{"type":"Point","coordinates":[6.916086,52.802206]},"properties":{"category":"sportveld","name":"Sportpark de Oude Ros","operator":""}},{"type":"Feature","geometry":{"type":"Point","coordinates":[6.886157,52.756807]},"properties":{"category":"sportveld","name":"Tennisclub Bargeres","operator":""}},{"type":"Feature","geometry":{"type":"Point","coordinates":[6.945743,52.774684]},"properties":{"category":"sportveld","name":"De Oude Meerdijk","operator":""}},{"type":"Feature","geometry":{"type":"Point","coordinates":[6.84516,52.715127]},"properties":{"category":"sportveld","name":"Sportpark Veenoord","operator":""}},{"type":"Feature","geometry":{"type":"Point","coordinates":[6.990987,52.672037]},"properties":{"category":"sportveld","name":"Sportpark 't Amsterdamse Veld","operator":""}},{"type":"Feature","geometry":{"type":"Point","coordinates":[6.921362,52.715184]},"properties":{"category":"sportveld","name":"sportpark De Veenschappen","operator":""}},{"type":"Feature","geometry":{"type":"Point","coordinates":[6.92267,52.818781]},"properties":{"category":"sportveld","name":"Sportpark de Luwte","operator":""}},{"type":"Feature","geometry":{"type":"Point","coordinates":[6.880969,52.663105]},"properties":{"category":"winkelcentrum","name":"De Wingerd","operator":""}},{"type":"Feature","geometry":{"type":"Point","coordinates":[6.89452,52.782642]},"properties":{"category":"winkelcentrum","name":"De Weiert","operator":""}},{"type":"Feature","geometry":{"type":"Point","coordinates":[6.920038,52.751662]},"properties":{"category":"winkelcentrum","name":"Meubelboulevard Emmen","operator":""}},{"type":"Feature","geometry":{"type":"Point","coordinates":[6.882849,52.754366]},"properties":{"category":"fietsenstalling","name":"","operator":""}},{"type":"Feature","geometry":{"type":"Point","coordinates":[6.899286,52.790006]},"properties":{"category":"fietsenstalling","name":"","operator":""}},{"type":"Feature","geometry":{"type":"Point","coordinates":[6.848928,52.718021]},"properties":{"category":"fietsenstalling","name":"","operator":""}},{"type":"Feature","geometry":{"type":"Point","coordinates":[6.896815,52.784514]},"properties":{"category":"fietsenstalling","name":"","operator":""}},{"type":"Feature","geometry":{"type":"Point","coordinates":[6.908257,52.778099]},"properties":{"category":"fietsenstalling","name":"","operator":""}},{"type":"Feature","geometry":{"type":"Point","coordinates":[6.875825,52.752059]},"properties":{"category":"fietsenstalling","name":"","operator":""}},{"type":"Feature","geometry":{"type":"Point","coordinates":[6.873425,52.748233]},"properties":{"category":"fietsenstalling","name":"","operator":""}},{"type":"Feature","geometry":{"type":"Point","coordinates":[6.91074,52.778254]},"properties":{"category":"fietsenstalling","name":"","operator":""}},{"type":"Feature","geometry":{"type":"Point","coordinates":[6.924514,52.711489]},"properties":{"category":"fietsenstalling","name":"","operator":""}},{"type":"Feature","geometry":{"type":"Point","coordinates":[6.874358,52.749014]},"properties":{"category":"fietsenstalling","name":"","operator":""}},{"type":"Feature","geometry":{"type":"Point","coordinates":[6.929372,52.779573]},"properties":{"category":"fietsenstalling","name":"","operator":""}},{"type":"Feature","geometry":{"type":"Point","coordinates":[6.913739,52.785801]},"properties":{"category":"fietsenstalling","name":"","operator":""}},{"type":"Feature","geometry":{"type":"Point","coordinates":[6.912116,52.785213]},"properties":{"category":"fietsenstalling","name":"","operator":""}},{"type":"Feature","geometry":{"type":"Point","coordinates":[7.044993,52.811367]},"properties":{"category":"fietsenstalling","name":"","operator":""}},{"type":"Feature","geometry":{"type":"Point","coordinates":[7.04475,52.811374]},"properties":{"category":"fietsenstalling","name":"","operator":""}},{"type":"Feature","geometry":{"type":"Point","coordinates":[6.865835,52.693233]},"properties":{"category":"fietsenstalling","name":"","operator":"CB de Zwaluw"}},{"type":"Feature","geometry":{"type":"Point","coordinates":[7.027126,52.811228]},"properties":{"category":"fietsenstalling","name":"","operator":""}},{"type":"Feature","geometry":{"type":"Point","coordinates":[6.892422,52.786431]},"properties":{"category":"parkeergarage","name":"Westerstraat","operator":"Gemeente Emmen"}},{"type":"Feature","geometry":{"type":"Point","coordinates":[6.895506,52.798955]},"properties":{"category":"parkeergarage","name":"","operator":""}},{"type":"Feature","geometry":{"type":"Point","coordinates":[6.892711,52.782495]},"properties":{"category":"parkeergarage","name":"Willinkplein","operator":""}},{"type":"Feature","geometry":{"type":"Point","coordinates":[6.913267,52.785298]},"properties":{"category":"parkeergarage","name":"","operator":""}},{"type":"Feature","geometry":{"type":"Point","coordinates":[6.899335,52.78968]},"properties":{"category":"p_and_r","name":"","operator":""}},{"type":"Feature","geometry":{"type":"Point","coordinates":[7.026572,52.850614]},"properties":{"category":"p_and_r","name":"","operator":""}},{"type":"Feature","geometry":{"type":"Point","coordinates":[6.873257,52.748368]},"properties":{"category":"p_and_r","name":"Station Emmen Zuid","operator":""}},{"type":"Feature","geometry":{"type":"Point","coordinates":[6.878579,52.72415]},"properties":{"category":"p_and_r","name":"","operator":"Provincie Drenthe"}},{"type":"Feature","geometry":{"type":"Point","coordinates":[6.849065,52.718442]},"properties":{"category":"p_and_r","name":"P+R Spoorbaan","operator":""}}]}