{"type":"FeatureCollection","metadata":{"gemeente":"Enkhuizen","slug":"enkhuizen","by_category":{"bus_halte":27,"supermarkt":7,"transformatorhuisje":6,"ov_knooppunt":3,"fietsenstalling":3,"gemeentehuis":2,"ns_station":1,"inzamelpunt":1,"bibliotheek":1,"sportveld":1,"winkelcentrum":1,"parkeergarage":1,"p_and_r":1},"total":55},"features":[{"type":"Feature","geometry":{"type":"Point","coordinates":[5.287993,52.69956]},"properties":{"category":"ns_station","name":"Enkhuizen","operator":""}},{"type":"Feature","geometry":{"type":"Point","coordinates":[5.274981,52.715075]},"properties":{"category":"bus_halte","name":"Kadijken","operator":""}},{"type":"Feature","geometry":{"type":"Point","coordinates":[5.277132,52.711386]},"properties":{"category":"bus_halte","name":"Meeuwenlaan","operator":""}},{"type":"Feature","geometry":{"type":"Point","coordinates":[5.288167,52.70919]},"properties":{"category":"bus_halte","name":"Noorderweg","operator":""}},{"type":"Feature","geometry":{"type":"Point","coordinates":[5.275189,52.715151]},"properties":{"category":"bus_halte","name":"Kadijken","operator":""}},{"type":"Feature","geometry":{"type":"Point","coordinates":[5.288436,52.708678]},"properties":{"category":"bus_halte","name":"Noorderweg","operator":""}},{"type":"Feature","geometry":{"type":"Point","coordinates":[5.277372,52.714575]},"properties":{"category":"bus_halte","name":"Kievitstraat","operator":""}},{"type":"Feature","geometry":{"type":"Point","coordinates":[5.265159,52.713459]},"properties":{"category":"bus_halte","name":"Flosbeugel","operator":""}},{"type":"Feature","geometry":{"type":"Point","coordinates":[5.278152,52.707963]},"properties":{"category":"bus_halte","name":"Kastanjelaan","operator":""}},{"type":"Feature","geometry":{"type":"Point","coordinates":[5.271651,52.714781]},"properties":{"category":"bus_halte","name":"Poortland","operator":""}},{"type":"Feature","geometry":{"type":"Point","coordinates":[5.271598,52.71485]},"properties":{"category":"bus_halte","name":"Poortland","operator":""}},{"type":"Feature","geometry":{"type":"Point","coordinates":[5.277299,52.711407]},"properties":{"category":"bus_halte","name":"Meeuwenlaan","operator":""}},{"type":"Feature","geometry":{"type":"Point","coordinates":[5.2671,52.714785]},"properties":{"category":"bus_halte","name":"Kruideel","operator":""}},{"type":"Feature","geometry":{"type":"Point","coordinates":[5.264966,52.713423]},"properties":{"category":"bus_halte","name":"Flosbeugel","operator":""}},{"type":"Feature","geometry":{"type":"Point","coordinates":[5.2775,52.714611]},"properties":{"category":"bus_halte","name":"Kievitstraat","operator":""}},{"type":"Feature","geometry":{"type":"Point","coordinates":[5.278261,52.708152]},"properties":{"category":"bus_halte","name":"Kastanjelaan","operator":""}},{"type":"Feature","geometry":{"type":"Point","coordinates":[5.289975,52.704075]},"properties":{"category":"bus_halte","name":"Van Bleiswijkstraat","operator":""}},{"type":"Feature","geometry":{"type":"Point","coordinates":[5.290026,52.704409]},"properties":{"category":"bus_halte","name":"Van Bleiswijkstraat","operator":""}},{"type":"Feature","geometry":{"type":"Point","coordinates":[5.266628,52.70049]},"properties":{"category":"bus_halte","name":"Westeinde","operator":""}},{"type":"Feature","geometry":{"type":"Point","coordinates":[5.281803,52.702336]},"properties":{"category":"bus_halte","name":"Gezondheidscentrum Molenweg","operator":""}},{"type":"Feature","geometry":{"type":"Point","coordinates":[5.281481,52.702347]},"properties":{"category":"bus_halte","name":"Gezondheidscentrum Molenweg","operator":""}},{"type":"Feature","geometry":{"type":"Point","coordinates":[5.267099,52.714726]},"properties":{"category":"bus_halte","name":"Kruideel","operator":""}},{"type":"Feature","geometry":{"type":"Point","coordinates":[5.268127,52.711339]},"properties":{"category":"bus_halte","name":"Kweekwal","operator":""}},{"type":"Feature","geometry":{"type":"Point","coordinates":[5.267874,52.711419]},"properties":{"category":"bus_halte","name":"Kweekwal","operator":""}},{"type":"Feature","geometry":{"type":"Point","coordinates":[5.288581,52.700058]},"properties":{"category":"bus_halte","name":"Station","operator":""}},{"type":"Feature","geometry":{"type":"Point","coordinates":[5.270907,52.713716]},"properties":{"category":"bus_halte","name":"Gerard Brandtweg","operator":""}},{"type":"Feature","geometry":{"type":"Point","coordinates":[5.272195,52.708441]},"properties":{"category":"bus_halte","name":"Rode Paard","operator":""}},{"type":"Feature","geometry":{"type":"Point","coordinates":[5.266609,52.700562]},"properties":{"category":"bus_halte","name":"Westeinde","operator":""}},{"type":"Feature","geometry":{"type":"Point","coordinates":[5.291125,52.699369]},"properties":{"category":"ov_knooppunt","name":"Veerdienst Zuiderzeemuseum","operator":""}},{"type":"Feature","geometry":{"type":"Point","coordinates":[5.287993,52.69956]},"properties":{"category":"ov_knooppunt","name":"Enkhuizen","operator":""}},{"type":"Feature","geometry":{"type":"Point","coordinates":[5.28832,52.699975]},"properties":{"category":"ov_knooppunt","name":"Station","operator":""}},{"type":"Feature","geometry":{"type":"Point","coordinates":[5.294796,52.704143]},"properties":{"category":"gemeentehuis","name":"Stadhuis Enkhuizen","operator":"Gemeente Enkhuizen"}},{"type":"Feature","geometry":{"type":"Point","coordinates":[5.295698,52.704459]},"properties":{"category":"gemeentehuis","name":"Stadskantoor Enkhuizen","operator":"Gemeente Enkhuizen"}},{"type":"Feature","geometry":{"type":"Point","coordinates":[5.270274,52.696077]},"properties":{"category":"inzamelpunt","name":"","operator":"HVC"}},{"type":"Feature","geometry":{"type":"Point","coordinates":[5.276906,52.711551]},"properties":{"category":"bibliotheek","name":"Bibliotheek Enkhuizen","operator":"Westfriese Bibliotheken"}},{"type":"Feature","geometry":{"type":"Point","coordinates":[5.274976,52.694847]},"properties":{"category":"transformatorhuisje","name":"","operator":""}},{"type":"Feature","geometry":{"type":"Point","coordinates":[5.275046,52.694896]},"properties":{"category":"transformatorhuisje","name":"","operator":""}},{"type":"Feature","geometry":{"type":"Point","coordinates":[5.275399,52.695153]},"properties":{"category":"transformatorhuisje","name":"","operator":""}},{"type":"Feature","geometry":{"type":"Point","coordinates":[5.275371,52.698113]},"properties":{"category":"transformatorhuisje","name":"","operator":""}},{"type":"Feature","geometry":{"type":"Point","coordinates":[5.275387,52.698084]},"properties":{"category":"transformatorhuisje","name":"","operator":""}},{"type":"Feature","geometry":{"type":"Point","coordinates":[5.275087,52.694891]},"properties":{"category":"transformatorhuisje","name":"50 kV Enkhuizen","operator":"Liander"}},{"type":"Feature","geometry":{"type":"Point","coordinates":[5.267155,52.708467]},"properties":{"category":"sportveld","name":"Enkhuizer Sportcentrum","operator":""}},{"type":"Feature","geometry":{"type":"Point","coordinates":[5.276173,52.712478]},"properties":{"category":"winkelcentrum","name":"Koperwiek","operator":""}},{"type":"Feature","geometry":{"type":"Point","coordinates":[5.288467,52.704463]},"properties":{"category":"supermarkt","name":"Vomar","operator":""}},{"type":"Feature","geometry":{"type":"Point","coordinates":[5.275657,52.71233]},"properties":{"category":"supermarkt","name":"DekaMarkt","operator":""}},{"type":"Feature","geometry":{"type":"Point","coordinates":[5.298413,52.70304]},"properties":{"category":"supermarkt","name":"The Harbour Market","operator":""}},{"type":"Feature","geometry":{"type":"Point","coordinates":[5.290817,52.704014]},"properties":{"category":"supermarkt","name":"Super Hieu","operator":""}},{"type":"Feature","geometry":{"type":"Point","coordinates":[5.27312,52.70845]},"properties":{"category":"supermarkt","name":"ALDI","operator":""}},{"type":"Feature","geometry":{"type":"Point","coordinates":[5.282342,52.703168]},"properties":{"category":"supermarkt","name":"Albert Heijn","operator":""}},{"type":"Feature","geometry":{"type":"Point","coordinates":[5.276712,52.712676]},"properties":{"category":"supermarkt","name":"Vomar","operator":""}},{"type":"Feature","geometry":{"type":"Point","coordinates":[5.285486,52.703553]},"properties":{"category":"fietsenstalling","name":"","operator":""}},{"type":"Feature","geometry":{"type":"Point","coordinates":[5.28805,52.69975]},"properties":{"category":"fietsenstalling","name":"","operator":""}},{"type":"Feature","geometry":{"type":"Point","coordinates":[5.287618,52.699698]},"properties":{"category":"fietsenstalling","name":"","operator":""}},{"type":"Feature","geometry":{"type":"Point","coordinates":[5.27631,52.710926]},"properties":{"category":"parkeergarage","name":"","operator":""}},{"type":"Feature","geometry":{"type":"Point","coordinates":[5.285188,52.699547]},"properties":{"category":"p_and_r","name":"Station","operator":""}}]}