{"type":"FeatureCollection","metadata":{"gemeente":"Epe","slug":"epe","by_category":{"bus_halte":40,"fietsenstalling":5,"inzamelpunt":3,"bibliotheek":2,"transformatorhuisje":2,"gemeentehuis":1,"sportveld":1,"parkeergarage":1},"total":55},"features":[{"type":"Feature","geometry":{"type":"Point","coordinates":[5.965052,52.281835]},"properties":{"category":"bus_halte","name":"Vaassen-Zuid","operator":""}},{"type":"Feature","geometry":{"type":"Point","coordinates":[5.965561,52.281628]},"properties":{"category":"bus_halte","name":"Vaassen-Zuid","operator":""}},{"type":"Feature","geometry":{"type":"Point","coordinates":[5.974267,52.287899]},"properties":{"category":"bus_halte","name":"Oosterhof","operator":""}},{"type":"Feature","geometry":{"type":"Point","coordinates":[5.974036,52.287853]},"properties":{"category":"bus_halte","name":"Oosterhof","operator":""}},{"type":"Feature","geometry":{"type":"Point","coordinates":[5.968887,52.290749]},"properties":{"category":"bus_halte","name":"Centrum","operator":""}},{"type":"Feature","geometry":{"type":"Point","coordinates":[5.968765,52.290771]},"properties":{"category":"bus_halte","name":"Centrum","operator":""}},{"type":"Feature","geometry":{"type":"Point","coordinates":[5.972948,52.295793]},"properties":{"category":"bus_halte","name":"Vaassen-Noord","operator":""}},{"type":"Feature","geometry":{"type":"Point","coordinates":[5.972782,52.295845]},"properties":{"category":"bus_halte","name":"Vaassen-Noord","operator":""}},{"type":"Feature","geometry":{"type":"Point","coordinates":[5.975375,52.315951]},"properties":{"category":"bus_halte","name":"Hezeplein","operator":""}},{"type":"Feature","geometry":{"type":"Point","coordinates":[5.975584,52.316298]},"properties":{"category":"bus_halte","name":"Hezeplein","operator":""}},{"type":"Feature","geometry":{"type":"Point","coordinates":[5.978795,52.303252]},"properties":{"category":"bus_halte","name":"Handelsebrug","operator":""}},{"type":"Feature","geometry":{"type":"Point","coordinates":[5.978445,52.303414]},"properties":{"category":"bus_halte","name":"Handelsebrug","operator":""}},{"type":"Feature","geometry":{"type":"Point","coordinates":[5.977855,52.321775]},"properties":{"category":"bus_halte","name":"Oranjeweg","operator":""}},{"type":"Feature","geometry":{"type":"Point","coordinates":[5.978007,52.321838]},"properties":{"category":"bus_halte","name":"Oranjeweg","operator":""}},{"type":"Feature","geometry":{"type":"Point","coordinates":[5.985344,52.351707]},"properties":{"category":"bus_halte","name":"Centrum","operator":""}},{"type":"Feature","geometry":{"type":"Point","coordinates":[5.985345,52.351274]},"properties":{"category":"bus_halte","name":"Centrum","operator":""}},{"type":"Feature","geometry":{"type":"Point","coordinates":[5.994859,52.357063]},"properties":{"category":"bus_halte","name":"Politiebureau","operator":""}},{"type":"Feature","geometry":{"type":"Point","coordinates":[5.993154,52.356224]},"properties":{"category":"bus_halte","name":"Politiebureau","operator":""}},{"type":"Feature","geometry":{"type":"Point","coordinates":[5.960161,52.273698]},"properties":{"category":"bus_halte","name":"Waterstraat","operator":""}},{"type":"Feature","geometry":{"type":"Point","coordinates":[5.990676,52.348505]},"properties":{"category":"bus_halte","name":"Diepenweg","operator":""}},{"type":"Feature","geometry":{"type":"Point","coordinates":[5.99195,52.34763]},"properties":{"category":"bus_halte","name":"Diepenweg","operator":""}},{"type":"Feature","geometry":{"type":"Point","coordinates":[5.994876,52.347385]},"properties":{"category":"bus_halte","name":"Sportpark","operator":""}},{"type":"Feature","geometry":{"type":"Point","coordinates":[5.996964,52.347183]},"properties":{"category":"bus_halte","name":"Sportpark","operator":""}},{"type":"Feature","geometry":{"type":"Point","coordinates":[5.999088,52.346299]},"properties":{"category":"bus_halte","name":"Hammerstraat","operator":""}},{"type":"Feature","geometry":{"type":"Point","coordinates":[5.999122,52.346361]},"properties":{"category":"bus_halte","name":"Hammerstraat","operator":""}},{"type":"Feature","geometry":{"type":"Point","coordinates":[6.022791,52.345474]},"properties":{"category":"bus_halte","name":"Apeldoorns Kanaal","operator":""}},{"type":"Feature","geometry":{"type":"Point","coordinates":[6.02284,52.345588]},"properties":{"category":"bus_halte","name":"Apeldoorns Kanaal","operator":""}},{"type":"Feature","geometry":{"type":"Point","coordinates":[6.036562,52.347393]},"properties":{"category":"bus_halte","name":"Boshoekerweg","operator":""}},{"type":"Feature","geometry":{"type":"Point","coordinates":[6.038031,52.347213]},"properties":{"category":"bus_halte","name":"Boshoekerweg","operator":""}},{"type":"Feature","geometry":{"type":"Point","coordinates":[6.042872,52.346732]},"properties":{"category":"bus_halte","name":"Kuiperkampsweg","operator":""}},{"type":"Feature","geometry":{"type":"Point","coordinates":[6.043922,52.346358]},"properties":{"category":"bus_halte","name":"Kuiperkampsweg","operator":""}},{"type":"Feature","geometry":{"type":"Point","coordinates":[6.047839,52.344616]},"properties":{"category":"bus_halte","name":"Dorpsstraat","operator":""}},{"type":"Feature","geometry":{"type":"Point","coordinates":[5.979602,52.349303]},"properties":{"category":"bus_halte","name":"Lohuizerweg","operator":""}},{"type":"Feature","geometry":{"type":"Point","coordinates":[5.987225,52.346513]},"properties":{"category":"bus_halte","name":"Sint Jorisweg","operator":""}},{"type":"Feature","geometry":{"type":"Point","coordinates":[6.04751,52.344541]},"properties":{"category":"bus_halte","name":"Dorpsstraat","operator":""}},{"type":"Feature","geometry":{"type":"Point","coordinates":[5.981149,52.338493]},"properties":{"category":"bus_halte","name":"Klaarbeek","operator":""}},{"type":"Feature","geometry":{"type":"Point","coordinates":[5.981448,52.338216]},"properties":{"category":"bus_halte","name":"Klaarbeek","operator":""}},{"type":"Feature","geometry":{"type":"Point","coordinates":[5.977555,52.346969]},"properties":{"category":"bus_halte","name":"Tongerenseweg","operator":""}},{"type":"Feature","geometry":{"type":"Point","coordinates":[5.977893,52.346942]},"properties":{"category":"bus_halte","name":"Tongerenseweg","operator":""}},{"type":"Feature","geometry":{"type":"Point","coordinates":[5.95556,52.341907]},"properties":{"category":"bus_halte","name":"Wissel","operator":""}},{"type":"Feature","geometry":{"type":"Point","coordinates":[5.986015,52.349104]},"properties":{"category":"gemeentehuis","name":"Gemeentehuis Epe","operator":"Gemeente Epe"}},{"type":"Feature","geometry":{"type":"Point","coordinates":[5.944047,52.345166]},"properties":{"category":"inzamelpunt","name":"","operator":""}},{"type":"Feature","geometry":{"type":"Point","coordinates":[5.94231,52.345737]},"properties":{"category":"inzamelpunt","name":"Roompot de schaapskoou","operator":""}},{"type":"Feature","geometry":{"type":"Point","coordinates":[5.991609,52.296322]},"properties":{"category":"inzamelpunt","name":"","operator":""}},{"type":"Feature","geometry":{"type":"Point","coordinates":[5.986987,52.347508]},"properties":{"category":"bibliotheek","name":"Bibliotheek Noord-Veluwe","operator":"de Bibliotheek Noord-Veluwe"}},{"type":"Feature","geometry":{"type":"Point","coordinates":[6.047296,52.343013]},"properties":{"category":"bibliotheek","name":"Uitleenpunt Oene","operator":"De Bibliotheek Noord-Veluwe"}},{"type":"Feature","geometry":{"type":"Point","coordinates":[5.989383,52.304533]},"properties":{"category":"transformatorhuisje","name":"","operator":""}},{"type":"Feature","geometry":{"type":"Point","coordinates":[5.989065,52.304546]},"properties":{"category":"transformatorhuisje","name":"","operator":""}},{"type":"Feature","geometry":{"type":"Point","coordinates":[5.949125,52.34442]},"properties":{"category":"sportveld","name":"Sportpark Ericaweg","operator":""}},{"type":"Feature","geometry":{"type":"Point","coordinates":[5.97687,52.349759]},"properties":{"category":"fietsenstalling","name":"","operator":""}},{"type":"Feature","geometry":{"type":"Point","coordinates":[5.985115,52.351668]},"properties":{"category":"fietsenstalling","name":"","operator":""}},{"type":"Feature","geometry":{"type":"Point","coordinates":[5.98108,52.338456]},"properties":{"category":"fietsenstalling","name":"","operator":""}},{"type":"Feature","geometry":{"type":"Point","coordinates":[5.981518,52.338359]},"properties":{"category":"fietsenstalling","name":"","operator":""}},{"type":"Feature","geometry":{"type":"Point","coordinates":[5.965226,52.281874]},"properties":{"category":"fietsenstalling","name":"","operator":""}},{"type":"Feature","geometry":{"type":"Point","coordinates":[5.985266,52.348305]},"properties":{"category":"parkeergarage","name":"","operator":""}}]}