{"type":"FeatureCollection","metadata":{"gemeente":"Etten-Leur","slug":"etten-leur","by_category":{"bus_halte":69,"fietsenstalling":11,"supermarkt":9,"transformatorhuisje":6,"middelbare_school":2,"sportveld":2,"winkelcentrum":2,"ns_station":1,"ov_knooppunt":1,"gemeentehuis":1,"inzamelpunt":1,"bibliotheek":1,"parkeergarage":1},"total":107},"features":[{"type":"Feature","geometry":{"type":"Point","coordinates":[4.63648,51.575213]},"properties":{"category":"ns_station","name":"Etten-Leur","operator":""}},{"type":"Feature","geometry":{"type":"Point","coordinates":[4.663446,51.572189]},"properties":{"category":"bus_halte","name":"Trivium","operator":""}},{"type":"Feature","geometry":{"type":"Point","coordinates":[4.655221,51.61011]},"properties":{"category":"bus_halte","name":"Zwartenbergseweg","operator":""}},{"type":"Feature","geometry":{"type":"Point","coordinates":[4.638593,51.621251]},"properties":{"category":"bus_halte","name":"Boutweg","operator":""}},{"type":"Feature","geometry":{"type":"Point","coordinates":[4.612218,51.557416]},"properties":{"category":"bus_halte","name":"Lokkerdreef","operator":""}},{"type":"Feature","geometry":{"type":"Point","coordinates":[4.608821,51.563896]},"properties":{"category":"bus_halte","name":"Transferium Vosdonk","operator":""}},{"type":"Feature","geometry":{"type":"Point","coordinates":[4.630935,51.56517]},"properties":{"category":"bus_halte","name":"Beiaard","operator":""}},{"type":"Feature","geometry":{"type":"Point","coordinates":[4.634503,51.564366]},"properties":{"category":"bus_halte","name":"Waldhoornlaan","operator":""}},{"type":"Feature","geometry":{"type":"Point","coordinates":[4.639345,51.568997]},"properties":{"category":"bus_halte","name":"Centrum","operator":""}},{"type":"Feature","geometry":{"type":"Point","coordinates":[4.647138,51.569596]},"properties":{"category":"bus_halte","name":"Parklaan","operator":""}},{"type":"Feature","geometry":{"type":"Point","coordinates":[4.647658,51.569476]},"properties":{"category":"bus_halte","name":"Parklaan","operator":""}},{"type":"Feature","geometry":{"type":"Point","coordinates":[4.624533,51.575642]},"properties":{"category":"bus_halte","name":"Hoevenseweg","operator":""}},{"type":"Feature","geometry":{"type":"Point","coordinates":[4.614685,51.575451]},"properties":{"category":"bus_halte","name":"Bankenstraat","operator":""}},{"type":"Feature","geometry":{"type":"Point","coordinates":[4.63176,51.574927]},"properties":{"category":"bus_halte","name":"Konijnenberg","operator":""}},{"type":"Feature","geometry":{"type":"Point","coordinates":[4.636235,51.578632]},"properties":{"category":"bus_halte","name":"Statenlaan","operator":""}},{"type":"Feature","geometry":{"type":"Point","coordinates":[4.636582,51.574791]},"properties":{"category":"bus_halte","name":"Station","operator":""}},{"type":"Feature","geometry":{"type":"Point","coordinates":[4.654409,51.571019]},"properties":{"category":"bus_halte","name":"Bredaseweg","operator":""}},{"type":"Feature","geometry":{"type":"Point","coordinates":[4.655143,51.571416]},"properties":{"category":"bus_halte","name":"Bredaseweg","operator":""}},{"type":"Feature","geometry":{"type":"Point","coordinates":[4.638859,51.582931]},"properties":{"category":"bus_halte","name":"Aletta Jacobslaan","operator":""}},{"type":"Feature","geometry":{"type":"Point","coordinates":[4.651504,51.584292]},"properties":{"category":"bus_halte","name":"Lindenbleek","operator":""}},{"type":"Feature","geometry":{"type":"Point","coordinates":[4.661155,51.57769]},"properties":{"category":"bus_halte","name":"Lage Vaartkant","operator":""}},{"type":"Feature","geometry":{"type":"Point","coordinates":[4.663996,51.572041]},"properties":{"category":"bus_halte","name":"Trivium","operator":""}},{"type":"Feature","geometry":{"type":"Point","coordinates":[4.659682,51.581893]},"properties":{"category":"bus_halte","name":"Vijfhuizenweg","operator":""}},{"type":"Feature","geometry":{"type":"Point","coordinates":[4.636955,51.574738]},"properties":{"category":"bus_halte","name":"Station","operator":""}},{"type":"Feature","geometry":{"type":"Point","coordinates":[4.636329,51.578929]},"properties":{"category":"bus_halte","name":"Statenlaan","operator":""}},{"type":"Feature","geometry":{"type":"Point","coordinates":[4.630791,51.565202]},"properties":{"category":"bus_halte","name":"Beiaard","operator":""}},{"type":"Feature","geometry":{"type":"Point","coordinates":[4.634624,51.564301]},"properties":{"category":"bus_halte","name":"Waldhoornlaan","operator":""}},{"type":"Feature","geometry":{"type":"Point","coordinates":[4.612312,51.55677]},"properties":{"category":"bus_halte","name":"Lokkerdreef","operator":""}},{"type":"Feature","geometry":{"type":"Point","coordinates":[4.659172,51.58186]},"properties":{"category":"bus_halte","name":"Vijfhuizenweg","operator":""}},{"type":"Feature","geometry":{"type":"Point","coordinates":[4.644015,51.586293]},"properties":{"category":"bus_halte","name":"Voorsteven","operator":""}},{"type":"Feature","geometry":{"type":"Point","coordinates":[4.64383,51.586047]},"properties":{"category":"bus_halte","name":"Voorsteven","operator":""}},{"type":"Feature","geometry":{"type":"Point","coordinates":[4.646912,51.59256]},"properties":{"category":"bus_halte","name":"Rijsdijk","operator":""}},{"type":"Feature","geometry":{"type":"Point","coordinates":[4.647245,51.593161]},"properties":{"category":"bus_halte","name":"Rijsdijk","operator":""}},{"type":"Feature","geometry":{"type":"Point","coordinates":[4.657736,51.594394]},"properties":{"category":"bus_halte","name":"Tuindersweg","operator":""}},{"type":"Feature","geometry":{"type":"Point","coordinates":[4.657895,51.594496]},"properties":{"category":"bus_halte","name":"Tuindersweg","operator":""}},{"type":"Feature","geometry":{"type":"Point","coordinates":[4.667408,51.590094]},"properties":{"category":"bus_halte","name":"Donkerstraat","operator":""}},{"type":"Feature","geometry":{"type":"Point","coordinates":[4.66742,51.589572]},"properties":{"category":"bus_halte","name":"Donkerstraat","operator":""}},{"type":"Feature","geometry":{"type":"Point","coordinates":[4.648921,51.581601]},"properties":{"category":"bus_halte","name":"Concordialaan","operator":""}},{"type":"Feature","geometry":{"type":"Point","coordinates":[4.648683,51.581491]},"properties":{"category":"bus_halte","name":"Concordialaan","operator":""}},{"type":"Feature","geometry":{"type":"Point","coordinates":[4.614403,51.575395]},"properties":{"category":"bus_halte","name":"Bankenstraat","operator":""}},{"type":"Feature","geometry":{"type":"Point","coordinates":[4.624288,51.575508]},"properties":{"category":"bus_halte","name":"Hoevenseweg","operator":""}},{"type":"Feature","geometry":{"type":"Point","coordinates":[4.63176,51.574716]},"properties":{"category":"bus_halte","name":"Konijnenberg","operator":""}},{"type":"Feature","geometry":{"type":"Point","coordinates":[4.655449,51.609992]},"properties":{"category":"bus_halte","name":"Zwartenbergseweg","operator":""}},{"type":"Feature","geometry":{"type":"Point","coordinates":[4.638687,51.621041]},"properties":{"category":"bus_halte","name":"Boutweg","operator":""}},{"type":"Feature","geometry":{"type":"Point","coordinates":[4.638592,51.582941]},"properties":{"category":"bus_halte","name":"Aletta Jacobslaan","operator":""}},{"type":"Feature","geometry":{"type":"Point","coordinates":[4.647071,51.577414]},"properties":{"category":"bus_halte","name":"Het Anbarg","operator":""}},{"type":"Feature","geometry":{"type":"Point","coordinates":[4.661859,51.57652]},"properties":{"category":"bus_halte","name":"Lage Vaartkant","operator":""}},{"type":"Feature","geometry":{"type":"Point","coordinates":[4.662241,51.587354]},"properties":{"category":"bus_halte","name":"Landmanweg","operator":""}},{"type":"Feature","geometry":{"type":"Point","coordinates":[4.662161,51.587193]},"properties":{"category":"bus_halte","name":"Landmanweg","operator":""}},{"type":"Feature","geometry":{"type":"Point","coordinates":[4.658694,51.58677]},"properties":{"category":"bus_halte","name":"Lange Brugstraat","operator":""}},{"type":"Feature","geometry":{"type":"Point","coordinates":[4.651592,51.584378]},"properties":{"category":"bus_halte","name":"Lindenbleek","operator":""}},{"type":"Feature","geometry":{"type":"Point","coordinates":[4.64762,51.580219]},"properties":{"category":"bus_halte","name":"Plantijnlaan","operator":""}},{"type":"Feature","geometry":{"type":"Point","coordinates":[4.647543,51.580542]},"properties":{"category":"bus_halte","name":"Plantijnlaan","operator":""}},{"type":"Feature","geometry":{"type":"Point","coordinates":[4.656781,51.588046]},"properties":{"category":"bus_halte","name":"Schipperstraat","operator":""}},{"type":"Feature","geometry":{"type":"Point","coordinates":[4.645008,51.584532]},"properties":{"category":"bus_halte","name":"Voorsteven","operator":""}},{"type":"Feature","geometry":{"type":"Point","coordinates":[4.645007,51.584603]},"properties":{"category":"bus_halte","name":"Voorsteven","operator":""}},{"type":"Feature","geometry":{"type":"Point","coordinates":[4.634166,51.568674]},"properties":{"category":"bus_halte","name":"Stadskantoor","operator":""}},{"type":"Feature","geometry":{"type":"Point","coordinates":[4.633765,51.568927]},"properties":{"category":"bus_halte","name":"Stadskantoor","operator":""}},{"type":"Feature","geometry":{"type":"Point","coordinates":[4.633447,51.56241]},"properties":{"category":"bus_halte","name":"Trompetlaan","operator":""}},{"type":"Feature","geometry":{"type":"Point","coordinates":[4.633602,51.562526]},"properties":{"category":"bus_halte","name":"Trompetlaan","operator":""}},{"type":"Feature","geometry":{"type":"Point","coordinates":[4.654967,51.585278]},"properties":{"category":"bus_halte","name":"Van Bergenplein","operator":""}},{"type":"Feature","geometry":{"type":"Point","coordinates":[4.652853,51.565218]},"properties":{"category":"bus_halte","name":"Couperuslaan","operator":""}},{"type":"Feature","geometry":{"type":"Point","coordinates":[4.652546,51.565802]},"properties":{"category":"bus_halte","name":"Couperuslaan","operator":""}},{"type":"Feature","geometry":{"type":"Point","coordinates":[4.649316,51.571818]},"properties":{"category":"bus_halte","name":"Schoonhout","operator":""}},{"type":"Feature","geometry":{"type":"Point","coordinates":[4.649518,51.57168]},"properties":{"category":"bus_halte","name":"Schoonhout","operator":""}},{"type":"Feature","geometry":{"type":"Point","coordinates":[4.639876,51.568719]},"properties":{"category":"bus_halte","name":"Centrum","operator":""}},{"type":"Feature","geometry":{"type":"Point","coordinates":[4.654603,51.585279]},"properties":{"category":"bus_halte","name":"Van Bergenplein","operator":""}},{"type":"Feature","geometry":{"type":"Point","coordinates":[4.642445,51.56306]},"properties":{"category":"bus_halte","name":"Bisschopsmolen","operator":""}},{"type":"Feature","geometry":{"type":"Point","coordinates":[4.619646,51.562041]},"properties":{"category":"bus_halte","name":"Mon Plaisier","operator":""}},{"type":"Feature","geometry":{"type":"Point","coordinates":[4.638346,51.556256]},"properties":{"category":"bus_halte","name":"De Streek","operator":""}},{"type":"Feature","geometry":{"type":"Point","coordinates":[4.63648,51.575213]},"properties":{"category":"ov_knooppunt","name":"Etten-Leur","operator":""}},{"type":"Feature","geometry":{"type":"Point","coordinates":[4.634179,51.568852]},"properties":{"category":"gemeentehuis","name":"Stadskantoor Etten-Leur","operator":"Gemeente Etten-Leur"}},{"type":"Feature","geometry":{"type":"Point","coordinates":[4.619591,51.570212]},"properties":{"category":"inzamelpunt","name":"Milieustraat Etten-Leur","operator":"Gemeente Etten-Leur"}},{"type":"Feature","geometry":{"type":"Point","coordinates":[4.641621,51.568343]},"properties":{"category":"bibliotheek","name":"Bibliotheek De Nobelaer","operator":"De Nobelaer"}},{"type":"Feature","geometry":{"type":"Point","coordinates":[4.607636,51.572836]},"properties":{"category":"transformatorhuisje","name":"","operator":""}},{"type":"Feature","geometry":{"type":"Point","coordinates":[4.60806,51.571639]},"properties":{"category":"transformatorhuisje","name":"","operator":""}},{"type":"Feature","geometry":{"type":"Point","coordinates":[4.60738,51.572801]},"properties":{"category":"transformatorhuisje","name":"","operator":""}},{"type":"Feature","geometry":{"type":"Point","coordinates":[4.607959,51.572862]},"properties":{"category":"transformatorhuisje","name":"","operator":""}},{"type":"Feature","geometry":{"type":"Point","coordinates":[4.607795,51.572846]},"properties":{"category":"transformatorhuisje","name":"","operator":""}},{"type":"Feature","geometry":{"type":"Point","coordinates":[4.641043,51.627587]},"properties":{"category":"transformatorhuisje","name":"","operator":""}},{"type":"Feature","geometry":{"type":"Point","coordinates":[4.662123,51.570794]},"properties":{"category":"middelbare_school","name":"Munnikenheide College","operator":"Ons Middelbaar Onderwijs"}},{"type":"Feature","geometry":{"type":"Point","coordinates":[4.649539,51.566983]},"properties":{"category":"middelbare_school","name":"Katholieke Scholengemeenschap Etten-Leur","operator":"Novia Onderwijs"}},{"type":"Feature","geometry":{"type":"Point","coordinates":[4.663126,51.57037]},"properties":{"category":"sportveld","name":"","operator":""}},{"type":"Feature","geometry":{"type":"Point","coordinates":[4.660369,51.58192]},"properties":{"category":"sportveld","name":"T.C. De Vijfhuizen","operator":""}},{"type":"Feature","geometry":{"type":"Point","coordinates":[4.636444,51.567102]},"properties":{"category":"winkelcentrum","name":"De Molenpassage","operator":""}},{"type":"Feature","geometry":{"type":"Point","coordinates":[4.637358,51.567957]},"properties":{"category":"winkelcentrum","name":"Winkelcentrum Etten-Leur","operator":""}},{"type":"Feature","geometry":{"type":"Point","coordinates":[4.654389,51.585627]},"properties":{"category":"supermarkt","name":"Lidl","operator":"Lidl Nederland GmbH"}},{"type":"Feature","geometry":{"type":"Point","coordinates":[4.643333,51.580607]},"properties":{"category":"supermarkt","name":"ALDI","operator":""}},{"type":"Feature","geometry":{"type":"Point","coordinates":[4.652578,51.574872]},"properties":{"category":"supermarkt","name":"Dirk","operator":""}},{"type":"Feature","geometry":{"type":"Point","coordinates":[4.639296,51.568344]},"properties":{"category":"supermarkt","name":"Albert Heijn","operator":""}},{"type":"Feature","geometry":{"type":"Point","coordinates":[4.642908,51.565013]},"properties":{"category":"supermarkt","name":"Jumbo","operator":""}},{"type":"Feature","geometry":{"type":"Point","coordinates":[4.632783,51.56266]},"properties":{"category":"supermarkt","name":"Lidl","operator":"Lidl Nederland GmbH"}},{"type":"Feature","geometry":{"type":"Point","coordinates":[4.635555,51.567631]},"properties":{"category":"supermarkt","name":"Emissa Food","operator":""}},{"type":"Feature","geometry":{"type":"Point","coordinates":[4.65434,51.586719]},"properties":{"category":"supermarkt","name":"Jumbo","operator":""}},{"type":"Feature","geometry":{"type":"Point","coordinates":[4.636429,51.567078]},"properties":{"category":"supermarkt","name":"Dirk","operator":""}},{"type":"Feature","geometry":{"type":"Point","coordinates":[4.639192,51.567535]},"properties":{"category":"fietsenstalling","name":"Stalling Winkelcentrum","operator":"Gemeente Etten-Leur"}},{"type":"Feature","geometry":{"type":"Point","coordinates":[4.655773,51.571638]},"properties":{"category":"fietsenstalling","name":"","operator":""}},{"type":"Feature","geometry":{"type":"Point","coordinates":[4.664116,51.57202]},"properties":{"category":"fietsenstalling","name":"","operator":""}},{"type":"Feature","geometry":{"type":"Point","coordinates":[4.636752,51.575398]},"properties":{"category":"fietsenstalling","name":"","operator":""}},{"type":"Feature","geometry":{"type":"Point","coordinates":[4.637355,51.575558]},"properties":{"category":"fietsenstalling","name":"","operator":""}},{"type":"Feature","geometry":{"type":"Point","coordinates":[4.636294,51.575284]},"properties":{"category":"fietsenstalling","name":"","operator":""}},{"type":"Feature","geometry":{"type":"Point","coordinates":[4.636725,51.575462]},"properties":{"category":"fietsenstalling","name":"","operator":""}},{"type":"Feature","geometry":{"type":"Point","coordinates":[4.647891,51.569495]},"properties":{"category":"fietsenstalling","name":"","operator":""}},{"type":"Feature","geometry":{"type":"Point","coordinates":[4.662281,51.570273]},"properties":{"category":"fietsenstalling","name":"","operator":""}},{"type":"Feature","geometry":{"type":"Point","coordinates":[4.655322,51.571045]},"properties":{"category":"fietsenstalling","name":"","operator":""}},{"type":"Feature","geometry":{"type":"Point","coordinates":[4.636018,51.574849]},"properties":{"category":"fietsenstalling","name":"Fietsenstalling Station Etten-Leur","operator":"NS Stations"}},{"type":"Feature","geometry":{"type":"Point","coordinates":[4.636695,51.568967]},"properties":{"category":"parkeergarage","name":"Parkeergarage Centrum Etten-Leur","operator":"Gemeente Etten-Leur"}}]}