{"type":"FeatureCollection","metadata":{"gemeente":"Gilze en Rijen","slug":"gilze-en-rijen","by_category":{"bus_halte":45,"supermarkt":6,"sportveld":4,"bibliotheek":2,"winkelcentrum":2,"fietsenstalling":2,"ns_station":1,"ov_knooppunt":1,"gemeentehuis":1,"inzamelpunt":1},"total":65},"features":[{"type":"Feature","geometry":{"type":"Point","coordinates":[4.924226,51.584022]},"properties":{"category":"ns_station","name":"Gilze-Rijen","operator":""}},{"type":"Feature","geometry":{"type":"Point","coordinates":[4.890754,51.583468]},"properties":{"category":"bus_halte","name":"Veenstraat","operator":""}},{"type":"Feature","geometry":{"type":"Point","coordinates":[4.908253,51.581572]},"properties":{"category":"bus_halte","name":"Oosterhoutseweg","operator":""}},{"type":"Feature","geometry":{"type":"Point","coordinates":[4.905314,51.588605]},"properties":{"category":"bus_halte","name":"Nassaulaan","operator":""}},{"type":"Feature","geometry":{"type":"Point","coordinates":[4.912071,51.589692]},"properties":{"category":"bus_halte","name":"Gemeentehuis","operator":""}},{"type":"Feature","geometry":{"type":"Point","coordinates":[4.943094,51.544289]},"properties":{"category":"bus_halte","name":"Lange Wagenstraat","operator":""}},{"type":"Feature","geometry":{"type":"Point","coordinates":[4.942339,51.548018]},"properties":{"category":"bus_halte","name":"Vreugdendaal","operator":""}},{"type":"Feature","geometry":{"type":"Point","coordinates":[4.948761,51.544134]},"properties":{"category":"bus_halte","name":"Aalstraat","operator":""}},{"type":"Feature","geometry":{"type":"Point","coordinates":[4.941337,51.55069]},"properties":{"category":"bus_halte","name":"Nerhovensestraat","operator":""}},{"type":"Feature","geometry":{"type":"Point","coordinates":[4.947054,51.552985]},"properties":{"category":"bus_halte","name":"Nerhoven","operator":""}},{"type":"Feature","geometry":{"type":"Point","coordinates":[4.936556,51.578582]},"properties":{"category":"bus_halte","name":"Europalaan","operator":""}},{"type":"Feature","geometry":{"type":"Point","coordinates":[4.924703,51.584396]},"properties":{"category":"bus_halte","name":"Station NS","operator":""}},{"type":"Feature","geometry":{"type":"Point","coordinates":[4.931612,51.584301]},"properties":{"category":"bus_halte","name":"Mary Zeldenrustlaan","operator":""}},{"type":"Feature","geometry":{"type":"Point","coordinates":[4.948565,51.571925]},"properties":{"category":"bus_halte","name":"Burgemeester Ballingsweg","operator":""}},{"type":"Feature","geometry":{"type":"Point","coordinates":[4.899836,51.536507]},"properties":{"category":"bus_halte","name":"AZC","operator":""}},{"type":"Feature","geometry":{"type":"Point","coordinates":[4.937943,51.544033]},"properties":{"category":"bus_halte","name":"Kapittelstraat","operator":""}},{"type":"Feature","geometry":{"type":"Point","coordinates":[4.920319,51.587417]},"properties":{"category":"bus_halte","name":"Stationsstraat","operator":""}},{"type":"Feature","geometry":{"type":"Point","coordinates":[4.914941,51.58752]},"properties":{"category":"bus_halte","name":"Rembrandlaan","operator":""}},{"type":"Feature","geometry":{"type":"Point","coordinates":[4.916065,51.590849]},"properties":{"category":"bus_halte","name":"Mariastraat","operator":""}},{"type":"Feature","geometry":{"type":"Point","coordinates":[4.949476,51.570959]},"properties":{"category":"bus_halte","name":"Burgemeester Ballingsweg","operator":""}},{"type":"Feature","geometry":{"type":"Point","coordinates":[4.936542,51.579147]},"properties":{"category":"bus_halte","name":"Europalaan","operator":""}},{"type":"Feature","geometry":{"type":"Point","coordinates":[4.931499,51.58423]},"properties":{"category":"bus_halte","name":"Mary Zeldenrustlaan","operator":""}},{"type":"Feature","geometry":{"type":"Point","coordinates":[4.915268,51.586966]},"properties":{"category":"bus_halte","name":"Rembrandlaan","operator":""}},{"type":"Feature","geometry":{"type":"Point","coordinates":[4.906053,51.588661]},"properties":{"category":"bus_halte","name":"Nassaulaan","operator":""}},{"type":"Feature","geometry":{"type":"Point","coordinates":[4.942292,51.548349]},"properties":{"category":"bus_halte","name":"Vreugdendaal","operator":""}},{"type":"Feature","geometry":{"type":"Point","coordinates":[4.9169,51.590897]},"properties":{"category":"bus_halte","name":"Mariastraat","operator":""}},{"type":"Feature","geometry":{"type":"Point","coordinates":[4.913079,51.589763]},"properties":{"category":"bus_halte","name":"Gemeentehuis","operator":""}},{"type":"Feature","geometry":{"type":"Point","coordinates":[4.947552,51.553068]},"properties":{"category":"bus_halte","name":"Nerhoven","operator":""}},{"type":"Feature","geometry":{"type":"Point","coordinates":[4.942184,51.550788]},"properties":{"category":"bus_halte","name":"Nerhovensestraat","operator":""}},{"type":"Feature","geometry":{"type":"Point","coordinates":[4.941922,51.544343]},"properties":{"category":"bus_halte","name":"Lange Wagenstraat","operator":""}},{"type":"Feature","geometry":{"type":"Point","coordinates":[4.948793,51.544241]},"properties":{"category":"bus_halte","name":"Aalstraat","operator":""}},{"type":"Feature","geometry":{"type":"Point","coordinates":[4.881329,51.573202]},"properties":{"category":"bus_halte","name":"Kerk","operator":"Arriva"}},{"type":"Feature","geometry":{"type":"Point","coordinates":[4.881102,51.573305]},"properties":{"category":"bus_halte","name":"Kerk","operator":"Arriva"}},{"type":"Feature","geometry":{"type":"Point","coordinates":[4.894516,51.574622]},"properties":{"category":"bus_halte","name":"Heideweg","operator":""}},{"type":"Feature","geometry":{"type":"Point","coordinates":[4.893721,51.574011]},"properties":{"category":"bus_halte","name":"Heideweg","operator":""}},{"type":"Feature","geometry":{"type":"Point","coordinates":[4.90835,51.581172]},"properties":{"category":"bus_halte","name":"Oosterhoutseweg","operator":""}},{"type":"Feature","geometry":{"type":"Point","coordinates":[4.91174,51.596227]},"properties":{"category":"bus_halte","name":"Statenlaan","operator":""}},{"type":"Feature","geometry":{"type":"Point","coordinates":[4.917849,51.607728]},"properties":{"category":"bus_halte","name":"Steenovensebaan","operator":""}},{"type":"Feature","geometry":{"type":"Point","coordinates":[4.917666,51.607759]},"properties":{"category":"bus_halte","name":"Steenovensebaan","operator":""}},{"type":"Feature","geometry":{"type":"Point","coordinates":[4.889028,51.583916]},"properties":{"category":"bus_halte","name":"Veenstraat","operator":""}},{"type":"Feature","geometry":{"type":"Point","coordinates":[4.936637,51.543815]},"properties":{"category":"bus_halte","name":"Kapittelstraat","operator":""}},{"type":"Feature","geometry":{"type":"Point","coordinates":[4.91148,51.596219]},"properties":{"category":"bus_halte","name":"Statenlaan","operator":""}},{"type":"Feature","geometry":{"type":"Point","coordinates":[4.920451,51.587126]},"properties":{"category":"bus_halte","name":"Stationsstraat","operator":""}},{"type":"Feature","geometry":{"type":"Point","coordinates":[4.956471,51.546122]},"properties":{"category":"bus_halte","name":"Midden-Brabant Poort","operator":""}},{"type":"Feature","geometry":{"type":"Point","coordinates":[4.927161,51.596087]},"properties":{"category":"bus_halte","name":"Zaaren","operator":""}},{"type":"Feature","geometry":{"type":"Point","coordinates":[4.928606,51.590142]},"properties":{"category":"bus_halte","name":"Marga Klompélaan","operator":""}},{"type":"Feature","geometry":{"type":"Point","coordinates":[4.924226,51.584022]},"properties":{"category":"ov_knooppunt","name":"Gilze-Rijen","operator":""}},{"type":"Feature","geometry":{"type":"Point","coordinates":[4.911875,51.59006]},"properties":{"category":"gemeentehuis","name":"Gemeentehuis Gilze en Rijen","operator":"Gemeente Gilze en Rijen"}},{"type":"Feature","geometry":{"type":"Point","coordinates":[4.881563,51.573188]},"properties":{"category":"inzamelpunt","name":"","operator":""}},{"type":"Feature","geometry":{"type":"Point","coordinates":[4.907098,51.589338]},"properties":{"category":"bibliotheek","name":"Theek 5 Rijen","operator":"Theek 5"}},{"type":"Feature","geometry":{"type":"Point","coordinates":[4.941109,51.54053]},"properties":{"category":"bibliotheek","name":"Theek 5 Gilze","operator":"Theek 5"}},{"type":"Feature","geometry":{"type":"Point","coordinates":[4.909155,51.584496]},"properties":{"category":"sportveld","name":"Sportpark Vijf Eiken","operator":""}},{"type":"Feature","geometry":{"type":"Point","coordinates":[4.932776,51.589437]},"properties":{"category":"sportveld","name":"Den Butter","operator":""}},{"type":"Feature","geometry":{"type":"Point","coordinates":[4.897192,51.589427]},"properties":{"category":"sportveld","name":"Atletiekbaan AV Spiridon","operator":""}},{"type":"Feature","geometry":{"type":"Point","coordinates":[4.927143,51.551608]},"properties":{"category":"sportveld","name":"","operator":""}},{"type":"Feature","geometry":{"type":"Point","coordinates":[4.918362,51.588339]},"properties":{"category":"winkelcentrum","name":"","operator":""}},{"type":"Feature","geometry":{"type":"Point","coordinates":[4.918362,51.588339]},"properties":{"category":"winkelcentrum","name":"Winkelcentrum De Laverije","operator":""}},{"type":"Feature","geometry":{"type":"Point","coordinates":[4.918338,51.588432]},"properties":{"category":"supermarkt","name":"Albert Heijn","operator":"Albert Heijn"}},{"type":"Feature","geometry":{"type":"Point","coordinates":[4.918762,51.590515]},"properties":{"category":"supermarkt","name":"ALDI","operator":""}},{"type":"Feature","geometry":{"type":"Point","coordinates":[4.918239,51.588325]},"properties":{"category":"supermarkt","name":"Jumbo Hapers","operator":""}},{"type":"Feature","geometry":{"type":"Point","coordinates":[4.942147,51.5421]},"properties":{"category":"supermarkt","name":"Nettorama","operator":""}},{"type":"Feature","geometry":{"type":"Point","coordinates":[4.942456,51.543903]},"properties":{"category":"supermarkt","name":"Jumbo Hapers","operator":""}},{"type":"Feature","geometry":{"type":"Point","coordinates":[4.920607,51.587721]},"properties":{"category":"supermarkt","name":"Lidl","operator":"Lidl Nederland GmbH"}},{"type":"Feature","geometry":{"type":"Point","coordinates":[4.924854,51.584061]},"properties":{"category":"fietsenstalling","name":"Station Gilze-Rijen","operator":""}},{"type":"Feature","geometry":{"type":"Point","coordinates":[4.925111,51.58399]},"properties":{"category":"fietsenstalling","name":"","operator":""}}]}