{"type":"FeatureCollection","metadata":{"gemeente":"Gouda","slug":"gouda","by_category":{"bus_halte":135,"supermarkt":21,"transformatorhuisje":19,"middelbare_school":15,"fietsenstalling":13,"parkeergarage":9,"sportveld":8,"bibliotheek":7,"winkelcentrum":3,"ns_station":2,"ov_knooppunt":2,"gemeentehuis":2,"hogeschool":2,"inzamelpunt":1,"ziekenhuis":1,"universiteit":1,"p_and_r":1},"total":242},"features":[{"type":"Feature","geometry":{"type":"Point","coordinates":[4.706164,52.017424]},"properties":{"category":"ns_station","name":"Gouda","operator":"Nederlandse Spoorwegen"}},{"type":"Feature","geometry":{"type":"Point","coordinates":[4.742099,52.015013]},"properties":{"category":"ns_station","name":"Gouda Goverwelle","operator":""}},{"type":"Feature","geometry":{"type":"Point","coordinates":[4.721401,52.005912]},"properties":{"category":"bus_halte","name":"Stolwijkersluis","operator":""}},{"type":"Feature","geometry":{"type":"Point","coordinates":[4.72266,52.004358]},"properties":{"category":"bus_halte","name":"Stolwijkersluis","operator":""}},{"type":"Feature","geometry":{"type":"Point","coordinates":[4.706509,52.020431]},"properties":{"category":"bus_halte","name":"Groene Hart Ziekenhuis","operator":""}},{"type":"Feature","geometry":{"type":"Point","coordinates":[4.679924,52.023162]},"properties":{"category":"bus_halte","name":"Tielweg","operator":""}},{"type":"Feature","geometry":{"type":"Point","coordinates":[4.679987,52.023009]},"properties":{"category":"bus_halte","name":"Tielweg","operator":""}},{"type":"Feature","geometry":{"type":"Point","coordinates":[4.715319,52.012005]},"properties":{"category":"bus_halte","name":"Centrum","operator":""}},{"type":"Feature","geometry":{"type":"Point","coordinates":[4.715395,52.012325]},"properties":{"category":"bus_halte","name":"Centrum","operator":""}},{"type":"Feature","geometry":{"type":"Point","coordinates":[4.715837,52.010204]},"properties":{"category":"bus_halte","name":"Doelenbrug","operator":"Qbuzz;Syntus"}},{"type":"Feature","geometry":{"type":"Point","coordinates":[4.712651,52.035363]},"properties":{"category":"bus_halte","name":"Zuiderwerf","operator":""}},{"type":"Feature","geometry":{"type":"Point","coordinates":[4.698104,52.026519]},"properties":{"category":"bus_halte","name":"Sleedoornsingel","operator":""}},{"type":"Feature","geometry":{"type":"Point","coordinates":[4.690993,52.024648]},"properties":{"category":"bus_halte","name":"Zwembad","operator":""}},{"type":"Feature","geometry":{"type":"Point","coordinates":[4.70408,52.022005]},"properties":{"category":"bus_halte","name":"Buchnerweg","operator":""}},{"type":"Feature","geometry":{"type":"Point","coordinates":[4.712418,52.035682]},"properties":{"category":"bus_halte","name":"Zuiderwerf","operator":""}},{"type":"Feature","geometry":{"type":"Point","coordinates":[4.70252,52.03278]},"properties":{"category":"bus_halte","name":"Gildenburg","operator":""}},{"type":"Feature","geometry":{"type":"Point","coordinates":[4.68846,52.026701]},"properties":{"category":"bus_halte","name":"Plataanstraat","operator":""}},{"type":"Feature","geometry":{"type":"Point","coordinates":[4.688507,52.030362]},"properties":{"category":"bus_halte","name":"Prunuslaan","operator":""}},{"type":"Feature","geometry":{"type":"Point","coordinates":[4.697985,52.031185]},"properties":{"category":"bus_halte","name":"Boerensloot","operator":""}},{"type":"Feature","geometry":{"type":"Point","coordinates":[4.712164,52.031355]},"properties":{"category":"bus_halte","name":"Raaigras","operator":""}},{"type":"Feature","geometry":{"type":"Point","coordinates":[4.690429,52.021943]},"properties":{"category":"bus_halte","name":"Gentseweg","operator":""}},{"type":"Feature","geometry":{"type":"Point","coordinates":[4.695486,52.024783]},"properties":{"category":"bus_halte","name":"Vuurdoornlaan","operator":""}},{"type":"Feature","geometry":{"type":"Point","coordinates":[4.71254,52.037338]},"properties":{"category":"bus_halte","name":"Noorderwerf","operator":""}},{"type":"Feature","geometry":{"type":"Point","coordinates":[4.713129,52.029905]},"properties":{"category":"bus_halte","name":"Blommensteinsingel","operator":""}},{"type":"Feature","geometry":{"type":"Point","coordinates":[4.694738,52.030449]},"properties":{"category":"bus_halte","name":"Hugo de Vrieslaan","operator":""}},{"type":"Feature","geometry":{"type":"Point","coordinates":[4.694551,52.03057]},"properties":{"category":"bus_halte","name":"Hugo de Vrieslaan","operator":""}},{"type":"Feature","geometry":{"type":"Point","coordinates":[4.713917,52.02094]},"properties":{"category":"bus_halte","name":"Savelberg","operator":""}},{"type":"Feature","geometry":{"type":"Point","coordinates":[4.702788,52.035891]},"properties":{"category":"bus_halte","name":"Rietzoom","operator":""}},{"type":"Feature","geometry":{"type":"Point","coordinates":[4.712357,52.037553]},"properties":{"category":"bus_halte","name":"Noorderwerf","operator":""}},{"type":"Feature","geometry":{"type":"Point","coordinates":[4.708831,52.019835]},"properties":{"category":"bus_halte","name":"Ridder van Catsweg","operator":""}},{"type":"Feature","geometry":{"type":"Point","coordinates":[4.690847,52.021789]},"properties":{"category":"bus_halte","name":"Gentseweg","operator":""}},{"type":"Feature","geometry":{"type":"Point","coordinates":[4.701298,52.026925]},"properties":{"category":"bus_halte","name":"Burg. van Reenensingel","operator":""}},{"type":"Feature","geometry":{"type":"Point","coordinates":[4.712226,52.031526]},"properties":{"category":"bus_halte","name":"Raaigras","operator":""}},{"type":"Feature","geometry":{"type":"Point","coordinates":[4.710887,52.038783]},"properties":{"category":"bus_halte","name":"Landluststraat","operator":""}},{"type":"Feature","geometry":{"type":"Point","coordinates":[4.713695,52.027079]},"properties":{"category":"bus_halte","name":"Mammoet","operator":""}},{"type":"Feature","geometry":{"type":"Point","coordinates":[4.687965,52.027263]},"properties":{"category":"bus_halte","name":"Plataanstraat","operator":""}},{"type":"Feature","geometry":{"type":"Point","coordinates":[4.702146,52.032806]},"properties":{"category":"bus_halte","name":"Gildenburg","operator":""}},{"type":"Feature","geometry":{"type":"Point","coordinates":[4.714492,52.0241]},"properties":{"category":"bus_halte","name":"Heemskerkstraat","operator":""}},{"type":"Feature","geometry":{"type":"Point","coordinates":[4.685512,52.022057]},"properties":{"category":"bus_halte","name":"Harderwijkweg","operator":""}},{"type":"Feature","geometry":{"type":"Point","coordinates":[4.704492,52.022092]},"properties":{"category":"bus_halte","name":"Buchnerweg","operator":""}},{"type":"Feature","geometry":{"type":"Point","coordinates":[4.701348,52.026784]},"properties":{"category":"bus_halte","name":"Burg. van Reenensingel","operator":""}},{"type":"Feature","geometry":{"type":"Point","coordinates":[4.713609,52.020888]},"properties":{"category":"bus_halte","name":"Savelberg","operator":""}},{"type":"Feature","geometry":{"type":"Point","coordinates":[4.697863,52.02662]},"properties":{"category":"bus_halte","name":"Sleedoornsingel","operator":""}},{"type":"Feature","geometry":{"type":"Point","coordinates":[4.714495,52.024517]},"properties":{"category":"bus_halte","name":"Heemskerkstraat","operator":""}},{"type":"Feature","geometry":{"type":"Point","coordinates":[4.70295,52.035986]},"properties":{"category":"bus_halte","name":"Rietzoom","operator":""}},{"type":"Feature","geometry":{"type":"Point","coordinates":[4.690924,52.024436]},"properties":{"category":"bus_halte","name":"Zwembad","operator":""}},{"type":"Feature","geometry":{"type":"Point","coordinates":[4.715437,52.021644]},"properties":{"category":"bus_halte","name":"Johan de Wittlaan","operator":""}},{"type":"Feature","geometry":{"type":"Point","coordinates":[4.705778,52.038321]},"properties":{"category":"bus_halte","name":"Driehoeven","operator":""}},{"type":"Feature","geometry":{"type":"Point","coordinates":[4.712979,52.029565]},"properties":{"category":"bus_halte","name":"Blommensteinsingel","operator":""}},{"type":"Feature","geometry":{"type":"Point","coordinates":[4.7067,52.026209]},"properties":{"category":"bus_halte","name":"Prinsenhof","operator":""}},{"type":"Feature","geometry":{"type":"Point","coordinates":[4.708924,52.020088]},"properties":{"category":"bus_halte","name":"Ridder van Catsweg","operator":""}},{"type":"Feature","geometry":{"type":"Point","coordinates":[4.695371,52.024872]},"properties":{"category":"bus_halte","name":"Vuurdoornlaan","operator":""}},{"type":"Feature","geometry":{"type":"Point","coordinates":[4.706413,52.026785]},"properties":{"category":"bus_halte","name":"Prinsenhof","operator":""}},{"type":"Feature","geometry":{"type":"Point","coordinates":[4.710735,52.038914]},"properties":{"category":"bus_halte","name":"Landluststraat","operator":""}},{"type":"Feature","geometry":{"type":"Point","coordinates":[4.705941,52.038238]},"properties":{"category":"bus_halte","name":"Driehoeven","operator":""}},{"type":"Feature","geometry":{"type":"Point","coordinates":[4.71551,52.021899]},"properties":{"category":"bus_halte","name":"Johan de Wittlaan","operator":""}},{"type":"Feature","geometry":{"type":"Point","coordinates":[4.697958,52.031071]},"properties":{"category":"bus_halte","name":"Boerensloot","operator":""}},{"type":"Feature","geometry":{"type":"Point","coordinates":[4.688112,52.030275]},"properties":{"category":"bus_halte","name":"Prunuslaan","operator":""}},{"type":"Feature","geometry":{"type":"Point","coordinates":[4.713821,52.026584]},"properties":{"category":"bus_halte","name":"Mammoet","operator":""}},{"type":"Feature","geometry":{"type":"Point","coordinates":[4.671655,52.023311]},"properties":{"category":"bus_halte","name":"Viaduct","operator":""}},{"type":"Feature","geometry":{"type":"Point","coordinates":[4.671777,52.023163]},"properties":{"category":"bus_halte","name":"Viaduct","operator":""}},{"type":"Feature","geometry":{"type":"Point","coordinates":[4.69844,52.001209]},"properties":{"category":"bus_halte","name":"Koningin Wilhelminaweg","operator":""}},{"type":"Feature","geometry":{"type":"Point","coordinates":[4.695689,52.007651]},"properties":{"category":"bus_halte","name":"Oranjeplein","operator":""}},{"type":"Feature","geometry":{"type":"Point","coordinates":[4.698146,52.009024]},"properties":{"category":"bus_halte","name":"St. Jobstraat","operator":""}},{"type":"Feature","geometry":{"type":"Point","coordinates":[4.710358,52.021644]},"properties":{"category":"bus_halte","name":"De Savornin Lohmansingel","operator":""}},{"type":"Feature","geometry":{"type":"Point","coordinates":[4.69643,52.008142]},"properties":{"category":"bus_halte","name":"Oranjeplein","operator":""}},{"type":"Feature","geometry":{"type":"Point","coordinates":[4.719413,52.031614]},"properties":{"category":"bus_halte","name":"Watergraspad","operator":""}},{"type":"Feature","geometry":{"type":"Point","coordinates":[4.719503,52.03201]},"properties":{"category":"bus_halte","name":"Watergraspad","operator":""}},{"type":"Feature","geometry":{"type":"Point","coordinates":[4.717177,52.026325]},"properties":{"category":"bus_halte","name":"Breevaartbrug","operator":""}},{"type":"Feature","geometry":{"type":"Point","coordinates":[4.697929,52.004889]},"properties":{"category":"bus_halte","name":"Jacob van Lennepkade","operator":""}},{"type":"Feature","geometry":{"type":"Point","coordinates":[4.708749,52.015323]},"properties":{"category":"bus_halte","name":"Kleiweg","operator":""}},{"type":"Feature","geometry":{"type":"Point","coordinates":[4.697771,52.000633]},"properties":{"category":"bus_halte","name":"Koningin Wilhelminaweg","operator":""}},{"type":"Feature","geometry":{"type":"Point","coordinates":[4.697567,52.005119]},"properties":{"category":"bus_halte","name":"Jacob van Lennepkade","operator":""}},{"type":"Feature","geometry":{"type":"Point","coordinates":[4.698599,52.009356]},"properties":{"category":"bus_halte","name":"St. Jobstraat","operator":""}},{"type":"Feature","geometry":{"type":"Point","coordinates":[4.710618,52.021815]},"properties":{"category":"bus_halte","name":"De Savornin Lohmansingel","operator":""}},{"type":"Feature","geometry":{"type":"Point","coordinates":[4.703105,52.012099]},"properties":{"category":"bus_halte","name":"Hoge Gouwe","operator":""}},{"type":"Feature","geometry":{"type":"Point","coordinates":[4.703325,52.012175]},"properties":{"category":"bus_halte","name":"Hoge Gouwe","operator":""}},{"type":"Feature","geometry":{"type":"Point","coordinates":[4.708585,52.015377]},"properties":{"category":"bus_halte","name":"Kleiweg","operator":""}},{"type":"Feature","geometry":{"type":"Point","coordinates":[4.718285,52.026838]},"properties":{"category":"bus_halte","name":"Breevaartbrug","operator":""}},{"type":"Feature","geometry":{"type":"Point","coordinates":[4.697145,52.023779]},"properties":{"category":"bus_halte","name":"Jakob van Necklaan","operator":""}},{"type":"Feature","geometry":{"type":"Point","coordinates":[4.697115,52.023937]},"properties":{"category":"bus_halte","name":"Jakob van Necklaan","operator":""}},{"type":"Feature","geometry":{"type":"Point","coordinates":[4.697617,52.021956]},"properties":{"category":"bus_halte","name":"Jan Mayenlaan","operator":""}},{"type":"Feature","geometry":{"type":"Point","coordinates":[4.69766,52.021902]},"properties":{"category":"bus_halte","name":"Jan Mayenlaan","operator":""}},{"type":"Feature","geometry":{"type":"Point","coordinates":[4.685728,52.02186]},"properties":{"category":"bus_halte","name":"Harderwijkweg","operator":""}},{"type":"Feature","geometry":{"type":"Point","coordinates":[4.691417,51.999227]},"properties":{"category":"bus_halte","name":"Julianasluis","operator":""}},{"type":"Feature","geometry":{"type":"Point","coordinates":[4.692177,52.000026]},"properties":{"category":"bus_halte","name":"Julianasluis","operator":""}},{"type":"Feature","geometry":{"type":"Point","coordinates":[4.703239,52.03057]},"properties":{"category":"bus_halte","name":"Winkelcentrum Bloemendaal","operator":""}},{"type":"Feature","geometry":{"type":"Point","coordinates":[4.703599,52.030633]},"properties":{"category":"bus_halte","name":"Winkelcentrum Bloemendaal","operator":""}},{"type":"Feature","geometry":{"type":"Point","coordinates":[4.705996,52.020543]},"properties":{"category":"bus_halte","name":"Groene Hart Ziekenhuis","operator":""}},{"type":"Feature","geometry":{"type":"Point","coordinates":[4.70615,52.003129]},"properties":{"category":"bus_halte","name":"Constantijn Huygensstraat","operator":""}},{"type":"Feature","geometry":{"type":"Point","coordinates":[4.706403,52.003463]},"properties":{"category":"bus_halte","name":"Constantijn Huygensstraat","operator":""}},{"type":"Feature","geometry":{"type":"Point","coordinates":[4.712954,52.00684]},"properties":{"category":"bus_halte","name":"Nieuwe Veerstal","operator":""}},{"type":"Feature","geometry":{"type":"Point","coordinates":[4.714294,52.007157]},"properties":{"category":"bus_halte","name":"Nieuwe Veerstal","operator":""}},{"type":"Feature","geometry":{"type":"Point","coordinates":[4.701055,52.020277]},"properties":{"category":"bus_halte","name":"Bleulandweg","operator":""}},{"type":"Feature","geometry":{"type":"Point","coordinates":[4.701539,52.020197]},"properties":{"category":"bus_halte","name":"Bleulandweg","operator":""}},{"type":"Feature","geometry":{"type":"Point","coordinates":[4.715932,52.009131]},"properties":{"category":"bus_halte","name":"Doelenbrug","operator":""}},{"type":"Feature","geometry":{"type":"Point","coordinates":[4.687216,52.003751]},"properties":{"category":"bus_halte","name":"Westergouwe","operator":""}},{"type":"Feature","geometry":{"type":"Point","coordinates":[4.68626,52.004284]},"properties":{"category":"bus_halte","name":"Westergouwe","operator":""}},{"type":"Feature","geometry":{"type":"Point","coordinates":[4.723594,52.01176]},"properties":{"category":"bus_halte","name":"Hertzogstraat","operator":""}},{"type":"Feature","geometry":{"type":"Point","coordinates":[4.723279,52.011807]},"properties":{"category":"bus_halte","name":"Hertzogstraat","operator":""}},{"type":"Feature","geometry":{"type":"Point","coordinates":[4.723532,52.00939]},"properties":{"category":"bus_halte","name":"Bothastraat","operator":""}},{"type":"Feature","geometry":{"type":"Point","coordinates":[4.723647,52.009522]},"properties":{"category":"bus_halte","name":"Bothastraat","operator":"Arriva"}},{"type":"Feature","geometry":{"type":"Point","coordinates":[4.745744,52.010021]},"properties":{"category":"bus_halte","name":"Goverwellepassage","operator":""}},{"type":"Feature","geometry":{"type":"Point","coordinates":[4.743251,52.010663]},"properties":{"category":"bus_halte","name":"Middenmolenplein","operator":""}},{"type":"Feature","geometry":{"type":"Point","coordinates":[4.741491,52.009961]},"properties":{"category":"bus_halte","name":"Scharroosingel","operator":""}},{"type":"Feature","geometry":{"type":"Point","coordinates":[4.741437,52.010031]},"properties":{"category":"bus_halte","name":"Scharroosingel","operator":""}},{"type":"Feature","geometry":{"type":"Point","coordinates":[4.737423,52.010537]},"properties":{"category":"bus_halte","name":"Estafetteweg","operator":""}},{"type":"Feature","geometry":{"type":"Point","coordinates":[4.737497,52.010887]},"properties":{"category":"bus_halte","name":"Estafetteweg","operator":""}},{"type":"Feature","geometry":{"type":"Point","coordinates":[4.730105,52.011399]},"properties":{"category":"bus_halte","name":"de Kortestraat","operator":""}},{"type":"Feature","geometry":{"type":"Point","coordinates":[4.730329,52.011045]},"properties":{"category":"bus_halte","name":"de Kortestraat","operator":""}},{"type":"Feature","geometry":{"type":"Point","coordinates":[4.727497,52.012337]},"properties":{"category":"bus_halte","name":"Dunantsingel","operator":""}},{"type":"Feature","geometry":{"type":"Point","coordinates":[4.727521,52.012258]},"properties":{"category":"bus_halte","name":"Dunantsingel","operator":""}},{"type":"Feature","geometry":{"type":"Point","coordinates":[4.743466,52.007138]},"properties":{"category":"bus_halte","name":"Pepermolenerf","operator":""}},{"type":"Feature","geometry":{"type":"Point","coordinates":[4.747641,52.007102]},"properties":{"category":"bus_halte","name":"Lakerpolderplein","operator":""}},{"type":"Feature","geometry":{"type":"Point","coordinates":[4.678229,52.024288]},"properties":{"category":"bus_halte","name":"Hanzeweg","operator":""}},{"type":"Feature","geometry":{"type":"Point","coordinates":[4.677267,52.024468]},"properties":{"category":"bus_halte","name":"Hanzeweg","operator":""}},{"type":"Feature","geometry":{"type":"Point","coordinates":[4.723753,52.020594]},"properties":{"category":"bus_halte","name":"Doorslag","operator":""}},{"type":"Feature","geometry":{"type":"Point","coordinates":[4.723801,52.020765]},"properties":{"category":"bus_halte","name":"Doorslag","operator":""}},{"type":"Feature","geometry":{"type":"Point","coordinates":[4.723685,52.022582]},"properties":{"category":"bus_halte","name":"Driewegplein","operator":""}},{"type":"Feature","geometry":{"type":"Point","coordinates":[4.72381,52.022602]},"properties":{"category":"bus_halte","name":"Driewegplein","operator":""}},{"type":"Feature","geometry":{"type":"Point","coordinates":[4.72248,52.024999]},"properties":{"category":"bus_halte","name":"Waarsmanslag","operator":""}},{"type":"Feature","geometry":{"type":"Point","coordinates":[4.722326,52.024961]},"properties":{"category":"bus_halte","name":"Waarsmanslag","operator":""}},{"type":"Feature","geometry":{"type":"Point","coordinates":[4.675344,52.006063]},"properties":{"category":"bus_halte","name":"Griendakker","operator":""}},{"type":"Feature","geometry":{"type":"Point","coordinates":[4.67539,52.006218]},"properties":{"category":"bus_halte","name":"Griendakker","operator":""}},{"type":"Feature","geometry":{"type":"Point","coordinates":[4.6821,52.003073]},"properties":{"category":"bus_halte","name":"De Wadden","operator":""}},{"type":"Feature","geometry":{"type":"Point","coordinates":[4.682887,52.003191]},"properties":{"category":"bus_halte","name":"De Wadden","operator":""}},{"type":"Feature","geometry":{"type":"Point","coordinates":[4.707286,52.016842]},"properties":{"category":"bus_halte","name":"Station","operator":""}},{"type":"Feature","geometry":{"type":"Point","coordinates":[4.707543,52.016823]},"properties":{"category":"bus_halte","name":"Station","operator":""}},{"type":"Feature","geometry":{"type":"Point","coordinates":[4.707807,52.016823]},"properties":{"category":"bus_halte","name":"Station","operator":""}},{"type":"Feature","geometry":{"type":"Point","coordinates":[4.708026,52.016612]},"properties":{"category":"bus_halte","name":"Station","operator":""}},{"type":"Feature","geometry":{"type":"Point","coordinates":[4.707148,52.016799]},"properties":{"category":"bus_halte","name":"Station","operator":""}},{"type":"Feature","geometry":{"type":"Point","coordinates":[4.707414,52.016748]},"properties":{"category":"bus_halte","name":"Station","operator":""}},{"type":"Feature","geometry":{"type":"Point","coordinates":[4.707677,52.01666]},"properties":{"category":"bus_halte","name":"Station","operator":""}},{"type":"Feature","geometry":{"type":"Point","coordinates":[4.708072,52.016704]},"properties":{"category":"bus_halte","name":"Station","operator":""}},{"type":"Feature","geometry":{"type":"Point","coordinates":[4.707873,52.016567]},"properties":{"category":"bus_halte","name":"Station","operator":""}},{"type":"Feature","geometry":{"type":"Point","coordinates":[4.68616,52.017026]},"properties":{"category":"bus_halte","name":"Meridiaan","operator":""}},{"type":"Feature","geometry":{"type":"Point","coordinates":[4.686164,52.017096]},"properties":{"category":"bus_halte","name":"Meridiaan","operator":""}},{"type":"Feature","geometry":{"type":"Point","coordinates":[4.706164,52.017424]},"properties":{"category":"ov_knooppunt","name":"Gouda","operator":"Nederlandse Spoorwegen"}},{"type":"Feature","geometry":{"type":"Point","coordinates":[4.742099,52.015013]},"properties":{"category":"ov_knooppunt","name":"Gouda Goverwelle","operator":""}},{"type":"Feature","geometry":{"type":"Point","coordinates":[4.707313,52.018076]},"properties":{"category":"gemeentehuis","name":"Stadskantoor Gouda","operator":"Gemeente Gouda"}},{"type":"Feature","geometry":{"type":"Point","coordinates":[4.710534,52.011661]},"properties":{"category":"gemeentehuis","name":"Stadhuis van Gouda","operator":""}},{"type":"Feature","geometry":{"type":"Point","coordinates":[4.685691,52.013539]},"properties":{"category":"inzamelpunt","name":"Ecopark Gouda","operator":"Cyclus"}},{"type":"Feature","geometry":{"type":"Point","coordinates":[4.716361,52.012276]},"properties":{"category":"bibliotheek","name":"Stadsbibliotheek","operator":"Bibliotheek Gouda"}},{"type":"Feature","geometry":{"type":"Point","coordinates":[4.743002,52.009333]},"properties":{"category":"bibliotheek","name":"Kinderbibliotheek Goverwelle","operator":"Bibliotheek Gouda"}},{"type":"Feature","geometry":{"type":"Point","coordinates":[4.727981,52.012991]},"properties":{"category":"bibliotheek","name":"Kinderbibliotheek Oosterwei","operator":"Bibliotheek Gouda"}},{"type":"Feature","geometry":{"type":"Point","coordinates":[4.705217,52.031878]},"properties":{"category":"bibliotheek","name":"Bibliotheek Van Noord","operator":"Bibliotheek Gouda"}},{"type":"Feature","geometry":{"type":"Point","coordinates":[4.69632,52.007794]},"properties":{"category":"bibliotheek","name":"Kinderbibliotheek de Biep","operator":"Bibliotheek Gouda"}},{"type":"Feature","geometry":{"type":"Point","coordinates":[4.74255,52.011655]},"properties":{"category":"bibliotheek","name":"Uitleenpunt Goverwelle","operator":"Bibliotheek Gouda"}},{"type":"Feature","geometry":{"type":"Point","coordinates":[4.707508,52.029624]},"properties":{"category":"bibliotheek","name":"buurt bibliotheek","operator":""}},{"type":"Feature","geometry":{"type":"Point","coordinates":[4.705911,52.021841]},"properties":{"category":"ziekenhuis","name":"Groene Hart Ziekenhuis","operator":""}},{"type":"Feature","geometry":{"type":"Point","coordinates":[4.734664,52.00734]},"properties":{"category":"transformatorhuisje","name":"","operator":""}},{"type":"Feature","geometry":{"type":"Point","coordinates":[4.734395,52.007449]},"properties":{"category":"transformatorhuisje","name":"","operator":""}},{"type":"Feature","geometry":{"type":"Point","coordinates":[4.733557,52.007787]},"properties":{"category":"transformatorhuisje","name":"","operator":""}},{"type":"Feature","geometry":{"type":"Point","coordinates":[4.733289,52.007894]},"properties":{"category":"transformatorhuisje","name":"","operator":""}},{"type":"Feature","geometry":{"type":"Point","coordinates":[4.713259,52.031052]},"properties":{"category":"transformatorhuisje","name":"","operator":""}},{"type":"Feature","geometry":{"type":"Point","coordinates":[4.684994,52.016272]},"properties":{"category":"transformatorhuisje","name":"","operator":""}},{"type":"Feature","geometry":{"type":"Point","coordinates":[4.705304,52.01697]},"properties":{"category":"transformatorhuisje","name":"","operator":""}},{"type":"Feature","geometry":{"type":"Point","coordinates":[4.732165,52.007724]},"properties":{"category":"transformatorhuisje","name":"","operator":""}},{"type":"Feature","geometry":{"type":"Point","coordinates":[4.732064,52.007761]},"properties":{"category":"transformatorhuisje","name":"","operator":""}},{"type":"Feature","geometry":{"type":"Point","coordinates":[4.718839,52.013053]},"properties":{"category":"transformatorhuisje","name":"","operator":""}},{"type":"Feature","geometry":{"type":"Point","coordinates":[4.728608,52.016077]},"properties":{"category":"transformatorhuisje","name":"","operator":""}},{"type":"Feature","geometry":{"type":"Point","coordinates":[4.703698,52.010303]},"properties":{"category":"transformatorhuisje","name":"50 kV Bolwerk","operator":"Stedin"}},{"type":"Feature","geometry":{"type":"Point","coordinates":[4.71215,52.006885]},"properties":{"category":"transformatorhuisje","name":"","operator":""}},{"type":"Feature","geometry":{"type":"Point","coordinates":[4.71959,52.007879]},"properties":{"category":"transformatorhuisje","name":"","operator":"Stedin"}},{"type":"Feature","geometry":{"type":"Point","coordinates":[4.70103,52.009568]},"properties":{"category":"transformatorhuisje","name":"","operator":""}},{"type":"Feature","geometry":{"type":"Point","coordinates":[4.70098,52.009548]},"properties":{"category":"transformatorhuisje","name":"","operator":""}},{"type":"Feature","geometry":{"type":"Point","coordinates":[4.73142,52.009468]},"properties":{"category":"transformatorhuisje","name":"1264","operator":"Stedin"}},{"type":"Feature","geometry":{"type":"Point","coordinates":[4.732481,52.008078]},"properties":{"category":"transformatorhuisje","name":"50 kV IJsseldijk","operator":"Stedin"}},{"type":"Feature","geometry":{"type":"Point","coordinates":[4.689536,52.024653]},"properties":{"category":"transformatorhuisje","name":"50 kV Bloemendaal","operator":"Stedin"}},{"type":"Feature","geometry":{"type":"Point","coordinates":[4.699692,52.018881]},"properties":{"category":"universiteit","name":"Driestar Hogeschool","operator":"Driestar educatief"}},{"type":"Feature","geometry":{"type":"Point","coordinates":[4.714961,52.02695]},"properties":{"category":"hogeschool","name":"mboRijnland","operator":"mboRijnland"}},{"type":"Feature","geometry":{"type":"Point","coordinates":[4.684668,52.017091]},"properties":{"category":"hogeschool","name":"Hoornbeeck College","operator":"Stichting voor Onderwijs op Reformatorische Grondslag"}},{"type":"Feature","geometry":{"type":"Point","coordinates":[4.721759,52.013499]},"properties":{"category":"middelbare_school","name":"GSG de Mavo","operator":""}},{"type":"Feature","geometry":{"type":"Point","coordinates":[4.695955,52.015061]},"properties":{"category":"middelbare_school","name":"De Goudse Waarden","operator":""}},{"type":"Feature","geometry":{"type":"Point","coordinates":[4.695946,52.015957]},"properties":{"category":"middelbare_school","name":"De Goudse Waarden","operator":""}},{"type":"Feature","geometry":{"type":"Point","coordinates":[4.721751,52.013774]},"properties":{"category":"middelbare_school","name":"Internationale Schakelklas Gouda","operator":"Carmelcollege"}},{"type":"Feature","geometry":{"type":"Point","coordinates":[4.699176,52.020417]},"properties":{"category":"middelbare_school","name":"Driestar Gouda","operator":"Driestar-Wartburg"}},{"type":"Feature","geometry":{"type":"Point","coordinates":[4.713417,52.024861]},"properties":{"category":"middelbare_school","name":"De Goudse Waarden","operator":""}},{"type":"Feature","geometry":{"type":"Point","coordinates":[4.712509,52.026442]},"properties":{"category":"middelbare_school","name":"Antoniusmavo XL","operator":"Carmelcollege"}},{"type":"Feature","geometry":{"type":"Point","coordinates":[4.700922,52.01941]},"properties":{"category":"middelbare_school","name":"Driestar Gouda","operator":"Driestar-Wartburg"}},{"type":"Feature","geometry":{"type":"Point","coordinates":[4.703447,52.019032]},"properties":{"category":"middelbare_school","name":"Yuverta christelijk vmbo","operator":"Yuverta"}},{"type":"Feature","geometry":{"type":"Point","coordinates":[4.701479,52.016393]},"properties":{"category":"middelbare_school","name":"Het Segment","operator":""}},{"type":"Feature","geometry":{"type":"Point","coordinates":[4.701293,52.027456]},"properties":{"category":"middelbare_school","name":"De Startbaan","operator":"Klasse"}},{"type":"Feature","geometry":{"type":"Point","coordinates":[4.737074,52.011349]},"properties":{"category":"middelbare_school","name":"De Boomgaard","operator":"SO Randstad"}},{"type":"Feature","geometry":{"type":"Point","coordinates":[4.719361,52.021998]},"properties":{"category":"middelbare_school","name":"Coornhert Gymnasium","operator":""}},{"type":"Feature","geometry":{"type":"Point","coordinates":[4.717848,52.021715]},"properties":{"category":"middelbare_school","name":"Coornhert Gymnasium","operator":""}},{"type":"Feature","geometry":{"type":"Point","coordinates":[4.705145,52.035237]},"properties":{"category":"middelbare_school","name":"Internationale Schakelklas Gouda","operator":"Carmelcollege"}},{"type":"Feature","geometry":{"type":"Point","coordinates":[4.715916,52.025291]},"properties":{"category":"sportveld","name":"","operator":""}},{"type":"Feature","geometry":{"type":"Point","coordinates":[4.715168,52.025206]},"properties":{"category":"sportveld","name":"","operator":""}},{"type":"Feature","geometry":{"type":"Point","coordinates":[4.744818,52.005479]},"properties":{"category":"sportveld","name":"Sporthal De Zebra","operator":""}},{"type":"Feature","geometry":{"type":"Point","coordinates":[4.715501,52.025481]},"properties":{"category":"sportveld","name":"Per Aspera","operator":""}},{"type":"Feature","geometry":{"type":"Point","coordinates":[4.714254,52.017566]},"properties":{"category":"sportveld","name":"TIOD","operator":""}},{"type":"Feature","geometry":{"type":"Point","coordinates":[4.719851,52.023014]},"properties":{"category":"sportveld","name":"Goudse Peddel","operator":""}},{"type":"Feature","geometry":{"type":"Point","coordinates":[4.740342,52.022599]},"properties":{"category":"sportveld","name":"Waterscouting Cornelis de Houtman & Kastanujo","operator":""}},{"type":"Feature","geometry":{"type":"Point","coordinates":[4.715436,52.005569]},"properties":{"category":"sportveld","name":"","operator":""}},{"type":"Feature","geometry":{"type":"Point","coordinates":[4.704025,52.032095]},"properties":{"category":"winkelcentrum","name":"Winkelcentrum Bloemendaal","operator":""}},{"type":"Feature","geometry":{"type":"Point","coordinates":[4.744438,52.010956]},"properties":{"category":"winkelcentrum","name":"Winkelcentrum Goverwelle","operator":""}},{"type":"Feature","geometry":{"type":"Point","coordinates":[4.675971,52.025502]},"properties":{"category":"winkelcentrum","name":"GoStores Gouda","operator":""}},{"type":"Feature","geometry":{"type":"Point","coordinates":[4.704366,52.032018]},"properties":{"category":"supermarkt","name":"Albert Heijn","operator":""}},{"type":"Feature","geometry":{"type":"Point","coordinates":[4.723275,52.022083]},"properties":{"category":"supermarkt","name":"Sahan","operator":""}},{"type":"Feature","geometry":{"type":"Point","coordinates":[4.690079,52.029154]},"properties":{"category":"supermarkt","name":"Hoogvliet","operator":""}},{"type":"Feature","geometry":{"type":"Point","coordinates":[4.700659,52.009515]},"properties":{"category":"supermarkt","name":"Lidl","operator":"Lidl Nederland GmbH"}},{"type":"Feature","geometry":{"type":"Point","coordinates":[4.709917,52.012103]},"properties":{"category":"supermarkt","name":"Albert Heijn","operator":""}},{"type":"Feature","geometry":{"type":"Point","coordinates":[4.703119,52.032328]},"properties":{"category":"supermarkt","name":"Jumbo","operator":""}},{"type":"Feature","geometry":{"type":"Point","coordinates":[4.704161,52.032451]},"properties":{"category":"supermarkt","name":"Salam","operator":""}},{"type":"Feature","geometry":{"type":"Point","coordinates":[4.709531,52.021645]},"properties":{"category":"supermarkt","name":"PLUS Paul Schipper","operator":"Paul Schipper"}},{"type":"Feature","geometry":{"type":"Point","coordinates":[4.703375,52.032332]},"properties":{"category":"supermarkt","name":"Lidl","operator":"Lidl Nederland GmbH"}},{"type":"Feature","geometry":{"type":"Point","coordinates":[4.695569,52.025134]},"properties":{"category":"supermarkt","name":"PLUS de Heester","operator":""}},{"type":"Feature","geometry":{"type":"Point","coordinates":[4.71194,52.013714]},"properties":{"category":"supermarkt","name":"Hiper City","operator":""}},{"type":"Feature","geometry":{"type":"Point","coordinates":[4.707515,52.010389]},"properties":{"category":"supermarkt","name":"Biowinkel Gouda","operator":""}},{"type":"Feature","geometry":{"type":"Point","coordinates":[4.692711,52.01672]},"properties":{"category":"supermarkt","name":"Hoogvliet","operator":""}},{"type":"Feature","geometry":{"type":"Point","coordinates":[4.701757,52.005522]},"properties":{"category":"supermarkt","name":"PLUS van den Boogaard","operator":"Van den Boogaard"}},{"type":"Feature","geometry":{"type":"Point","coordinates":[4.745248,52.010563]},"properties":{"category":"supermarkt","name":"Dirk","operator":""}},{"type":"Feature","geometry":{"type":"Point","coordinates":[4.743691,52.011366]},"properties":{"category":"supermarkt","name":"Albert Heijn","operator":"Albert Heijn"}},{"type":"Feature","geometry":{"type":"Point","coordinates":[4.73151,52.010501]},"properties":{"category":"supermarkt","name":"Jumbo","operator":""}},{"type":"Feature","geometry":{"type":"Point","coordinates":[4.731559,52.010236]},"properties":{"category":"supermarkt","name":"Lidl","operator":"Lidl Nederland GmbH"}},{"type":"Feature","geometry":{"type":"Point","coordinates":[4.680109,52.002587]},"properties":{"category":"supermarkt","name":"Albert Heijn","operator":""}},{"type":"Feature","geometry":{"type":"Point","coordinates":[4.711079,52.013974]},"properties":{"category":"supermarkt","name":"PLUS","operator":"PLUS"}},{"type":"Feature","geometry":{"type":"Point","coordinates":[4.716472,52.010329]},"properties":{"category":"supermarkt","name":"Jumbo","operator":""}},{"type":"Feature","geometry":{"type":"Point","coordinates":[4.710883,52.013379]},"properties":{"category":"fietsenstalling","name":"Fietsenstalling Nieuwe Markt","operator":"Promen;Biesieklette"}},{"type":"Feature","geometry":{"type":"Point","coordinates":[4.711054,52.014071]},"properties":{"category":"fietsenstalling","name":"","operator":""}},{"type":"Feature","geometry":{"type":"Point","coordinates":[4.707385,52.021102]},"properties":{"category":"fietsenstalling","name":"Fietsenkelder GHZ","operator":"Groene Hart Ziekenhuis"}},{"type":"Feature","geometry":{"type":"Point","coordinates":[4.707288,52.01776]},"properties":{"category":"fietsenstalling","name":"Noordelijke Stalling","operator":"NS"}},{"type":"Feature","geometry":{"type":"Point","coordinates":[4.699971,52.019913]},"properties":{"category":"fietsenstalling","name":"Fietsenhok Zèta","operator":""}},{"type":"Feature","geometry":{"type":"Point","coordinates":[4.704184,52.02143]},"properties":{"category":"fietsenstalling","name":"","operator":"Groene Hart Ziekenhuis"}},{"type":"Feature","geometry":{"type":"Point","coordinates":[4.7077,52.016996]},"properties":{"category":"fietsenstalling","name":"Oostelijke Stalling","operator":""}},{"type":"Feature","geometry":{"type":"Point","coordinates":[4.697652,52.024001]},"properties":{"category":"fietsenstalling","name":"","operator":""}},{"type":"Feature","geometry":{"type":"Point","coordinates":[4.676697,52.006023]},"properties":{"category":"fietsenstalling","name":"","operator":""}},{"type":"Feature","geometry":{"type":"Point","coordinates":[4.716076,52.011736]},"properties":{"category":"fietsenstalling","name":"","operator":""}},{"type":"Feature","geometry":{"type":"Point","coordinates":[4.676864,52.006135]},"properties":{"category":"fietsenstalling","name":"","operator":""}},{"type":"Feature","geometry":{"type":"Point","coordinates":[4.685721,52.015816]},"properties":{"category":"fietsenstalling","name":"","operator":""}},{"type":"Feature","geometry":{"type":"Point","coordinates":[4.743152,52.009404]},"properties":{"category":"fietsenstalling","name":"","operator":""}},{"type":"Feature","geometry":{"type":"Point","coordinates":[4.708285,52.015983]},"properties":{"category":"parkeergarage","name":"Vredebest","operator":""}},{"type":"Feature","geometry":{"type":"Point","coordinates":[4.704019,52.010787]},"properties":{"category":"parkeergarage","name":"","operator":"Q-Park"}},{"type":"Feature","geometry":{"type":"Point","coordinates":[4.704411,52.020871]},"properties":{"category":"parkeergarage","name":"Parkeergarage Groene Hart Ziekenhuis (verpleging)","operator":"Groene Hart Ziekenhuis"}},{"type":"Feature","geometry":{"type":"Point","coordinates":[4.708109,52.019924]},"properties":{"category":"parkeergarage","name":"","operator":""}},{"type":"Feature","geometry":{"type":"Point","coordinates":[4.706499,52.022527]},"properties":{"category":"parkeergarage","name":"","operator":""}},{"type":"Feature","geometry":{"type":"Point","coordinates":[4.705645,52.019562]},"properties":{"category":"parkeergarage","name":"","operator":""}},{"type":"Feature","geometry":{"type":"Point","coordinates":[4.708483,52.01759]},"properties":{"category":"parkeergarage","name":"","operator":""}},{"type":"Feature","geometry":{"type":"Point","coordinates":[4.677119,52.026284]},"properties":{"category":"parkeergarage","name":"","operator":""}},{"type":"Feature","geometry":{"type":"Point","coordinates":[4.711889,52.014012]},"properties":{"category":"parkeergarage","name":"Nieuwe Markt (Q park)","operator":""}},{"type":"Feature","geometry":{"type":"Point","coordinates":[4.741763,52.014575]},"properties":{"category":"p_and_r","name":"","operator":""}}]}