{"type":"FeatureCollection","metadata":{"gemeente":"Haarlem","slug":"haarlem","by_category":{"bus_halte":273,"supermarkt":44,"parkeergarage":33,"sportveld":30,"fietsenstalling":21,"transformatorhuisje":12,"hogeschool":11,"middelbare_school":6,"ov_knooppunt":4,"bibliotheek":4,"winkelcentrum":3,"ns_station":2,"inzamelpunt":2,"ziekenhuis":2,"gemeentehuis":1,"universiteit":1,"p_and_r":1},"total":450},"features":[{"type":"Feature","geometry":{"type":"Point","coordinates":[4.638579,52.388078]},"properties":{"category":"ns_station","name":"Haarlem","operator":"NS / ProRail"}},{"type":"Feature","geometry":{"type":"Point","coordinates":[4.671354,52.382848]},"properties":{"category":"ns_station","name":"Haarlem Spaarnwoude","operator":""}},{"type":"Feature","geometry":{"type":"Point","coordinates":[4.63301,52.400518]},"properties":{"category":"bus_halte","name":"Stuyvesantplein","operator":""}},{"type":"Feature","geometry":{"type":"Point","coordinates":[4.651661,52.383767]},"properties":{"category":"bus_halte","name":"Wim van Eststraat","operator":""}},{"type":"Feature","geometry":{"type":"Point","coordinates":[4.651963,52.383939]},"properties":{"category":"bus_halte","name":"Wim van Eststraat","operator":""}},{"type":"Feature","geometry":{"type":"Point","coordinates":[4.662848,52.378352]},"properties":{"category":"bus_halte","name":"Pr. Beatrixplein","operator":""}},{"type":"Feature","geometry":{"type":"Point","coordinates":[4.634416,52.397364]},"properties":{"category":"bus_halte","name":"Duinoordstraat","operator":""}},{"type":"Feature","geometry":{"type":"Point","coordinates":[4.668853,52.375878]},"properties":{"category":"bus_halte","name":"Sowetostraat","operator":""}},{"type":"Feature","geometry":{"type":"Point","coordinates":[4.67124,52.382646]},"properties":{"category":"bus_halte","name":"Station Spaarnwoude","operator":""}},{"type":"Feature","geometry":{"type":"Point","coordinates":[4.660162,52.3568]},"properties":{"category":"bus_halte","name":"Braillelaan","operator":""}},{"type":"Feature","geometry":{"type":"Point","coordinates":[4.646534,52.373793]},"properties":{"category":"bus_halte","name":"Slachthuisstraat","operator":""}},{"type":"Feature","geometry":{"type":"Point","coordinates":[4.657376,52.354788]},"properties":{"category":"bus_halte","name":"Briandlaan","operator":""}},{"type":"Feature","geometry":{"type":"Point","coordinates":[4.665094,52.361052]},"properties":{"category":"bus_halte","name":"R. Kochlaan","operator":"Connexxion"}},{"type":"Feature","geometry":{"type":"Point","coordinates":[4.637037,52.406539]},"properties":{"category":"bus_halte","name":"A. Fokkerlaan","operator":""}},{"type":"Feature","geometry":{"type":"Point","coordinates":[4.661958,52.375292]},"properties":{"category":"bus_halte","name":"Vincent van Goghlaan","operator":""}},{"type":"Feature","geometry":{"type":"Point","coordinates":[4.662781,52.364474]},"properties":{"category":"bus_halte","name":"Wamstekerstraat","operator":""}},{"type":"Feature","geometry":{"type":"Point","coordinates":[4.669927,52.377982]},"properties":{"category":"bus_halte","name":"J. Palachstraat","operator":""}},{"type":"Feature","geometry":{"type":"Point","coordinates":[4.65948,52.376372]},"properties":{"category":"bus_halte","name":"Jac. v. Looystraat","operator":""}},{"type":"Feature","geometry":{"type":"Point","coordinates":[4.656302,52.360304]},"properties":{"category":"bus_halte","name":"Schalkwijk centrum","operator":""}},{"type":"Feature","geometry":{"type":"Point","coordinates":[4.638341,52.377481]},"properties":{"category":"bus_halte","name":"Turfmarkt","operator":""}},{"type":"Feature","geometry":{"type":"Point","coordinates":[4.649544,52.376292]},"properties":{"category":"bus_halte","name":"Zomervaart","operator":""}},{"type":"Feature","geometry":{"type":"Point","coordinates":[4.653787,52.380265]},"properties":{"category":"bus_halte","name":"T.v.Berkhoutstraat","operator":""}},{"type":"Feature","geometry":{"type":"Point","coordinates":[4.635147,52.403624]},"properties":{"category":"bus_halte","name":"Meteorenstraat","operator":""}},{"type":"Feature","geometry":{"type":"Point","coordinates":[4.665629,52.37465]},"properties":{"category":"bus_halte","name":"J. Sluyterslaan","operator":""}},{"type":"Feature","geometry":{"type":"Point","coordinates":[4.631294,52.392227]},"properties":{"category":"bus_halte","name":"Velserstraat","operator":""}},{"type":"Feature","geometry":{"type":"Point","coordinates":[4.672054,52.381248]},"properties":{"category":"bus_halte","name":"Noiretstraat","operator":""}},{"type":"Feature","geometry":{"type":"Point","coordinates":[4.643489,52.374886]},"properties":{"category":"bus_halte","name":"Byzantiumstraat","operator":""}},{"type":"Feature","geometry":{"type":"Point","coordinates":[4.661182,52.35367]},"properties":{"category":"bus_halte","name":"A. Schweitzerlaan","operator":""}},{"type":"Feature","geometry":{"type":"Point","coordinates":[4.662192,52.364579]},"properties":{"category":"bus_halte","name":"Wamstekerstraat","operator":""}},{"type":"Feature","geometry":{"type":"Point","coordinates":[4.649941,52.378433]},"properties":{"category":"bus_halte","name":"Nagtzaamplein","operator":""}},{"type":"Feature","geometry":{"type":"Point","coordinates":[4.658107,52.379087]},"properties":{"category":"bus_halte","name":"Van Zeggelenplein","operator":""}},{"type":"Feature","geometry":{"type":"Point","coordinates":[4.664516,52.358041]},"properties":{"category":"bus_halte","name":"Marshallstraat","operator":""}},{"type":"Feature","geometry":{"type":"Point","coordinates":[4.661159,52.353951]},"properties":{"category":"bus_halte","name":"A. Schweitzerlaan","operator":""}},{"type":"Feature","geometry":{"type":"Point","coordinates":[4.632988,52.400677]},"properties":{"category":"bus_halte","name":"Stuyvesantplein","operator":""}},{"type":"Feature","geometry":{"type":"Point","coordinates":[4.658045,52.36443]},"properties":{"category":"bus_halte","name":"Prof. Donderslaan","operator":""}},{"type":"Feature","geometry":{"type":"Point","coordinates":[4.668704,52.375803]},"properties":{"category":"bus_halte","name":"Sowetostraat","operator":""}},{"type":"Feature","geometry":{"type":"Point","coordinates":[4.671023,52.383291]},"properties":{"category":"bus_halte","name":"Station Spaarnwoude","operator":""}},{"type":"Feature","geometry":{"type":"Point","coordinates":[4.63115,52.389671]},"properties":{"category":"bus_halte","name":"Schotersingel","operator":""}},{"type":"Feature","geometry":{"type":"Point","coordinates":[4.646507,52.373703]},"properties":{"category":"bus_halte","name":"Slachthuisstraat","operator":""}},{"type":"Feature","geometry":{"type":"Point","coordinates":[4.662876,52.378442]},"properties":{"category":"bus_halte","name":"Pr. Beatrixplein","operator":""}},{"type":"Feature","geometry":{"type":"Point","coordinates":[4.634635,52.397401]},"properties":{"category":"bus_halte","name":"Duinoordstraat","operator":""}},{"type":"Feature","geometry":{"type":"Point","coordinates":[4.670328,52.378096]},"properties":{"category":"bus_halte","name":"J. Palachstraat","operator":""}},{"type":"Feature","geometry":{"type":"Point","coordinates":[4.671009,52.382335]},"properties":{"category":"bus_halte","name":"Spaarnwoude Station","operator":""}},{"type":"Feature","geometry":{"type":"Point","coordinates":[4.63872,52.387497]},"properties":{"category":"bus_halte","name":"Station ingang","operator":""}},{"type":"Feature","geometry":{"type":"Point","coordinates":[4.639032,52.377197]},"properties":{"category":"bus_halte","name":"Turfmarkt","operator":""}},{"type":"Feature","geometry":{"type":"Point","coordinates":[4.65771,52.364509]},"properties":{"category":"bus_halte","name":"Prof. Donderslaan","operator":""}},{"type":"Feature","geometry":{"type":"Point","coordinates":[4.649339,52.376426]},"properties":{"category":"bus_halte","name":"Zomervaart","operator":""}},{"type":"Feature","geometry":{"type":"Point","coordinates":[4.655062,52.379814]},"properties":{"category":"bus_halte","name":"T.v. Berkhoutstraat","operator":""}},{"type":"Feature","geometry":{"type":"Point","coordinates":[4.659958,52.356709]},"properties":{"category":"bus_halte","name":"Braillelaan","operator":""}},{"type":"Feature","geometry":{"type":"Point","coordinates":[4.637227,52.406594]},"properties":{"category":"bus_halte","name":"A. Fokkerlaan","operator":""}},{"type":"Feature","geometry":{"type":"Point","coordinates":[4.662083,52.375316]},"properties":{"category":"bus_halte","name":"Vincent van Goghlaan","operator":""}},{"type":"Feature","geometry":{"type":"Point","coordinates":[4.657211,52.355021]},"properties":{"category":"bus_halte","name":"Briandlaan","operator":""}},{"type":"Feature","geometry":{"type":"Point","coordinates":[4.672497,52.381143]},"properties":{"category":"bus_halte","name":"Noiretstraat","operator":""}},{"type":"Feature","geometry":{"type":"Point","coordinates":[4.632889,52.383468]},"properties":{"category":"bus_halte","name":"Nassaulaan","operator":""}},{"type":"Feature","geometry":{"type":"Point","coordinates":[4.664743,52.358509]},"properties":{"category":"bus_halte","name":"Marshallstraat","operator":""}},{"type":"Feature","geometry":{"type":"Point","coordinates":[4.655324,52.37152]},"properties":{"category":"bus_halte","name":"Burgemeester Reinaldapark","operator":""}},{"type":"Feature","geometry":{"type":"Point","coordinates":[4.649496,52.377918]},"properties":{"category":"bus_halte","name":"Nagtzaamplein","operator":""}},{"type":"Feature","geometry":{"type":"Point","coordinates":[4.658975,52.376169]},"properties":{"category":"bus_halte","name":"Jac. v. Looystraat","operator":""}},{"type":"Feature","geometry":{"type":"Point","coordinates":[4.657856,52.379211]},"properties":{"category":"bus_halte","name":"Van Zeggelenplein","operator":""}},{"type":"Feature","geometry":{"type":"Point","coordinates":[4.635625,52.404004]},"properties":{"category":"bus_halte","name":"Meteorenstraat","operator":""}},{"type":"Feature","geometry":{"type":"Point","coordinates":[4.666086,52.374921]},"properties":{"category":"bus_halte","name":"J. Sluyterslaan","operator":""}},{"type":"Feature","geometry":{"type":"Point","coordinates":[4.630927,52.390016]},"properties":{"category":"bus_halte","name":"Schotersingel","operator":""}},{"type":"Feature","geometry":{"type":"Point","coordinates":[4.665268,52.36114]},"properties":{"category":"bus_halte","name":"R. Kochlaan","operator":""}},{"type":"Feature","geometry":{"type":"Point","coordinates":[4.632438,52.383195]},"properties":{"category":"bus_halte","name":"Nassaulaan","operator":""}},{"type":"Feature","geometry":{"type":"Point","coordinates":[4.643656,52.37471]},"properties":{"category":"bus_halte","name":"Byzantiumstraat","operator":""}},{"type":"Feature","geometry":{"type":"Point","coordinates":[4.614675,52.379854]},"properties":{"category":"bus_halte","name":"de Ruyterweg","operator":""}},{"type":"Feature","geometry":{"type":"Point","coordinates":[4.653062,52.415505]},"properties":{"category":"bus_halte","name":"Eksterlaan/Vergierdeweg","operator":""}},{"type":"Feature","geometry":{"type":"Point","coordinates":[4.649329,52.354981]},"properties":{"category":"bus_halte","name":"Zuiderzeelaan","operator":""}},{"type":"Feature","geometry":{"type":"Point","coordinates":[4.611346,52.375669]},"properties":{"category":"bus_halte","name":"Theemsplein","operator":""}},{"type":"Feature","geometry":{"type":"Point","coordinates":[4.649117,52.416823]},"properties":{"category":"bus_halte","name":"Winkelc.Marsmanplein","operator":""}},{"type":"Feature","geometry":{"type":"Point","coordinates":[4.651692,52.399728]},"properties":{"category":"bus_halte","name":"Zaanenstraat","operator":""}},{"type":"Feature","geometry":{"type":"Point","coordinates":[4.656207,52.414112]},"properties":{"category":"bus_halte","name":"Zwaluwstraat","operator":""}},{"type":"Feature","geometry":{"type":"Point","coordinates":[4.645741,52.401947]},"properties":{"category":"bus_halte","name":"Zaanenlaan","operator":""}},{"type":"Feature","geometry":{"type":"Point","coordinates":[4.61679,52.38669]},"properties":{"category":"bus_halte","name":"NOVA college","operator":""}},{"type":"Feature","geometry":{"type":"Point","coordinates":[4.651118,52.412134]},"properties":{"category":"bus_halte","name":"Vergierdeweg","operator":""}},{"type":"Feature","geometry":{"type":"Point","coordinates":[4.649932,52.392249]},"properties":{"category":"bus_halte","name":"Paul Krugerkade","operator":""}},{"type":"Feature","geometry":{"type":"Point","coordinates":[4.614346,52.387196]},"properties":{"category":"bus_halte","name":"Hogeschool Inholland","operator":""}},{"type":"Feature","geometry":{"type":"Point","coordinates":[4.658852,52.3847]},"properties":{"category":"bus_halte","name":"Ir. Lelyweg","operator":""}},{"type":"Feature","geometry":{"type":"Point","coordinates":[4.650693,52.40903]},"properties":{"category":"bus_halte","name":"Minahassastraat","operator":""}},{"type":"Feature","geometry":{"type":"Point","coordinates":[4.649718,52.392067]},"properties":{"category":"bus_halte","name":"Paul Krugerkade","operator":""}},{"type":"Feature","geometry":{"type":"Point","coordinates":[4.603939,52.383441]},"properties":{"category":"bus_halte","name":"Rollandslaan","operator":""}},{"type":"Feature","geometry":{"type":"Point","coordinates":[4.641712,52.415206]},"properties":{"category":"bus_halte","name":"V.v. Vrieslandstraat","operator":""}},{"type":"Feature","geometry":{"type":"Point","coordinates":[4.641606,52.371704]},"properties":{"category":"bus_halte","name":"Graafschapstraat","operator":""}},{"type":"Feature","geometry":{"type":"Point","coordinates":[4.640362,52.40896]},"properties":{"category":"bus_halte","name":"Schoterhof","operator":""}},{"type":"Feature","geometry":{"type":"Point","coordinates":[4.652445,52.358538]},"properties":{"category":"bus_halte","name":"Andalusië","operator":""}},{"type":"Feature","geometry":{"type":"Point","coordinates":[4.609085,52.381948]},"properties":{"category":"bus_halte","name":"Vijver","operator":""}},{"type":"Feature","geometry":{"type":"Point","coordinates":[4.647501,52.420809]},"properties":{"category":"bus_halte","name":"Reviusstraat","operator":""}},{"type":"Feature","geometry":{"type":"Point","coordinates":[4.655238,52.403555]},"properties":{"category":"bus_halte","name":"Nieuw Guineastraat","operator":""}},{"type":"Feature","geometry":{"type":"Point","coordinates":[4.644825,52.354854]},"properties":{"category":"bus_halte","name":"Europaweg/Engelandlaan","operator":""}},{"type":"Feature","geometry":{"type":"Point","coordinates":[4.6103,52.371892]},"properties":{"category":"bus_halte","name":"Voltastraat","operator":""}},{"type":"Feature","geometry":{"type":"Point","coordinates":[4.64609,52.419349]},"properties":{"category":"bus_halte","name":"J. Limpershof","operator":""}},{"type":"Feature","geometry":{"type":"Point","coordinates":[4.6503,52.39469]},"properties":{"category":"bus_halte","name":"Waarderbrug","operator":""}},{"type":"Feature","geometry":{"type":"Point","coordinates":[4.646428,52.382752]},"properties":{"category":"bus_halte","name":"Papentorenvest","operator":""}},{"type":"Feature","geometry":{"type":"Point","coordinates":[4.656661,52.410233]},"properties":{"category":"bus_halte","name":"Roerdompstraat","operator":""}},{"type":"Feature","geometry":{"type":"Point","coordinates":[4.643111,52.397737]},"properties":{"category":"bus_halte","name":"Julianapark","operator":""}},{"type":"Feature","geometry":{"type":"Point","coordinates":[4.614719,52.386991]},"properties":{"category":"bus_halte","name":"Hogeschool Inholland","operator":""}},{"type":"Feature","geometry":{"type":"Point","coordinates":[4.662564,52.385864]},"properties":{"category":"bus_halte","name":"Nijverheidsweg","operator":""}},{"type":"Feature","geometry":{"type":"Point","coordinates":[4.649246,52.367033]},"properties":{"category":"bus_halte","name":"Europaweg/Spaarne Gasth.","operator":""}},{"type":"Feature","geometry":{"type":"Point","coordinates":[4.642293,52.415623]},"properties":{"category":"bus_halte","name":"V.v. Vrieslandstraat","operator":""}},{"type":"Feature","geometry":{"type":"Point","coordinates":[4.649112,52.388663]},"properties":{"category":"bus_halte","name":"Rozenhagenstraat","operator":""}},{"type":"Feature","geometry":{"type":"Point","coordinates":[4.644202,52.369378]},"properties":{"category":"bus_halte","name":"Europaweg/Schipholweg","operator":""}},{"type":"Feature","geometry":{"type":"Point","coordinates":[4.639151,52.413643]},"properties":{"category":"bus_halte","name":"Stayokay","operator":""}},{"type":"Feature","geometry":{"type":"Point","coordinates":[4.648431,52.423487]},"properties":{"category":"bus_halte","name":"Delftplein/Spaarne Gasthuis","operator":""}},{"type":"Feature","geometry":{"type":"Point","coordinates":[4.647696,52.355186]},"properties":{"category":"bus_halte","name":"Zuiderzeelaan","operator":""}},{"type":"Feature","geometry":{"type":"Point","coordinates":[4.613049,52.377819]},"properties":{"category":"bus_halte","name":"Gibraltarstraat","operator":""}},{"type":"Feature","geometry":{"type":"Point","coordinates":[4.6496,52.416223]},"properties":{"category":"bus_halte","name":"Winkelc.Marsmanplein","operator":""}},{"type":"Feature","geometry":{"type":"Point","coordinates":[4.648305,52.404511]},"properties":{"category":"bus_halte","name":"Spaarnhovenstraat","operator":""}},{"type":"Feature","geometry":{"type":"Point","coordinates":[4.610561,52.36308]},"properties":{"category":"bus_halte","name":"Leidsevaartweg","operator":"Connexxion"}},{"type":"Feature","geometry":{"type":"Point","coordinates":[4.64396,52.418207]},"properties":{"category":"bus_halte","name":"M. Phillipsplantsoen","operator":""}},{"type":"Feature","geometry":{"type":"Point","coordinates":[4.644648,52.400484]},"properties":{"category":"bus_halte","name":"Zaanenlaan","operator":""}},{"type":"Feature","geometry":{"type":"Point","coordinates":[4.628031,52.384075]},"properties":{"category":"bus_halte","name":"Ruychaverstraat","operator":""}},{"type":"Feature","geometry":{"type":"Point","coordinates":[4.650977,52.411857]},"properties":{"category":"bus_halte","name":"Vergierdeweg","operator":""}},{"type":"Feature","geometry":{"type":"Point","coordinates":[4.640865,52.394807]},"properties":{"category":"bus_halte","name":"Kloosterstraat","operator":""}},{"type":"Feature","geometry":{"type":"Point","coordinates":[4.660102,52.422439]},"properties":{"category":"bus_halte","name":"Noorderbegraafplaats","operator":""}},{"type":"Feature","geometry":{"type":"Point","coordinates":[4.656927,52.410026]},"properties":{"category":"bus_halte","name":"Roerdompstraat","operator":""}},{"type":"Feature","geometry":{"type":"Point","coordinates":[4.649287,52.388766]},"properties":{"category":"bus_halte","name":"Rozenhagenstraat","operator":""}},{"type":"Feature","geometry":{"type":"Point","coordinates":[4.639443,52.413798]},"properties":{"category":"bus_halte","name":"Stayokay","operator":""}},{"type":"Feature","geometry":{"type":"Point","coordinates":[4.640447,52.390154]},"properties":{"category":"bus_halte","name":"Haarlem Station Achterzijde","operator":""}},{"type":"Feature","geometry":{"type":"Point","coordinates":[4.641279,52.410304]},"properties":{"category":"bus_halte","name":"J.H. Leopoldstraat","operator":""}},{"type":"Feature","geometry":{"type":"Point","coordinates":[4.614683,52.379656]},"properties":{"category":"bus_halte","name":"de Ruyterweg","operator":""}},{"type":"Feature","geometry":{"type":"Point","coordinates":[4.609042,52.381639]},"properties":{"category":"bus_halte","name":"Vijver","operator":""}},{"type":"Feature","geometry":{"type":"Point","coordinates":[4.654481,52.403089]},"properties":{"category":"bus_halte","name":"Nieuw Guineastraat","operator":""}},{"type":"Feature","geometry":{"type":"Point","coordinates":[4.644058,52.355083]},"properties":{"category":"bus_halte","name":"Europaweg/Engelandlaan","operator":""}},{"type":"Feature","geometry":{"type":"Point","coordinates":[4.611528,52.375838]},"properties":{"category":"bus_halte","name":"Theemsplein","operator":""}},{"type":"Feature","geometry":{"type":"Point","coordinates":[4.645459,52.419624]},"properties":{"category":"bus_halte","name":"J. Limpershof","operator":""}},{"type":"Feature","geometry":{"type":"Point","coordinates":[4.652266,52.400226]},"properties":{"category":"bus_halte","name":"Zaanenstraat","operator":""}},{"type":"Feature","geometry":{"type":"Point","coordinates":[4.62829,52.383834]},"properties":{"category":"bus_halte","name":"Ruychaverstraat","operator":""}},{"type":"Feature","geometry":{"type":"Point","coordinates":[4.6565,52.414219]},"properties":{"category":"bus_halte","name":"Zwaluwstraat","operator":""}},{"type":"Feature","geometry":{"type":"Point","coordinates":[4.642524,52.397458]},"properties":{"category":"bus_halte","name":"Julianapark","operator":""}},{"type":"Feature","geometry":{"type":"Point","coordinates":[4.623934,52.385444]},"properties":{"category":"bus_halte","name":"Hoofmanstraat","operator":""}},{"type":"Feature","geometry":{"type":"Point","coordinates":[4.671156,52.384648]},"properties":{"category":"bus_halte","name":"IKEA Waarderpolder","operator":""}},{"type":"Feature","geometry":{"type":"Point","coordinates":[4.648885,52.367047]},"properties":{"category":"bus_halte","name":"Europaweg/Spaarne Gasth.","operator":""}},{"type":"Feature","geometry":{"type":"Point","coordinates":[4.656826,52.406197]},"properties":{"category":"bus_halte","name":"Jachthaven","operator":""}},{"type":"Feature","geometry":{"type":"Point","coordinates":[4.657472,52.384646]},"properties":{"category":"bus_halte","name":"Ir. Lelyweg","operator":""}},{"type":"Feature","geometry":{"type":"Point","coordinates":[4.604599,52.385374]},"properties":{"category":"bus_halte","name":"Ramplaan","operator":""}},{"type":"Feature","geometry":{"type":"Point","coordinates":[4.640955,52.410392]},"properties":{"category":"bus_halte","name":"J.H. Leopoldstraat","operator":""}},{"type":"Feature","geometry":{"type":"Point","coordinates":[4.640432,52.409158]},"properties":{"category":"bus_halte","name":"Schoterhof","operator":""}},{"type":"Feature","geometry":{"type":"Point","coordinates":[4.652656,52.359274]},"properties":{"category":"bus_halte","name":"Andalusië","operator":""}},{"type":"Feature","geometry":{"type":"Point","coordinates":[4.612632,52.377594]},"properties":{"category":"bus_halte","name":"Gibraltarstraat","operator":""}},{"type":"Feature","geometry":{"type":"Point","coordinates":[4.647697,52.421113]},"properties":{"category":"bus_halte","name":"Reviusstraat","operator":""}},{"type":"Feature","geometry":{"type":"Point","coordinates":[4.647617,52.403731]},"properties":{"category":"bus_halte","name":"Spaarnhovenstraat","operator":""}},{"type":"Feature","geometry":{"type":"Point","coordinates":[4.610473,52.371963]},"properties":{"category":"bus_halte","name":"Voltastraat","operator":""}},{"type":"Feature","geometry":{"type":"Point","coordinates":[4.644185,52.418457]},"properties":{"category":"bus_halte","name":"M. Phillipsplantsoen","operator":""}},{"type":"Feature","geometry":{"type":"Point","coordinates":[4.650633,52.39551]},"properties":{"category":"bus_halte","name":"Waarderbrug","operator":""}},{"type":"Feature","geometry":{"type":"Point","coordinates":[4.623947,52.385318]},"properties":{"category":"bus_halte","name":"Hoofmanstraat","operator":""}},{"type":"Feature","geometry":{"type":"Point","coordinates":[4.653176,52.415675]},"properties":{"category":"bus_halte","name":"Eksterlaan/Vergierdeweg","operator":""}},{"type":"Feature","geometry":{"type":"Point","coordinates":[4.641177,52.394602]},"properties":{"category":"bus_halte","name":"Kloosterstraat","operator":""}},{"type":"Feature","geometry":{"type":"Point","coordinates":[4.607899,52.366211]},"properties":{"category":"bus_halte","name":"Haarlem Hoog","operator":""}},{"type":"Feature","geometry":{"type":"Point","coordinates":[4.65908,52.421849]},"properties":{"category":"bus_halte","name":"Noorderbegraafplaats","operator":""}},{"type":"Feature","geometry":{"type":"Point","coordinates":[4.618197,52.386139]},"properties":{"category":"bus_halte","name":"NOVA college","operator":""}},{"type":"Feature","geometry":{"type":"Point","coordinates":[4.641777,52.372028]},"properties":{"category":"bus_halte","name":"Graafschapstraat","operator":""}},{"type":"Feature","geometry":{"type":"Point","coordinates":[4.66226,52.385619]},"properties":{"category":"bus_halte","name":"Nijverheidsweg","operator":""}},{"type":"Feature","geometry":{"type":"Point","coordinates":[4.65672,52.406599]},"properties":{"category":"bus_halte","name":"Jachthaven","operator":""}},{"type":"Feature","geometry":{"type":"Point","coordinates":[4.650305,52.408807]},"properties":{"category":"bus_halte","name":"Minahassastraat","operator":""}},{"type":"Feature","geometry":{"type":"Point","coordinates":[4.644363,52.369746]},"properties":{"category":"bus_halte","name":"Europaweg/Schipholweg","operator":""}},{"type":"Feature","geometry":{"type":"Point","coordinates":[4.60429,52.383044]},"properties":{"category":"bus_halte","name":"Rollandslaan","operator":""}},{"type":"Feature","geometry":{"type":"Point","coordinates":[4.647328,52.360943]},"properties":{"category":"bus_halte","name":"Kopenhagenstraat","operator":""}},{"type":"Feature","geometry":{"type":"Point","coordinates":[4.643111,52.361338]},"properties":{"category":"bus_halte","name":"Italielaan","operator":""}},{"type":"Feature","geometry":{"type":"Point","coordinates":[4.658664,52.389022]},"properties":{"category":"bus_halte","name":"C. Tillyweg","operator":""}},{"type":"Feature","geometry":{"type":"Point","coordinates":[4.679043,52.413522]},"properties":{"category":"bus_halte","name":"IJdijk","operator":""}},{"type":"Feature","geometry":{"type":"Point","coordinates":[4.656297,52.391784]},"properties":{"category":"bus_halte","name":"Heringaplein","operator":""}},{"type":"Feature","geometry":{"type":"Point","coordinates":[4.648515,52.353271]},"properties":{"category":"bus_halte","name":"Amelandstraat","operator":""}},{"type":"Feature","geometry":{"type":"Point","coordinates":[4.667618,52.39215]},"properties":{"category":"bus_halte","name":"J.W. Lucasweg","operator":""}},{"type":"Feature","geometry":{"type":"Point","coordinates":[4.676412,52.415956]},"properties":{"category":"bus_halte","name":"Visserseinde","operator":""}},{"type":"Feature","geometry":{"type":"Point","coordinates":[4.667607,52.391899]},"properties":{"category":"bus_halte","name":"J.W. Lucasweg","operator":""}},{"type":"Feature","geometry":{"type":"Point","coordinates":[4.652113,52.367905]},"properties":{"category":"bus_halte","name":"Boerhaaveln/Spaarne Gasth","operator":""}},{"type":"Feature","geometry":{"type":"Point","coordinates":[4.643459,52.364525]},"properties":{"category":"bus_halte","name":"Engelandlaan","operator":""}},{"type":"Feature","geometry":{"type":"Point","coordinates":[4.658215,52.389495]},"properties":{"category":"bus_halte","name":"C. Tillyweg","operator":""}},{"type":"Feature","geometry":{"type":"Point","coordinates":[4.655221,52.351168]},"properties":{"category":"bus_halte","name":"Schuilenburg","operator":""}},{"type":"Feature","geometry":{"type":"Point","coordinates":[4.656257,52.39422]},"properties":{"category":"bus_halte","name":"Industrieweg","operator":""}},{"type":"Feature","geometry":{"type":"Point","coordinates":[4.664708,52.393993]},"properties":{"category":"bus_halte","name":"Emrikweg","operator":""}},{"type":"Feature","geometry":{"type":"Point","coordinates":[4.650878,52.368002]},"properties":{"category":"bus_halte","name":"Boerhaaveln/Spaarne Gasth","operator":""}},{"type":"Feature","geometry":{"type":"Point","coordinates":[4.649429,52.350822]},"properties":{"category":"bus_halte","name":"Pampus","operator":""}},{"type":"Feature","geometry":{"type":"Point","coordinates":[4.66456,52.394109]},"properties":{"category":"bus_halte","name":"Emrikweg","operator":""}},{"type":"Feature","geometry":{"type":"Point","coordinates":[4.636053,52.375754]},"properties":{"category":"bus_halte","name":"Kampersingel","operator":""}},{"type":"Feature","geometry":{"type":"Point","coordinates":[4.634047,52.376188]},"properties":{"category":"bus_halte","name":"Frans Halsmuseum","operator":""}},{"type":"Feature","geometry":{"type":"Point","coordinates":[4.654814,52.353508]},"properties":{"category":"bus_halte","name":"Frieslandlaan","operator":""}},{"type":"Feature","geometry":{"type":"Point","coordinates":[4.655002,52.351086]},"properties":{"category":"bus_halte","name":"Schuilenburg","operator":""}},{"type":"Feature","geometry":{"type":"Point","coordinates":[4.64169,52.383519]},"properties":{"category":"bus_halte","name":"Koudenhorn","operator":""}},{"type":"Feature","geometry":{"type":"Point","coordinates":[4.679832,52.413369]},"properties":{"category":"bus_halte","name":"IJdijk","operator":""}},{"type":"Feature","geometry":{"type":"Point","coordinates":[4.656153,52.391631]},"properties":{"category":"bus_halte","name":"Heringaplein","operator":""}},{"type":"Feature","geometry":{"type":"Point","coordinates":[4.652947,52.348917]},"properties":{"category":"bus_halte","name":"Baronie","operator":""}},{"type":"Feature","geometry":{"type":"Point","coordinates":[4.649423,52.351183]},"properties":{"category":"bus_halte","name":"Pampus","operator":""}},{"type":"Feature","geometry":{"type":"Point","coordinates":[4.662058,52.396966]},"properties":{"category":"bus_halte","name":"Waarderweg","operator":""}},{"type":"Feature","geometry":{"type":"Point","coordinates":[4.630363,52.374592]},"properties":{"category":"bus_halte","name":"Centrum/Houtplein","operator":""}},{"type":"Feature","geometry":{"type":"Point","coordinates":[4.648074,52.357109]},"properties":{"category":"bus_halte","name":"Londenstraat","operator":""}},{"type":"Feature","geometry":{"type":"Point","coordinates":[4.648406,52.364556]},"properties":{"category":"bus_halte","name":"Belgiëlaan","operator":""}},{"type":"Feature","geometry":{"type":"Point","coordinates":[4.654557,52.353322]},"properties":{"category":"bus_halte","name":"Frieslandlaan","operator":""}},{"type":"Feature","geometry":{"type":"Point","coordinates":[4.656087,52.394749]},"properties":{"category":"bus_halte","name":"Industrieweg","operator":""}},{"type":"Feature","geometry":{"type":"Point","coordinates":[4.676392,52.415757]},"properties":{"category":"bus_halte","name":"Visserseinde","operator":""}},{"type":"Feature","geometry":{"type":"Point","coordinates":[4.652794,52.348781]},"properties":{"category":"bus_halte","name":"Baronie","operator":""}},{"type":"Feature","geometry":{"type":"Point","coordinates":[4.662059,52.397058]},"properties":{"category":"bus_halte","name":"Waarderweg","operator":""}},{"type":"Feature","geometry":{"type":"Point","coordinates":[4.648763,52.352777]},"properties":{"category":"bus_halte","name":"Amelandstraat","operator":""}},{"type":"Feature","geometry":{"type":"Point","coordinates":[4.630783,52.374972]},"properties":{"category":"bus_halte","name":"Centrum/Houtplein","operator":""}},{"type":"Feature","geometry":{"type":"Point","coordinates":[4.621741,52.375107]},"properties":{"category":"bus_halte","name":"Emmaplein","operator":""}},{"type":"Feature","geometry":{"type":"Point","coordinates":[4.621828,52.375011]},"properties":{"category":"bus_halte","name":"Emmaplein","operator":""}},{"type":"Feature","geometry":{"type":"Point","coordinates":[4.61536,52.368102]},"properties":{"category":"bus_halte","name":"Edisonstraat","operator":"Arriva"}},{"type":"Feature","geometry":{"type":"Point","coordinates":[4.615078,52.367646]},"properties":{"category":"bus_halte","name":"Edisonstraat","operator":"Arriva"}},{"type":"Feature","geometry":{"type":"Point","coordinates":[4.61927,52.372374]},"properties":{"category":"bus_halte","name":"Schouwtjesbrug","operator":""}},{"type":"Feature","geometry":{"type":"Point","coordinates":[4.618883,52.371818]},"properties":{"category":"bus_halte","name":"Schouwtjesbrug","operator":""}},{"type":"Feature","geometry":{"type":"Point","coordinates":[4.628508,52.389705]},"properties":{"category":"bus_halte","name":"Verspronckweg","operator":""}},{"type":"Feature","geometry":{"type":"Point","coordinates":[4.628505,52.389561]},"properties":{"category":"bus_halte","name":"Verspronckweg","operator":""}},{"type":"Feature","geometry":{"type":"Point","coordinates":[4.626912,52.378252]},"properties":{"category":"bus_halte","name":"Stadsschouwburg","operator":"Arriva"}},{"type":"Feature","geometry":{"type":"Point","coordinates":[4.629556,52.372381]},"properties":{"category":"bus_halte","name":"Dreef","operator":""}},{"type":"Feature","geometry":{"type":"Point","coordinates":[4.629201,52.381923]},"properties":{"category":"bus_halte","name":"Raaksbrug","operator":""}},{"type":"Feature","geometry":{"type":"Point","coordinates":[4.62977,52.372599]},"properties":{"category":"bus_halte","name":"Dreef","operator":""}},{"type":"Feature","geometry":{"type":"Point","coordinates":[4.656655,52.360528]},"properties":{"category":"bus_halte","name":"Schalkwijk Centrum","operator":""}},{"type":"Feature","geometry":{"type":"Point","coordinates":[4.621112,52.367969]},"properties":{"category":"bus_halte","name":"Zomerluststraat","operator":"Arriva"}},{"type":"Feature","geometry":{"type":"Point","coordinates":[4.618575,52.363577]},"properties":{"category":"bus_halte","name":"v. Oldenbarneveltlaan","operator":"Arriva"}},{"type":"Feature","geometry":{"type":"Point","coordinates":[4.625125,52.372228]},"properties":{"category":"bus_halte","name":"Florapark","operator":"Arriva"}},{"type":"Feature","geometry":{"type":"Point","coordinates":[4.625973,52.372357]},"properties":{"category":"bus_halte","name":"Florapark","operator":"Arriva"}},{"type":"Feature","geometry":{"type":"Point","coordinates":[4.617604,52.362169]},"properties":{"category":"bus_halte","name":"v. Oldenbarneveltlaan","operator":"Arriva"}},{"type":"Feature","geometry":{"type":"Point","coordinates":[4.620779,52.367767]},"properties":{"category":"bus_halte","name":"Zomerluststraat","operator":"Arriva"}},{"type":"Feature","geometry":{"type":"Point","coordinates":[4.66055,52.380051]},"properties":{"category":"bus_halte","name":"Pr. Bernhardlaan","operator":""}},{"type":"Feature","geometry":{"type":"Point","coordinates":[4.660968,52.380165]},"properties":{"category":"bus_halte","name":"Pr. Bernhardlaan","operator":""}},{"type":"Feature","geometry":{"type":"Point","coordinates":[4.671101,52.383313]},"properties":{"category":"bus_halte","name":"Spaarnwoude St. Noord","operator":""}},{"type":"Feature","geometry":{"type":"Point","coordinates":[4.631588,52.392442]},"properties":{"category":"bus_halte","name":"Velserstraat","operator":""}},{"type":"Feature","geometry":{"type":"Point","coordinates":[4.628315,52.381284]},"properties":{"category":"bus_halte","name":"Raaksbrug","operator":""}},{"type":"Feature","geometry":{"type":"Point","coordinates":[4.637651,52.387406]},"properties":{"category":"bus_halte","name":"Station","operator":""}},{"type":"Feature","geometry":{"type":"Point","coordinates":[4.638012,52.38737]},"properties":{"category":"bus_halte","name":"Station","operator":""}},{"type":"Feature","geometry":{"type":"Point","coordinates":[4.637941,52.387377]},"properties":{"category":"bus_halte","name":"Station","operator":""}},{"type":"Feature","geometry":{"type":"Point","coordinates":[4.638181,52.387364]},"properties":{"category":"bus_halte","name":"Station","operator":""}},{"type":"Feature","geometry":{"type":"Point","coordinates":[4.637723,52.387399]},"properties":{"category":"bus_halte","name":"Station","operator":""}},{"type":"Feature","geometry":{"type":"Point","coordinates":[4.637576,52.387414]},"properties":{"category":"bus_halte","name":"Station","operator":""}},{"type":"Feature","geometry":{"type":"Point","coordinates":[4.637796,52.387391]},"properties":{"category":"bus_halte","name":"Station","operator":""}},{"type":"Feature","geometry":{"type":"Point","coordinates":[4.637868,52.387384]},"properties":{"category":"bus_halte","name":"Station","operator":""}},{"type":"Feature","geometry":{"type":"Point","coordinates":[4.645849,52.369968]},"properties":{"category":"bus_halte","name":"Schipholweg/Europaweg","operator":""}},{"type":"Feature","geometry":{"type":"Point","coordinates":[4.653093,52.370293]},"properties":{"category":"bus_halte","name":"Burgemeester Reinaldapark","operator":""}},{"type":"Feature","geometry":{"type":"Point","coordinates":[4.644804,52.370298]},"properties":{"category":"bus_halte","name":"Schipholweg/Europaweg","operator":""}},{"type":"Feature","geometry":{"type":"Point","coordinates":[4.664458,52.355806]},"properties":{"category":"bus_halte","name":"Leonardo da Vinciplein","operator":""}},{"type":"Feature","geometry":{"type":"Point","coordinates":[4.647576,52.367804]},"properties":{"category":"bus_halte","name":"Europaweg","operator":""}},{"type":"Feature","geometry":{"type":"Point","coordinates":[4.646462,52.368108]},"properties":{"category":"bus_halte","name":"Europaweg","operator":""}},{"type":"Feature","geometry":{"type":"Point","coordinates":[4.60795,52.366506]},"properties":{"category":"bus_halte","name":"Haarlem Hoog","operator":""}},{"type":"Feature","geometry":{"type":"Point","coordinates":[4.632807,52.380161]},"properties":{"category":"bus_halte","name":"Centrum/Verwulft","operator":""}},{"type":"Feature","geometry":{"type":"Point","coordinates":[4.632593,52.380116]},"properties":{"category":"bus_halte","name":"Centrum/Verwulft","operator":""}},{"type":"Feature","geometry":{"type":"Point","coordinates":[4.632579,52.380152]},"properties":{"category":"bus_halte","name":"Centrum/Verwulft","operator":""}},{"type":"Feature","geometry":{"type":"Point","coordinates":[4.650267,52.416622]},"properties":{"category":"bus_halte","name":"Winkelc.Marsmanplein","operator":""}},{"type":"Feature","geometry":{"type":"Point","coordinates":[4.619717,52.378319]},"properties":{"category":"bus_halte","name":"Westergracht","operator":""}},{"type":"Feature","geometry":{"type":"Point","coordinates":[4.61973,52.378465]},"properties":{"category":"bus_halte","name":"Westergracht","operator":""}},{"type":"Feature","geometry":{"type":"Point","coordinates":[4.6268,52.380396]},"properties":{"category":"bus_halte","name":"Boterplein","operator":""}},{"type":"Feature","geometry":{"type":"Point","coordinates":[4.627258,52.381065]},"properties":{"category":"bus_halte","name":"Boterplein","operator":""}},{"type":"Feature","geometry":{"type":"Point","coordinates":[4.657512,52.420195]},"properties":{"category":"bus_halte","name":"Vondelweg","operator":""}},{"type":"Feature","geometry":{"type":"Point","coordinates":[4.657324,52.420187]},"properties":{"category":"bus_halte","name":"Vondelweg","operator":""}},{"type":"Feature","geometry":{"type":"Point","coordinates":[4.625052,52.362205]},"properties":{"category":"bus_halte","name":"Heemstede Noord","operator":""}},{"type":"Feature","geometry":{"type":"Point","coordinates":[4.626837,52.364516]},"properties":{"category":"bus_halte","name":"Spanjaardslaan","operator":""}},{"type":"Feature","geometry":{"type":"Point","coordinates":[4.626448,52.364452]},"properties":{"category":"bus_halte","name":"Spanjaardslaan","operator":""}},{"type":"Feature","geometry":{"type":"Point","coordinates":[4.647456,52.415678]},"properties":{"category":"bus_halte","name":"Jan Prinslaan","operator":""}},{"type":"Feature","geometry":{"type":"Point","coordinates":[4.641759,52.414572]},"properties":{"category":"bus_halte","name":"Jan Gijzenkade","operator":""}},{"type":"Feature","geometry":{"type":"Point","coordinates":[4.647209,52.415587]},"properties":{"category":"bus_halte","name":"Jan Prinslaan","operator":""}},{"type":"Feature","geometry":{"type":"Point","coordinates":[4.648312,52.423001]},"properties":{"category":"bus_halte","name":"Deftplein/Spaarne Gasthuis","operator":""}},{"type":"Feature","geometry":{"type":"Point","coordinates":[4.636887,52.37266]},"properties":{"category":"bus_halte","name":"Rustenburgerlaan","operator":"R-net"}},{"type":"Feature","geometry":{"type":"Point","coordinates":[4.664339,52.355422]},"properties":{"category":"bus_halte","name":"Leonardo da Vinciplein","operator":""}},{"type":"Feature","geometry":{"type":"Point","coordinates":[4.63723,52.372438]},"properties":{"category":"bus_halte","name":"Rustenburgerlaan","operator":""}},{"type":"Feature","geometry":{"type":"Point","coordinates":[4.655451,52.370029]},"properties":{"category":"bus_halte","name":"Burgemeester Reinaldapark","operator":""}},{"type":"Feature","geometry":{"type":"Point","coordinates":[4.655704,52.360619]},"properties":{"category":"bus_halte","name":"Schalkwijk Centrum","operator":""}},{"type":"Feature","geometry":{"type":"Point","coordinates":[4.635668,52.378131]},"properties":{"category":"bus_halte","name":"Gedempte oude gracht Haarlem","operator":""}},{"type":"Feature","geometry":{"type":"Point","coordinates":[4.64816,52.36435]},"properties":{"category":"bus_halte","name":"Belgiëlaan","operator":""}},{"type":"Feature","geometry":{"type":"Point","coordinates":[4.643955,52.364548]},"properties":{"category":"bus_halte","name":"Engelandlaan","operator":""}},{"type":"Feature","geometry":{"type":"Point","coordinates":[4.643264,52.361475]},"properties":{"category":"bus_halte","name":"Italielaan","operator":""}},{"type":"Feature","geometry":{"type":"Point","coordinates":[4.647471,52.36104]},"properties":{"category":"bus_halte","name":"Kopenhagenstraat","operator":""}},{"type":"Feature","geometry":{"type":"Point","coordinates":[4.648196,52.35722]},"properties":{"category":"bus_halte","name":"Londenstraat","operator":""}},{"type":"Feature","geometry":{"type":"Point","coordinates":[4.626704,52.378294]},"properties":{"category":"bus_halte","name":"Stadsschouwburg","operator":"Arriva"}},{"type":"Feature","geometry":{"type":"Point","coordinates":[4.65604,52.36038]},"properties":{"category":"bus_halte","name":"Schalkwijk centrum","operator":""}},{"type":"Feature","geometry":{"type":"Point","coordinates":[4.65612,52.360304]},"properties":{"category":"bus_halte","name":"Schalkwijk centrum","operator":""}},{"type":"Feature","geometry":{"type":"Point","coordinates":[4.655987,52.36031]},"properties":{"category":"bus_halte","name":"Schalkwijk centrum","operator":""}},{"type":"Feature","geometry":{"type":"Point","coordinates":[4.671316,52.382103]},"properties":{"category":"bus_halte","name":"Spaarnwoude Station Zuid","operator":""}},{"type":"Feature","geometry":{"type":"Point","coordinates":[4.671538,52.382141]},"properties":{"category":"bus_halte","name":"Spaarnwoude Station Zuid","operator":""}},{"type":"Feature","geometry":{"type":"Point","coordinates":[4.671417,52.382127]},"properties":{"category":"bus_halte","name":"Spaarnwoude Station Zuid","operator":""}},{"type":"Feature","geometry":{"type":"Point","coordinates":[4.63872,52.387497]},"properties":{"category":"bus_halte","name":"Station ingang","operator":""}},{"type":"Feature","geometry":{"type":"Point","coordinates":[4.624809,52.392445]},"properties":{"category":"bus_halte","name":"Haarlem, Verspronckweg/Spaarne College","operator":""}},{"type":"Feature","geometry":{"type":"Point","coordinates":[4.638099,52.387358]},"properties":{"category":"bus_halte","name":"Station","operator":""}},{"type":"Feature","geometry":{"type":"Point","coordinates":[4.630046,52.373662]},"properties":{"category":"bus_halte","name":"Centrum/Houtplein","operator":""}},{"type":"Feature","geometry":{"type":"Point","coordinates":[4.647273,52.382648]},"properties":{"category":"bus_halte","name":"Gedempte Oostersingelgracht","operator":""}},{"type":"Feature","geometry":{"type":"Point","coordinates":[4.647323,52.381763]},"properties":{"category":"bus_halte","name":"Gedempte Oostersingelgracht","operator":""}},{"type":"Feature","geometry":{"type":"Point","coordinates":[4.639144,52.389473]},"properties":{"category":"bus_halte","name":"Haarlem Station Achterzijde","operator":""}},{"type":"Feature","geometry":{"type":"Point","coordinates":[4.638579,52.388078]},"properties":{"category":"ov_knooppunt","name":"Haarlem","operator":"NS / ProRail"}},{"type":"Feature","geometry":{"type":"Point","coordinates":[4.671354,52.382848]},"properties":{"category":"ov_knooppunt","name":"Haarlem Spaarnwoude","operator":""}},{"type":"Feature","geometry":{"type":"Point","coordinates":[4.671189,52.383367]},"properties":{"category":"ov_knooppunt","name":"Haarlem Spaarnwoude","operator":""}},{"type":"Feature","geometry":{"type":"Point","coordinates":[4.637892,52.387264]},"properties":{"category":"ov_knooppunt","name":"Haarlem, Station","operator":""}},{"type":"Feature","geometry":{"type":"Point","coordinates":[4.629491,52.382062]},"properties":{"category":"gemeentehuis","name":"Publiekshal gemeente Haarlem","operator":"Gemeente Haarlem"}},{"type":"Feature","geometry":{"type":"Point","coordinates":[4.65518,52.388256]},"properties":{"category":"inzamelpunt","name":"Milieuplein Haarlem","operator":"Spaarnelanden"}},{"type":"Feature","geometry":{"type":"Point","coordinates":[4.650535,52.381626]},"properties":{"category":"inzamelpunt","name":"Milieustraat","operator":""}},{"type":"Feature","geometry":{"type":"Point","coordinates":[4.65583,52.355739]},"properties":{"category":"bibliotheek","name":"de Bibliotheek Haarlem Schalkwijk","operator":"de Bibliotheek Zuid-Kennemerland"}},{"type":"Feature","geometry":{"type":"Point","coordinates":[4.631292,52.380146]},"properties":{"category":"bibliotheek","name":"de Bibliotheek Haarlem Centrum","operator":"de Bibliotheek Zuid-Kennemerland"}},{"type":"Feature","geometry":{"type":"Point","coordinates":[4.659517,52.375563]},"properties":{"category":"bibliotheek","name":"de Bibliotheek Haarlem Oost","operator":"de Bibliotheek Zuid-Kennemerland"}},{"type":"Feature","geometry":{"type":"Point","coordinates":[4.6481,52.408369]},"properties":{"category":"bibliotheek","name":"de Bibliotheek Haarlem Noord","operator":"de Bibliotheek Zuid-Kennemerland"}},{"type":"Feature","geometry":{"type":"Point","coordinates":[4.651451,52.366248]},"properties":{"category":"ziekenhuis","name":"Spaarne Gasthuis Zuid","operator":"Spaarne Ziekenhuis"}},{"type":"Feature","geometry":{"type":"Point","coordinates":[4.650591,52.422538]},"properties":{"category":"ziekenhuis","name":"Spaarne Gasthuis Haarlem-Noord","operator":""}},{"type":"Feature","geometry":{"type":"Point","coordinates":[4.623242,52.373923]},"properties":{"category":"transformatorhuisje","name":"","operator":"Liander"}},{"type":"Feature","geometry":{"type":"Point","coordinates":[4.614436,52.37284]},"properties":{"category":"transformatorhuisje","name":"","operator":"Liander"}},{"type":"Feature","geometry":{"type":"Point","coordinates":[4.664316,52.394101]},"properties":{"category":"transformatorhuisje","name":"","operator":""}},{"type":"Feature","geometry":{"type":"Point","coordinates":[4.664344,52.394007]},"properties":{"category":"transformatorhuisje","name":"","operator":""}},{"type":"Feature","geometry":{"type":"Point","coordinates":[4.664375,52.393916]},"properties":{"category":"transformatorhuisje","name":"","operator":""}},{"type":"Feature","geometry":{"type":"Point","coordinates":[4.664172,52.393906]},"properties":{"category":"transformatorhuisje","name":"10 kV Waarderpolder","operator":"Liander"}},{"type":"Feature","geometry":{"type":"Point","coordinates":[4.642018,52.379183]},"properties":{"category":"transformatorhuisje","name":"","operator":"Liander"}},{"type":"Feature","geometry":{"type":"Point","coordinates":[4.614667,52.378066]},"properties":{"category":"transformatorhuisje","name":"","operator":"Liander"}},{"type":"Feature","geometry":{"type":"Point","coordinates":[4.611381,52.372467]},"properties":{"category":"transformatorhuisje","name":"","operator":"Liander"}},{"type":"Feature","geometry":{"type":"Point","coordinates":[4.620043,52.371434]},"properties":{"category":"transformatorhuisje","name":"","operator":"Liander"}},{"type":"Feature","geometry":{"type":"Point","coordinates":[4.632606,52.400379]},"properties":{"category":"transformatorhuisje","name":"","operator":"Liander"}},{"type":"Feature","geometry":{"type":"Point","coordinates":[4.612769,52.375894]},"properties":{"category":"transformatorhuisje","name":"","operator":"Liander"}},{"type":"Feature","geometry":{"type":"Point","coordinates":[4.612418,52.388915]},"properties":{"category":"universiteit","name":"Hogeschool Inholland Haarlem","operator":""}},{"type":"Feature","geometry":{"type":"Point","coordinates":[4.633702,52.381743]},"properties":{"category":"hogeschool","name":"Stedelijk Gymnasium Haarlem","operator":"Onderwijsstichting Zelfstandige Gymnasia (OSZG)"}},{"type":"Feature","geometry":{"type":"Point","coordinates":[4.633509,52.381186]},"properties":{"category":"hogeschool","name":"Stedelijk Gymnasium Haarlem","operator":"Onderwijsstichting Zelfstandige Gymnasia (OSZG)"}},{"type":"Feature","geometry":{"type":"Point","coordinates":[4.635955,52.404216]},"properties":{"category":"hogeschool","name":"International School Haarlem (middelbaar)","operator":"Stichting Twijs"}},{"type":"Feature","geometry":{"type":"Point","coordinates":[4.613937,52.362587]},"properties":{"category":"hogeschool","name":"Coornhert Lyceum","operator":"Dunamare onderwijs"}},{"type":"Feature","geometry":{"type":"Point","coordinates":[4.649329,52.369524]},"properties":{"category":"hogeschool","name":"Haarlem College","operator":"Dunamare onderwijs"}},{"type":"Feature","geometry":{"type":"Point","coordinates":[4.624568,52.394898]},"properties":{"category":"hogeschool","name":"Spaarne College","operator":"Dunamare onderwijs"}},{"type":"Feature","geometry":{"type":"Point","coordinates":[4.617297,52.387628]},"properties":{"category":"hogeschool","name":"Nova College","operator":""}},{"type":"Feature","geometry":{"type":"Point","coordinates":[4.626584,52.392373]},"properties":{"category":"hogeschool","name":"Nova College","operator":""}},{"type":"Feature","geometry":{"type":"Point","coordinates":[4.621265,52.375202]},"properties":{"category":"hogeschool","name":"Eerste Christelijk Lyceum (ECL)","operator":"Stichting voor Christelijk Voortgezet Onderwijs (IRIS)"}},{"type":"Feature","geometry":{"type":"Point","coordinates":[4.643445,52.407471]},"properties":{"category":"hogeschool","name":"Prof Dr Gunningschool","operator":"Dunamare onderwijs"}},{"type":"Feature","geometry":{"type":"Point","coordinates":[4.634988,52.367948]},"properties":{"category":"hogeschool","name":"Oost ter Hout","operator":"Dunamare onderwijs"}},{"type":"Feature","geometry":{"type":"Point","coordinates":[4.616582,52.366461]},"properties":{"category":"middelbare_school","name":"Lyceum Sancta Maria","operator":""}},{"type":"Feature","geometry":{"type":"Point","coordinates":[4.620535,52.372299]},"properties":{"category":"middelbare_school","name":"Eerste Christelijk Lyceum (ECL)","operator":"Stichting voor Christelijk Voortgezet Onderwijs (IRIS)"}},{"type":"Feature","geometry":{"type":"Point","coordinates":[4.647615,52.408957]},"properties":{"category":"middelbare_school","name":"Het Schoter","operator":"Dunamare onderwijs"}},{"type":"Feature","geometry":{"type":"Point","coordinates":[4.644381,52.364305]},"properties":{"category":"middelbare_school","name":"Vrije School Noord Holland","operator":"Stichting voor Voortgezet Vrijeschoolonderwijs Noord-Holland"}},{"type":"Feature","geometry":{"type":"Point","coordinates":[4.643197,52.365687]},"properties":{"category":"middelbare_school","name":"Rudolf Steiner College","operator":"Stichting voor Voortgezet Vrijeschoolonderwijs Noord-Holland"}},{"type":"Feature","geometry":{"type":"Point","coordinates":[4.631361,52.406594]},"properties":{"category":"middelbare_school","name":"Mendelcollege","operator":""}},{"type":"Feature","geometry":{"type":"Point","coordinates":[4.623686,52.363606]},"properties":{"category":"sportveld","name":"Koninklijke HFC","operator":""}},{"type":"Feature","geometry":{"type":"Point","coordinates":[4.628953,52.398289]},"properties":{"category":"sportveld","name":"Korfbalverenigingen HKC Haarlem / CKV Rapid","operator":""}},{"type":"Feature","geometry":{"type":"Point","coordinates":[4.645816,52.410087]},"properties":{"category":"sportveld","name":"Noordersportpark","operator":""}},{"type":"Feature","geometry":{"type":"Point","coordinates":[4.63256,52.409251]},"properties":{"category":"sportveld","name":"Pim Mulier Sportpark","operator":""}},{"type":"Feature","geometry":{"type":"Point","coordinates":[4.650792,52.424828]},"properties":{"category":"sportveld","name":"Sportpark Van der Aart","operator":""}},{"type":"Feature","geometry":{"type":"Point","coordinates":[4.648093,52.409929]},"properties":{"category":"sportveld","name":"Haarlemstadion","operator":""}},{"type":"Feature","geometry":{"type":"Point","coordinates":[4.64616,52.408653]},"properties":{"category":"sportveld","name":"Zwembad de Planeet","operator":"SRO"}},{"type":"Feature","geometry":{"type":"Point","coordinates":[4.655506,52.356093]},"properties":{"category":"sportveld","name":"Spaarnehal","operator":""}},{"type":"Feature","geometry":{"type":"Point","coordinates":[4.641336,52.353272]},"properties":{"category":"sportveld","name":"United D.A.V.O.","operator":""}},{"type":"Feature","geometry":{"type":"Point","coordinates":[4.639204,52.367709]},"properties":{"category":"sportveld","name":"Nol Houtkamp Sportpark","operator":""}},{"type":"Feature","geometry":{"type":"Point","coordinates":[4.618575,52.366314]},"properties":{"category":"sportveld","name":"Tennispark Eindenhout","operator":""}},{"type":"Feature","geometry":{"type":"Point","coordinates":[4.622381,52.364161]},"properties":{"category":"sportveld","name":"Haarlemsche LTC","operator":""}},{"type":"Feature","geometry":{"type":"Point","coordinates":[4.638553,52.366804]},"properties":{"category":"sportveld","name":"Racketclub Overhout","operator":""}},{"type":"Feature","geometry":{"type":"Point","coordinates":[4.6012,52.381016]},"properties":{"category":"sportveld","name":"Tennispark Duinvliet","operator":""}},{"type":"Feature","geometry":{"type":"Point","coordinates":[4.639818,52.369323]},"properties":{"category":"sportveld","name":"Olympia Haarlem","operator":""}},{"type":"Feature","geometry":{"type":"Point","coordinates":[4.631188,52.408463]},"properties":{"category":"sportveld","name":"","operator":""}},{"type":"Feature","geometry":{"type":"Point","coordinates":[4.616245,52.373934]},"properties":{"category":"sportveld","name":"Eagle Gym","operator":""}},{"type":"Feature","geometry":{"type":"Point","coordinates":[4.616728,52.380771]},"properties":{"category":"sportveld","name":"","operator":""}},{"type":"Feature","geometry":{"type":"Point","coordinates":[4.624353,52.39668]},"properties":{"category":"sportveld","name":"Squash Haarlem","operator":""}},{"type":"Feature","geometry":{"type":"Point","coordinates":[4.626635,52.40042]},"properties":{"category":"sportveld","name":"Kennemer Sportcenter","operator":""}},{"type":"Feature","geometry":{"type":"Point","coordinates":[4.629168,52.398498]},"properties":{"category":"sportveld","name":"Korfbalverenigingen HKC Haarlem / CKV Rapid","operator":""}},{"type":"Feature","geometry":{"type":"Point","coordinates":[4.66198,52.371183]},"properties":{"category":"sportveld","name":"Tennispark Reinalda","operator":""}},{"type":"Feature","geometry":{"type":"Point","coordinates":[4.614274,52.364293]},"properties":{"category":"sportveld","name":"","operator":""}},{"type":"Feature","geometry":{"type":"Point","coordinates":[4.606405,52.371905]},"properties":{"category":"sportveld","name":"S.V. Alliance '22","operator":""}},{"type":"Feature","geometry":{"type":"Point","coordinates":[4.665926,52.369014]},"properties":{"category":"sportveld","name":"HBSV Brederode","operator":""}},{"type":"Feature","geometry":{"type":"Point","coordinates":[4.666724,52.369209]},"properties":{"category":"sportveld","name":"HMHC Saxenburg","operator":""}},{"type":"Feature","geometry":{"type":"Point","coordinates":[4.617611,52.37559]},"properties":{"category":"sportveld","name":"SV Geel Wit '20","operator":""}},{"type":"Feature","geometry":{"type":"Point","coordinates":[4.624272,52.395337]},"properties":{"category":"sportveld","name":"DEGIRO-hal","operator":""}},{"type":"Feature","geometry":{"type":"Point","coordinates":[4.647203,52.409562]},"properties":{"category":"sportveld","name":"Yvonne van Gennip Hal","operator":"SRO"}},{"type":"Feature","geometry":{"type":"Point","coordinates":[4.652539,52.387583]},"properties":{"category":"sportveld","name":"Peakz Padel Haarlemmerstroom","operator":"Peakz"}},{"type":"Feature","geometry":{"type":"Point","coordinates":[4.654556,52.358864]},"properties":{"category":"winkelcentrum","name":"Centrum Schalkwijk","operator":""}},{"type":"Feature","geometry":{"type":"Point","coordinates":[4.654235,52.358934]},"properties":{"category":"winkelcentrum","name":"Centrum Schalkwijk","operator":""}},{"type":"Feature","geometry":{"type":"Point","coordinates":[4.648378,52.390924]},"properties":{"category":"winkelcentrum","name":"Spaarneboog","operator":""}},{"type":"Feature","geometry":{"type":"Point","coordinates":[4.630932,52.376375]},"properties":{"category":"supermarkt","name":"Albert Heijn","operator":""}},{"type":"Feature","geometry":{"type":"Point","coordinates":[4.635775,52.384462]},"properties":{"category":"supermarkt","name":"Albert Heijn","operator":""}},{"type":"Feature","geometry":{"type":"Point","coordinates":[4.622389,52.387101]},"properties":{"category":"supermarkt","name":"Albert Heijn","operator":""}},{"type":"Feature","geometry":{"type":"Point","coordinates":[4.653637,52.351772]},"properties":{"category":"supermarkt","name":"Jumbo Haarlem","operator":""}},{"type":"Feature","geometry":{"type":"Point","coordinates":[4.604235,52.38326]},"properties":{"category":"supermarkt","name":"DekaMarkt","operator":"Deka"}},{"type":"Feature","geometry":{"type":"Point","coordinates":[4.632233,52.380587]},"properties":{"category":"supermarkt","name":"DekaMarkt","operator":""}},{"type":"Feature","geometry":{"type":"Point","coordinates":[4.632366,52.38024]},"properties":{"category":"supermarkt","name":"Jumbo","operator":""}},{"type":"Feature","geometry":{"type":"Point","coordinates":[4.613944,52.369327]},"properties":{"category":"supermarkt","name":"Vomar","operator":""}},{"type":"Feature","geometry":{"type":"Point","coordinates":[4.652682,52.415948]},"properties":{"category":"supermarkt","name":"DekaMarkt","operator":""}},{"type":"Feature","geometry":{"type":"Point","coordinates":[4.64752,52.379391]},"properties":{"category":"supermarkt","name":"DekaMarkt","operator":""}},{"type":"Feature","geometry":{"type":"Point","coordinates":[4.635432,52.382995]},"properties":{"category":"supermarkt","name":"Jumbo","operator":""}},{"type":"Feature","geometry":{"type":"Point","coordinates":[4.638442,52.373218]},"properties":{"category":"supermarkt","name":"Vomar","operator":""}},{"type":"Feature","geometry":{"type":"Point","coordinates":[4.623907,52.385234]},"properties":{"category":"supermarkt","name":"Foodplus","operator":""}},{"type":"Feature","geometry":{"type":"Point","coordinates":[4.629012,52.393954]},"properties":{"category":"supermarkt","name":"DekaMarkt","operator":""}},{"type":"Feature","geometry":{"type":"Point","coordinates":[4.622508,52.380365]},"properties":{"category":"supermarkt","name":"DekaMarkt","operator":""}},{"type":"Feature","geometry":{"type":"Point","coordinates":[4.630389,52.381681]},"properties":{"category":"supermarkt","name":"Albert Heijn","operator":""}},{"type":"Feature","geometry":{"type":"Point","coordinates":[4.661088,52.378222]},"properties":{"category":"supermarkt","name":"DekaMarkt","operator":""}},{"type":"Feature","geometry":{"type":"Point","coordinates":[4.654548,52.379802]},"properties":{"category":"supermarkt","name":"Anatolia","operator":""}},{"type":"Feature","geometry":{"type":"Point","coordinates":[4.663653,52.355554]},"properties":{"category":"supermarkt","name":"Vomar","operator":""}},{"type":"Feature","geometry":{"type":"Point","coordinates":[4.646994,52.359821]},"properties":{"category":"supermarkt","name":"ADL Supermarkten","operator":""}},{"type":"Feature","geometry":{"type":"Point","coordinates":[4.64724,52.380127]},"properties":{"category":"supermarkt","name":"Marrakech Markt","operator":""}},{"type":"Feature","geometry":{"type":"Point","coordinates":[4.630372,52.375048]},"properties":{"category":"supermarkt","name":"Ekoplaza","operator":""}},{"type":"Feature","geometry":{"type":"Point","coordinates":[4.642316,52.371722]},"properties":{"category":"supermarkt","name":"DekaMarkt","operator":""}},{"type":"Feature","geometry":{"type":"Point","coordinates":[4.661834,52.378453]},"properties":{"category":"supermarkt","name":"Desi Indian Market","operator":""}},{"type":"Feature","geometry":{"type":"Point","coordinates":[4.657494,52.364238]},"properties":{"category":"supermarkt","name":"Lidl","operator":"Lidl Nederland GmbH"}},{"type":"Feature","geometry":{"type":"Point","coordinates":[4.648171,52.364664]},"properties":{"category":"supermarkt","name":"Vomar","operator":""}},{"type":"Feature","geometry":{"type":"Point","coordinates":[4.655437,52.359443]},"properties":{"category":"supermarkt","name":"DekaMarkt","operator":""}},{"type":"Feature","geometry":{"type":"Point","coordinates":[4.629809,52.393315]},"properties":{"category":"supermarkt","name":"Albert Heijn","operator":""}},{"type":"Feature","geometry":{"type":"Point","coordinates":[4.645145,52.398438]},"properties":{"category":"supermarkt","name":"Albert Heijn","operator":""}},{"type":"Feature","geometry":{"type":"Point","coordinates":[4.64824,52.39044]},"properties":{"category":"supermarkt","name":"ALDI","operator":""}},{"type":"Feature","geometry":{"type":"Point","coordinates":[4.640987,52.392768]},"properties":{"category":"supermarkt","name":"Hapje Haarlem","operator":""}},{"type":"Feature","geometry":{"type":"Point","coordinates":[4.64084,52.391086]},"properties":{"category":"supermarkt","name":"Jas̀ i Matgosia","operator":""}},{"type":"Feature","geometry":{"type":"Point","coordinates":[4.650085,52.408996]},"properties":{"category":"supermarkt","name":"DekaMarkt","operator":""}},{"type":"Feature","geometry":{"type":"Point","coordinates":[4.637991,52.408304]},"properties":{"category":"supermarkt","name":"DekaMarkt","operator":""}},{"type":"Feature","geometry":{"type":"Point","coordinates":[4.647196,52.417039]},"properties":{"category":"supermarkt","name":"Albert Heijn","operator":""}},{"type":"Feature","geometry":{"type":"Point","coordinates":[4.617088,52.377609]},"properties":{"category":"supermarkt","name":"Albert Heijn","operator":""}},{"type":"Feature","geometry":{"type":"Point","coordinates":[4.649052,52.361719]},"properties":{"category":"supermarkt","name":"Karaman","operator":""}},{"type":"Feature","geometry":{"type":"Point","coordinates":[4.648425,52.417023]},"properties":{"category":"supermarkt","name":"PLUS","operator":""}},{"type":"Feature","geometry":{"type":"Point","coordinates":[4.617783,52.378355]},"properties":{"category":"supermarkt","name":"ALDI","operator":""}},{"type":"Feature","geometry":{"type":"Point","coordinates":[4.645763,52.401633]},"properties":{"category":"supermarkt","name":"DekaMarkt","operator":""}},{"type":"Feature","geometry":{"type":"Point","coordinates":[4.655485,52.358875]},"properties":{"category":"supermarkt","name":"ALDI","operator":""}},{"type":"Feature","geometry":{"type":"Point","coordinates":[4.655484,52.358799]},"properties":{"category":"supermarkt","name":"Albert Heijn","operator":""}},{"type":"Feature","geometry":{"type":"Point","coordinates":[4.646992,52.3707]},"properties":{"category":"supermarkt","name":"Albert Heijn","operator":"Vos Schipholweg"}},{"type":"Feature","geometry":{"type":"Point","coordinates":[4.646594,52.390932]},"properties":{"category":"supermarkt","name":"Vomar","operator":""}},{"type":"Feature","geometry":{"type":"Point","coordinates":[4.636689,52.381836]},"properties":{"category":"fietsenstalling","name":"Fietsenstalling Smedestraat","operator":"Gemeente Haarlem"}},{"type":"Feature","geometry":{"type":"Point","coordinates":[4.652975,52.387265]},"properties":{"category":"fietsenstalling","name":"","operator":""}},{"type":"Feature","geometry":{"type":"Point","coordinates":[4.63808,52.387802]},"properties":{"category":"fietsenstalling","name":"","operator":"NS Fiets"}},{"type":"Feature","geometry":{"type":"Point","coordinates":[4.654726,52.384482]},"properties":{"category":"fietsenstalling","name":"","operator":""}},{"type":"Feature","geometry":{"type":"Point","coordinates":[4.629812,52.375278]},"properties":{"category":"fietsenstalling","name":"Fietsenstalling Tempeliersstraat","operator":"Spaarnelanden"}},{"type":"Feature","geometry":{"type":"Point","coordinates":[4.638008,52.388411]},"properties":{"category":"fietsenstalling","name":"","operator":"NS Fiets"}},{"type":"Feature","geometry":{"type":"Point","coordinates":[4.631434,52.379872]},"properties":{"category":"fietsenstalling","name":"Fietsenstalling Botermarkt","operator":"Gemeente Haarlem"}},{"type":"Feature","geometry":{"type":"Point","coordinates":[4.633455,52.375112]},"properties":{"category":"fietsenstalling","name":"","operator":""}},{"type":"Feature","geometry":{"type":"Point","coordinates":[4.629158,52.38136]},"properties":{"category":"fietsenstalling","name":"Fietsenstalling Hortusplein","operator":"Gemeente Haarlem, Spaarnelanden"}},{"type":"Feature","geometry":{"type":"Point","coordinates":[4.61408,52.369748]},"properties":{"category":"fietsenstalling","name":"","operator":""}},{"type":"Feature","geometry":{"type":"Point","coordinates":[4.637619,52.387465]},"properties":{"category":"fietsenstalling","name":"Fietsenstalling Stationsplein souterain","operator":"Gemeente Haarlem / Spaarnelanden"}},{"type":"Feature","geometry":{"type":"Point","coordinates":[4.616921,52.388429]},"properties":{"category":"fietsenstalling","name":"","operator":""}},{"type":"Feature","geometry":{"type":"Point","coordinates":[4.650356,52.383152]},"properties":{"category":"fietsenstalling","name":"","operator":""}},{"type":"Feature","geometry":{"type":"Point","coordinates":[4.671437,52.381962]},"properties":{"category":"fietsenstalling","name":"","operator":""}},{"type":"Feature","geometry":{"type":"Point","coordinates":[4.640063,52.364483]},"properties":{"category":"fietsenstalling","name":"","operator":""}},{"type":"Feature","geometry":{"type":"Point","coordinates":[4.640059,52.364436]},"properties":{"category":"fietsenstalling","name":"","operator":""}},{"type":"Feature","geometry":{"type":"Point","coordinates":[4.637985,52.388557]},"properties":{"category":"fietsenstalling","name":"Fietsgevel Kennemerplein","operator":"Haarlem / Spaarnelanden"}},{"type":"Feature","geometry":{"type":"Point","coordinates":[4.662587,52.393497]},"properties":{"category":"fietsenstalling","name":"","operator":""}},{"type":"Feature","geometry":{"type":"Point","coordinates":[4.62933,52.384108]},"properties":{"category":"fietsenstalling","name":"","operator":""}},{"type":"Feature","geometry":{"type":"Point","coordinates":[4.631272,52.375296]},"properties":{"category":"fietsenstalling","name":"Houtplein","operator":"Spaarneland;gemeente Haarlem"}},{"type":"Feature","geometry":{"type":"Point","coordinates":[4.656032,52.359298]},"properties":{"category":"fietsenstalling","name":"","operator":""}},{"type":"Feature","geometry":{"type":"Point","coordinates":[4.626802,52.369992]},"properties":{"category":"parkeergarage","name":"","operator":""}},{"type":"Feature","geometry":{"type":"Point","coordinates":[4.627938,52.370781]},"properties":{"category":"parkeergarage","name":"","operator":""}},{"type":"Feature","geometry":{"type":"Point","coordinates":[4.626333,52.370839]},"properties":{"category":"parkeergarage","name":"","operator":""}},{"type":"Feature","geometry":{"type":"Point","coordinates":[4.631686,52.374676]},"properties":{"category":"parkeergarage","name":"Houtplein","operator":"Gemeente Haarlem / Spaarnelanden"}},{"type":"Feature","geometry":{"type":"Point","coordinates":[4.622727,52.387207]},"properties":{"category":"parkeergarage","name":"","operator":"Albert Heijn Franchiser Vos"}},{"type":"Feature","geometry":{"type":"Point","coordinates":[4.626963,52.370542]},"properties":{"category":"parkeergarage","name":"","operator":""}},{"type":"Feature","geometry":{"type":"Point","coordinates":[4.651788,52.356572]},"properties":{"category":"parkeergarage","name":"","operator":""}},{"type":"Feature","geometry":{"type":"Point","coordinates":[4.652946,52.363284]},"properties":{"category":"parkeergarage","name":"","operator":""}},{"type":"Feature","geometry":{"type":"Point","coordinates":[4.655994,52.35877]},"properties":{"category":"parkeergarage","name":"Floridastraat Centrum Schalkwijk","operator":"Spaarnelanden & gemeente Haarlem"}},{"type":"Feature","geometry":{"type":"Point","coordinates":[4.656313,52.35966]},"properties":{"category":"parkeergarage","name":"Parkeergarage Winkelcentrum Schalkwijk","operator":""}},{"type":"Feature","geometry":{"type":"Point","coordinates":[4.638962,52.386908]},"properties":{"category":"parkeergarage","name":"Parkeergarage Station","operator":"Interparking"}},{"type":"Feature","geometry":{"type":"Point","coordinates":[4.668052,52.385421]},"properties":{"category":"parkeergarage","name":"Ikea","operator":""}},{"type":"Feature","geometry":{"type":"Point","coordinates":[4.632012,52.384623]},"properties":{"category":"parkeergarage","name":"","operator":""}},{"type":"Feature","geometry":{"type":"Point","coordinates":[4.637019,52.377363]},"properties":{"category":"parkeergarage","name":"Parkeergarage de Kamp","operator":"Gemeente Haarlem & Spaarnelanden"}},{"type":"Feature","geometry":{"type":"Point","coordinates":[4.63722,52.376495]},"properties":{"category":"parkeergarage","name":"","operator":""}},{"type":"Feature","geometry":{"type":"Point","coordinates":[4.632451,52.374942]},"properties":{"category":"parkeergarage","name":"","operator":""}},{"type":"Feature","geometry":{"type":"Point","coordinates":[4.631038,52.372372]},"properties":{"category":"parkeergarage","name":"De Dreef","operator":"Spaarnelanden/Gemeente Haarlem"}},{"type":"Feature","geometry":{"type":"Point","coordinates":[4.648841,52.389463]},"properties":{"category":"parkeergarage","name":"De Pionier, Stallingsgarage","operator":""}},{"type":"Feature","geometry":{"type":"Point","coordinates":[4.652825,52.402609]},"properties":{"category":"parkeergarage","name":"","operator":""}},{"type":"Feature","geometry":{"type":"Point","coordinates":[4.645024,52.42008]},"properties":{"category":"parkeergarage","name":"","operator":""}},{"type":"Feature","geometry":{"type":"Point","coordinates":[4.646642,52.416371]},"properties":{"category":"parkeergarage","name":"","operator":""}},{"type":"Feature","geometry":{"type":"Point","coordinates":[4.647097,52.416785]},"properties":{"category":"parkeergarage","name":"Marsmanplein","operator":""}},{"type":"Feature","geometry":{"type":"Point","coordinates":[4.645643,52.42131]},"properties":{"category":"parkeergarage","name":"","operator":""}},{"type":"Feature","geometry":{"type":"Point","coordinates":[4.645406,52.398318]},"properties":{"category":"parkeergarage","name":"Albert Heijn parkeergarage","operator":""}},{"type":"Feature","geometry":{"type":"Point","coordinates":[4.644603,52.384188]},"properties":{"category":"parkeergarage","name":"","operator":""}},{"type":"Feature","geometry":{"type":"Point","coordinates":[4.639168,52.380735]},"properties":{"category":"parkeergarage","name":"Parkeergarage Appelaar","operator":"Gemeente Haarlem & Spaarnelanden"}},{"type":"Feature","geometry":{"type":"Point","coordinates":[4.653921,52.36015]},"properties":{"category":"parkeergarage","name":"","operator":""}},{"type":"Feature","geometry":{"type":"Point","coordinates":[4.616815,52.376739]},"properties":{"category":"parkeergarage","name":"","operator":""}},{"type":"Feature","geometry":{"type":"Point","coordinates":[4.633429,52.384824]},"properties":{"category":"parkeergarage","name":"","operator":""}},{"type":"Feature","geometry":{"type":"Point","coordinates":[4.638064,52.383799]},"properties":{"category":"parkeergarage","name":"Jansstraat","operator":"ParkBee"}},{"type":"Feature","geometry":{"type":"Point","coordinates":[4.622493,52.38696]},"properties":{"category":"parkeergarage","name":"","operator":"Albert Heijn"}},{"type":"Feature","geometry":{"type":"Point","coordinates":[4.63012,52.381638]},"properties":{"category":"parkeergarage","name":"Parkeergarage Raaks","operator":"Gemeente Haarlem & Spaarnelanden"}},{"type":"Feature","geometry":{"type":"Point","coordinates":[4.638857,52.393864]},"properties":{"category":"parkeergarage","name":"Parkeergarage Cronjé","operator":"Gemeente Haarlem & Spaarnelanden"}},{"type":"Feature","geometry":{"type":"Point","coordinates":[4.672324,52.383374]},"properties":{"category":"p_and_r","name":"","operator":""}}]}