{"type":"FeatureCollection","metadata":{"gemeente":"Heerde","slug":"heerde","by_category":{"bus_halte":37,"fietsenstalling":7,"sportveld":5,"ov_knooppunt":2,"gemeentehuis":2,"bibliotheek":1,"middelbare_school":1},"total":55},"features":[{"type":"Feature","geometry":{"type":"Point","coordinates":[6.034172,52.381776]},"properties":{"category":"bus_halte","name":"Eperweg","operator":""}},{"type":"Feature","geometry":{"type":"Point","coordinates":[6.033619,52.381458]},"properties":{"category":"bus_halte","name":"Eperweg","operator":""}},{"type":"Feature","geometry":{"type":"Point","coordinates":[6.037699,52.38903]},"properties":{"category":"bus_halte","name":"Brinklaan","operator":""}},{"type":"Feature","geometry":{"type":"Point","coordinates":[6.037461,52.38899]},"properties":{"category":"bus_halte","name":"Brinklaan","operator":""}},{"type":"Feature","geometry":{"type":"Point","coordinates":[6.056916,52.414779]},"properties":{"category":"bus_halte","name":"Dreefseweg/Isala","operator":""}},{"type":"Feature","geometry":{"type":"Point","coordinates":[6.056098,52.413831]},"properties":{"category":"bus_halte","name":"Dreefseweg/Isala","operator":""}},{"type":"Feature","geometry":{"type":"Point","coordinates":[6.064546,52.42768]},"properties":{"category":"bus_halte","name":"Nachtegaalweg","operator":""}},{"type":"Feature","geometry":{"type":"Point","coordinates":[6.065228,52.428354]},"properties":{"category":"bus_halte","name":"Nachtegaalweg","operator":""}},{"type":"Feature","geometry":{"type":"Point","coordinates":[6.067696,52.432412]},"properties":{"category":"bus_halte","name":"Molenweg","operator":""}},{"type":"Feature","geometry":{"type":"Point","coordinates":[6.068088,52.43348]},"properties":{"category":"bus_halte","name":"Molenweg","operator":""}},{"type":"Feature","geometry":{"type":"Point","coordinates":[6.071047,52.442898]},"properties":{"category":"bus_halte","name":"Parkweg","operator":""}},{"type":"Feature","geometry":{"type":"Point","coordinates":[6.07082,52.442966]},"properties":{"category":"bus_halte","name":"Parkweg","operator":""}},{"type":"Feature","geometry":{"type":"Point","coordinates":[6.069525,52.448509]},"properties":{"category":"bus_halte","name":"Ingenieur R.R. van der Zeelaan","operator":""}},{"type":"Feature","geometry":{"type":"Point","coordinates":[6.069528,52.449344]},"properties":{"category":"bus_halte","name":"Ingenieur R.R. van der Zeelaan","operator":""}},{"type":"Feature","geometry":{"type":"Point","coordinates":[6.036588,52.391228]},"properties":{"category":"bus_halte","name":"Molenkampweg","operator":""}},{"type":"Feature","geometry":{"type":"Point","coordinates":[6.035659,52.392252]},"properties":{"category":"bus_halte","name":"Molenkampweg","operator":""}},{"type":"Feature","geometry":{"type":"Point","coordinates":[6.050125,52.400858]},"properties":{"category":"bus_halte","name":"Zwolseweg","operator":""}},{"type":"Feature","geometry":{"type":"Point","coordinates":[6.05055,52.400923]},"properties":{"category":"bus_halte","name":"Zwolseweg","operator":""}},{"type":"Feature","geometry":{"type":"Point","coordinates":[6.022103,52.371786]},"properties":{"category":"bus_halte","name":"Transferium Horsthoek","operator":""}},{"type":"Feature","geometry":{"type":"Point","coordinates":[6.022179,52.371831]},"properties":{"category":"bus_halte","name":"Transferium Horsthoek","operator":""}},{"type":"Feature","geometry":{"type":"Point","coordinates":[6.040754,52.387633]},"properties":{"category":"bus_halte","name":"Centrum Groene Hart","operator":""}},{"type":"Feature","geometry":{"type":"Point","coordinates":[6.099653,52.381208]},"properties":{"category":"bus_halte","name":"De Zaaier","operator":""}},{"type":"Feature","geometry":{"type":"Point","coordinates":[6.106374,52.398434]},"properties":{"category":"bus_halte","name":"Dorp","operator":""}},{"type":"Feature","geometry":{"type":"Point","coordinates":[6.01935,52.407138]},"properties":{"category":"bus_halte","name":"Heerderstrand","operator":""}},{"type":"Feature","geometry":{"type":"Point","coordinates":[6.018951,52.407214]},"properties":{"category":"bus_halte","name":"Heerderstrand","operator":""}},{"type":"Feature","geometry":{"type":"Point","coordinates":[6.094416,52.375985]},"properties":{"category":"bus_halte","name":"IJsseldijk","operator":""}},{"type":"Feature","geometry":{"type":"Point","coordinates":[6.034589,52.380795]},"properties":{"category":"bus_halte","name":"Hofje Wendakker","operator":""}},{"type":"Feature","geometry":{"type":"Point","coordinates":[6.038078,52.381891]},"properties":{"category":"bus_halte","name":"Keuterstraat","operator":""}},{"type":"Feature","geometry":{"type":"Point","coordinates":[6.038147,52.381953]},"properties":{"category":"bus_halte","name":"Keuterstraat","operator":""}},{"type":"Feature","geometry":{"type":"Point","coordinates":[6.091552,52.377458]},"properties":{"category":"bus_halte","name":"Kloosterakkers","operator":""}},{"type":"Feature","geometry":{"type":"Point","coordinates":[6.08843,52.378028]},"properties":{"category":"bus_halte","name":"Nederlands Hervormde Kerk","operator":""}},{"type":"Feature","geometry":{"type":"Point","coordinates":[6.121202,52.391979]},"properties":{"category":"bus_halte","name":"Veerweg","operator":""}},{"type":"Feature","geometry":{"type":"Point","coordinates":[6.114412,52.38245]},"properties":{"category":"bus_halte","name":"Zijmarseweg","operator":""}},{"type":"Feature","geometry":{"type":"Point","coordinates":[6.034693,52.380728]},"properties":{"category":"bus_halte","name":"Hofje Wendakker","operator":""}},{"type":"Feature","geometry":{"type":"Point","coordinates":[6.088363,52.377958]},"properties":{"category":"bus_halte","name":"Nederlands Hervormde Kerk","operator":""}},{"type":"Feature","geometry":{"type":"Point","coordinates":[6.053355,52.375312]},"properties":{"category":"bus_halte","name":"Kerkdijk","operator":""}},{"type":"Feature","geometry":{"type":"Point","coordinates":[6.053166,52.37543]},"properties":{"category":"bus_halte","name":"Kerkdijk","operator":""}},{"type":"Feature","geometry":{"type":"Point","coordinates":[6.073685,52.438439]},"properties":{"category":"ov_knooppunt","name":"","operator":""}},{"type":"Feature","geometry":{"type":"Point","coordinates":[6.074026,52.438414]},"properties":{"category":"ov_knooppunt","name":"","operator":""}},{"type":"Feature","geometry":{"type":"Point","coordinates":[6.042658,52.387844]},"properties":{"category":"gemeentehuis","name":"Gemeentehuis Heerde","operator":"Gemeente Heerde"}},{"type":"Feature","geometry":{"type":"Point","coordinates":[6.035693,52.385647]},"properties":{"category":"gemeentehuis","name":"Gemeentekantoor Heerde","operator":"Gemeente Heerde"}},{"type":"Feature","geometry":{"type":"Point","coordinates":[6.069227,52.428911]},"properties":{"category":"bibliotheek","name":"Bibliotheek Wapenveld","operator":"Stichting Openbare Basisbibliotheek Noord-Veluwe"}},{"type":"Feature","geometry":{"type":"Point","coordinates":[6.054973,52.414263]},"properties":{"category":"middelbare_school","name":"De Ambelt","operator":"OOZ"}},{"type":"Feature","geometry":{"type":"Point","coordinates":[6.030096,52.384553]},"properties":{"category":"sportveld","name":"HLTC","operator":""}},{"type":"Feature","geometry":{"type":"Point","coordinates":[6.096066,52.37836]},"properties":{"category":"sportveld","name":"Sporthal De Noord","operator":""}},{"type":"Feature","geometry":{"type":"Point","coordinates":[6.077977,52.438142]},"properties":{"category":"sportveld","name":"Sportpark Monnikenbos","operator":""}},{"type":"Feature","geometry":{"type":"Point","coordinates":[6.045667,52.401216]},"properties":{"category":"sportveld","name":"Sportpark de Eeuwlanden","operator":""}},{"type":"Feature","geometry":{"type":"Point","coordinates":[6.040028,52.400836]},"properties":{"category":"sportveld","name":"Sportpark Molenbeek","operator":""}},{"type":"Feature","geometry":{"type":"Point","coordinates":[6.070759,52.430927]},"properties":{"category":"fietsenstalling","name":"","operator":"ODS Jan Ligthartschool"}},{"type":"Feature","geometry":{"type":"Point","coordinates":[6.03719,52.388931]},"properties":{"category":"fietsenstalling","name":"","operator":""}},{"type":"Feature","geometry":{"type":"Point","coordinates":[6.050472,52.400656]},"properties":{"category":"fietsenstalling","name":"","operator":""}},{"type":"Feature","geometry":{"type":"Point","coordinates":[6.021468,52.371953]},"properties":{"category":"fietsenstalling","name":"","operator":""}},{"type":"Feature","geometry":{"type":"Point","coordinates":[6.068202,52.432719]},"properties":{"category":"fietsenstalling","name":"","operator":""}},{"type":"Feature","geometry":{"type":"Point","coordinates":[6.065437,52.428603]},"properties":{"category":"fietsenstalling","name":"","operator":""}},{"type":"Feature","geometry":{"type":"Point","coordinates":[6.068186,52.432663]},"properties":{"category":"fietsenstalling","name":"","operator":""}}]}