{"type":"FeatureCollection","metadata":{"gemeente":"Heeze-Leende","slug":"heeze-leende","by_category":{"bus_halte":54,"supermarkt":5,"bibliotheek":3,"fietsenstalling":3,"sportveld":2,"ns_station":1,"ov_knooppunt":1,"gemeentehuis":1,"inzamelpunt":1,"winkelcentrum":1,"p_and_r":1},"total":73},"features":[{"type":"Feature","geometry":{"type":"Point","coordinates":[5.56942,51.385333]},"properties":{"category":"ns_station","name":"Heeze","operator":""}},{"type":"Feature","geometry":{"type":"Point","coordinates":[5.612397,51.350472]},"properties":{"category":"bus_halte","name":"Kerk","operator":""}},{"type":"Feature","geometry":{"type":"Point","coordinates":[5.543802,51.350054]},"properties":{"category":"bus_halte","name":"Valkenswaardseweg / A2","operator":""}},{"type":"Feature","geometry":{"type":"Point","coordinates":[5.544268,51.349897]},"properties":{"category":"bus_halte","name":"Valkenswaardseweg / A2","operator":""}},{"type":"Feature","geometry":{"type":"Point","coordinates":[5.586011,51.36672]},"properties":{"category":"bus_halte","name":"Boelakkers","operator":""}},{"type":"Feature","geometry":{"type":"Point","coordinates":[5.608964,51.355479]},"properties":{"category":"bus_halte","name":"Albertlaan","operator":""}},{"type":"Feature","geometry":{"type":"Point","coordinates":[5.602668,51.375665]},"properties":{"category":"bus_halte","name":"Crematorium","operator":""}},{"type":"Feature","geometry":{"type":"Point","coordinates":[5.575446,51.380304]},"properties":{"category":"bus_halte","name":"Dominee Kremerstraat","operator":""}},{"type":"Feature","geometry":{"type":"Point","coordinates":[5.582654,51.373478]},"properties":{"category":"bus_halte","name":"Ginderover","operator":""}},{"type":"Feature","geometry":{"type":"Point","coordinates":[5.597795,51.374985]},"properties":{"category":"bus_halte","name":"Kapellerput","operator":""}},{"type":"Feature","geometry":{"type":"Point","coordinates":[5.578261,51.378126]},"properties":{"category":"bus_halte","name":"Kerk","operator":""}},{"type":"Feature","geometry":{"type":"Point","coordinates":[5.612327,51.339114]},"properties":{"category":"bus_halte","name":"Pastoor P. Thijssenlaan","operator":""}},{"type":"Feature","geometry":{"type":"Point","coordinates":[5.621457,51.35927]},"properties":{"category":"bus_halte","name":"Peelven","operator":""}},{"type":"Feature","geometry":{"type":"Point","coordinates":[5.623821,51.359899]},"properties":{"category":"bus_halte","name":"Providentia","operator":""}},{"type":"Feature","geometry":{"type":"Point","coordinates":[5.589524,51.373489]},"properties":{"category":"bus_halte","name":"Somerenseweg","operator":""}},{"type":"Feature","geometry":{"type":"Point","coordinates":[5.590544,51.373768]},"properties":{"category":"bus_halte","name":"Somerenseweg","operator":""}},{"type":"Feature","geometry":{"type":"Point","coordinates":[5.569841,51.385199]},"properties":{"category":"bus_halte","name":"Station","operator":""}},{"type":"Feature","geometry":{"type":"Point","coordinates":[5.624456,51.37881]},"properties":{"category":"bus_halte","name":"Vlaamseweg","operator":""}},{"type":"Feature","geometry":{"type":"Point","coordinates":[5.561299,51.342896]},"properties":{"category":"bus_halte","name":"Zevenhuizen","operator":""}},{"type":"Feature","geometry":{"type":"Point","coordinates":[5.560756,51.34325]},"properties":{"category":"bus_halte","name":"Zevenhuizen","operator":""}},{"type":"Feature","geometry":{"type":"Point","coordinates":[5.558014,51.352299]},"properties":{"category":"bus_halte","name":"Oostrikkerstraat","operator":""}},{"type":"Feature","geometry":{"type":"Point","coordinates":[5.546602,51.33973]},"properties":{"category":"bus_halte","name":"Jansborg","operator":""}},{"type":"Feature","geometry":{"type":"Point","coordinates":[5.546578,51.339673]},"properties":{"category":"bus_halte","name":"Jansborg","operator":""}},{"type":"Feature","geometry":{"type":"Point","coordinates":[5.55267,51.349481]},"properties":{"category":"bus_halte","name":"Dorpsstraat","operator":""}},{"type":"Feature","geometry":{"type":"Point","coordinates":[5.552501,51.349471]},"properties":{"category":"bus_halte","name":"Dorpsstraat","operator":""}},{"type":"Feature","geometry":{"type":"Point","coordinates":[5.557811,51.352315]},"properties":{"category":"bus_halte","name":"Oostrikkerstraat","operator":""}},{"type":"Feature","geometry":{"type":"Point","coordinates":[5.575058,51.387024]},"properties":{"category":"bus_halte","name":"Burgemeester Michelsstraat","operator":""}},{"type":"Feature","geometry":{"type":"Point","coordinates":[5.574296,51.387501]},"properties":{"category":"bus_halte","name":"Burgemeester Michelsstraat","operator":""}},{"type":"Feature","geometry":{"type":"Point","coordinates":[5.578311,51.378316]},"properties":{"category":"bus_halte","name":"Kerk","operator":""}},{"type":"Feature","geometry":{"type":"Point","coordinates":[5.551768,51.345199]},"properties":{"category":"bus_halte","name":"Viaduct A2 Dorpstraat","operator":""}},{"type":"Feature","geometry":{"type":"Point","coordinates":[5.551646,51.345271]},"properties":{"category":"bus_halte","name":"Viaduct A2 Dorpstraat","operator":""}},{"type":"Feature","geometry":{"type":"Point","coordinates":[5.553481,51.345533]},"properties":{"category":"bus_halte","name":"Julianastraat","operator":""}},{"type":"Feature","geometry":{"type":"Point","coordinates":[5.554009,51.34576]},"properties":{"category":"bus_halte","name":"Julianastraat","operator":""}},{"type":"Feature","geometry":{"type":"Point","coordinates":[5.575574,51.380368]},"properties":{"category":"bus_halte","name":"Dominee Kremerstraat","operator":""}},{"type":"Feature","geometry":{"type":"Point","coordinates":[5.582958,51.373493]},"properties":{"category":"bus_halte","name":"Ginderover","operator":""}},{"type":"Feature","geometry":{"type":"Point","coordinates":[5.595171,51.363283]},"properties":{"category":"bus_halte","name":"Kempenhaeghe","operator":""}},{"type":"Feature","geometry":{"type":"Point","coordinates":[5.621765,51.359273]},"properties":{"category":"bus_halte","name":"Peelven","operator":""}},{"type":"Feature","geometry":{"type":"Point","coordinates":[5.609161,51.355454]},"properties":{"category":"bus_halte","name":"Albertlaan","operator":""}},{"type":"Feature","geometry":{"type":"Point","coordinates":[5.612356,51.350689]},"properties":{"category":"bus_halte","name":"Kerk","operator":""}},{"type":"Feature","geometry":{"type":"Point","coordinates":[5.612633,51.339338]},"properties":{"category":"bus_halte","name":"Pastoor P. Thijssenlaan","operator":""}},{"type":"Feature","geometry":{"type":"Point","coordinates":[5.597989,51.375122]},"properties":{"category":"bus_halte","name":"Kapellerput","operator":""}},{"type":"Feature","geometry":{"type":"Point","coordinates":[5.602891,51.375836]},"properties":{"category":"bus_halte","name":"Crematorium","operator":""}},{"type":"Feature","geometry":{"type":"Point","coordinates":[5.625143,51.379082]},"properties":{"category":"bus_halte","name":"Vlaamseweg","operator":""}},{"type":"Feature","geometry":{"type":"Point","coordinates":[5.575915,51.374455]},"properties":{"category":"bus_halte","name":"Leenderweg/Molen","operator":""}},{"type":"Feature","geometry":{"type":"Point","coordinates":[5.575574,51.374332]},"properties":{"category":"bus_halte","name":"Leenderweg/Molen","operator":""}},{"type":"Feature","geometry":{"type":"Point","coordinates":[5.586128,51.366845]},"properties":{"category":"bus_halte","name":"Boelakkers","operator":""}},{"type":"Feature","geometry":{"type":"Point","coordinates":[5.586903,51.328815]},"properties":{"category":"bus_halte","name":"Mariahoeve","operator":""}},{"type":"Feature","geometry":{"type":"Point","coordinates":[5.586931,51.328891]},"properties":{"category":"bus_halte","name":"Mariahoeve","operator":""}},{"type":"Feature","geometry":{"type":"Point","coordinates":[5.612322,51.350547]},"properties":{"category":"bus_halte","name":"Kerk","operator":""}},{"type":"Feature","geometry":{"type":"Point","coordinates":[5.580243,51.381867]},"properties":{"category":"bus_halte","name":"Kapelstraat","operator":""}},{"type":"Feature","geometry":{"type":"Point","coordinates":[5.580042,51.381931]},"properties":{"category":"bus_halte","name":"Kapelstraat","operator":""}},{"type":"Feature","geometry":{"type":"Point","coordinates":[5.541397,51.333512]},"properties":{"category":"bus_halte","name":"Leenderstraat","operator":""}},{"type":"Feature","geometry":{"type":"Point","coordinates":[5.588597,51.396658]},"properties":{"category":"bus_halte","name":"Natuurpoort De Plaetse","operator":""}},{"type":"Feature","geometry":{"type":"Point","coordinates":[5.516047,51.350891]},"properties":{"category":"bus_halte","name":"Leenderbos","operator":""}},{"type":"Feature","geometry":{"type":"Point","coordinates":[5.567049,51.379911]},"properties":{"category":"bus_halte","name":"Ten Borchwaldlaan","operator":""}},{"type":"Feature","geometry":{"type":"Point","coordinates":[5.56942,51.385333]},"properties":{"category":"ov_knooppunt","name":"Heeze","operator":""}},{"type":"Feature","geometry":{"type":"Point","coordinates":[5.577188,51.379571]},"properties":{"category":"gemeentehuis","name":"Gemeentehuis Heeze-Leende","operator":"Gemeente Heeze-Leende"}},{"type":"Feature","geometry":{"type":"Point","coordinates":[5.541331,51.331727]},"properties":{"category":"inzamelpunt","name":"","operator":""}},{"type":"Feature","geometry":{"type":"Point","coordinates":[5.611673,51.349946]},"properties":{"category":"bibliotheek","name":"Bibliotheek Sterksel","operator":"Bibliotheek Dommeldal"}},{"type":"Feature","geometry":{"type":"Point","coordinates":[5.552735,51.349341]},"properties":{"category":"bibliotheek","name":"Bibliotheek Leende","operator":"Bibliotheek Dommeldal"}},{"type":"Feature","geometry":{"type":"Point","coordinates":[5.574319,51.379336]},"properties":{"category":"bibliotheek","name":"Bibliotheek Heeze","operator":"Bibliotheek Dommeldal"}},{"type":"Feature","geometry":{"type":"Point","coordinates":[5.584637,51.40554]},"properties":{"category":"sportveld","name":"Ruitersportcentrum Manege Meulendijks","operator":""}},{"type":"Feature","geometry":{"type":"Point","coordinates":[5.572167,51.382604]},"properties":{"category":"sportveld","name":"","operator":""}},{"type":"Feature","geometry":{"type":"Point","coordinates":[5.567388,51.382648]},"properties":{"category":"winkelcentrum","name":"","operator":""}},{"type":"Feature","geometry":{"type":"Point","coordinates":[5.550457,51.348125]},"properties":{"category":"supermarkt","name":"ALDI","operator":""}},{"type":"Feature","geometry":{"type":"Point","coordinates":[5.541465,51.331827]},"properties":{"category":"supermarkt","name":"Coop Sint Jan","operator":""}},{"type":"Feature","geometry":{"type":"Point","coordinates":[5.567596,51.382785]},"properties":{"category":"supermarkt","name":"PLUS","operator":""}},{"type":"Feature","geometry":{"type":"Point","coordinates":[5.551266,51.348013]},"properties":{"category":"supermarkt","name":"PLUS Smetsers","operator":"Smetsers"}},{"type":"Feature","geometry":{"type":"Point","coordinates":[5.580721,51.381671]},"properties":{"category":"supermarkt","name":"Albert Heijn","operator":""}},{"type":"Feature","geometry":{"type":"Point","coordinates":[5.569689,51.385293]},"properties":{"category":"fietsenstalling","name":"","operator":""}},{"type":"Feature","geometry":{"type":"Point","coordinates":[5.569271,51.385158]},"properties":{"category":"fietsenstalling","name":"","operator":""}},{"type":"Feature","geometry":{"type":"Point","coordinates":[5.624042,51.358904]},"properties":{"category":"fietsenstalling","name":"","operator":""}},{"type":"Feature","geometry":{"type":"Point","coordinates":[5.570621,51.384708]},"properties":{"category":"p_and_r","name":"","operator":""}}]}