{"type":"FeatureCollection","metadata":{"gemeente":"Hillegom","slug":"hillegom","by_category":{"bus_halte":29,"ov_knooppunt":3,"sportveld":2,"parkeergarage":2,"ns_station":1,"gemeentehuis":1,"inzamelpunt":1,"bibliotheek":1,"transformatorhuisje":1,"hogeschool":1,"fietsenstalling":1,"p_and_r":1},"total":44},"features":[{"type":"Feature","geometry":{"type":"Point","coordinates":[4.566075,52.30314]},"properties":{"category":"ns_station","name":"Hillegom","operator":""}},{"type":"Feature","geometry":{"type":"Point","coordinates":[4.581382,52.286444]},"properties":{"category":"bus_halte","name":"Olympiaweg","operator":""}},{"type":"Feature","geometry":{"type":"Point","coordinates":[4.58072,52.286737]},"properties":{"category":"bus_halte","name":"Olympiaweg","operator":""}},{"type":"Feature","geometry":{"type":"Point","coordinates":[4.582688,52.300971]},"properties":{"category":"bus_halte","name":"Weeresteinstraat","operator":""}},{"type":"Feature","geometry":{"type":"Point","coordinates":[4.589262,52.311808]},"properties":{"category":"bus_halte","name":"Bethlehemlaan","operator":""}},{"type":"Feature","geometry":{"type":"Point","coordinates":[4.572732,52.281762]},"properties":{"category":"bus_halte","name":"Wilsonweg","operator":""}},{"type":"Feature","geometry":{"type":"Point","coordinates":[4.589445,52.316621]},"properties":{"category":"bus_halte","name":"GGZ inGeest","operator":""}},{"type":"Feature","geometry":{"type":"Point","coordinates":[4.571785,52.277426]},"properties":{"category":"bus_halte","name":"Steenfabriek","operator":""}},{"type":"Feature","geometry":{"type":"Point","coordinates":[4.568513,52.314032]},"properties":{"category":"bus_halte","name":"Bartenbrug","operator":""}},{"type":"Feature","geometry":{"type":"Point","coordinates":[4.590732,52.291992]},"properties":{"category":"bus_halte","name":"van Limburg Stirumlaan","operator":""}},{"type":"Feature","geometry":{"type":"Point","coordinates":[4.581385,52.296667]},"properties":{"category":"bus_halte","name":"Van Nispenpark","operator":""}},{"type":"Feature","geometry":{"type":"Point","coordinates":[4.586001,52.306147]},"properties":{"category":"bus_halte","name":"Patrimonium","operator":""}},{"type":"Feature","geometry":{"type":"Point","coordinates":[4.572912,52.28389]},"properties":{"category":"bus_halte","name":"Wilsonweg","operator":""}},{"type":"Feature","geometry":{"type":"Point","coordinates":[4.571467,52.27602]},"properties":{"category":"bus_halte","name":"Steenfabriek","operator":""}},{"type":"Feature","geometry":{"type":"Point","coordinates":[4.588793,52.312596]},"properties":{"category":"bus_halte","name":"Bethlehemlaan","operator":""}},{"type":"Feature","geometry":{"type":"Point","coordinates":[4.582347,52.30078]},"properties":{"category":"bus_halte","name":"Weeresteinstraat","operator":""}},{"type":"Feature","geometry":{"type":"Point","coordinates":[4.5683,52.313471]},"properties":{"category":"bus_halte","name":"Bartenbrug","operator":""}},{"type":"Feature","geometry":{"type":"Point","coordinates":[4.590135,52.291285]},"properties":{"category":"bus_halte","name":"van Limburg Stirumlaan","operator":""}},{"type":"Feature","geometry":{"type":"Point","coordinates":[4.58587,52.306258]},"properties":{"category":"bus_halte","name":"Patrimonium","operator":""}},{"type":"Feature","geometry":{"type":"Point","coordinates":[4.580589,52.297334]},"properties":{"category":"bus_halte","name":"Van Nispenpark","operator":""}},{"type":"Feature","geometry":{"type":"Point","coordinates":[4.585206,52.295038]},"properties":{"category":"bus_halte","name":"Oranje Nassauplein","operator":""}},{"type":"Feature","geometry":{"type":"Point","coordinates":[4.585249,52.295157]},"properties":{"category":"bus_halte","name":"Oranje Nassauplein","operator":""}},{"type":"Feature","geometry":{"type":"Point","coordinates":[4.56652,52.302845]},"properties":{"category":"bus_halte","name":"Station","operator":""}},{"type":"Feature","geometry":{"type":"Point","coordinates":[4.578696,52.294965]},"properties":{"category":"bus_halte","name":"Centrum","operator":""}},{"type":"Feature","geometry":{"type":"Point","coordinates":[4.579067,52.295184]},"properties":{"category":"bus_halte","name":"Centrum","operator":""}},{"type":"Feature","geometry":{"type":"Point","coordinates":[4.571858,52.275777]},"properties":{"category":"bus_halte","name":"Steenfabriek","operator":""}},{"type":"Feature","geometry":{"type":"Point","coordinates":[4.566668,52.302969]},"properties":{"category":"bus_halte","name":"Station","operator":""}},{"type":"Feature","geometry":{"type":"Point","coordinates":[4.588792,52.289525]},"properties":{"category":"bus_halte","name":"Meerlaan","operator":""}},{"type":"Feature","geometry":{"type":"Point","coordinates":[4.588424,52.289386]},"properties":{"category":"bus_halte","name":"Meerlaan","operator":""}},{"type":"Feature","geometry":{"type":"Point","coordinates":[4.566561,52.303058]},"properties":{"category":"bus_halte","name":"Station","operator":""}},{"type":"Feature","geometry":{"type":"Point","coordinates":[4.563785,52.309204]},"properties":{"category":"ov_knooppunt","name":"","operator":""}},{"type":"Feature","geometry":{"type":"Point","coordinates":[4.556058,52.299696]},"properties":{"category":"ov_knooppunt","name":"","operator":""}},{"type":"Feature","geometry":{"type":"Point","coordinates":[4.566075,52.30314]},"properties":{"category":"ov_knooppunt","name":"Hillegom","operator":""}},{"type":"Feature","geometry":{"type":"Point","coordinates":[4.579595,52.290688]},"properties":{"category":"gemeentehuis","name":"Gemeentehuis Hillegom","operator":"Gemeente Hillegom"}},{"type":"Feature","geometry":{"type":"Point","coordinates":[4.584459,52.290159]},"properties":{"category":"inzamelpunt","name":"Milieustraat","operator":"Meerlanden"}},{"type":"Feature","geometry":{"type":"Point","coordinates":[4.585139,52.287772]},"properties":{"category":"bibliotheek","name":"de Bibliotheek Hillegom","operator":"de Bibliotheek Zuid-Kennemerland"}},{"type":"Feature","geometry":{"type":"Point","coordinates":[4.579235,52.288425]},"properties":{"category":"transformatorhuisje","name":"50 kV Hillegom","operator":"Liander"}},{"type":"Feature","geometry":{"type":"Point","coordinates":[4.577303,52.295358]},"properties":{"category":"hogeschool","name":"Fioretti College Hillegom","operator":"Stichting Fioretti Teylingen (SFT)"}},{"type":"Feature","geometry":{"type":"Point","coordinates":[4.575112,52.298625]},"properties":{"category":"sportveld","name":"Hillegomse Tennis & Padel Club","operator":""}},{"type":"Feature","geometry":{"type":"Point","coordinates":[4.573244,52.296692]},"properties":{"category":"sportveld","name":"Sportpark de Zanderij","operator":""}},{"type":"Feature","geometry":{"type":"Point","coordinates":[4.565893,52.302605]},"properties":{"category":"fietsenstalling","name":"Station Hillegom","operator":""}},{"type":"Feature","geometry":{"type":"Point","coordinates":[4.579029,52.293701]},"properties":{"category":"parkeergarage","name":"","operator":""}},{"type":"Feature","geometry":{"type":"Point","coordinates":[4.577924,52.292844]},"properties":{"category":"parkeergarage","name":"","operator":""}},{"type":"Feature","geometry":{"type":"Point","coordinates":[4.566926,52.303537]},"properties":{"category":"p_and_r","name":"","operator":""}}]}