{"type":"FeatureCollection","metadata":{"gemeente":"Hoorn","slug":"hoorn","by_category":{"bus_halte":163,"supermarkt":22,"transformatorhuisje":20,"sportveld":20,"fietsenstalling":20,"ov_knooppunt":4,"bibliotheek":4,"ns_station":3,"tram_halte":3,"inzamelpunt":3,"p_and_r":2,"gemeentehuis":1,"ziekenhuis":1,"winkelcentrum":1,"parkeergarage":1},"total":268},"features":[{"type":"Feature","geometry":{"type":"Point","coordinates":[5.054646,52.645089]},"properties":{"category":"ns_station","name":"Hoorn","operator":"Nederlandse Spoorwegen"}},{"type":"Feature","geometry":{"type":"Point","coordinates":[5.084912,52.653335]},"properties":{"category":"ns_station","name":"Hoorn Kersenboogerd","operator":""}},{"type":"Feature","geometry":{"type":"Point","coordinates":[5.054607,52.645555]},"properties":{"category":"ns_station","name":"Hoorn","operator":"Stichting Museumstoomtram Hoorn-Medemblik"}},{"type":"Feature","geometry":{"type":"Point","coordinates":[5.05495,52.645288]},"properties":{"category":"tram_halte","name":"Hoorn","operator":"Stichting Museumstoomtram Hoorn-Medemblik"}},{"type":"Feature","geometry":{"type":"Point","coordinates":[5.069082,52.654489]},"properties":{"category":"tram_halte","name":"Westerblokker","operator":"Stichting Museumstoomtram Hoorn-Medemblik"}},{"type":"Feature","geometry":{"type":"Point","coordinates":[5.060536,52.664314]},"properties":{"category":"tram_halte","name":"Zwaag","operator":"Stichting Museumstoomtram Hoorn-Medemblik"}},{"type":"Feature","geometry":{"type":"Point","coordinates":[5.089057,52.649978]},"properties":{"category":"bus_halte","name":"Patio","operator":""}},{"type":"Feature","geometry":{"type":"Point","coordinates":[5.100451,52.65308]},"properties":{"category":"bus_halte","name":"Glenn Millerhof","operator":""}},{"type":"Feature","geometry":{"type":"Point","coordinates":[5.105011,52.654996]},"properties":{"category":"bus_halte","name":"Hoekstrahof","operator":""}},{"type":"Feature","geometry":{"type":"Point","coordinates":[5.107723,52.65209]},"properties":{"category":"bus_halte","name":"Breitnerhof","operator":""}},{"type":"Feature","geometry":{"type":"Point","coordinates":[5.112838,52.653144]},"properties":{"category":"bus_halte","name":"Charlotte van Pallandthof","operator":""}},{"type":"Feature","geometry":{"type":"Point","coordinates":[5.109849,52.655342]},"properties":{"category":"bus_halte","name":"Pissarrohof","operator":""}},{"type":"Feature","geometry":{"type":"Point","coordinates":[5.101084,52.657946]},"properties":{"category":"bus_halte","name":"Groene Steen","operator":""}},{"type":"Feature","geometry":{"type":"Point","coordinates":[5.085592,52.653084]},"properties":{"category":"bus_halte","name":"Kersenboogerd Station","operator":""}},{"type":"Feature","geometry":{"type":"Point","coordinates":[5.085293,52.653323]},"properties":{"category":"bus_halte","name":"Kersenboogerd Station","operator":""}},{"type":"Feature","geometry":{"type":"Point","coordinates":[5.088515,52.65074]},"properties":{"category":"bus_halte","name":"Patio","operator":""}},{"type":"Feature","geometry":{"type":"Point","coordinates":[5.055335,52.642722]},"properties":{"category":"bus_halte","name":"Veemarkt","operator":""}},{"type":"Feature","geometry":{"type":"Point","coordinates":[5.059542,52.642419]},"properties":{"category":"bus_halte","name":"Gedempte Turfhaven","operator":""}},{"type":"Feature","geometry":{"type":"Point","coordinates":[5.059716,52.644015]},"properties":{"category":"bus_halte","name":"Draafsingel","operator":""}},{"type":"Feature","geometry":{"type":"Point","coordinates":[5.064934,52.641714]},"properties":{"category":"bus_halte","name":"Vollerswaal","operator":""}},{"type":"Feature","geometry":{"type":"Point","coordinates":[5.069659,52.640982]},"properties":{"category":"bus_halte","name":"Nieuwe Wal","operator":""}},{"type":"Feature","geometry":{"type":"Point","coordinates":[5.075518,52.642407]},"properties":{"category":"bus_halte","name":"Julianaplein","operator":""}},{"type":"Feature","geometry":{"type":"Point","coordinates":[5.073128,52.642166]},"properties":{"category":"bus_halte","name":"Julianaplein","operator":""}},{"type":"Feature","geometry":{"type":"Point","coordinates":[5.078729,52.643081]},"properties":{"category":"bus_halte","name":"Willemsweg","operator":""}},{"type":"Feature","geometry":{"type":"Point","coordinates":[5.084626,52.64723]},"properties":{"category":"bus_halte","name":"Amstelweg","operator":""}},{"type":"Feature","geometry":{"type":"Point","coordinates":[5.085831,52.647547]},"properties":{"category":"bus_halte","name":"Amstelweg","operator":""}},{"type":"Feature","geometry":{"type":"Point","coordinates":[5.053758,52.646442]},"properties":{"category":"bus_halte","name":"Dijklander Ziekenhuis","operator":""}},{"type":"Feature","geometry":{"type":"Point","coordinates":[5.06694,52.644293]},"properties":{"category":"bus_halte","name":"J.D. Pollstraat","operator":""}},{"type":"Feature","geometry":{"type":"Point","coordinates":[5.053365,52.646552]},"properties":{"category":"bus_halte","name":"Dijklander Ziekenhuis","operator":""}},{"type":"Feature","geometry":{"type":"Point","coordinates":[5.056876,52.647025]},"properties":{"category":"bus_halte","name":"Koepoortsweg","operator":""}},{"type":"Feature","geometry":{"type":"Point","coordinates":[5.063052,52.648384]},"properties":{"category":"bus_halte","name":"Eenhuizenstraat","operator":""}},{"type":"Feature","geometry":{"type":"Point","coordinates":[5.0623,52.648308]},"properties":{"category":"bus_halte","name":"Eenhuizenstraat","operator":""}},{"type":"Feature","geometry":{"type":"Point","coordinates":[5.06575,52.649091]},"properties":{"category":"bus_halte","name":"Vijandtstraat","operator":""}},{"type":"Feature","geometry":{"type":"Point","coordinates":[5.06548,52.649113]},"properties":{"category":"bus_halte","name":"Vijandtstraat","operator":""}},{"type":"Feature","geometry":{"type":"Point","coordinates":[5.066833,52.650318]},"properties":{"category":"bus_halte","name":"Wabenstraat","operator":""}},{"type":"Feature","geometry":{"type":"Point","coordinates":[5.067032,52.650484]},"properties":{"category":"bus_halte","name":"Wabenstraat","operator":""}},{"type":"Feature","geometry":{"type":"Point","coordinates":[5.067878,52.655535]},"properties":{"category":"bus_halte","name":"Copernicus","operator":""}},{"type":"Feature","geometry":{"type":"Point","coordinates":[5.068397,52.655605]},"properties":{"category":"bus_halte","name":"Copernicus","operator":""}},{"type":"Feature","geometry":{"type":"Point","coordinates":[5.071661,52.657837]},"properties":{"category":"bus_halte","name":"Oscar Romero","operator":""}},{"type":"Feature","geometry":{"type":"Point","coordinates":[5.071919,52.657769]},"properties":{"category":"bus_halte","name":"Oscar Romero","operator":""}},{"type":"Feature","geometry":{"type":"Point","coordinates":[5.095421,52.645838]},"properties":{"category":"bus_halte","name":"Industrieterrein HN80","operator":""}},{"type":"Feature","geometry":{"type":"Point","coordinates":[5.021888,52.635948]},"properties":{"category":"bus_halte","name":"Poldermolen","operator":""}},{"type":"Feature","geometry":{"type":"Point","coordinates":[5.021946,52.636033]},"properties":{"category":"bus_halte","name":"Poldermolen","operator":""}},{"type":"Feature","geometry":{"type":"Point","coordinates":[5.020643,52.637231]},"properties":{"category":"bus_halte","name":"Verfmolen","operator":""}},{"type":"Feature","geometry":{"type":"Point","coordinates":[5.021823,52.637911]},"properties":{"category":"bus_halte","name":"Verfmolen","operator":""}},{"type":"Feature","geometry":{"type":"Point","coordinates":[5.024967,52.637943]},"properties":{"category":"bus_halte","name":"Korenmolen","operator":""}},{"type":"Feature","geometry":{"type":"Point","coordinates":[5.026289,52.637477]},"properties":{"category":"bus_halte","name":"Korenmolen","operator":""}},{"type":"Feature","geometry":{"type":"Point","coordinates":[5.031353,52.63813]},"properties":{"category":"bus_halte","name":"Houtzaagmolen","operator":""}},{"type":"Feature","geometry":{"type":"Point","coordinates":[5.031481,52.638065]},"properties":{"category":"bus_halte","name":"Houtzaagmolen","operator":""}},{"type":"Feature","geometry":{"type":"Point","coordinates":[5.036803,52.639605]},"properties":{"category":"bus_halte","name":"Poolster","operator":""}},{"type":"Feature","geometry":{"type":"Point","coordinates":[5.03653,52.639677]},"properties":{"category":"bus_halte","name":"Poolster","operator":""}},{"type":"Feature","geometry":{"type":"Point","coordinates":[5.039248,52.641046]},"properties":{"category":"bus_halte","name":"Astronautenweg","operator":""}},{"type":"Feature","geometry":{"type":"Point","coordinates":[5.040437,52.641232]},"properties":{"category":"bus_halte","name":"Astronautenweg","operator":""}},{"type":"Feature","geometry":{"type":"Point","coordinates":[5.045411,52.642319]},"properties":{"category":"bus_halte","name":"Zuiderkruisstraat","operator":""}},{"type":"Feature","geometry":{"type":"Point","coordinates":[5.04542,52.642478]},"properties":{"category":"bus_halte","name":"Zuiderkruisstraat","operator":""}},{"type":"Feature","geometry":{"type":"Point","coordinates":[5.088288,52.65435]},"properties":{"category":"bus_halte","name":"Luifel","operator":""}},{"type":"Feature","geometry":{"type":"Point","coordinates":[5.089168,52.654196]},"properties":{"category":"bus_halte","name":"Luifel","operator":""}},{"type":"Feature","geometry":{"type":"Point","coordinates":[5.093203,52.655507]},"properties":{"category":"bus_halte","name":"Kap","operator":""}},{"type":"Feature","geometry":{"type":"Point","coordinates":[5.094473,52.65576]},"properties":{"category":"bus_halte","name":"Kap","operator":""}},{"type":"Feature","geometry":{"type":"Point","coordinates":[5.056392,52.658605]},"properties":{"category":"bus_halte","name":"Beurtschip","operator":""}},{"type":"Feature","geometry":{"type":"Point","coordinates":[5.039993,52.66529]},"properties":{"category":"bus_halte","name":"Stijgbeugel","operator":""}},{"type":"Feature","geometry":{"type":"Point","coordinates":[5.040952,52.663175]},"properties":{"category":"bus_halte","name":"Hoefijzer","operator":""}},{"type":"Feature","geometry":{"type":"Point","coordinates":[5.039866,52.665942]},"properties":{"category":"bus_halte","name":"Stijgbeugel","operator":""}},{"type":"Feature","geometry":{"type":"Point","coordinates":[5.040637,52.664057]},"properties":{"category":"bus_halte","name":"Hoefijzer","operator":""}},{"type":"Feature","geometry":{"type":"Point","coordinates":[5.056111,52.659646]},"properties":{"category":"bus_halte","name":"Beurtschip","operator":""}},{"type":"Feature","geometry":{"type":"Point","coordinates":[5.04669,52.665305]},"properties":{"category":"bus_halte","name":"Wogmergouw","operator":""}},{"type":"Feature","geometry":{"type":"Point","coordinates":[5.078433,52.656365]},"properties":{"category":"bus_halte","name":"IJsselweg","operator":""}},{"type":"Feature","geometry":{"type":"Point","coordinates":[5.078162,52.656485]},"properties":{"category":"bus_halte","name":"IJsselweg","operator":""}},{"type":"Feature","geometry":{"type":"Point","coordinates":[5.064678,52.663385]},"properties":{"category":"bus_halte","name":"Oostergouw","operator":""}},{"type":"Feature","geometry":{"type":"Point","coordinates":[5.04589,52.666092]},"properties":{"category":"bus_halte","name":"Wogmergouw","operator":""}},{"type":"Feature","geometry":{"type":"Point","coordinates":[5.043952,52.668412]},"properties":{"category":"bus_halte","name":"Sportpark","operator":""}},{"type":"Feature","geometry":{"type":"Point","coordinates":[5.044098,52.66859]},"properties":{"category":"bus_halte","name":"Sportpark","operator":""}},{"type":"Feature","geometry":{"type":"Point","coordinates":[5.050425,52.658784]},"properties":{"category":"bus_halte","name":"Wever","operator":""}},{"type":"Feature","geometry":{"type":"Point","coordinates":[5.045981,52.645378]},"properties":{"category":"bus_halte","name":"Dampten","operator":""}},{"type":"Feature","geometry":{"type":"Point","coordinates":[5.058546,52.656828]},"properties":{"category":"bus_halte","name":"Blokmergouw","operator":""}},{"type":"Feature","geometry":{"type":"Point","coordinates":[5.03273,52.640907]},"properties":{"category":"bus_halte","name":"Sterrenweg","operator":""}},{"type":"Feature","geometry":{"type":"Point","coordinates":[5.071901,52.667608]},"properties":{"category":"bus_halte","name":"Anjerhof","operator":""}},{"type":"Feature","geometry":{"type":"Point","coordinates":[5.075607,52.671548]},"properties":{"category":"bus_halte","name":"De Marowijne","operator":""}},{"type":"Feature","geometry":{"type":"Point","coordinates":[5.086737,52.675271]},"properties":{"category":"bus_halte","name":"Dijkgraaf","operator":""}},{"type":"Feature","geometry":{"type":"Point","coordinates":[5.051124,52.658791]},"properties":{"category":"bus_halte","name":"Wever","operator":""}},{"type":"Feature","geometry":{"type":"Point","coordinates":[5.045747,52.645257]},"properties":{"category":"bus_halte","name":"Dampten","operator":""}},{"type":"Feature","geometry":{"type":"Point","coordinates":[5.055763,52.665541]},"properties":{"category":"bus_halte","name":"Lange Akker","operator":""}},{"type":"Feature","geometry":{"type":"Point","coordinates":[5.072316,52.667652]},"properties":{"category":"bus_halte","name":"Anjerhof","operator":""}},{"type":"Feature","geometry":{"type":"Point","coordinates":[5.06805,52.669203]},"properties":{"category":"bus_halte","name":"De Corantijn","operator":""}},{"type":"Feature","geometry":{"type":"Point","coordinates":[5.087677,52.675173]},"properties":{"category":"bus_halte","name":"Dijkgraaf","operator":""}},{"type":"Feature","geometry":{"type":"Point","coordinates":[5.046138,52.658553]},"properties":{"category":"bus_halte","name":"Porder","operator":""}},{"type":"Feature","geometry":{"type":"Point","coordinates":[5.040806,52.64574]},"properties":{"category":"bus_halte","name":"Berkhouterweg","operator":""}},{"type":"Feature","geometry":{"type":"Point","coordinates":[5.055896,52.665602]},"properties":{"category":"bus_halte","name":"Lange Akker","operator":""}},{"type":"Feature","geometry":{"type":"Point","coordinates":[5.086582,52.660302]},"properties":{"category":"bus_halte","name":"Bramleylaan","operator":""}},{"type":"Feature","geometry":{"type":"Point","coordinates":[5.068434,52.669428]},"properties":{"category":"bus_halte","name":"De Corantijn","operator":""}},{"type":"Feature","geometry":{"type":"Point","coordinates":[5.088711,52.672658]},"properties":{"category":"bus_halte","name":"De Strip","operator":""}},{"type":"Feature","geometry":{"type":"Point","coordinates":[5.046229,52.658686]},"properties":{"category":"bus_halte","name":"Porder","operator":"Connexxion"}},{"type":"Feature","geometry":{"type":"Point","coordinates":[5.040904,52.645767]},"properties":{"category":"bus_halte","name":"Berkhouterweg","operator":""}},{"type":"Feature","geometry":{"type":"Point","coordinates":[5.063909,52.668003]},"properties":{"category":"bus_halte","name":"Gevangenis","operator":""}},{"type":"Feature","geometry":{"type":"Point","coordinates":[5.053634,52.667096]},"properties":{"category":"bus_halte","name":"De Opgang","operator":""}},{"type":"Feature","geometry":{"type":"Point","coordinates":[5.08537,52.65997]},"properties":{"category":"bus_halte","name":"Bramleylaan","operator":""}},{"type":"Feature","geometry":{"type":"Point","coordinates":[5.048763,52.64662]},"properties":{"category":"bus_halte","name":"Van Dedemstraat","operator":""}},{"type":"Feature","geometry":{"type":"Point","coordinates":[5.062271,52.666971]},"properties":{"category":"bus_halte","name":"Gevangenis","operator":""}},{"type":"Feature","geometry":{"type":"Point","coordinates":[5.088408,52.672668]},"properties":{"category":"bus_halte","name":"De Strip","operator":""}},{"type":"Feature","geometry":{"type":"Point","coordinates":[5.047278,52.650564]},"properties":{"category":"bus_halte","name":"Geldelozeweg","operator":""}},{"type":"Feature","geometry":{"type":"Point","coordinates":[5.052608,52.667357]},"properties":{"category":"bus_halte","name":"De Opgang","operator":""}},{"type":"Feature","geometry":{"type":"Point","coordinates":[5.090153,52.661583]},"properties":{"category":"bus_halte","name":"Kolenbergstraat","operator":""}},{"type":"Feature","geometry":{"type":"Point","coordinates":[5.085395,52.671769]},"properties":{"category":"bus_halte","name":"Unjerpad","operator":""}},{"type":"Feature","geometry":{"type":"Point","coordinates":[5.047641,52.650601]},"properties":{"category":"bus_halte","name":"Geldelozeweg","operator":""}},{"type":"Feature","geometry":{"type":"Point","coordinates":[5.049414,52.665967]},"properties":{"category":"bus_halte","name":"Risdam","operator":""}},{"type":"Feature","geometry":{"type":"Point","coordinates":[5.090583,52.661626]},"properties":{"category":"bus_halte","name":"Kolenbergstraat","operator":""}},{"type":"Feature","geometry":{"type":"Point","coordinates":[5.085621,52.671752]},"properties":{"category":"bus_halte","name":"Unjerpad","operator":""}},{"type":"Feature","geometry":{"type":"Point","coordinates":[5.084166,52.677017]},"properties":{"category":"bus_halte","name":"Westerkrabhoofd","operator":""}},{"type":"Feature","geometry":{"type":"Point","coordinates":[5.050254,52.654375]},"properties":{"category":"bus_halte","name":"Sluiswachter","operator":""}},{"type":"Feature","geometry":{"type":"Point","coordinates":[5.056871,52.646956]},"properties":{"category":"bus_halte","name":"Koepoortsweg","operator":""}},{"type":"Feature","geometry":{"type":"Point","coordinates":[5.049458,52.666043]},"properties":{"category":"bus_halte","name":"Risdam","operator":""}},{"type":"Feature","geometry":{"type":"Point","coordinates":[5.094303,52.662517]},"properties":{"category":"bus_halte","name":"Bethlehem","operator":""}},{"type":"Feature","geometry":{"type":"Point","coordinates":[5.078819,52.669769]},"properties":{"category":"bus_halte","name":"Butterwoud","operator":""}},{"type":"Feature","geometry":{"type":"Point","coordinates":[5.084355,52.677072]},"properties":{"category":"bus_halte","name":"Westerkrabhoofd","operator":""}},{"type":"Feature","geometry":{"type":"Point","coordinates":[5.101263,52.664147]},"properties":{"category":"bus_halte","name":"Roemer","operator":""}},{"type":"Feature","geometry":{"type":"Point","coordinates":[5.050179,52.654241]},"properties":{"category":"bus_halte","name":"Sluiswachter","operator":""}},{"type":"Feature","geometry":{"type":"Point","coordinates":[5.094208,52.662557]},"properties":{"category":"bus_halte","name":"Bethlehem","operator":""}},{"type":"Feature","geometry":{"type":"Point","coordinates":[5.061741,52.655153]},"properties":{"category":"bus_halte","name":"Stadhuis","operator":""}},{"type":"Feature","geometry":{"type":"Point","coordinates":[5.078684,52.66963]},"properties":{"category":"bus_halte","name":"Butterwoud","operator":""}},{"type":"Feature","geometry":{"type":"Point","coordinates":[5.078532,52.673563]},"properties":{"category":"bus_halte","name":"Waarschap","operator":""}},{"type":"Feature","geometry":{"type":"Point","coordinates":[5.101311,52.664226]},"properties":{"category":"bus_halte","name":"Roemer","operator":""}},{"type":"Feature","geometry":{"type":"Point","coordinates":[5.053842,52.657512]},"properties":{"category":"bus_halte","name":"Torenwachter","operator":""}},{"type":"Feature","geometry":{"type":"Point","coordinates":[5.061856,52.65487]},"properties":{"category":"bus_halte","name":"Stadhuis","operator":""}},{"type":"Feature","geometry":{"type":"Point","coordinates":[5.076072,52.668825]},"properties":{"category":"bus_halte","name":"Pastoor Nuijenstraat","operator":""}},{"type":"Feature","geometry":{"type":"Point","coordinates":[5.078416,52.67339]},"properties":{"category":"bus_halte","name":"Waarschap","operator":""}},{"type":"Feature","geometry":{"type":"Point","coordinates":[5.053842,52.657891]},"properties":{"category":"bus_halte","name":"Torenwachter","operator":""}},{"type":"Feature","geometry":{"type":"Point","coordinates":[5.058247,52.656652]},"properties":{"category":"bus_halte","name":"Blokmergouw","operator":""}},{"type":"Feature","geometry":{"type":"Point","coordinates":[5.032839,52.641132]},"properties":{"category":"bus_halte","name":"Sterrenweg","operator":""}},{"type":"Feature","geometry":{"type":"Point","coordinates":[5.07605,52.668897]},"properties":{"category":"bus_halte","name":"Pastoor Nuijenstraat","operator":""}},{"type":"Feature","geometry":{"type":"Point","coordinates":[5.075018,52.671248]},"properties":{"category":"bus_halte","name":"De Marowijne","operator":""}},{"type":"Feature","geometry":{"type":"Point","coordinates":[5.05874,52.6437]},"properties":{"category":"bus_halte","name":"Koepoortsplein","operator":""}},{"type":"Feature","geometry":{"type":"Point","coordinates":[5.065093,52.662143]},"properties":{"category":"bus_halte","name":"Oostergouw","operator":""}},{"type":"Feature","geometry":{"type":"Point","coordinates":[5.064689,52.663367]},"properties":{"category":"bus_halte","name":"Oostergouw","operator":""}},{"type":"Feature","geometry":{"type":"Point","coordinates":[5.053918,52.644475]},"properties":{"category":"bus_halte","name":"Station","operator":""}},{"type":"Feature","geometry":{"type":"Point","coordinates":[5.053554,52.644834]},"properties":{"category":"bus_halte","name":"Station","operator":"EBS"}},{"type":"Feature","geometry":{"type":"Point","coordinates":[5.053107,52.644866]},"properties":{"category":"bus_halte","name":"Station","operator":""}},{"type":"Feature","geometry":{"type":"Point","coordinates":[5.052657,52.644909]},"properties":{"category":"bus_halte","name":"Station","operator":""}},{"type":"Feature","geometry":{"type":"Point","coordinates":[5.053472,52.644774]},"properties":{"category":"bus_halte","name":"Station","operator":""}},{"type":"Feature","geometry":{"type":"Point","coordinates":[5.053209,52.644795]},"properties":{"category":"bus_halte","name":"Station","operator":""}},{"type":"Feature","geometry":{"type":"Point","coordinates":[5.05295,52.644817]},"properties":{"category":"bus_halte","name":"Station","operator":""}},{"type":"Feature","geometry":{"type":"Point","coordinates":[5.052689,52.644836]},"properties":{"category":"bus_halte","name":"Station","operator":""}},{"type":"Feature","geometry":{"type":"Point","coordinates":[5.03843,52.652991]},"properties":{"category":"bus_halte","name":"Westfriese Parkweg","operator":""}},{"type":"Feature","geometry":{"type":"Point","coordinates":[5.038818,52.653907]},"properties":{"category":"bus_halte","name":"Westfriese Parkweg","operator":""}},{"type":"Feature","geometry":{"type":"Point","coordinates":[5.052452,52.644841]},"properties":{"category":"bus_halte","name":"Station","operator":"Connexxion"}},{"type":"Feature","geometry":{"type":"Point","coordinates":[5.052464,52.644934]},"properties":{"category":"bus_halte","name":"Station","operator":""}},{"type":"Feature","geometry":{"type":"Point","coordinates":[5.052944,52.644892]},"properties":{"category":"bus_halte","name":"Station","operator":""}},{"type":"Feature","geometry":{"type":"Point","coordinates":[5.052238,52.644859]},"properties":{"category":"bus_halte","name":"Station","operator":""}},{"type":"Feature","geometry":{"type":"Point","coordinates":[5.05472,52.644646]},"properties":{"category":"bus_halte","name":"Station","operator":""}},{"type":"Feature","geometry":{"type":"Point","coordinates":[5.097482,52.64597]},"properties":{"category":"bus_halte","name":"Industrieterrein HN80","operator":""}},{"type":"Feature","geometry":{"type":"Point","coordinates":[5.08385,52.680804]},"properties":{"category":"bus_halte","name":"Zevenhuis","operator":""}},{"type":"Feature","geometry":{"type":"Point","coordinates":[5.08418,52.681026]},"properties":{"category":"bus_halte","name":"Zevenhuis","operator":""}},{"type":"Feature","geometry":{"type":"Point","coordinates":[5.067975,52.644784]},"properties":{"category":"bus_halte","name":"J.D. Pollstraat","operator":""}},{"type":"Feature","geometry":{"type":"Point","coordinates":[5.063101,52.655082]},"properties":{"category":"bus_halte","name":"Stadhuis","operator":""}},{"type":"Feature","geometry":{"type":"Point","coordinates":[5.064239,52.653968]},"properties":{"category":"bus_halte","name":"Stadhuis","operator":""}},{"type":"Feature","geometry":{"type":"Point","coordinates":[5.090304,52.671219]},"properties":{"category":"bus_halte","name":"Hollandse Cirkel","operator":""}},{"type":"Feature","geometry":{"type":"Point","coordinates":[5.091562,52.670713]},"properties":{"category":"bus_halte","name":"Hollandse Cirkel","operator":""}},{"type":"Feature","geometry":{"type":"Point","coordinates":[5.094683,52.666676]},"properties":{"category":"bus_halte","name":"Lienweid","operator":""}},{"type":"Feature","geometry":{"type":"Point","coordinates":[5.095875,52.666377]},"properties":{"category":"bus_halte","name":"Lienweid","operator":""}},{"type":"Feature","geometry":{"type":"Point","coordinates":[5.094105,52.659501]},"properties":{"category":"bus_halte","name":"Dinkelweg","operator":""}},{"type":"Feature","geometry":{"type":"Point","coordinates":[5.093829,52.659659]},"properties":{"category":"bus_halte","name":"Dinkelweg","operator":""}},{"type":"Feature","geometry":{"type":"Point","coordinates":[5.084973,52.657812]},"properties":{"category":"bus_halte","name":"Maasweg","operator":""}},{"type":"Feature","geometry":{"type":"Point","coordinates":[5.085087,52.657647]},"properties":{"category":"bus_halte","name":"Maasweg","operator":""}},{"type":"Feature","geometry":{"type":"Point","coordinates":[5.054843,52.661836]},"properties":{"category":"bus_halte","name":"Zwaagmergouw","operator":""}},{"type":"Feature","geometry":{"type":"Point","coordinates":[5.055003,52.661861]},"properties":{"category":"bus_halte","name":"Zwaagmergouw","operator":""}},{"type":"Feature","geometry":{"type":"Point","coordinates":[5.053779,52.656107]},"properties":{"category":"bus_halte","name":"Torenwachter","operator":""}},{"type":"Feature","geometry":{"type":"Point","coordinates":[5.053797,52.656032]},"properties":{"category":"bus_halte","name":"Torenwachter","operator":""}},{"type":"Feature","geometry":{"type":"Point","coordinates":[5.042461,52.659824]},"properties":{"category":"bus_halte","name":"Keern","operator":""}},{"type":"Feature","geometry":{"type":"Point","coordinates":[5.042328,52.65976]},"properties":{"category":"bus_halte","name":"Keern","operator":""}},{"type":"Feature","geometry":{"type":"Point","coordinates":[5.053367,52.644855]},"properties":{"category":"bus_halte","name":"Station","operator":"EBS"}},{"type":"Feature","geometry":{"type":"Point","coordinates":[5.054646,52.645089]},"properties":{"category":"ov_knooppunt","name":"Hoorn","operator":"Nederlandse Spoorwegen"}},{"type":"Feature","geometry":{"type":"Point","coordinates":[5.084912,52.653335]},"properties":{"category":"ov_knooppunt","name":"Hoorn Kersenboogerd","operator":""}},{"type":"Feature","geometry":{"type":"Point","coordinates":[5.054607,52.645555]},"properties":{"category":"ov_knooppunt","name":"Hoorn","operator":"Stichting Museumstoomtram Hoorn-Medemblik"}},{"type":"Feature","geometry":{"type":"Point","coordinates":[5.052951,52.644892]},"properties":{"category":"ov_knooppunt","name":"Station","operator":""}},{"type":"Feature","geometry":{"type":"Point","coordinates":[5.06296,52.655424]},"properties":{"category":"gemeentehuis","name":"Stadhuis Hoorn","operator":"Gemeente Hoorn"}},{"type":"Feature","geometry":{"type":"Point","coordinates":[5.053704,52.666645]},"properties":{"category":"inzamelpunt","name":"","operator":""}},{"type":"Feature","geometry":{"type":"Point","coordinates":[5.05337,52.665533]},"properties":{"category":"inzamelpunt","name":"","operator":""}},{"type":"Feature","geometry":{"type":"Point","coordinates":[5.065225,52.671408]},"properties":{"category":"inzamelpunt","name":"HVC Afvalbrengstation","operator":"HVC"}},{"type":"Feature","geometry":{"type":"Point","coordinates":[5.085576,52.653183]},"properties":{"category":"bibliotheek","name":"Bibliotheek Kersenboogerd","operator":"Bibliotheek Hoorn"}},{"type":"Feature","geometry":{"type":"Point","coordinates":[5.054994,52.658747]},"properties":{"category":"bibliotheek","name":"Bibliotheek Risdam","operator":"Bibliotheek Hoorn"}},{"type":"Feature","geometry":{"type":"Point","coordinates":[5.061338,52.64127]},"properties":{"category":"bibliotheek","name":"Centrale Bibliotheek","operator":"Bibliotheek Hoorn"}},{"type":"Feature","geometry":{"type":"Point","coordinates":[5.035964,52.638723]},"properties":{"category":"bibliotheek","name":"BiebPunt Grote Waal","operator":"Bibliotheek Hoorn"}},{"type":"Feature","geometry":{"type":"Point","coordinates":[5.054019,52.647859]},"properties":{"category":"ziekenhuis","name":"Dijklander Ziekenhuis","operator":"Dijklander Ziekenhuis"}},{"type":"Feature","geometry":{"type":"Point","coordinates":[5.104019,52.652533]},"properties":{"category":"transformatorhuisje","name":"","operator":"Liander"}},{"type":"Feature","geometry":{"type":"Point","coordinates":[5.084564,52.652219]},"properties":{"category":"transformatorhuisje","name":"","operator":"Liander"}},{"type":"Feature","geometry":{"type":"Point","coordinates":[5.050714,52.650711]},"properties":{"category":"transformatorhuisje","name":"","operator":""}},{"type":"Feature","geometry":{"type":"Point","coordinates":[5.050762,52.650659]},"properties":{"category":"transformatorhuisje","name":"","operator":""}},{"type":"Feature","geometry":{"type":"Point","coordinates":[5.050815,52.650599]},"properties":{"category":"transformatorhuisje","name":"","operator":""}},{"type":"Feature","geometry":{"type":"Point","coordinates":[5.07726,52.648426]},"properties":{"category":"transformatorhuisje","name":"","operator":""}},{"type":"Feature","geometry":{"type":"Point","coordinates":[5.077324,52.648368]},"properties":{"category":"transformatorhuisje","name":"","operator":""}},{"type":"Feature","geometry":{"type":"Point","coordinates":[5.077384,52.648316]},"properties":{"category":"transformatorhuisje","name":"","operator":""}},{"type":"Feature","geometry":{"type":"Point","coordinates":[5.050965,52.646191]},"properties":{"category":"transformatorhuisje","name":"","operator":""}},{"type":"Feature","geometry":{"type":"Point","coordinates":[5.051022,52.646185]},"properties":{"category":"transformatorhuisje","name":"","operator":""}},{"type":"Feature","geometry":{"type":"Point","coordinates":[5.050601,52.650612]},"properties":{"category":"transformatorhuisje","name":"Hoorn Geldelozeweg","operator":""}},{"type":"Feature","geometry":{"type":"Point","coordinates":[5.044334,52.651082]},"properties":{"category":"transformatorhuisje","name":"","operator":""}},{"type":"Feature","geometry":{"type":"Point","coordinates":[5.077416,52.64841]},"properties":{"category":"transformatorhuisje","name":"","operator":""}},{"type":"Feature","geometry":{"type":"Point","coordinates":[5.044597,52.64611]},"properties":{"category":"transformatorhuisje","name":"","operator":""}},{"type":"Feature","geometry":{"type":"Point","coordinates":[5.040687,52.64571]},"properties":{"category":"transformatorhuisje","name":"","operator":""}},{"type":"Feature","geometry":{"type":"Point","coordinates":[5.043261,52.654639]},"properties":{"category":"transformatorhuisje","name":"","operator":""}},{"type":"Feature","geometry":{"type":"Point","coordinates":[5.051886,52.64269]},"properties":{"category":"transformatorhuisje","name":"","operator":""}},{"type":"Feature","geometry":{"type":"Point","coordinates":[5.060215,52.640556]},"properties":{"category":"transformatorhuisje","name":"","operator":""}},{"type":"Feature","geometry":{"type":"Point","coordinates":[5.055525,52.642846]},"properties":{"category":"transformatorhuisje","name":"","operator":""}},{"type":"Feature","geometry":{"type":"Point","coordinates":[5.058858,52.642798]},"properties":{"category":"transformatorhuisje","name":"","operator":""}},{"type":"Feature","geometry":{"type":"Point","coordinates":[5.079282,52.665583]},"properties":{"category":"sportveld","name":"Zwem -en recreactiecomplex De Wijzend","operator":""}},{"type":"Feature","geometry":{"type":"Point","coordinates":[5.081232,52.671706]},"properties":{"category":"sportveld","name":"Tennisvereniging Swaegh","operator":""}},{"type":"Feature","geometry":{"type":"Point","coordinates":[5.034254,52.643226]},"properties":{"category":"sportveld","name":"Sportpark Middelweg","operator":""}},{"type":"Feature","geometry":{"type":"Point","coordinates":[5.102279,52.660072]},"properties":{"category":"sportveld","name":"Sportpark De Fruittuinen","operator":""}},{"type":"Feature","geometry":{"type":"Point","coordinates":[5.069731,52.662596]},"properties":{"category":"sportveld","name":"Sportpark 't Krijt","operator":""}},{"type":"Feature","geometry":{"type":"Point","coordinates":[5.039458,52.660716]},"properties":{"category":"sportveld","name":"Hockeycomplex WFHC","operator":""}},{"type":"Feature","geometry":{"type":"Point","coordinates":[5.078435,52.667196]},"properties":{"category":"sportveld","name":"Sporthal Zwaag","operator":""}},{"type":"Feature","geometry":{"type":"Point","coordinates":[5.08895,52.653175]},"properties":{"category":"sportveld","name":"Sporthal De Kers","operator":""}},{"type":"Feature","geometry":{"type":"Point","coordinates":[5.041063,52.649258]},"properties":{"category":"sportveld","name":"","operator":""}},{"type":"Feature","geometry":{"type":"Point","coordinates":[5.040482,52.649163]},"properties":{"category":"sportveld","name":"Disnierats","operator":""}},{"type":"Feature","geometry":{"type":"Point","coordinates":[5.062387,52.647199]},"properties":{"category":"sportveld","name":"Sokudo-gym","operator":""}},{"type":"Feature","geometry":{"type":"Point","coordinates":[5.05823,52.650324]},"properties":{"category":"sportveld","name":"Sportcentrum Vredehof","operator":""}},{"type":"Feature","geometry":{"type":"Point","coordinates":[5.06802,52.646012]},"properties":{"category":"sportveld","name":"","operator":""}},{"type":"Feature","geometry":{"type":"Point","coordinates":[5.042423,52.650045]},"properties":{"category":"sportveld","name":"Sport- en Recreatiegebied De Blauwe Berg","operator":""}},{"type":"Feature","geometry":{"type":"Point","coordinates":[5.073757,52.651001]},"properties":{"category":"sportveld","name":"Sportcomplex Holenweg","operator":""}},{"type":"Feature","geometry":{"type":"Point","coordinates":[5.075642,52.645249]},"properties":{"category":"sportveld","name":"Sportcomplex Wilhelminapark","operator":""}},{"type":"Feature","geometry":{"type":"Point","coordinates":[5.032557,52.643712]},"properties":{"category":"sportveld","name":"Sporthal Zwaluwen '30","operator":""}},{"type":"Feature","geometry":{"type":"Point","coordinates":[5.01948,52.636343]},"properties":{"category":"sportveld","name":"TPV De Hulk","operator":""}},{"type":"Feature","geometry":{"type":"Point","coordinates":[5.047154,52.669592]},"properties":{"category":"sportveld","name":"Rugby Club West-Friesland","operator":""}},{"type":"Feature","geometry":{"type":"Point","coordinates":[5.069977,52.637575]},"properties":{"category":"sportveld","name":"Sportcomplex Julianapark","operator":""}},{"type":"Feature","geometry":{"type":"Point","coordinates":[5.050326,52.650171]},"properties":{"category":"winkelcentrum","name":"Hof van Hoorn","operator":""}},{"type":"Feature","geometry":{"type":"Point","coordinates":[5.085592,52.660292]},"properties":{"category":"supermarkt","name":"ALDI","operator":""}},{"type":"Feature","geometry":{"type":"Point","coordinates":[5.056482,52.641029]},"properties":{"category":"supermarkt","name":"Albert Heijn","operator":""}},{"type":"Feature","geometry":{"type":"Point","coordinates":[5.086129,52.651561]},"properties":{"category":"supermarkt","name":"Albert Heijn","operator":""}},{"type":"Feature","geometry":{"type":"Point","coordinates":[5.054468,52.657592]},"properties":{"category":"supermarkt","name":"Lidl","operator":"Lidl Nederland GmbH"}},{"type":"Feature","geometry":{"type":"Point","coordinates":[5.084615,52.652627]},"properties":{"category":"supermarkt","name":"Vomar","operator":""}},{"type":"Feature","geometry":{"type":"Point","coordinates":[5.047039,52.665621]},"properties":{"category":"supermarkt","name":"DekaMarkt","operator":"Dekamarkt"}},{"type":"Feature","geometry":{"type":"Point","coordinates":[5.088463,52.661091]},"properties":{"category":"supermarkt","name":"DekaMarkt","operator":""}},{"type":"Feature","geometry":{"type":"Point","coordinates":[5.048024,52.666057]},"properties":{"category":"supermarkt","name":"Polskie Smaki","operator":""}},{"type":"Feature","geometry":{"type":"Point","coordinates":[5.083317,52.654626]},"properties":{"category":"supermarkt","name":"Mleczko Delikatesy","operator":"Mleczko bv"}},{"type":"Feature","geometry":{"type":"Point","coordinates":[5.052269,52.645121]},"properties":{"category":"supermarkt","name":"Ekoplaza","operator":"The Care Centers Europe bv"}},{"type":"Feature","geometry":{"type":"Point","coordinates":[5.055722,52.642936]},"properties":{"category":"supermarkt","name":"Hoorn Supermarkt","operator":""}},{"type":"Feature","geometry":{"type":"Point","coordinates":[5.054844,52.658278]},"properties":{"category":"supermarkt","name":"Home Asian Supermarket","operator":""}},{"type":"Feature","geometry":{"type":"Point","coordinates":[5.036952,52.639055]},"properties":{"category":"supermarkt","name":"DekaMarkt","operator":""}},{"type":"Feature","geometry":{"type":"Point","coordinates":[5.036594,52.638758]},"properties":{"category":"supermarkt","name":"ALDI","operator":""}},{"type":"Feature","geometry":{"type":"Point","coordinates":[5.091655,52.671301]},"properties":{"category":"supermarkt","name":"Albert Heijn","operator":""}},{"type":"Feature","geometry":{"type":"Point","coordinates":[5.051544,52.646188]},"properties":{"category":"supermarkt","name":"Albert Heijn","operator":""}},{"type":"Feature","geometry":{"type":"Point","coordinates":[5.055742,52.657556]},"properties":{"category":"supermarkt","name":"Albert Heijn","operator":""}},{"type":"Feature","geometry":{"type":"Point","coordinates":[5.075317,52.668395]},"properties":{"category":"supermarkt","name":"Albert Heijn","operator":""}},{"type":"Feature","geometry":{"type":"Point","coordinates":[5.060935,52.650484]},"properties":{"category":"supermarkt","name":"Vomar","operator":""}},{"type":"Feature","geometry":{"type":"Point","coordinates":[5.054685,52.643592]},"properties":{"category":"supermarkt","name":"Hilal Supermarkt","operator":"Hilal Supermarkt"}},{"type":"Feature","geometry":{"type":"Point","coordinates":[5.098548,52.653282]},"properties":{"category":"supermarkt","name":"Albert Heijn","operator":""}},{"type":"Feature","geometry":{"type":"Point","coordinates":[5.080344,52.644704]},"properties":{"category":"supermarkt","name":"Lidl","operator":"Lidl Nederland GmbH"}},{"type":"Feature","geometry":{"type":"Point","coordinates":[5.053671,52.644969]},"properties":{"category":"fietsenstalling","name":"NS Fietsenstalling","operator":"Nederlandse Spoorwegen"}},{"type":"Feature","geometry":{"type":"Point","coordinates":[5.053657,52.645721]},"properties":{"category":"fietsenstalling","name":"","operator":""}},{"type":"Feature","geometry":{"type":"Point","coordinates":[5.05984,52.65692]},"properties":{"category":"fietsenstalling","name":"","operator":""}},{"type":"Feature","geometry":{"type":"Point","coordinates":[5.052985,52.64509]},"properties":{"category":"fietsenstalling","name":"","operator":""}},{"type":"Feature","geometry":{"type":"Point","coordinates":[5.059091,52.656801]},"properties":{"category":"fietsenstalling","name":"","operator":""}},{"type":"Feature","geometry":{"type":"Point","coordinates":[5.088744,52.652152]},"properties":{"category":"fietsenstalling","name":"","operator":""}},{"type":"Feature","geometry":{"type":"Point","coordinates":[5.106252,52.65739]},"properties":{"category":"fietsenstalling","name":"","operator":""}},{"type":"Feature","geometry":{"type":"Point","coordinates":[5.056115,52.646573]},"properties":{"category":"fietsenstalling","name":"","operator":""}},{"type":"Feature","geometry":{"type":"Point","coordinates":[5.059414,52.651109]},"properties":{"category":"fietsenstalling","name":"","operator":""}},{"type":"Feature","geometry":{"type":"Point","coordinates":[5.058986,52.650259]},"properties":{"category":"fietsenstalling","name":"","operator":""}},{"type":"Feature","geometry":{"type":"Point","coordinates":[5.052857,52.67006]},"properties":{"category":"fietsenstalling","name":"","operator":""}},{"type":"Feature","geometry":{"type":"Point","coordinates":[5.050739,52.666877]},"properties":{"category":"fietsenstalling","name":"","operator":""}},{"type":"Feature","geometry":{"type":"Point","coordinates":[5.044044,52.66455]},"properties":{"category":"fietsenstalling","name":"","operator":""}},{"type":"Feature","geometry":{"type":"Point","coordinates":[5.04448,52.664553]},"properties":{"category":"fietsenstalling","name":"","operator":""}},{"type":"Feature","geometry":{"type":"Point","coordinates":[5.077857,52.655423]},"properties":{"category":"fietsenstalling","name":"","operator":""}},{"type":"Feature","geometry":{"type":"Point","coordinates":[5.051047,52.646985]},"properties":{"category":"fietsenstalling","name":"","operator":""}},{"type":"Feature","geometry":{"type":"Point","coordinates":[5.088326,52.661657]},"properties":{"category":"fietsenstalling","name":"","operator":""}},{"type":"Feature","geometry":{"type":"Point","coordinates":[5.087297,52.661435]},"properties":{"category":"fietsenstalling","name":"","operator":""}},{"type":"Feature","geometry":{"type":"Point","coordinates":[5.080311,52.644987]},"properties":{"category":"fietsenstalling","name":"","operator":"Lidl"}},{"type":"Feature","geometry":{"type":"Point","coordinates":[5.071203,52.640681]},"properties":{"category":"fietsenstalling","name":"","operator":""}},{"type":"Feature","geometry":{"type":"Point","coordinates":[5.052988,52.648206]},"properties":{"category":"parkeergarage","name":"Maelsonstraat","operator":""}},{"type":"Feature","geometry":{"type":"Point","coordinates":[5.053339,52.646113]},"properties":{"category":"p_and_r","name":"Van Dedemstraat","operator":""}},{"type":"Feature","geometry":{"type":"Point","coordinates":[5.055044,52.646006]},"properties":{"category":"p_and_r","name":"P+R Hoorn","operator":""}}]}