{"type":"FeatureCollection","metadata":{"gemeente":"Hulst","slug":"hulst","by_category":{"bus_halte":109,"supermarkt":9,"transformatorhuisje":6,"fietsenstalling":6,"middelbare_school":4,"bibliotheek":3,"ov_knooppunt":1,"gemeentehuis":1,"inzamelpunt":1,"ziekenhuis":1,"hogeschool":1,"winkelcentrum":1},"total":143},"features":[{"type":"Feature","geometry":{"type":"Point","coordinates":[4.04191,51.275626]},"properties":{"category":"bus_halte","name":"Absdaalseweg","operator":""}},{"type":"Feature","geometry":{"type":"Point","coordinates":[4.041835,51.275763]},"properties":{"category":"bus_halte","name":"Absdaalseweg","operator":""}},{"type":"Feature","geometry":{"type":"Point","coordinates":[3.980561,51.323028]},"properties":{"category":"bus_halte","name":"Bossestraat","operator":""}},{"type":"Feature","geometry":{"type":"Point","coordinates":[3.98056,51.32312]},"properties":{"category":"bus_halte","name":"Bossestraat","operator":""}},{"type":"Feature","geometry":{"type":"Point","coordinates":[4.164164,51.292781]},"properties":{"category":"bus_halte","name":"Grens","operator":""}},{"type":"Feature","geometry":{"type":"Point","coordinates":[4.164266,51.292845]},"properties":{"category":"bus_halte","name":"Grens","operator":""}},{"type":"Feature","geometry":{"type":"Point","coordinates":[4.0196,51.367176]},"properties":{"category":"bus_halte","name":"Cloosterstraat","operator":""}},{"type":"Feature","geometry":{"type":"Point","coordinates":[4.020074,51.367178]},"properties":{"category":"bus_halte","name":"Cloosterstraat","operator":""}},{"type":"Feature","geometry":{"type":"Point","coordinates":[4.06161,51.290461]},"properties":{"category":"bus_halte","name":"De Blaauwe Hoeve","operator":""}},{"type":"Feature","geometry":{"type":"Point","coordinates":[4.061518,51.290599]},"properties":{"category":"bus_halte","name":"De Blaauwe Hoeve","operator":""}},{"type":"Feature","geometry":{"type":"Point","coordinates":[4.089729,51.266192]},"properties":{"category":"bus_halte","name":"De Sterre","operator":""}},{"type":"Feature","geometry":{"type":"Point","coordinates":[4.104142,51.327904]},"properties":{"category":"bus_halte","name":"Dorpsstraat","operator":""}},{"type":"Feature","geometry":{"type":"Point","coordinates":[4.104283,51.327964]},"properties":{"category":"bus_halte","name":"Dorpsstraat","operator":""}},{"type":"Feature","geometry":{"type":"Point","coordinates":[4.009824,51.244437]},"properties":{"category":"bus_halte","name":"Drie Hoefijzers","operator":""}},{"type":"Feature","geometry":{"type":"Point","coordinates":[4.008553,51.243825]},"properties":{"category":"bus_halte","name":"Drie Hoefijzers","operator":""}},{"type":"Feature","geometry":{"type":"Point","coordinates":[4.108701,51.351803]},"properties":{"category":"bus_halte","name":"Duivenhoeksestraat","operator":""}},{"type":"Feature","geometry":{"type":"Point","coordinates":[4.10882,51.351874]},"properties":{"category":"bus_halte","name":"Duivenhoeksestraat","operator":""}},{"type":"Feature","geometry":{"type":"Point","coordinates":[4.015379,51.367417]},"properties":{"category":"bus_halte","name":"Europlein","operator":""}},{"type":"Feature","geometry":{"type":"Point","coordinates":[4.015569,51.367506]},"properties":{"category":"bus_halte","name":"Europlein","operator":""}},{"type":"Feature","geometry":{"type":"Point","coordinates":[4.053333,51.264051]},"properties":{"category":"bus_halte","name":"Geslechtendijk","operator":"De Lijn"}},{"type":"Feature","geometry":{"type":"Point","coordinates":[4.05292,51.263767]},"properties":{"category":"bus_halte","name":"Geslechtendijk","operator":"De Lijn"}},{"type":"Feature","geometry":{"type":"Point","coordinates":[4.070342,51.277586]},"properties":{"category":"bus_halte","name":"Grote Kreekweg","operator":""}},{"type":"Feature","geometry":{"type":"Point","coordinates":[4.068075,51.277682]},"properties":{"category":"bus_halte","name":"Grote Kreekweg","operator":""}},{"type":"Feature","geometry":{"type":"Point","coordinates":[4.062537,51.27767]},"properties":{"category":"bus_halte","name":"Grote Kreekweg","operator":""}},{"type":"Feature","geometry":{"type":"Point","coordinates":[4.062047,51.277734]},"properties":{"category":"bus_halte","name":"Grote Kreekweg","operator":""}},{"type":"Feature","geometry":{"type":"Point","coordinates":[4.02183,51.250906]},"properties":{"category":"bus_halte","name":"Kerk","operator":""}},{"type":"Feature","geometry":{"type":"Point","coordinates":[4.022881,51.251748]},"properties":{"category":"bus_halte","name":"Kerk","operator":""}},{"type":"Feature","geometry":{"type":"Point","coordinates":[3.993014,51.344136]},"properties":{"category":"bus_halte","name":"Dorp","operator":""}},{"type":"Feature","geometry":{"type":"Point","coordinates":[3.994095,51.34463]},"properties":{"category":"bus_halte","name":"Dorp","operator":""}},{"type":"Feature","geometry":{"type":"Point","coordinates":[4.15781,51.293083]},"properties":{"category":"bus_halte","name":"Hulsterloostraat","operator":""}},{"type":"Feature","geometry":{"type":"Point","coordinates":[4.157736,51.293176]},"properties":{"category":"bus_halte","name":"Hulsterloostraat","operator":""}},{"type":"Feature","geometry":{"type":"Point","coordinates":[4.021294,51.372966]},"properties":{"category":"bus_halte","name":"Hulsterweg","operator":""}},{"type":"Feature","geometry":{"type":"Point","coordinates":[4.021456,51.373128]},"properties":{"category":"bus_halte","name":"Hulsterweg","operator":""}},{"type":"Feature","geometry":{"type":"Point","coordinates":[4.014727,51.246368]},"properties":{"category":"bus_halte","name":"Julianastraat","operator":""}},{"type":"Feature","geometry":{"type":"Point","coordinates":[4.015327,51.246661]},"properties":{"category":"bus_halte","name":"Julianastraat","operator":""}},{"type":"Feature","geometry":{"type":"Point","coordinates":[4.055278,51.344189]},"properties":{"category":"bus_halte","name":"Kerk","operator":""}},{"type":"Feature","geometry":{"type":"Point","coordinates":[4.055396,51.344288]},"properties":{"category":"bus_halte","name":"Kerk","operator":""}},{"type":"Feature","geometry":{"type":"Point","coordinates":[4.00834,51.370797]},"properties":{"category":"bus_halte","name":"Kerk","operator":""}},{"type":"Feature","geometry":{"type":"Point","coordinates":[4.008196,51.370815]},"properties":{"category":"bus_halte","name":"Kerk","operator":""}},{"type":"Feature","geometry":{"type":"Point","coordinates":[4.095103,51.355432]},"properties":{"category":"bus_halte","name":"Kruispolderhaven","operator":""}},{"type":"Feature","geometry":{"type":"Point","coordinates":[4.095365,51.355524]},"properties":{"category":"bus_halte","name":"Kruispolderhaven","operator":""}},{"type":"Feature","geometry":{"type":"Point","coordinates":[4.033868,51.342216]},"properties":{"category":"bus_halte","name":"Dorp","operator":""}},{"type":"Feature","geometry":{"type":"Point","coordinates":[4.034084,51.342121]},"properties":{"category":"bus_halte","name":"Dorp","operator":""}},{"type":"Feature","geometry":{"type":"Point","coordinates":[3.980439,51.38761]},"properties":{"category":"bus_halte","name":"Lageweg","operator":""}},{"type":"Feature","geometry":{"type":"Point","coordinates":[3.98052,51.387704]},"properties":{"category":"bus_halte","name":"Lageweg","operator":""}},{"type":"Feature","geometry":{"type":"Point","coordinates":[4.053665,51.279964]},"properties":{"category":"bus_halte","name":"Markt","operator":""}},{"type":"Feature","geometry":{"type":"Point","coordinates":[4.034509,51.338365]},"properties":{"category":"bus_halte","name":"Molen","operator":""}},{"type":"Feature","geometry":{"type":"Point","coordinates":[4.034322,51.338485]},"properties":{"category":"bus_halte","name":"Molen","operator":""}},{"type":"Feature","geometry":{"type":"Point","coordinates":[4.008427,51.367216]},"properties":{"category":"bus_halte","name":"Molen","operator":""}},{"type":"Feature","geometry":{"type":"Point","coordinates":[4.007151,51.366447]},"properties":{"category":"bus_halte","name":"Molen","operator":""}},{"type":"Feature","geometry":{"type":"Point","coordinates":[4.106864,51.331686]},"properties":{"category":"bus_halte","name":"Oude Kaai","operator":""}},{"type":"Feature","geometry":{"type":"Point","coordinates":[4.106876,51.331776]},"properties":{"category":"bus_halte","name":"Oude Kaai","operator":""}},{"type":"Feature","geometry":{"type":"Point","coordinates":[4.057791,51.292469]},"properties":{"category":"bus_halte","name":"Oude Polderstraat","operator":""}},{"type":"Feature","geometry":{"type":"Point","coordinates":[4.057829,51.292527]},"properties":{"category":"bus_halte","name":"Oude Polderstraat","operator":""}},{"type":"Feature","geometry":{"type":"Point","coordinates":[4.009179,51.270017]},"properties":{"category":"bus_halte","name":"Provincialeweg","operator":""}},{"type":"Feature","geometry":{"type":"Point","coordinates":[4.009466,51.269916]},"properties":{"category":"bus_halte","name":"Provincialeweg","operator":""}},{"type":"Feature","geometry":{"type":"Point","coordinates":[3.985503,51.32191]},"properties":{"category":"bus_halte","name":"Rapenburg","operator":""}},{"type":"Feature","geometry":{"type":"Point","coordinates":[3.985544,51.322056]},"properties":{"category":"bus_halte","name":"Rapenburg","operator":""}},{"type":"Feature","geometry":{"type":"Point","coordinates":[4.056614,51.288316]},"properties":{"category":"bus_halte","name":"Reynaert College","operator":""}},{"type":"Feature","geometry":{"type":"Point","coordinates":[4.057001,51.288468]},"properties":{"category":"bus_halte","name":"Reynaert College","operator":""}},{"type":"Feature","geometry":{"type":"Point","coordinates":[4.051857,51.262152]},"properties":{"category":"bus_halte","name":"Kerk","operator":"Connexxion"}},{"type":"Feature","geometry":{"type":"Point","coordinates":[4.052375,51.261934]},"properties":{"category":"bus_halte","name":"Kerk","operator":"Connexxion"}},{"type":"Feature","geometry":{"type":"Point","coordinates":[4.123641,51.280242]},"properties":{"category":"bus_halte","name":"Statenboom","operator":""}},{"type":"Feature","geometry":{"type":"Point","coordinates":[4.123581,51.280337]},"properties":{"category":"bus_halte","name":"Statenboom","operator":""}},{"type":"Feature","geometry":{"type":"Point","coordinates":[4.046521,51.27741]},"properties":{"category":"bus_halte","name":"Stationsplein","operator":""}},{"type":"Feature","geometry":{"type":"Point","coordinates":[4.031658,51.274079]},"properties":{"category":"bus_halte","name":"Australiëweg","operator":""}},{"type":"Feature","geometry":{"type":"Point","coordinates":[4.03192,51.273935]},"properties":{"category":"bus_halte","name":"Australiëweg","operator":""}},{"type":"Feature","geometry":{"type":"Point","coordinates":[4.05181,51.291038]},"properties":{"category":"bus_halte","name":"Van Ceulenplein","operator":""}},{"type":"Feature","geometry":{"type":"Point","coordinates":[4.051725,51.291125]},"properties":{"category":"bus_halte","name":"Van Ceulenplein","operator":""}},{"type":"Feature","geometry":{"type":"Point","coordinates":[4.052376,51.276064]},"properties":{"category":"bus_halte","name":"van der Maelstedeweg","operator":""}},{"type":"Feature","geometry":{"type":"Point","coordinates":[4.051877,51.276234]},"properties":{"category":"bus_halte","name":"van der Maelstedeweg","operator":""}},{"type":"Feature","geometry":{"type":"Point","coordinates":[4.035936,51.253217]},"properties":{"category":"bus_halte","name":"Vylainlaan","operator":"Connexxion;De Lijn"}},{"type":"Feature","geometry":{"type":"Point","coordinates":[4.035879,51.253325]},"properties":{"category":"bus_halte","name":"Vylainlaan","operator":"Connexxion;De Lijn"}},{"type":"Feature","geometry":{"type":"Point","coordinates":[4.047768,51.25843]},"properties":{"category":"bus_halte","name":"Wilhelminastraat","operator":"Connexxion;De Lijn"}},{"type":"Feature","geometry":{"type":"Point","coordinates":[4.04811,51.258549]},"properties":{"category":"bus_halte","name":"Wilhelminastraat","operator":"Connexxion;De Lijn"}},{"type":"Feature","geometry":{"type":"Point","coordinates":[4.091268,51.273764]},"properties":{"category":"bus_halte","name":"Woestijnestraat","operator":""}},{"type":"Feature","geometry":{"type":"Point","coordinates":[4.091512,51.273873]},"properties":{"category":"bus_halte","name":"Woestijnestraat","operator":""}},{"type":"Feature","geometry":{"type":"Point","coordinates":[4.101626,51.308228]},"properties":{"category":"bus_halte","name":"Zandberg","operator":""}},{"type":"Feature","geometry":{"type":"Point","coordinates":[4.101797,51.308248]},"properties":{"category":"bus_halte","name":"Zandberg","operator":""}},{"type":"Feature","geometry":{"type":"Point","coordinates":[4.0625,51.291369]},"properties":{"category":"bus_halte","name":"Huisartsenpost","operator":""}},{"type":"Feature","geometry":{"type":"Point","coordinates":[4.091074,51.276133]},"properties":{"category":"bus_halte","name":"Zeegat","operator":""}},{"type":"Feature","geometry":{"type":"Point","coordinates":[4.090697,51.275313]},"properties":{"category":"bus_halte","name":"Zeegat","operator":""}},{"type":"Feature","geometry":{"type":"Point","coordinates":[3.984548,51.263222]},"properties":{"category":"bus_halte","name":"Derde Verkorting","operator":""}},{"type":"Feature","geometry":{"type":"Point","coordinates":[3.984416,51.263328]},"properties":{"category":"bus_halte","name":"Derde Verkorting","operator":""}},{"type":"Feature","geometry":{"type":"Point","coordinates":[4.089672,51.271348]},"properties":{"category":"bus_halte","name":"'s Gravenstraat","operator":""}},{"type":"Feature","geometry":{"type":"Point","coordinates":[4.050546,51.28217]},"properties":{"category":"bus_halte","name":"'s-Gravenhofplein","operator":""}},{"type":"Feature","geometry":{"type":"Point","coordinates":[4.062775,51.255752]},"properties":{"category":"bus_halte","name":"Sint-Janstraat","operator":"De Lijn"}},{"type":"Feature","geometry":{"type":"Point","coordinates":[4.06191,51.256192]},"properties":{"category":"bus_halte","name":"Sint-Janstraat","operator":"De Lijn"}},{"type":"Feature","geometry":{"type":"Point","coordinates":[4.05323,51.28567]},"properties":{"category":"bus_halte","name":"Busstation","operator":"Connexxion;De Lijn"}},{"type":"Feature","geometry":{"type":"Point","coordinates":[4.054191,51.286276]},"properties":{"category":"bus_halte","name":"Busstation","operator":""}},{"type":"Feature","geometry":{"type":"Point","coordinates":[4.089449,51.271316]},"properties":{"category":"bus_halte","name":"'s-Gravenstraat","operator":""}},{"type":"Feature","geometry":{"type":"Point","coordinates":[4.053581,51.274004]},"properties":{"category":"bus_halte","name":"Zoetevaart","operator":""}},{"type":"Feature","geometry":{"type":"Point","coordinates":[4.053579,51.273763]},"properties":{"category":"bus_halte","name":"Zoetevaart","operator":""}},{"type":"Feature","geometry":{"type":"Point","coordinates":[3.955265,51.311232]},"properties":{"category":"bus_halte","name":"Stoppeldijk-Veer","operator":""}},{"type":"Feature","geometry":{"type":"Point","coordinates":[3.970276,51.325428]},"properties":{"category":"bus_halte","name":"Dorp","operator":""}},{"type":"Feature","geometry":{"type":"Point","coordinates":[3.969955,51.32539]},"properties":{"category":"bus_halte","name":"Dorp","operator":""}},{"type":"Feature","geometry":{"type":"Point","coordinates":[4.059535,51.290738]},"properties":{"category":"bus_halte","name":"Zandstraat","operator":""}},{"type":"Feature","geometry":{"type":"Point","coordinates":[4.061173,51.282492]},"properties":{"category":"bus_halte","name":"Koolstraat","operator":"De Lijn"}},{"type":"Feature","geometry":{"type":"Point","coordinates":[4.060923,51.282726]},"properties":{"category":"bus_halte","name":"Koolstraat","operator":"De Lijn"}},{"type":"Feature","geometry":{"type":"Point","coordinates":[4.05376,51.286056]},"properties":{"category":"bus_halte","name":"Busstation","operator":""}},{"type":"Feature","geometry":{"type":"Point","coordinates":[4.053642,51.285835]},"properties":{"category":"bus_halte","name":"Hulst, Busstation","operator":""}},{"type":"Feature","geometry":{"type":"Point","coordinates":[4.05395,51.28609]},"properties":{"category":"bus_halte","name":"Busstation","operator":""}},{"type":"Feature","geometry":{"type":"Point","coordinates":[4.053293,51.285818]},"properties":{"category":"bus_halte","name":"Busstation","operator":""}},{"type":"Feature","geometry":{"type":"Point","coordinates":[4.053455,51.285868]},"properties":{"category":"bus_halte","name":"Busstation","operator":""}},{"type":"Feature","geometry":{"type":"Point","coordinates":[4.088213,51.263513]},"properties":{"category":"bus_halte","name":"Molenstraat","operator":""}},{"type":"Feature","geometry":{"type":"Point","coordinates":[4.047653,51.263167]},"properties":{"category":"bus_halte","name":"De Vijver","operator":""}},{"type":"Feature","geometry":{"type":"Point","coordinates":[4.149254,51.327993]},"properties":{"category":"bus_halte","name":"Emmadorp","operator":""}},{"type":"Feature","geometry":{"type":"Point","coordinates":[4.032417,51.318385]},"properties":{"category":"bus_halte","name":"N60","operator":""}},{"type":"Feature","geometry":{"type":"Point","coordinates":[4.054222,51.280251]},"properties":{"category":"bus_halte","name":"Markt","operator":""}},{"type":"Feature","geometry":{"type":"Point","coordinates":[4.053564,51.285906]},"properties":{"category":"ov_knooppunt","name":"Hulst, Busstation","operator":""}},{"type":"Feature","geometry":{"type":"Point","coordinates":[4.054194,51.27944]},"properties":{"category":"gemeentehuis","name":"Stadhuis Hulst","operator":"Gemeente Hulst"}},{"type":"Feature","geometry":{"type":"Point","coordinates":[4.038367,51.272581]},"properties":{"category":"inzamelpunt","name":"Milieustraat Hulst","operator":"Zeeuwse ReinigingsDienst B.V."}},{"type":"Feature","geometry":{"type":"Point","coordinates":[4.051241,51.281553]},"properties":{"category":"bibliotheek","name":"Bibliotheek Hulst","operator":"Bibliotheek Zeeuws-Vlaanderen"}},{"type":"Feature","geometry":{"type":"Point","coordinates":[3.977158,51.326391]},"properties":{"category":"bibliotheek","name":"Bibliotheek Vogelwaarde","operator":"Bibliotheek Zeeuws-Vlaanderen"}},{"type":"Feature","geometry":{"type":"Point","coordinates":[4.01673,51.372574]},"properties":{"category":"bibliotheek","name":"Bibliotheek Kloosterzande","operator":"Bibliotheek Zeeuws-Vlaanderen"}},{"type":"Feature","geometry":{"type":"Point","coordinates":[4.050778,51.287021]},"properties":{"category":"ziekenhuis","name":"Liduina","operator":"ZorgSaam Zorggroep Zeeuws-Vlaanderen"}},{"type":"Feature","geometry":{"type":"Point","coordinates":[4.019182,51.306512]},"properties":{"category":"transformatorhuisje","name":"","operator":""}},{"type":"Feature","geometry":{"type":"Point","coordinates":[4.019012,51.306554]},"properties":{"category":"transformatorhuisje","name":"","operator":""}},{"type":"Feature","geometry":{"type":"Point","coordinates":[4.019357,51.306364]},"properties":{"category":"transformatorhuisje","name":"50 kV Cambron","operator":"Stedin"}},{"type":"Feature","geometry":{"type":"Point","coordinates":[3.96071,51.338282]},"properties":{"category":"transformatorhuisje","name":"","operator":""}},{"type":"Feature","geometry":{"type":"Point","coordinates":[4.10375,51.330681]},"properties":{"category":"transformatorhuisje","name":"","operator":""}},{"type":"Feature","geometry":{"type":"Point","coordinates":[3.957826,51.364452]},"properties":{"category":"transformatorhuisje","name":"","operator":""}},{"type":"Feature","geometry":{"type":"Point","coordinates":[4.066441,51.287157]},"properties":{"category":"hogeschool","name":"Scalda","operator":"Scalda"}},{"type":"Feature","geometry":{"type":"Point","coordinates":[4.058054,51.287366]},"properties":{"category":"middelbare_school","name":"De Argo","operator":"Ozeo"}},{"type":"Feature","geometry":{"type":"Point","coordinates":[4.06091,51.283559]},"properties":{"category":"middelbare_school","name":"Praktijkschool Hulst","operator":"VO Zeeuws-Vlaanderen"}},{"type":"Feature","geometry":{"type":"Point","coordinates":[4.065745,51.285369]},"properties":{"category":"middelbare_school","name":"Reynaertcollege","operator":"VO Zeeuws-Vlaanderen"}},{"type":"Feature","geometry":{"type":"Point","coordinates":[4.058769,51.287435]},"properties":{"category":"middelbare_school","name":"Reynaertcollege","operator":"VO Zeeuws-Vlaanderen"}},{"type":"Feature","geometry":{"type":"Point","coordinates":[4.04747,51.27716]},"properties":{"category":"winkelcentrum","name":"","operator":""}},{"type":"Feature","geometry":{"type":"Point","coordinates":[4.046659,51.276449]},"properties":{"category":"supermarkt","name":"ALDI","operator":""}},{"type":"Feature","geometry":{"type":"Point","coordinates":[4.047485,51.277498]},"properties":{"category":"supermarkt","name":"Jumbo","operator":""}},{"type":"Feature","geometry":{"type":"Point","coordinates":[3.984146,51.323025]},"properties":{"category":"supermarkt","name":"SPAR","operator":""}},{"type":"Feature","geometry":{"type":"Point","coordinates":[4.016713,51.369036]},"properties":{"category":"supermarkt","name":"PLUS","operator":""}},{"type":"Feature","geometry":{"type":"Point","coordinates":[4.044499,51.276596]},"properties":{"category":"supermarkt","name":"Albert Heijn XL","operator":""}},{"type":"Feature","geometry":{"type":"Point","coordinates":[4.044178,51.277021]},"properties":{"category":"supermarkt","name":"Jumbo","operator":""}},{"type":"Feature","geometry":{"type":"Point","coordinates":[4.064252,51.257893]},"properties":{"category":"supermarkt","name":"PLUS Mangnus","operator":"Mangnus"}},{"type":"Feature","geometry":{"type":"Point","coordinates":[4.047853,51.274941]},"properties":{"category":"supermarkt","name":"Lidl","operator":"Lidl Nederland GmbH"}},{"type":"Feature","geometry":{"type":"Point","coordinates":[4.06562,51.249014]},"properties":{"category":"supermarkt","name":"Batista-Koemans","operator":""}},{"type":"Feature","geometry":{"type":"Point","coordinates":[3.984764,51.263192]},"properties":{"category":"fietsenstalling","name":"","operator":""}},{"type":"Feature","geometry":{"type":"Point","coordinates":[4.009094,51.269789]},"properties":{"category":"fietsenstalling","name":"","operator":""}},{"type":"Feature","geometry":{"type":"Point","coordinates":[4.062232,51.277823]},"properties":{"category":"fietsenstalling","name":"","operator":""}},{"type":"Feature","geometry":{"type":"Point","coordinates":[4.062661,51.277676]},"properties":{"category":"fietsenstalling","name":"","operator":""}},{"type":"Feature","geometry":{"type":"Point","coordinates":[4.033589,51.31807]},"properties":{"category":"fietsenstalling","name":"","operator":""}},{"type":"Feature","geometry":{"type":"Point","coordinates":[4.053543,51.278917]},"properties":{"category":"fietsenstalling","name":"","operator":""}}]}