{"type":"FeatureCollection","metadata":{"gemeente":"Leiden","slug":"leiden","by_category":{"bus_halte":208,"fietsenstalling":39,"parkeergarage":38,"sportveld":26,"transformatorhuisje":14,"universiteit":14,"hogeschool":12,"middelbare_school":11,"bibliotheek":6,"ov_knooppunt":4,"ns_station":3,"ziekenhuis":3,"gemeentehuis":2,"inzamelpunt":2,"p_and_r":2,"winkelcentrum":1},"total":385},"features":[{"type":"Feature","geometry":{"type":"Point","coordinates":[4.456302,52.147182]},"properties":{"category":"ns_station","name":"De Vink","operator":""}},{"type":"Feature","geometry":{"type":"Point","coordinates":[4.492932,52.146752]},"properties":{"category":"ns_station","name":"Leiden Lammenschans","operator":""}},{"type":"Feature","geometry":{"type":"Point","coordinates":[4.482286,52.166319]},"properties":{"category":"ns_station","name":"Leiden Centraal","operator":""}},{"type":"Feature","geometry":{"type":"Point","coordinates":[4.493764,52.168417]},"properties":{"category":"bus_halte","name":"Groenoord","operator":""}},{"type":"Feature","geometry":{"type":"Point","coordinates":[4.514156,52.180335]},"properties":{"category":"bus_halte","name":"Vossemeerlaan","operator":""}},{"type":"Feature","geometry":{"type":"Point","coordinates":[4.473657,52.173452]},"properties":{"category":"bus_halte","name":"Lijsterstraat","operator":""}},{"type":"Feature","geometry":{"type":"Point","coordinates":[4.474948,52.176819]},"properties":{"category":"bus_halte","name":"Warmonderweg","operator":""}},{"type":"Feature","geometry":{"type":"Point","coordinates":[4.478205,52.179194]},"properties":{"category":"bus_halte","name":"Marelaan","operator":""}},{"type":"Feature","geometry":{"type":"Point","coordinates":[4.463758,52.169826]},"properties":{"category":"bus_halte","name":"Gorlaeus Laboratorium","operator":""}},{"type":"Feature","geometry":{"type":"Point","coordinates":[4.463852,52.169713]},"properties":{"category":"bus_halte","name":"Gorlaeus Laboratorium","operator":""}},{"type":"Feature","geometry":{"type":"Point","coordinates":[4.457151,52.168122]},"properties":{"category":"bus_halte","name":"Niels Bohrweg","operator":""}},{"type":"Feature","geometry":{"type":"Point","coordinates":[4.45727,52.168021]},"properties":{"category":"bus_halte","name":"Niels Bohrweg","operator":""}},{"type":"Feature","geometry":{"type":"Point","coordinates":[4.506168,52.155333]},"properties":{"category":"bus_halte","name":"Burggravenlaan","operator":""}},{"type":"Feature","geometry":{"type":"Point","coordinates":[4.509028,52.155125]},"properties":{"category":"bus_halte","name":"Burggravenlaan","operator":""}},{"type":"Feature","geometry":{"type":"Point","coordinates":[4.485589,52.161513]},"properties":{"category":"bus_halte","name":"Prinsessekade","operator":""}},{"type":"Feature","geometry":{"type":"Point","coordinates":[4.473848,52.162404]},"properties":{"category":"bus_halte","name":"Gerard Brandtstraat","operator":""}},{"type":"Feature","geometry":{"type":"Point","coordinates":[4.471142,52.163254]},"properties":{"category":"bus_halte","name":"Muiderkring","operator":""}},{"type":"Feature","geometry":{"type":"Point","coordinates":[4.470084,52.159681]},"properties":{"category":"bus_halte","name":"Damlaan","operator":""}},{"type":"Feature","geometry":{"type":"Point","coordinates":[4.49761,52.159361]},"properties":{"category":"bus_halte","name":"Hooigracht","operator":""}},{"type":"Feature","geometry":{"type":"Point","coordinates":[4.497485,52.161352]},"properties":{"category":"bus_halte","name":"Pelikaan","operator":""}},{"type":"Feature","geometry":{"type":"Point","coordinates":[4.489232,52.163597]},"properties":{"category":"bus_halte","name":"Energiepark","operator":""}},{"type":"Feature","geometry":{"type":"Point","coordinates":[4.501391,52.154888]},"properties":{"category":"bus_halte","name":"Plantage","operator":""}},{"type":"Feature","geometry":{"type":"Point","coordinates":[4.501557,52.154817]},"properties":{"category":"bus_halte","name":"Plantage","operator":""}},{"type":"Feature","geometry":{"type":"Point","coordinates":[4.497594,52.154924]},"properties":{"category":"bus_halte","name":"Kraaierstraat","operator":""}},{"type":"Feature","geometry":{"type":"Point","coordinates":[4.498345,52.154837]},"properties":{"category":"bus_halte","name":"Kraaierstraat","operator":""}},{"type":"Feature","geometry":{"type":"Point","coordinates":[4.48295,52.15428]},"properties":{"category":"bus_halte","name":"Witte Rozenstraat","operator":""}},{"type":"Feature","geometry":{"type":"Point","coordinates":[4.50648,52.163702]},"properties":{"category":"bus_halte","name":"Kooipark","operator":""}},{"type":"Feature","geometry":{"type":"Point","coordinates":[4.506663,52.163718]},"properties":{"category":"bus_halte","name":"Kooipark","operator":""}},{"type":"Feature","geometry":{"type":"Point","coordinates":[4.505008,52.158523]},"properties":{"category":"bus_halte","name":"Zijlsingel","operator":""}},{"type":"Feature","geometry":{"type":"Point","coordinates":[4.446103,52.155264]},"properties":{"category":"bus_halte","name":"Hadewychlaan","operator":""}},{"type":"Feature","geometry":{"type":"Point","coordinates":[4.445854,52.155343]},"properties":{"category":"bus_halte","name":"Hadewychlaan","operator":""}},{"type":"Feature","geometry":{"type":"Point","coordinates":[4.443205,52.152644]},"properties":{"category":"bus_halte","name":"Heintje Davidsweg","operator":""}},{"type":"Feature","geometry":{"type":"Point","coordinates":[4.443445,52.15259]},"properties":{"category":"bus_halte","name":"Heintje Davidsweg","operator":""}},{"type":"Feature","geometry":{"type":"Point","coordinates":[4.50106,52.158943]},"properties":{"category":"bus_halte","name":"Oosterkerkstraat","operator":""}},{"type":"Feature","geometry":{"type":"Point","coordinates":[4.500472,52.158938]},"properties":{"category":"bus_halte","name":"Oosterkerkstraat","operator":""}},{"type":"Feature","geometry":{"type":"Point","coordinates":[4.45342,52.151669]},"properties":{"category":"bus_halte","name":"Stevensbloem","operator":""}},{"type":"Feature","geometry":{"type":"Point","coordinates":[4.452676,52.152536]},"properties":{"category":"bus_halte","name":"Stevensbloem","operator":""}},{"type":"Feature","geometry":{"type":"Point","coordinates":[4.449822,52.155756]},"properties":{"category":"bus_halte","name":"van Hoornkade","operator":""}},{"type":"Feature","geometry":{"type":"Point","coordinates":[4.448737,52.156026]},"properties":{"category":"bus_halte","name":"van Hoornkade","operator":""}},{"type":"Feature","geometry":{"type":"Point","coordinates":[4.505113,52.158438]},"properties":{"category":"bus_halte","name":"Zijlsingel","operator":""}},{"type":"Feature","geometry":{"type":"Point","coordinates":[4.466574,52.157136]},"properties":{"category":"bus_halte","name":"Opaalstraat","operator":""}},{"type":"Feature","geometry":{"type":"Point","coordinates":[4.466379,52.157107]},"properties":{"category":"bus_halte","name":"Opaalstraat","operator":""}},{"type":"Feature","geometry":{"type":"Point","coordinates":[4.493334,52.147283]},"properties":{"category":"bus_halte","name":"Station Lammenschans","operator":""}},{"type":"Feature","geometry":{"type":"Point","coordinates":[4.448609,52.150802]},"properties":{"category":"bus_halte","name":"Charley Tooropweg","operator":""}},{"type":"Feature","geometry":{"type":"Point","coordinates":[4.448497,52.150516]},"properties":{"category":"bus_halte","name":"Charley Tooropweg","operator":""}},{"type":"Feature","geometry":{"type":"Point","coordinates":[4.480657,52.166396]},"properties":{"category":"bus_halte","name":"Leiden Centraal Westzijde","operator":""}},{"type":"Feature","geometry":{"type":"Point","coordinates":[4.48877,52.15018]},"properties":{"category":"bus_halte","name":"Herenstraat","operator":""}},{"type":"Feature","geometry":{"type":"Point","coordinates":[4.457264,52.157229]},"properties":{"category":"bus_halte","name":"Gandhistraat","operator":""}},{"type":"Feature","geometry":{"type":"Point","coordinates":[4.511759,52.167225]},"properties":{"category":"bus_halte","name":"Zwembad De Zijl","operator":""}},{"type":"Feature","geometry":{"type":"Point","coordinates":[4.504742,52.150646]},"properties":{"category":"bus_halte","name":"Moddermanstraat","operator":""}},{"type":"Feature","geometry":{"type":"Point","coordinates":[4.458993,52.157786]},"properties":{"category":"bus_halte","name":"Turkooislaan","operator":""}},{"type":"Feature","geometry":{"type":"Point","coordinates":[4.470721,52.142778]},"properties":{"category":"bus_halte","name":"Brahmslaan","operator":""}},{"type":"Feature","geometry":{"type":"Point","coordinates":[4.500823,52.148442]},"properties":{"category":"bus_halte","name":"Lorentzkade","operator":""}},{"type":"Feature","geometry":{"type":"Point","coordinates":[4.476644,52.143335]},"properties":{"category":"bus_halte","name":"Van der Helmlaan","operator":""}},{"type":"Feature","geometry":{"type":"Point","coordinates":[4.520769,52.152265]},"properties":{"category":"bus_halte","name":"Leiderdorpsebrug","operator":""}},{"type":"Feature","geometry":{"type":"Point","coordinates":[4.459304,52.157388]},"properties":{"category":"bus_halte","name":"Turkooislaan","operator":""}},{"type":"Feature","geometry":{"type":"Point","coordinates":[4.470818,52.141437]},"properties":{"category":"bus_halte","name":"Brahmslaan","operator":""}},{"type":"Feature","geometry":{"type":"Point","coordinates":[4.453645,52.155397]},"properties":{"category":"bus_halte","name":"Helena Verburgstraat","operator":""}},{"type":"Feature","geometry":{"type":"Point","coordinates":[4.45605,52.150754]},"properties":{"category":"bus_halte","name":"Anne Frankweg","operator":""}},{"type":"Feature","geometry":{"type":"Point","coordinates":[4.449956,52.147554]},"properties":{"category":"bus_halte","name":"Zeldenrustweg","operator":""}},{"type":"Feature","geometry":{"type":"Point","coordinates":[4.478683,52.142875]},"properties":{"category":"bus_halte","name":"De Bazelstraat","operator":""}},{"type":"Feature","geometry":{"type":"Point","coordinates":[4.475501,52.141675]},"properties":{"category":"bus_halte","name":"Kennedylaan","operator":""}},{"type":"Feature","geometry":{"type":"Point","coordinates":[4.512291,52.155032]},"properties":{"category":"bus_halte","name":"Wilhelminabrug","operator":""}},{"type":"Feature","geometry":{"type":"Point","coordinates":[4.486093,52.148214]},"properties":{"category":"bus_halte","name":"Fruitweg","operator":""}},{"type":"Feature","geometry":{"type":"Point","coordinates":[4.454134,52.155485]},"properties":{"category":"bus_halte","name":"Helena Verburgstraat","operator":""}},{"type":"Feature","geometry":{"type":"Point","coordinates":[4.472705,52.149496]},"properties":{"category":"bus_halte","name":"Cornelis Schuytlaan","operator":""}},{"type":"Feature","geometry":{"type":"Point","coordinates":[4.492889,52.14753]},"properties":{"category":"bus_halte","name":"Station Lammenschans","operator":""}},{"type":"Feature","geometry":{"type":"Point","coordinates":[4.507189,52.154866]},"properties":{"category":"bus_halte","name":"Burggravenlaan","operator":""}},{"type":"Feature","geometry":{"type":"Point","coordinates":[4.463268,52.161253]},"properties":{"category":"bus_halte","name":"Cruquiuslaan","operator":""}},{"type":"Feature","geometry":{"type":"Point","coordinates":[4.463837,52.15935]},"properties":{"category":"bus_halte","name":"Doctor Lelylaan","operator":""}},{"type":"Feature","geometry":{"type":"Point","coordinates":[4.456936,52.150229]},"properties":{"category":"bus_halte","name":"Anne Frankweg","operator":""}},{"type":"Feature","geometry":{"type":"Point","coordinates":[4.449957,52.147411]},"properties":{"category":"bus_halte","name":"Zeldenrustweg","operator":""}},{"type":"Feature","geometry":{"type":"Point","coordinates":[4.51231,52.163158]},"properties":{"category":"bus_halte","name":"Sumatrabrug","operator":""}},{"type":"Feature","geometry":{"type":"Point","coordinates":[4.520997,52.152374]},"properties":{"category":"bus_halte","name":"Leiderdorpsebrug","operator":""}},{"type":"Feature","geometry":{"type":"Point","coordinates":[4.486441,52.145253]},"properties":{"category":"bus_halte","name":"Meloenstraat","operator":""}},{"type":"Feature","geometry":{"type":"Point","coordinates":[4.472587,52.14956]},"properties":{"category":"bus_halte","name":"Cornelis Schuytlaan","operator":""}},{"type":"Feature","geometry":{"type":"Point","coordinates":[4.518584,52.154295]},"properties":{"category":"bus_halte","name":"Meerburgerkade","operator":""}},{"type":"Feature","geometry":{"type":"Point","coordinates":[4.47131,52.145517]},"properties":{"category":"bus_halte","name":"Debussystraat","operator":""}},{"type":"Feature","geometry":{"type":"Point","coordinates":[4.478453,52.147658]},"properties":{"category":"bus_halte","name":"Vijf Meiplein","operator":""}},{"type":"Feature","geometry":{"type":"Point","coordinates":[4.463879,52.15911]},"properties":{"category":"bus_halte","name":"Doctor Lelylaan","operator":""}},{"type":"Feature","geometry":{"type":"Point","coordinates":[4.470836,52.144922]},"properties":{"category":"bus_halte","name":"Verdistraat","operator":""}},{"type":"Feature","geometry":{"type":"Point","coordinates":[4.462793,52.154931]},"properties":{"category":"bus_halte","name":"Robijnstraat","operator":""}},{"type":"Feature","geometry":{"type":"Point","coordinates":[4.504018,52.150469]},"properties":{"category":"bus_halte","name":"Moddermanstraat","operator":""}},{"type":"Feature","geometry":{"type":"Point","coordinates":[4.482487,52.14788]},"properties":{"category":"bus_halte","name":"Rosenburch","operator":""}},{"type":"Feature","geometry":{"type":"Point","coordinates":[4.473789,52.141327]},"properties":{"category":"bus_halte","name":"Kennedylaan","operator":""}},{"type":"Feature","geometry":{"type":"Point","coordinates":[4.487175,52.145186]},"properties":{"category":"bus_halte","name":"Meloenstraat","operator":""}},{"type":"Feature","geometry":{"type":"Point","coordinates":[4.492986,52.149496]},"properties":{"category":"bus_halte","name":"Koninginnelaan","operator":""}},{"type":"Feature","geometry":{"type":"Point","coordinates":[4.467553,52.146587]},"properties":{"category":"bus_halte","name":"Bizetpad","operator":""}},{"type":"Feature","geometry":{"type":"Point","coordinates":[4.488797,52.150047]},"properties":{"category":"bus_halte","name":"Herenstraat","operator":""}},{"type":"Feature","geometry":{"type":"Point","coordinates":[4.517132,52.154556]},"properties":{"category":"bus_halte","name":"Meerburgerkade","operator":""}},{"type":"Feature","geometry":{"type":"Point","coordinates":[4.45737,52.157181]},"properties":{"category":"bus_halte","name":"Gandhistraat","operator":""}},{"type":"Feature","geometry":{"type":"Point","coordinates":[4.511767,52.166955]},"properties":{"category":"bus_halte","name":"Zwembad De Zijl","operator":""}},{"type":"Feature","geometry":{"type":"Point","coordinates":[4.465448,52.163032]},"properties":{"category":"bus_halte","name":"Jan Luykenlaan","operator":""}},{"type":"Feature","geometry":{"type":"Point","coordinates":[4.477651,52.147728]},"properties":{"category":"bus_halte","name":"Vijf Meiplein","operator":""}},{"type":"Feature","geometry":{"type":"Point","coordinates":[4.498154,52.147646]},"properties":{"category":"bus_halte","name":"Lorentzkade","operator":""}},{"type":"Feature","geometry":{"type":"Point","coordinates":[4.462684,52.155141]},"properties":{"category":"bus_halte","name":"Robijnstraat","operator":""}},{"type":"Feature","geometry":{"type":"Point","coordinates":[4.512185,52.163116]},"properties":{"category":"bus_halte","name":"Sumatrabrug","operator":""}},{"type":"Feature","geometry":{"type":"Point","coordinates":[4.481454,52.148017]},"properties":{"category":"bus_halte","name":"Rosenburch","operator":""}},{"type":"Feature","geometry":{"type":"Point","coordinates":[4.467848,52.146533]},"properties":{"category":"bus_halte","name":"Bizetpad","operator":""}},{"type":"Feature","geometry":{"type":"Point","coordinates":[4.487047,52.17249]},"properties":{"category":"bus_halte","name":"Zweilandlaan","operator":""}},{"type":"Feature","geometry":{"type":"Point","coordinates":[4.48109,52.16005]},"properties":{"category":"bus_halte","name":"Noordeinde","operator":""}},{"type":"Feature","geometry":{"type":"Point","coordinates":[4.480946,52.174101]},"properties":{"category":"bus_halte","name":"Alrijne Ziekenhuis","operator":""}},{"type":"Feature","geometry":{"type":"Point","coordinates":[4.487021,52.17261]},"properties":{"category":"bus_halte","name":"Zweilandlaan","operator":""}},{"type":"Feature","geometry":{"type":"Point","coordinates":[4.481814,52.160036]},"properties":{"category":"bus_halte","name":"Noordeinde","operator":""}},{"type":"Feature","geometry":{"type":"Point","coordinates":[4.490022,52.153684]},"properties":{"category":"bus_halte","name":"Jan van Houtkade","operator":""}},{"type":"Feature","geometry":{"type":"Point","coordinates":[4.482712,52.154308]},"properties":{"category":"bus_halte","name":"Witte Rozenstraat","operator":""}},{"type":"Feature","geometry":{"type":"Point","coordinates":[4.481829,52.15814]},"properties":{"category":"bus_halte","name":"Paterstraat","operator":""}},{"type":"Feature","geometry":{"type":"Point","coordinates":[4.48194,52.157477]},"properties":{"category":"bus_halte","name":"Paterstraat","operator":""}},{"type":"Feature","geometry":{"type":"Point","coordinates":[4.490152,52.153256]},"properties":{"category":"bus_halte","name":"Jan van Houtkade","operator":""}},{"type":"Feature","geometry":{"type":"Point","coordinates":[4.485959,52.148245]},"properties":{"category":"bus_halte","name":"Fruitweg","operator":""}},{"type":"Feature","geometry":{"type":"Point","coordinates":[4.488098,52.169858]},"properties":{"category":"bus_halte","name":"Schipholweg","operator":""}},{"type":"Feature","geometry":{"type":"Point","coordinates":[4.503719,52.175829]},"properties":{"category":"bus_halte","name":"Arendshorst","operator":""}},{"type":"Feature","geometry":{"type":"Point","coordinates":[4.508087,52.175351]},"properties":{"category":"bus_halte","name":"Valkenhorst","operator":""}},{"type":"Feature","geometry":{"type":"Point","coordinates":[4.512687,52.175434]},"properties":{"category":"bus_halte","name":"Zwartemeerlaan","operator":""}},{"type":"Feature","geometry":{"type":"Point","coordinates":[4.484654,52.162257]},"properties":{"category":"bus_halte","name":"Steenstraat","operator":""}},{"type":"Feature","geometry":{"type":"Point","coordinates":[4.48191,52.165335]},"properties":{"category":"bus_halte","name":"Leiden Centraal","operator":""}},{"type":"Feature","geometry":{"type":"Point","coordinates":[4.48233,52.165469]},"properties":{"category":"bus_halte","name":"Leiden Centraal","operator":""}},{"type":"Feature","geometry":{"type":"Point","coordinates":[4.487652,52.143074]},"properties":{"category":"bus_halte","name":"Cronesteinflat","operator":""}},{"type":"Feature","geometry":{"type":"Point","coordinates":[4.488732,52.143611]},"properties":{"category":"bus_halte","name":"Cronesteinflat","operator":""}},{"type":"Feature","geometry":{"type":"Point","coordinates":[4.449609,52.158894]},"properties":{"category":"bus_halte","name":"Haagse Schouw","operator":""}},{"type":"Feature","geometry":{"type":"Point","coordinates":[4.458287,52.163203]},"properties":{"category":"bus_halte","name":"Dr. Lelylaan/Haagse Schouwweg","operator":""}},{"type":"Feature","geometry":{"type":"Point","coordinates":[4.485021,52.160711]},"properties":{"category":"bus_halte","name":"Kort Rapenburg","operator":""}},{"type":"Feature","geometry":{"type":"Point","coordinates":[4.494324,52.150894]},"properties":{"category":"bus_halte","name":"Leliestraat","operator":""}},{"type":"Feature","geometry":{"type":"Point","coordinates":[4.494529,52.151994]},"properties":{"category":"bus_halte","name":"Leliestraat","operator":""}},{"type":"Feature","geometry":{"type":"Point","coordinates":[4.486114,52.163156]},"properties":{"category":"bus_halte","name":"Nieuwe Beestenmarkt","operator":""}},{"type":"Feature","geometry":{"type":"Point","coordinates":[4.461654,52.166639]},"properties":{"category":"bus_halte","name":"Universiteitsterrein","operator":""}},{"type":"Feature","geometry":{"type":"Point","coordinates":[4.460574,52.166799]},"properties":{"category":"bus_halte","name":"Universiteitsterrein","operator":""}},{"type":"Feature","geometry":{"type":"Point","coordinates":[4.482053,52.16539]},"properties":{"category":"bus_halte","name":"Leiden Centraal","operator":""}},{"type":"Feature","geometry":{"type":"Point","coordinates":[4.482181,52.165415]},"properties":{"category":"bus_halte","name":"Leiden Centraal","operator":""}},{"type":"Feature","geometry":{"type":"Point","coordinates":[4.480277,52.166367]},"properties":{"category":"bus_halte","name":"Leiden Centraal Westzijde","operator":""}},{"type":"Feature","geometry":{"type":"Point","coordinates":[4.481837,52.173329]},"properties":{"category":"bus_halte","name":"Alrijne Ziekenhuis","operator":""}},{"type":"Feature","geometry":{"type":"Point","coordinates":[4.493598,52.168761]},"properties":{"category":"bus_halte","name":"Groenoord","operator":""}},{"type":"Feature","geometry":{"type":"Point","coordinates":[4.4934,52.155459]},"properties":{"category":"bus_halte","name":"Korevaarstraat","operator":""}},{"type":"Feature","geometry":{"type":"Point","coordinates":[4.49006,52.163718]},"properties":{"category":"bus_halte","name":"Energiepark","operator":""}},{"type":"Feature","geometry":{"type":"Point","coordinates":[4.480005,52.170046]},"properties":{"category":"bus_halte","name":"Posthof","operator":""}},{"type":"Feature","geometry":{"type":"Point","coordinates":[4.479966,52.170354]},"properties":{"category":"bus_halte","name":"Posthof","operator":""}},{"type":"Feature","geometry":{"type":"Point","coordinates":[4.486995,52.168586]},"properties":{"category":"bus_halte","name":"Schipholweg","operator":""}},{"type":"Feature","geometry":{"type":"Point","coordinates":[4.506423,52.166466]},"properties":{"category":"bus_halte","name":"Surinamestraat","operator":""}},{"type":"Feature","geometry":{"type":"Point","coordinates":[4.476525,52.170084]},"properties":{"category":"bus_halte","name":"Albinusdreef","operator":""}},{"type":"Feature","geometry":{"type":"Point","coordinates":[4.471179,52.16936]},"properties":{"category":"bus_halte","name":"Blauwe Vogelweg","operator":""}},{"type":"Feature","geometry":{"type":"Point","coordinates":[4.471043,52.169466]},"properties":{"category":"bus_halte","name":"Blauwe Vogelweg","operator":""}},{"type":"Feature","geometry":{"type":"Point","coordinates":[4.510172,52.181424]},"properties":{"category":"bus_halte","name":"Broekweg","operator":""}},{"type":"Feature","geometry":{"type":"Point","coordinates":[4.498752,52.173802]},"properties":{"category":"bus_halte","name":"De Rode's","operator":""}},{"type":"Feature","geometry":{"type":"Point","coordinates":[4.499275,52.174785]},"properties":{"category":"bus_halte","name":"De Rode's","operator":""}},{"type":"Feature","geometry":{"type":"Point","coordinates":[4.502521,52.181013]},"properties":{"category":"bus_halte","name":"Fakkelgras","operator":""}},{"type":"Feature","geometry":{"type":"Point","coordinates":[4.473928,52.173174]},"properties":{"category":"bus_halte","name":"Lijsterstraat","operator":""}},{"type":"Feature","geometry":{"type":"Point","coordinates":[4.497258,52.161292]},"properties":{"category":"bus_halte","name":"Pelikaan","operator":""}},{"type":"Feature","geometry":{"type":"Point","coordinates":[4.464832,52.163953]},"properties":{"category":"bus_halte","name":"Verbeekstraat","operator":""}},{"type":"Feature","geometry":{"type":"Point","coordinates":[4.465657,52.164103]},"properties":{"category":"bus_halte","name":"Verbeekstraat","operator":""}},{"type":"Feature","geometry":{"type":"Point","coordinates":[4.513882,52.146494]},"properties":{"category":"bus_halte","name":"Roomburg","operator":""}},{"type":"Feature","geometry":{"type":"Point","coordinates":[4.513909,52.146665]},"properties":{"category":"bus_halte","name":"Roomburg","operator":""}},{"type":"Feature","geometry":{"type":"Point","coordinates":[4.513169,52.148776]},"properties":{"category":"bus_halte","name":"Augustuspad","operator":""}},{"type":"Feature","geometry":{"type":"Point","coordinates":[4.513105,52.148852]},"properties":{"category":"bus_halte","name":"Augustuspad","operator":""}},{"type":"Feature","geometry":{"type":"Point","coordinates":[4.50843,52.142829]},"properties":{"category":"bus_halte","name":"De Heyderweg","operator":""}},{"type":"Feature","geometry":{"type":"Point","coordinates":[4.508238,52.142952]},"properties":{"category":"bus_halte","name":"De Heyderweg","operator":""}},{"type":"Feature","geometry":{"type":"Point","coordinates":[4.503284,52.144602]},"properties":{"category":"bus_halte","name":"Zaalbergweg/DZB Leiden","operator":""}},{"type":"Feature","geometry":{"type":"Point","coordinates":[4.50295,52.144583]},"properties":{"category":"bus_halte","name":"Zaalbergweg/DZB Leiden","operator":""}},{"type":"Feature","geometry":{"type":"Point","coordinates":[4.51442,52.151145]},"properties":{"category":"bus_halte","name":"Zorgcentrum Roomburgh","operator":""}},{"type":"Feature","geometry":{"type":"Point","coordinates":[4.514574,52.151894]},"properties":{"category":"bus_halte","name":"Zorgcentrum Roomburgh","operator":""}},{"type":"Feature","geometry":{"type":"Point","coordinates":[4.482459,52.165481]},"properties":{"category":"bus_halte","name":"Leiden Centraal","operator":""}},{"type":"Feature","geometry":{"type":"Point","coordinates":[4.482572,52.165473]},"properties":{"category":"bus_halte","name":"Leiden Centraal","operator":""}},{"type":"Feature","geometry":{"type":"Point","coordinates":[4.455267,52.146934]},"properties":{"category":"bus_halte","name":"Station De Vink","operator":""}},{"type":"Feature","geometry":{"type":"Point","coordinates":[4.45536,52.146913]},"properties":{"category":"bus_halte","name":"Station De Vink","operator":""}},{"type":"Feature","geometry":{"type":"Point","coordinates":[4.460257,52.164794]},"properties":{"category":"bus_halte","name":"Bio Science Park-Oost","operator":""}},{"type":"Feature","geometry":{"type":"Point","coordinates":[4.458547,52.170204]},"properties":{"category":"bus_halte","name":"Wassenaarseweg/Corpus","operator":""}},{"type":"Feature","geometry":{"type":"Point","coordinates":[4.457248,52.170488]},"properties":{"category":"bus_halte","name":"Wassenaarseweg/Corpus","operator":""}},{"type":"Feature","geometry":{"type":"Point","coordinates":[4.460767,52.165126]},"properties":{"category":"bus_halte","name":"Bio Science Park-Oost","operator":""}},{"type":"Feature","geometry":{"type":"Point","coordinates":[4.453808,52.161448]},"properties":{"category":"bus_halte","name":"Rhijnhof","operator":""}},{"type":"Feature","geometry":{"type":"Point","coordinates":[4.457385,52.163062]},"properties":{"category":"bus_halte","name":"Dr. Lelylaan/Haagse Schouwweg","operator":""}},{"type":"Feature","geometry":{"type":"Point","coordinates":[4.454928,52.161827]},"properties":{"category":"bus_halte","name":"Rhijnhof","operator":""}},{"type":"Feature","geometry":{"type":"Point","coordinates":[4.505831,52.167639]},"properties":{"category":"bus_halte","name":"Kooiplein","operator":""}},{"type":"Feature","geometry":{"type":"Point","coordinates":[4.493428,52.155926]},"properties":{"category":"bus_halte","name":"Korevaarstraat","operator":""}},{"type":"Feature","geometry":{"type":"Point","coordinates":[4.497289,52.178721]},"properties":{"category":"bus_halte","name":"Vossebes","operator":""}},{"type":"Feature","geometry":{"type":"Point","coordinates":[4.506666,52.166478]},"properties":{"category":"bus_halte","name":"Surinamestraat","operator":""}},{"type":"Feature","geometry":{"type":"Point","coordinates":[4.507736,52.175274]},"properties":{"category":"bus_halte","name":"Valkenhorst","operator":""}},{"type":"Feature","geometry":{"type":"Point","coordinates":[4.50997,52.16869]},"properties":{"category":"bus_halte","name":"Sumatrastraat","operator":""}},{"type":"Feature","geometry":{"type":"Point","coordinates":[4.509939,52.168372]},"properties":{"category":"bus_halte","name":"Sumatrastraat","operator":""}},{"type":"Feature","geometry":{"type":"Point","coordinates":[4.505357,52.167824]},"properties":{"category":"bus_halte","name":"Kooiplein","operator":""}},{"type":"Feature","geometry":{"type":"Point","coordinates":[4.505586,52.175488]},"properties":{"category":"bus_halte","name":"Arendshorst","operator":""}},{"type":"Feature","geometry":{"type":"Point","coordinates":[4.512719,52.175294]},"properties":{"category":"bus_halte","name":"Zwartemeerlaan","operator":""}},{"type":"Feature","geometry":{"type":"Point","coordinates":[4.514298,52.179629]},"properties":{"category":"bus_halte","name":"Vossemeerlaan","operator":""}},{"type":"Feature","geometry":{"type":"Point","coordinates":[4.510125,52.181568]},"properties":{"category":"bus_halte","name":"Broekweg","operator":""}},{"type":"Feature","geometry":{"type":"Point","coordinates":[4.502732,52.181316]},"properties":{"category":"bus_halte","name":"Fakkelgras","operator":""}},{"type":"Feature","geometry":{"type":"Point","coordinates":[4.497108,52.178852]},"properties":{"category":"bus_halte","name":"Vossebes","operator":""}},{"type":"Feature","geometry":{"type":"Point","coordinates":[4.481823,52.165325]},"properties":{"category":"bus_halte","name":"Leiden Centraal","operator":""}},{"type":"Feature","geometry":{"type":"Point","coordinates":[4.4717,52.137129]},"properties":{"category":"bus_halte","name":"Brahmslaan","operator":""}},{"type":"Feature","geometry":{"type":"Point","coordinates":[4.473042,52.13729]},"properties":{"category":"bus_halte","name":"Brahmslaan","operator":""}},{"type":"Feature","geometry":{"type":"Point","coordinates":[4.481868,52.140781]},"properties":{"category":"bus_halte","name":"Rooseveltstraat","operator":""}},{"type":"Feature","geometry":{"type":"Point","coordinates":[4.482612,52.140804]},"properties":{"category":"bus_halte","name":"Rooseveltstraat","operator":""}},{"type":"Feature","geometry":{"type":"Point","coordinates":[4.491682,52.147407]},"properties":{"category":"bus_halte","name":"Station Lammenschans","operator":""}},{"type":"Feature","geometry":{"type":"Point","coordinates":[4.49218,52.147433]},"properties":{"category":"bus_halte","name":"Station Lammenschans","operator":""}},{"type":"Feature","geometry":{"type":"Point","coordinates":[4.470505,52.148136]},"properties":{"category":"bus_halte","name":"Sweelincklaan","operator":""}},{"type":"Feature","geometry":{"type":"Point","coordinates":[4.470341,52.148148]},"properties":{"category":"bus_halte","name":"Sweelincklaan","operator":""}},{"type":"Feature","geometry":{"type":"Point","coordinates":[4.473342,52.152158]},"properties":{"category":"bus_halte","name":"Brandts Buyskade","operator":""}},{"type":"Feature","geometry":{"type":"Point","coordinates":[4.473239,52.153498]},"properties":{"category":"bus_halte","name":"Brandts Buyskade","operator":""}},{"type":"Feature","geometry":{"type":"Point","coordinates":[4.473469,52.15691]},"properties":{"category":"bus_halte","name":"Churchillbrug","operator":""}},{"type":"Feature","geometry":{"type":"Point","coordinates":[4.473266,52.156963]},"properties":{"category":"bus_halte","name":"Churchillbrug","operator":""}},{"type":"Feature","geometry":{"type":"Point","coordinates":[4.476013,52.158951]},"properties":{"category":"bus_halte","name":"De Genestetstraat","operator":""}},{"type":"Feature","geometry":{"type":"Point","coordinates":[4.476557,52.159025]},"properties":{"category":"bus_halte","name":"De Genestetstraat","operator":""}},{"type":"Feature","geometry":{"type":"Point","coordinates":[4.491263,52.157511]},"properties":{"category":"bus_halte","name":"Breestraat","operator":""}},{"type":"Feature","geometry":{"type":"Point","coordinates":[4.489772,52.158588]},"properties":{"category":"bus_halte","name":"Breestraat","operator":""}},{"type":"Feature","geometry":{"type":"Point","coordinates":[4.45007,52.159037]},"properties":{"category":"bus_halte","name":"Haagse Schouw","operator":""}},{"type":"Feature","geometry":{"type":"Point","coordinates":[4.482694,52.16547]},"properties":{"category":"bus_halte","name":"Leiden Centraal","operator":""}},{"type":"Feature","geometry":{"type":"Point","coordinates":[4.494935,52.155843]},"properties":{"category":"bus_halte","name":"Hogewoerd","operator":""}},{"type":"Feature","geometry":{"type":"Point","coordinates":[4.494664,52.155646]},"properties":{"category":"bus_halte","name":"Hogewoerd","operator":""}},{"type":"Feature","geometry":{"type":"Point","coordinates":[4.499333,52.162747]},"properties":{"category":"bus_halte","name":"Houtmarkt","operator":""}},{"type":"Feature","geometry":{"type":"Point","coordinates":[4.499452,52.162592]},"properties":{"category":"bus_halte","name":"Houtmarkt","operator":""}},{"type":"Feature","geometry":{"type":"Point","coordinates":[4.455426,52.14688]},"properties":{"category":"bus_halte","name":"Station De Vink","operator":""}},{"type":"Feature","geometry":{"type":"Point","coordinates":[4.482589,52.165347]},"properties":{"category":"bus_halte","name":"Leiden Centraal","operator":""}},{"type":"Feature","geometry":{"type":"Point","coordinates":[4.4438,52.157427]},"properties":{"category":"bus_halte","name":"Valkenburgse Meer","operator":""}},{"type":"Feature","geometry":{"type":"Point","coordinates":[4.443872,52.157349]},"properties":{"category":"bus_halte","name":"Valkenburgse Meer","operator":""}},{"type":"Feature","geometry":{"type":"Point","coordinates":[4.456302,52.147182]},"properties":{"category":"ov_knooppunt","name":"De Vink","operator":""}},{"type":"Feature","geometry":{"type":"Point","coordinates":[4.492932,52.146752]},"properties":{"category":"ov_knooppunt","name":"Leiden Lammenschans","operator":""}},{"type":"Feature","geometry":{"type":"Point","coordinates":[4.482286,52.166319]},"properties":{"category":"ov_knooppunt","name":"Leiden Centraal","operator":""}},{"type":"Feature","geometry":{"type":"Point","coordinates":[4.482125,52.165107]},"properties":{"category":"ov_knooppunt","name":"","operator":""}},{"type":"Feature","geometry":{"type":"Point","coordinates":[4.491215,52.158193]},"properties":{"category":"gemeentehuis","name":"Stadhuis Leiden","operator":"Gemeente Leiden"}},{"type":"Feature","geometry":{"type":"Point","coordinates":[4.480403,52.165923]},"properties":{"category":"gemeentehuis","name":"Stadskantoor Leiden","operator":"Gemeente Leiden"}},{"type":"Feature","geometry":{"type":"Point","coordinates":[4.47908,52.147416]},"properties":{"category":"inzamelpunt","name":"Statiegeld Retourshop","operator":"Statiegeld Nederland"}},{"type":"Feature","geometry":{"type":"Point","coordinates":[4.509215,52.159765]},"properties":{"category":"inzamelpunt","name":"Milieustraat","operator":""}},{"type":"Feature","geometry":{"type":"Point","coordinates":[4.453884,52.150477]},"properties":{"category":"bibliotheek","name":"Bibliotheek Stevenshof","operator":"BplusC"}},{"type":"Feature","geometry":{"type":"Point","coordinates":[4.504307,52.17725]},"properties":{"category":"bibliotheek","name":"Bibliotheek Merenwijk","operator":"BplusC"}},{"type":"Feature","geometry":{"type":"Point","coordinates":[4.484659,52.159193]},"properties":{"category":"bibliotheek","name":"Bibliotheca Thysiana","operator":"Universiteitsbibliotheek Leiden University"}},{"type":"Feature","geometry":{"type":"Point","coordinates":[4.509071,52.166372]},"properties":{"category":"bibliotheek","name":"Bibliotheek Het Gebouw","operator":"BplusC"}},{"type":"Feature","geometry":{"type":"Point","coordinates":[4.493274,52.158302]},"properties":{"category":"bibliotheek","name":"Bibliotheek Nieuwstraat","operator":"BplusC"}},{"type":"Feature","geometry":{"type":"Point","coordinates":[4.481279,52.157501]},"properties":{"category":"bibliotheek","name":"Universiteitsbibliotheek Leiden","operator":"Universiteit Leiden"}},{"type":"Feature","geometry":{"type":"Point","coordinates":[4.477259,52.166212]},"properties":{"category":"ziekenhuis","name":"Leids Universitair Medisch Centrum","operator":"Universiteit Leiden"}},{"type":"Feature","geometry":{"type":"Point","coordinates":[4.482999,52.173744]},"properties":{"category":"ziekenhuis","name":"Alrijne Ziekenhuis Leiden","operator":""}},{"type":"Feature","geometry":{"type":"Point","coordinates":[4.469033,52.170572]},"properties":{"category":"ziekenhuis","name":"Basalt Revalidatiecentrum","operator":""}},{"type":"Feature","geometry":{"type":"Point","coordinates":[4.478716,52.159262]},"properties":{"category":"transformatorhuisje","name":"","operator":""}},{"type":"Feature","geometry":{"type":"Point","coordinates":[4.487273,52.170853]},"properties":{"category":"transformatorhuisje","name":"","operator":""}},{"type":"Feature","geometry":{"type":"Point","coordinates":[4.487235,52.170826]},"properties":{"category":"transformatorhuisje","name":"","operator":""}},{"type":"Feature","geometry":{"type":"Point","coordinates":[4.48716,52.170771]},"properties":{"category":"transformatorhuisje","name":"","operator":""}},{"type":"Feature","geometry":{"type":"Point","coordinates":[4.487197,52.170798]},"properties":{"category":"transformatorhuisje","name":"","operator":""}},{"type":"Feature","geometry":{"type":"Point","coordinates":[4.473892,52.148254]},"properties":{"category":"transformatorhuisje","name":"","operator":""}},{"type":"Feature","geometry":{"type":"Point","coordinates":[4.493285,52.167436]},"properties":{"category":"transformatorhuisje","name":"","operator":""}},{"type":"Feature","geometry":{"type":"Point","coordinates":[4.493605,52.167439]},"properties":{"category":"transformatorhuisje","name":"","operator":""}},{"type":"Feature","geometry":{"type":"Point","coordinates":[4.493616,52.167488]},"properties":{"category":"transformatorhuisje","name":"","operator":""}},{"type":"Feature","geometry":{"type":"Point","coordinates":[4.498647,52.168497]},"properties":{"category":"transformatorhuisje","name":"","operator":""}},{"type":"Feature","geometry":{"type":"Point","coordinates":[4.497276,52.153068]},"properties":{"category":"transformatorhuisje","name":"","operator":""}},{"type":"Feature","geometry":{"type":"Point","coordinates":[4.493173,52.167547]},"properties":{"category":"transformatorhuisje","name":"50/10kV Leiden Noord","operator":"Liander"}},{"type":"Feature","geometry":{"type":"Point","coordinates":[4.473903,52.148258]},"properties":{"category":"transformatorhuisje","name":"50 kV Leiden Zuidwest","operator":"Liander"}},{"type":"Feature","geometry":{"type":"Point","coordinates":[4.458828,52.169496]},"properties":{"category":"transformatorhuisje","name":"50 kV Universiteit Leiden / Ketelhuis","operator":"Liander"}},{"type":"Feature","geometry":{"type":"Point","coordinates":[4.478139,52.169686]},"properties":{"category":"universiteit","name":"Agora - Faculteit der Sociale Wetenschappen","operator":"Universiteit Leiden"}},{"type":"Feature","geometry":{"type":"Point","coordinates":[4.482554,52.158451]},"properties":{"category":"universiteit","name":"Reuvens","operator":"Universiteit Leiden"}},{"type":"Feature","geometry":{"type":"Point","coordinates":[4.483887,52.154838]},"properties":{"category":"universiteit","name":"Oude Sterrewacht (hoofdgebouw)","operator":"Universiteit Leiden"}},{"type":"Feature","geometry":{"type":"Point","coordinates":[4.471274,52.167388]},"properties":{"category":"universiteit","name":"Hogeschool Leiden","operator":""}},{"type":"Feature","geometry":{"type":"Point","coordinates":[4.463782,52.165322]},"properties":{"category":"universiteit","name":"Universiteit Leiden Locatie Van Steenis","operator":"Universiteit Leiden"}},{"type":"Feature","geometry":{"type":"Point","coordinates":[4.459145,52.168422]},"properties":{"category":"universiteit","name":"","operator":"Universiteit Leiden"}},{"type":"Feature","geometry":{"type":"Point","coordinates":[4.466926,52.168483]},"properties":{"category":"universiteit","name":"Universiteit Leiden Locatie Sylvius","operator":"Universiteit Leiden"}},{"type":"Feature","geometry":{"type":"Point","coordinates":[4.485606,52.155681]},"properties":{"category":"universiteit","name":"Studentencentrum Plexus","operator":"Universiteit Leiden"}},{"type":"Feature","geometry":{"type":"Point","coordinates":[4.484513,52.16071]},"properties":{"category":"universiteit","name":"","operator":""}},{"type":"Feature","geometry":{"type":"Point","coordinates":[4.485988,52.160675]},"properties":{"category":"universiteit","name":"Webster University","operator":""}},{"type":"Feature","geometry":{"type":"Point","coordinates":[4.484062,52.154924]},"properties":{"category":"universiteit","name":"Oude Sterrewacht","operator":"Universiteit Leiden"}},{"type":"Feature","geometry":{"type":"Point","coordinates":[4.482244,52.157705]},"properties":{"category":"universiteit","name":"Witte Singel-Doelencomplex","operator":""}},{"type":"Feature","geometry":{"type":"Point","coordinates":[4.464033,52.168386]},"properties":{"category":"universiteit","name":"Leiden Bio Science Park","operator":""}},{"type":"Feature","geometry":{"type":"Point","coordinates":[4.473288,52.162402]},"properties":{"category":"universiteit","name":"Universiteit Leiden","operator":"Universiteit Leiden"}},{"type":"Feature","geometry":{"type":"Point","coordinates":[4.49283,52.146165]},"properties":{"category":"hogeschool","name":"mboRijnland","operator":"mboRijnland"}},{"type":"Feature","geometry":{"type":"Point","coordinates":[4.469153,52.166671]},"properties":{"category":"hogeschool","name":"","operator":"Hogeschool Leiden"}},{"type":"Feature","geometry":{"type":"Point","coordinates":[4.471969,52.167]},"properties":{"category":"hogeschool","name":"mboRijnland","operator":"mboRijnland"}},{"type":"Feature","geometry":{"type":"Point","coordinates":[4.507916,52.154911]},"properties":{"category":"hogeschool","name":"Bonaventura College","operator":"Stichting Confessioneel Onderwijs Leiden (SCOL)"}},{"type":"Feature","geometry":{"type":"Point","coordinates":[4.505908,52.152465]},"properties":{"category":"hogeschool","name":"Stedelijk Gymnasium (Athena)","operator":"Stichting Stedelijk Gymnasium Leiden"}},{"type":"Feature","geometry":{"type":"Point","coordinates":[4.464902,52.159319]},"properties":{"category":"hogeschool","name":"mboRijnland","operator":"mboRijnland"}},{"type":"Feature","geometry":{"type":"Point","coordinates":[4.47286,52.161048]},"properties":{"category":"hogeschool","name":"ROC Mondriaan","operator":"ROC Mondriaan"}},{"type":"Feature","geometry":{"type":"Point","coordinates":[4.48764,52.160123]},"properties":{"category":"hogeschool","name":"mboRijnland","operator":"mboRijnland"}},{"type":"Feature","geometry":{"type":"Point","coordinates":[4.474366,52.138644]},"properties":{"category":"hogeschool","name":"Vlietland College","operator":"Stichting Voortgezet Onderwijs op Interconfessionele Grondslag"}},{"type":"Feature","geometry":{"type":"Point","coordinates":[4.476812,52.155109]},"properties":{"category":"hogeschool","name":"De Delta","operator":""}},{"type":"Feature","geometry":{"type":"Point","coordinates":[4.461093,52.159827]},"properties":{"category":"hogeschool","name":"mboRijnland","operator":"mboRijnland"}},{"type":"Feature","geometry":{"type":"Point","coordinates":[4.457792,52.167684]},"properties":{"category":"hogeschool","name":"Leidse Instrumentmakersschool","operator":""}},{"type":"Feature","geometry":{"type":"Point","coordinates":[4.493814,52.146022]},"properties":{"category":"middelbare_school","name":"Da Vinci College","operator":""}},{"type":"Feature","geometry":{"type":"Point","coordinates":[4.485338,52.173023]},"properties":{"category":"middelbare_school","name":"Da Vinci College","operator":"Scholengroep Leonardo da Vinci"}},{"type":"Feature","geometry":{"type":"Point","coordinates":[4.487469,52.171642]},"properties":{"category":"middelbare_school","name":"Het Waterland","operator":"Stichting Praktijkonderwijs Leiden e.o.(Het Waterland)"}},{"type":"Feature","geometry":{"type":"Point","coordinates":[4.511354,52.166612]},"properties":{"category":"middelbare_school","name":"Marecollege","operator":"Stichting Vrijescholen Zuidwest Nederland"}},{"type":"Feature","geometry":{"type":"Point","coordinates":[4.484752,52.172619]},"properties":{"category":"middelbare_school","name":"Driestar Leiden","operator":"Driestar-Wartburg"}},{"type":"Feature","geometry":{"type":"Point","coordinates":[4.482197,52.170505]},"properties":{"category":"middelbare_school","name":"Bonaventura College","operator":"Stichting Confessioneel Onderwijs Leiden (SCOL)"}},{"type":"Feature","geometry":{"type":"Point","coordinates":[4.483798,52.170577]},"properties":{"category":"middelbare_school","name":"Beroepscollege Leystede","operator":"Stichting Confessioneel Onderwijs Leiden (SCOL)"}},{"type":"Feature","geometry":{"type":"Point","coordinates":[4.481345,52.171103]},"properties":{"category":"middelbare_school","name":"Visser 't Hooft Lyceum","operator":"Stichting Confessioneel Onderwijs Leiden (SCOL)"}},{"type":"Feature","geometry":{"type":"Point","coordinates":[4.473464,52.148905]},"properties":{"category":"middelbare_school","name":"Auris College","operator":""}},{"type":"Feature","geometry":{"type":"Point","coordinates":[4.471275,52.170688]},"properties":{"category":"middelbare_school","name":"De Thermiek","operator":"Resonans"}},{"type":"Feature","geometry":{"type":"Point","coordinates":[4.477506,52.172713]},"properties":{"category":"middelbare_school","name":"Bonaventura College","operator":"Stichting Confessioneel Onderwijs Leiden (SCOL)"}},{"type":"Feature","geometry":{"type":"Point","coordinates":[4.483883,52.175932]},"properties":{"category":"sportveld","name":"Sportpark Kikkerpolder","operator":""}},{"type":"Feature","geometry":{"type":"Point","coordinates":[4.49712,52.151887]},"properties":{"category":"sportveld","name":"Sportpark Zoeterwoudsesingel","operator":""}},{"type":"Feature","geometry":{"type":"Point","coordinates":[4.479055,52.138106]},"properties":{"category":"sportveld","name":"Sportpark De Vliet","operator":""}},{"type":"Feature","geometry":{"type":"Point","coordinates":[4.482706,52.139544]},"properties":{"category":"sportveld","name":"Zwembad De Vliet","operator":""}},{"type":"Feature","geometry":{"type":"Point","coordinates":[4.476622,52.173694]},"properties":{"category":"sportveld","name":"TC De Leidse Hout","operator":""}},{"type":"Feature","geometry":{"type":"Point","coordinates":[4.46198,52.157161]},"properties":{"category":"sportveld","name":"","operator":""}},{"type":"Feature","geometry":{"type":"Point","coordinates":[4.47762,52.173307]},"properties":{"category":"sportveld","name":"Leidse Reddingsbrigade","operator":""}},{"type":"Feature","geometry":{"type":"Point","coordinates":[4.487143,52.159067]},"properties":{"category":"sportveld","name":"Gymzaal Pieterskerkgracht","operator":""}},{"type":"Feature","geometry":{"type":"Point","coordinates":[4.489791,52.155183]},"properties":{"category":"sportveld","name":"Tribes","operator":""}},{"type":"Feature","geometry":{"type":"Point","coordinates":[4.452831,52.159998]},"properties":{"category":"sportveld","name":"Docos","operator":""}},{"type":"Feature","geometry":{"type":"Point","coordinates":[4.461264,52.166231]},"properties":{"category":"sportveld","name":"Universitair Sportcentrum","operator":"Universiteit Leiden"}},{"type":"Feature","geometry":{"type":"Point","coordinates":[4.457177,52.160525]},"properties":{"category":"sportveld","name":"3 Octoberhal","operator":""}},{"type":"Feature","geometry":{"type":"Point","coordinates":[4.502219,52.180398]},"properties":{"category":"sportveld","name":"","operator":""}},{"type":"Feature","geometry":{"type":"Point","coordinates":[4.50421,52.147416]},"properties":{"category":"sportveld","name":"Sportpark Roomburg","operator":""}},{"type":"Feature","geometry":{"type":"Point","coordinates":[4.459451,52.150654]},"properties":{"category":"sportveld","name":"","operator":""}},{"type":"Feature","geometry":{"type":"Point","coordinates":[4.467488,52.142137]},"properties":{"category":"sportveld","name":"Tennis- en Padelvereniging Zuid-West","operator":""}},{"type":"Feature","geometry":{"type":"Point","coordinates":[4.475047,52.151301]},"properties":{"category":"sportveld","name":"Sportpark Boshuizerkade","operator":""}},{"type":"Feature","geometry":{"type":"Point","coordinates":[4.47733,52.144544]},"properties":{"category":"sportveld","name":"Sportpark Montgomerystraat","operator":""}},{"type":"Feature","geometry":{"type":"Point","coordinates":[4.456765,52.160638]},"properties":{"category":"sportveld","name":"Sportpark Morskwartier","operator":""}},{"type":"Feature","geometry":{"type":"Point","coordinates":[4.478702,52.173992]},"properties":{"category":"sportveld","name":"Leiden Atletiek","operator":""}},{"type":"Feature","geometry":{"type":"Point","coordinates":[4.491249,52.174614]},"properties":{"category":"sportveld","name":"Tennis- en padelclub Unicum","operator":""}},{"type":"Feature","geometry":{"type":"Point","coordinates":[4.506432,52.147961]},"properties":{"category":"sportveld","name":"Tennisclub Roomburg","operator":""}},{"type":"Feature","geometry":{"type":"Point","coordinates":[4.480714,52.138684]},"properties":{"category":"sportveld","name":"De Vliet","operator":""}},{"type":"Feature","geometry":{"type":"Point","coordinates":[4.512115,52.156287]},"properties":{"category":"sportveld","name":"Lodewijksgroep","operator":""}},{"type":"Feature","geometry":{"type":"Point","coordinates":[4.514459,52.166623]},"properties":{"category":"sportveld","name":"De Zijl","operator":""}},{"type":"Feature","geometry":{"type":"Point","coordinates":[4.462246,52.167676]},"properties":{"category":"sportveld","name":"Universitair Sportcentrum","operator":"Universiteit Leiden"}},{"type":"Feature","geometry":{"type":"Point","coordinates":[4.505408,52.176485]},"properties":{"category":"winkelcentrum","name":"Winkelcentrum de Kopermolen","operator":""}},{"type":"Feature","geometry":{"type":"Point","coordinates":[4.481834,52.166638]},"properties":{"category":"fietsenstalling","name":"NS-stalling LUMC-zijde","operator":""}},{"type":"Feature","geometry":{"type":"Point","coordinates":[4.456102,52.147459]},"properties":{"category":"fietsenstalling","name":"","operator":""}},{"type":"Feature","geometry":{"type":"Point","coordinates":[4.489835,52.158774]},"properties":{"category":"fietsenstalling","name":"Breestraat","operator":""}},{"type":"Feature","geometry":{"type":"Point","coordinates":[4.490573,52.159222]},"properties":{"category":"fietsenstalling","name":"Waagstalling","operator":""}},{"type":"Feature","geometry":{"type":"Point","coordinates":[4.481601,52.166716]},"properties":{"category":"fietsenstalling","name":"Zeezijde fietsenstalling","operator":""}},{"type":"Feature","geometry":{"type":"Point","coordinates":[4.483796,52.166049]},"properties":{"category":"fietsenstalling","name":"Lorentz fietsenstalling","operator":""}},{"type":"Feature","geometry":{"type":"Point","coordinates":[4.471248,52.160095]},"properties":{"category":"fietsenstalling","name":"","operator":""}},{"type":"Feature","geometry":{"type":"Point","coordinates":[4.498278,52.170201]},"properties":{"category":"fietsenstalling","name":"Stedelijk Gymnasium Leiden Socrates","operator":""}},{"type":"Feature","geometry":{"type":"Point","coordinates":[4.497674,52.17049]},"properties":{"category":"fietsenstalling","name":"Stedelijk Gymnasium Leiden Socrates","operator":""}},{"type":"Feature","geometry":{"type":"Point","coordinates":[4.505116,52.176954]},"properties":{"category":"fietsenstalling","name":"","operator":""}},{"type":"Feature","geometry":{"type":"Point","coordinates":[4.486586,52.171809]},"properties":{"category":"fietsenstalling","name":"","operator":""}},{"type":"Feature","geometry":{"type":"Point","coordinates":[4.476247,52.167147]},"properties":{"category":"fietsenstalling","name":"","operator":"LUMC"}},{"type":"Feature","geometry":{"type":"Point","coordinates":[4.482176,52.156885]},"properties":{"category":"fietsenstalling","name":"","operator":""}},{"type":"Feature","geometry":{"type":"Point","coordinates":[4.492263,52.163624]},"properties":{"category":"fietsenstalling","name":"","operator":""}},{"type":"Feature","geometry":{"type":"Point","coordinates":[4.482909,52.157256]},"properties":{"category":"fietsenstalling","name":"","operator":""}},{"type":"Feature","geometry":{"type":"Point","coordinates":[4.512071,52.158607]},"properties":{"category":"fietsenstalling","name":"","operator":""}},{"type":"Feature","geometry":{"type":"Point","coordinates":[4.482256,52.166929]},"properties":{"category":"fietsenstalling","name":"","operator":""}},{"type":"Feature","geometry":{"type":"Point","coordinates":[4.457898,52.169192]},"properties":{"category":"fietsenstalling","name":"","operator":""}},{"type":"Feature","geometry":{"type":"Point","coordinates":[4.478259,52.169367]},"properties":{"category":"fietsenstalling","name":"","operator":""}},{"type":"Feature","geometry":{"type":"Point","coordinates":[4.483666,52.166248]},"properties":{"category":"fietsenstalling","name":"Taxistandplaats fietsenstalling","operator":""}},{"type":"Feature","geometry":{"type":"Point","coordinates":[4.461873,52.166211]},"properties":{"category":"fietsenstalling","name":"","operator":""}},{"type":"Feature","geometry":{"type":"Point","coordinates":[4.493224,52.146825]},"properties":{"category":"fietsenstalling","name":"","operator":"NS"}},{"type":"Feature","geometry":{"type":"Point","coordinates":[4.457222,52.169804]},"properties":{"category":"fietsenstalling","name":"","operator":"Universiteit Leiden"}},{"type":"Feature","geometry":{"type":"Point","coordinates":[4.483192,52.166653]},"properties":{"category":"fietsenstalling","name":"NS-stalling Centrumzijde","operator":""}},{"type":"Feature","geometry":{"type":"Point","coordinates":[4.479341,52.166043]},"properties":{"category":"fietsenstalling","name":"","operator":"LUMC"}},{"type":"Feature","geometry":{"type":"Point","coordinates":[4.478837,52.155245]},"properties":{"category":"fietsenstalling","name":"","operator":""}},{"type":"Feature","geometry":{"type":"Point","coordinates":[4.478666,52.155992]},"properties":{"category":"fietsenstalling","name":"","operator":""}},{"type":"Feature","geometry":{"type":"Point","coordinates":[4.47983,52.16637]},"properties":{"category":"fietsenstalling","name":"","operator":""}},{"type":"Feature","geometry":{"type":"Point","coordinates":[4.456094,52.147514]},"properties":{"category":"fietsenstalling","name":"","operator":""}},{"type":"Feature","geometry":{"type":"Point","coordinates":[4.498487,52.170144]},"properties":{"category":"fietsenstalling","name":"","operator":""}},{"type":"Feature","geometry":{"type":"Point","coordinates":[4.480579,52.14752]},"properties":{"category":"fietsenstalling","name":"","operator":""}},{"type":"Feature","geometry":{"type":"Point","coordinates":[4.4835,52.166338]},"properties":{"category":"fietsenstalling","name":"","operator":""}},{"type":"Feature","geometry":{"type":"Point","coordinates":[4.454262,52.164202]},"properties":{"category":"fietsenstalling","name":"","operator":""}},{"type":"Feature","geometry":{"type":"Point","coordinates":[4.459323,52.168059]},"properties":{"category":"fietsenstalling","name":"Gorlaeus fietsenstalling","operator":""}},{"type":"Feature","geometry":{"type":"Point","coordinates":[4.467368,52.16848]},"properties":{"category":"fietsenstalling","name":"","operator":""}},{"type":"Feature","geometry":{"type":"Point","coordinates":[4.485348,52.147141]},"properties":{"category":"fietsenstalling","name":"","operator":""}},{"type":"Feature","geometry":{"type":"Point","coordinates":[4.481555,52.165332]},"properties":{"category":"fietsenstalling","name":"","operator":""}},{"type":"Feature","geometry":{"type":"Point","coordinates":[4.495928,52.157024]},"properties":{"category":"fietsenstalling","name":"","operator":""}},{"type":"Feature","geometry":{"type":"Point","coordinates":[4.462385,52.158249]},"properties":{"category":"fietsenstalling","name":"","operator":""}},{"type":"Feature","geometry":{"type":"Point","coordinates":[4.494003,52.155505]},"properties":{"category":"parkeergarage","name":"Breestraat","operator":""}},{"type":"Feature","geometry":{"type":"Point","coordinates":[4.497971,52.159697]},"properties":{"category":"parkeergarage","name":"Haarlemmerstraat","operator":""}},{"type":"Feature","geometry":{"type":"Point","coordinates":[4.498901,52.15522]},"properties":{"category":"parkeergarage","name":"","operator":""}},{"type":"Feature","geometry":{"type":"Point","coordinates":[4.50453,52.177295]},"properties":{"category":"parkeergarage","name":"","operator":""}},{"type":"Feature","geometry":{"type":"Point","coordinates":[4.502595,52.158547]},"properties":{"category":"parkeergarage","name":"","operator":""}},{"type":"Feature","geometry":{"type":"Point","coordinates":[4.47729,52.167567]},"properties":{"category":"parkeergarage","name":"LUMC Parkeergarage","operator":""}},{"type":"Feature","geometry":{"type":"Point","coordinates":[4.466647,52.156383]},"properties":{"category":"parkeergarage","name":"","operator":""}},{"type":"Feature","geometry":{"type":"Point","coordinates":[4.465039,52.154972]},"properties":{"category":"parkeergarage","name":"","operator":""}},{"type":"Feature","geometry":{"type":"Point","coordinates":[4.463665,52.166137]},"properties":{"category":"parkeergarage","name":"","operator":""}},{"type":"Feature","geometry":{"type":"Point","coordinates":[4.480742,52.162312]},"properties":{"category":"parkeergarage","name":"Morspoortgarage","operator":""}},{"type":"Feature","geometry":{"type":"Point","coordinates":[4.512667,52.14897]},"properties":{"category":"parkeergarage","name":"","operator":""}},{"type":"Feature","geometry":{"type":"Point","coordinates":[4.510807,52.148776]},"properties":{"category":"parkeergarage","name":"","operator":""}},{"type":"Feature","geometry":{"type":"Point","coordinates":[4.513514,52.147689]},"properties":{"category":"parkeergarage","name":"","operator":""}},{"type":"Feature","geometry":{"type":"Point","coordinates":[4.513829,52.147178]},"properties":{"category":"parkeergarage","name":"","operator":""}},{"type":"Feature","geometry":{"type":"Point","coordinates":[4.509764,52.14739]},"properties":{"category":"parkeergarage","name":"","operator":""}},{"type":"Feature","geometry":{"type":"Point","coordinates":[4.513077,52.148318]},"properties":{"category":"parkeergarage","name":"","operator":""}},{"type":"Feature","geometry":{"type":"Point","coordinates":[4.513763,52.1493]},"properties":{"category":"parkeergarage","name":"","operator":""}},{"type":"Feature","geometry":{"type":"Point","coordinates":[4.505883,52.166689]},"properties":{"category":"parkeergarage","name":"","operator":""}},{"type":"Feature","geometry":{"type":"Point","coordinates":[4.486832,52.16404]},"properties":{"category":"parkeergarage","name":"Parkeergarage Lammermarkt","operator":""}},{"type":"Feature","geometry":{"type":"Point","coordinates":[4.493284,52.14579]},"properties":{"category":"parkeergarage","name":"Parkeergarage Lammerschans","operator":""}},{"type":"Feature","geometry":{"type":"Point","coordinates":[4.452431,52.158576]},"properties":{"category":"parkeergarage","name":"","operator":""}},{"type":"Feature","geometry":{"type":"Point","coordinates":[4.493562,52.1438]},"properties":{"category":"parkeergarage","name":"","operator":""}},{"type":"Feature","geometry":{"type":"Point","coordinates":[4.480553,52.166182]},"properties":{"category":"parkeergarage","name":"","operator":""}},{"type":"Feature","geometry":{"type":"Point","coordinates":[4.493108,52.15505]},"properties":{"category":"parkeergarage","name":"Parkeergarage Garenmarkt","operator":""}},{"type":"Feature","geometry":{"type":"Point","coordinates":[4.481994,52.173959]},"properties":{"category":"parkeergarage","name":"Parkeergarage Alrijne","operator":""}},{"type":"Feature","geometry":{"type":"Point","coordinates":[4.478449,52.168903]},"properties":{"category":"parkeergarage","name":"","operator":""}},{"type":"Feature","geometry":{"type":"Point","coordinates":[4.491468,52.163018]},"properties":{"category":"parkeergarage","name":"Parkeergarage Dirk Langegracht","operator":""}},{"type":"Feature","geometry":{"type":"Point","coordinates":[4.487502,52.147574]},"properties":{"category":"parkeergarage","name":"","operator":""}},{"type":"Feature","geometry":{"type":"Point","coordinates":[4.479314,52.147481]},"properties":{"category":"parkeergarage","name":"Parkeergarage De Luifelbaan","operator":""}},{"type":"Feature","geometry":{"type":"Point","coordinates":[4.473425,52.16912]},"properties":{"category":"parkeergarage","name":"","operator":""}},{"type":"Feature","geometry":{"type":"Point","coordinates":[4.489013,52.169297]},"properties":{"category":"parkeergarage","name":"","operator":""}},{"type":"Feature","geometry":{"type":"Point","coordinates":[4.492277,52.143439]},"properties":{"category":"parkeergarage","name":"","operator":""}},{"type":"Feature","geometry":{"type":"Point","coordinates":[4.49222,52.144996]},"properties":{"category":"parkeergarage","name":"","operator":""}},{"type":"Feature","geometry":{"type":"Point","coordinates":[4.491949,52.143893]},"properties":{"category":"parkeergarage","name":"","operator":""}},{"type":"Feature","geometry":{"type":"Point","coordinates":[4.459062,52.166572]},"properties":{"category":"parkeergarage","name":"Ehrenfestgarage","operator":"Q park P1"}},{"type":"Feature","geometry":{"type":"Point","coordinates":[4.485694,52.154724]},"properties":{"category":"parkeergarage","name":"","operator":""}},{"type":"Feature","geometry":{"type":"Point","coordinates":[4.503048,52.159113]},"properties":{"category":"parkeergarage","name":"","operator":""}},{"type":"Feature","geometry":{"type":"Point","coordinates":[4.471144,52.165538]},"properties":{"category":"parkeergarage","name":"P+R Naturalis","operator":"P1"}},{"type":"Feature","geometry":{"type":"Point","coordinates":[4.45577,52.147667]},"properties":{"category":"p_and_r","name":"","operator":""}},{"type":"Feature","geometry":{"type":"Point","coordinates":[4.493284,52.14579]},"properties":{"category":"p_and_r","name":"Parkeergarage Lammerschans","operator":""}}]}