{"type":"FeatureCollection","metadata":{"gemeente":"Leusden","slug":"leusden","by_category":{"bus_halte":74,"transformatorhuisje":8,"fietsenstalling":4,"parkeergarage":4,"bibliotheek":3,"sportveld":3,"gemeentehuis":1,"inzamelpunt":1,"hogeschool":1},"total":99},"features":[{"type":"Feature","geometry":{"type":"Point","coordinates":[5.376032,52.130075]},"properties":{"category":"bus_halte","name":"Begraafplaats Rusthof","operator":""}},{"type":"Feature","geometry":{"type":"Point","coordinates":[5.404214,52.113439]},"properties":{"category":"bus_halte","name":"Kerk","operator":""}},{"type":"Feature","geometry":{"type":"Point","coordinates":[5.40498,52.113073]},"properties":{"category":"bus_halte","name":"Kerk","operator":""}},{"type":"Feature","geometry":{"type":"Point","coordinates":[5.414068,52.106872]},"properties":{"category":"bus_halte","name":"Leusbroekerweg / De Mof","operator":""}},{"type":"Feature","geometry":{"type":"Point","coordinates":[5.414017,52.126375]},"properties":{"category":"bus_halte","name":"Burg. Buiningpark","operator":""}},{"type":"Feature","geometry":{"type":"Point","coordinates":[5.414301,52.126374]},"properties":{"category":"bus_halte","name":"Burg. Buiningpark","operator":""}},{"type":"Feature","geometry":{"type":"Point","coordinates":[5.416029,52.132505]},"properties":{"category":"bus_halte","name":"Groene Zoom","operator":""}},{"type":"Feature","geometry":{"type":"Point","coordinates":[5.415324,52.133324]},"properties":{"category":"bus_halte","name":"Groene Zoom","operator":""}},{"type":"Feature","geometry":{"type":"Point","coordinates":[5.410984,52.137716]},"properties":{"category":"bus_halte","name":"Heiligenbergerweg","operator":""}},{"type":"Feature","geometry":{"type":"Point","coordinates":[5.409174,52.140269]},"properties":{"category":"bus_halte","name":"Ursulineweg","operator":""}},{"type":"Feature","geometry":{"type":"Point","coordinates":[5.411289,52.136017]},"properties":{"category":"bus_halte","name":"Heiligenbergerweg","operator":""}},{"type":"Feature","geometry":{"type":"Point","coordinates":[5.421295,52.132612]},"properties":{"category":"bus_halte","name":"Rossenberglaan","operator":""}},{"type":"Feature","geometry":{"type":"Point","coordinates":[5.417257,52.132921]},"properties":{"category":"bus_halte","name":"Groene Zoom","operator":""}},{"type":"Feature","geometry":{"type":"Point","coordinates":[5.416688,52.133574]},"properties":{"category":"bus_halte","name":"Groene Zoom","operator":""}},{"type":"Feature","geometry":{"type":"Point","coordinates":[5.423656,52.132226]},"properties":{"category":"bus_halte","name":"Rossenberglaan","operator":""}},{"type":"Feature","geometry":{"type":"Point","coordinates":[5.426072,52.132091]},"properties":{"category":"bus_halte","name":"Geertrudishof","operator":""}},{"type":"Feature","geometry":{"type":"Point","coordinates":[5.427716,52.131757]},"properties":{"category":"bus_halte","name":"Geertrudishof","operator":""}},{"type":"Feature","geometry":{"type":"Point","coordinates":[5.43652,52.132423]},"properties":{"category":"bus_halte","name":"Bohemen","operator":""}},{"type":"Feature","geometry":{"type":"Point","coordinates":[5.430955,52.141018]},"properties":{"category":"bus_halte","name":"Schotkamp","operator":""}},{"type":"Feature","geometry":{"type":"Point","coordinates":[5.434554,52.140627]},"properties":{"category":"bus_halte","name":"'t Ruige Veld","operator":""}},{"type":"Feature","geometry":{"type":"Point","coordinates":[5.437643,52.139271]},"properties":{"category":"bus_halte","name":"Arebos","operator":""}},{"type":"Feature","geometry":{"type":"Point","coordinates":[5.424201,52.144162]},"properties":{"category":"bus_halte","name":"Bedrijventerrein De Horst","operator":""}},{"type":"Feature","geometry":{"type":"Point","coordinates":[5.429777,52.143328]},"properties":{"category":"bus_halte","name":"Waterlinie","operator":""}},{"type":"Feature","geometry":{"type":"Point","coordinates":[5.427818,52.145223]},"properties":{"category":"bus_halte","name":"'t Vliet","operator":""}},{"type":"Feature","geometry":{"type":"Point","coordinates":[5.397719,52.130325]},"properties":{"category":"bus_halte","name":"Schutterhoeflaan","operator":""}},{"type":"Feature","geometry":{"type":"Point","coordinates":[5.434533,52.14072]},"properties":{"category":"bus_halte","name":"'t Ruige Veld","operator":""}},{"type":"Feature","geometry":{"type":"Point","coordinates":[5.437059,52.139388]},"properties":{"category":"bus_halte","name":"Arebos","operator":""}},{"type":"Feature","geometry":{"type":"Point","coordinates":[5.438239,52.137222]},"properties":{"category":"bus_halte","name":"Middenweg","operator":""}},{"type":"Feature","geometry":{"type":"Point","coordinates":[5.413508,52.142679]},"properties":{"category":"bus_halte","name":"Carpoolplaats","operator":""}},{"type":"Feature","geometry":{"type":"Point","coordinates":[5.430604,52.141162]},"properties":{"category":"bus_halte","name":"Schotkamp","operator":""}},{"type":"Feature","geometry":{"type":"Point","coordinates":[5.437721,52.13301]},"properties":{"category":"bus_halte","name":"Bohemen","operator":""}},{"type":"Feature","geometry":{"type":"Point","coordinates":[5.437848,52.136045]},"properties":{"category":"bus_halte","name":"Middenweg","operator":""}},{"type":"Feature","geometry":{"type":"Point","coordinates":[5.495298,52.135157]},"properties":{"category":"bus_halte","name":"RK Kerk","operator":""}},{"type":"Feature","geometry":{"type":"Point","coordinates":[5.50703,52.134903]},"properties":{"category":"bus_halte","name":"Klettersteeg","operator":""}},{"type":"Feature","geometry":{"type":"Point","coordinates":[5.507599,52.13482]},"properties":{"category":"bus_halte","name":"Klettersteeg","operator":""}},{"type":"Feature","geometry":{"type":"Point","coordinates":[5.492578,52.136414]},"properties":{"category":"bus_halte","name":"De Hessenkar","operator":""}},{"type":"Feature","geometry":{"type":"Point","coordinates":[5.492772,52.136483]},"properties":{"category":"bus_halte","name":"De Hessenkar","operator":""}},{"type":"Feature","geometry":{"type":"Point","coordinates":[5.478465,52.125116]},"properties":{"category":"bus_halte","name":"Postweg","operator":""}},{"type":"Feature","geometry":{"type":"Point","coordinates":[5.478508,52.124944]},"properties":{"category":"bus_halte","name":"Postweg","operator":""}},{"type":"Feature","geometry":{"type":"Point","coordinates":[5.499308,52.134266]},"properties":{"category":"bus_halte","name":"Huize Sint Joseph","operator":""}},{"type":"Feature","geometry":{"type":"Point","coordinates":[5.511662,52.134286]},"properties":{"category":"bus_halte","name":"Helweg","operator":""}},{"type":"Feature","geometry":{"type":"Point","coordinates":[5.494906,52.135214]},"properties":{"category":"bus_halte","name":"RK Kerk","operator":""}},{"type":"Feature","geometry":{"type":"Point","coordinates":[5.443998,52.136411]},"properties":{"category":"bus_halte","name":"Wederik","operator":""}},{"type":"Feature","geometry":{"type":"Point","coordinates":[5.42172,52.145422]},"properties":{"category":"bus_halte","name":"Storkstraat","operator":""}},{"type":"Feature","geometry":{"type":"Point","coordinates":[5.422138,52.145353]},"properties":{"category":"bus_halte","name":"Storkstraat","operator":""}},{"type":"Feature","geometry":{"type":"Point","coordinates":[5.443982,52.136526]},"properties":{"category":"bus_halte","name":"Wederik","operator":""}},{"type":"Feature","geometry":{"type":"Point","coordinates":[5.43262,52.132512]},"properties":{"category":"bus_halte","name":"Torenakkerweg","operator":""}},{"type":"Feature","geometry":{"type":"Point","coordinates":[5.43284,52.132412]},"properties":{"category":"bus_halte","name":"Torenakkerweg","operator":""}},{"type":"Feature","geometry":{"type":"Point","coordinates":[5.433884,52.153335]},"properties":{"category":"bus_halte","name":"Driesprong","operator":""}},{"type":"Feature","geometry":{"type":"Point","coordinates":[5.441539,52.150194]},"properties":{"category":"bus_halte","name":"Stoutenburgerlaan","operator":""}},{"type":"Feature","geometry":{"type":"Point","coordinates":[5.433823,52.153523]},"properties":{"category":"bus_halte","name":"Driesprong","operator":""}},{"type":"Feature","geometry":{"type":"Point","coordinates":[5.442044,52.149995]},"properties":{"category":"bus_halte","name":"Stoutenburgerlaan","operator":""}},{"type":"Feature","geometry":{"type":"Point","coordinates":[5.408092,52.118868]},"properties":{"category":"bus_halte","name":"Maximaplein","operator":""}},{"type":"Feature","geometry":{"type":"Point","coordinates":[5.408243,52.118929]},"properties":{"category":"bus_halte","name":"Maximaplein","operator":""}},{"type":"Feature","geometry":{"type":"Point","coordinates":[5.409469,52.123445]},"properties":{"category":"bus_halte","name":"Tabaksteeg","operator":""}},{"type":"Feature","geometry":{"type":"Point","coordinates":[5.409699,52.123572]},"properties":{"category":"bus_halte","name":"Tabaksteeg","operator":""}},{"type":"Feature","geometry":{"type":"Point","coordinates":[5.398131,52.129812]},"properties":{"category":"bus_halte","name":"Schutterhoeflaan","operator":""}},{"type":"Feature","geometry":{"type":"Point","coordinates":[5.402698,52.12134]},"properties":{"category":"bus_halte","name":"Maanweg","operator":""}},{"type":"Feature","geometry":{"type":"Point","coordinates":[5.409012,52.114654]},"properties":{"category":"bus_halte","name":"Karel van Ginkelstraat","operator":""}},{"type":"Feature","geometry":{"type":"Point","coordinates":[5.409146,52.114682]},"properties":{"category":"bus_halte","name":"Karel van Ginkelstraat","operator":""}},{"type":"Feature","geometry":{"type":"Point","coordinates":[5.498937,52.134127]},"properties":{"category":"bus_halte","name":"Huize Sint Joseph","operator":""}},{"type":"Feature","geometry":{"type":"Point","coordinates":[5.421395,52.142948]},"properties":{"category":"bus_halte","name":"Plesmanstraat","operator":""}},{"type":"Feature","geometry":{"type":"Point","coordinates":[5.401774,52.122164]},"properties":{"category":"bus_halte","name":"Maanweg","operator":""}},{"type":"Feature","geometry":{"type":"Point","coordinates":[5.414556,52.105777]},"properties":{"category":"bus_halte","name":"Leusbroekerweg / De Mof","operator":""}},{"type":"Feature","geometry":{"type":"Point","coordinates":[5.421025,52.142728]},"properties":{"category":"bus_halte","name":"Plesmanstraat","operator":""}},{"type":"Feature","geometry":{"type":"Point","coordinates":[5.384824,52.131251]},"properties":{"category":"bus_halte","name":"landgoed ISVW","operator":""}},{"type":"Feature","geometry":{"type":"Point","coordinates":[5.425631,52.141439]},"properties":{"category":"bus_halte","name":"AFAS","operator":""}},{"type":"Feature","geometry":{"type":"Point","coordinates":[5.429907,52.137048]},"properties":{"category":"bus_halte","name":"Winkelcentrum Biezenkamp","operator":""}},{"type":"Feature","geometry":{"type":"Point","coordinates":[5.429665,52.136982]},"properties":{"category":"bus_halte","name":"Winkelcentrum Biezenkamp","operator":""}},{"type":"Feature","geometry":{"type":"Point","coordinates":[5.426704,52.136911]},"properties":{"category":"bus_halte","name":"Hamersveldweg","operator":""}},{"type":"Feature","geometry":{"type":"Point","coordinates":[5.426818,52.136958]},"properties":{"category":"bus_halte","name":"Hamersveldweg","operator":""}},{"type":"Feature","geometry":{"type":"Point","coordinates":[5.427079,52.132587]},"properties":{"category":"bus_halte","name":"Geertrudishof","operator":""}},{"type":"Feature","geometry":{"type":"Point","coordinates":[5.448787,52.152867]},"properties":{"category":"bus_halte","name":"Kasteel Stoutenburg","operator":""}},{"type":"Feature","geometry":{"type":"Point","coordinates":[5.448805,52.152828]},"properties":{"category":"bus_halte","name":"Kasteel Stoutenburg","operator":""}},{"type":"Feature","geometry":{"type":"Point","coordinates":[5.428989,52.130454]},"properties":{"category":"gemeentehuis","name":"Huis van Leusden","operator":"Gemeente Leusden"}},{"type":"Feature","geometry":{"type":"Point","coordinates":[5.411817,52.143206]},"properties":{"category":"inzamelpunt","name":"Milieustraat 't Spieghel","operator":"Gemeente Leusden"}},{"type":"Feature","geometry":{"type":"Point","coordinates":[5.409454,52.119498]},"properties":{"category":"bibliotheek","name":"de Bibliotheek Leusden-Zuid","operator":"Bibliotheek Eemland"}},{"type":"Feature","geometry":{"type":"Point","coordinates":[5.497365,52.136507]},"properties":{"category":"bibliotheek","name":"de Bibliotheek Achterveld","operator":"Bibliotheek Eemland"}},{"type":"Feature","geometry":{"type":"Point","coordinates":[5.427551,52.130321]},"properties":{"category":"bibliotheek","name":"de Bibliotheek","operator":"Bibliotheek Eemland"}},{"type":"Feature","geometry":{"type":"Point","coordinates":[5.449211,52.152839]},"properties":{"category":"transformatorhuisje","name":"","operator":""}},{"type":"Feature","geometry":{"type":"Point","coordinates":[5.421524,52.120392]},"properties":{"category":"transformatorhuisje","name":"","operator":""}},{"type":"Feature","geometry":{"type":"Point","coordinates":[5.421434,52.12041]},"properties":{"category":"transformatorhuisje","name":"","operator":""}},{"type":"Feature","geometry":{"type":"Point","coordinates":[5.421331,52.120422]},"properties":{"category":"transformatorhuisje","name":"","operator":""}},{"type":"Feature","geometry":{"type":"Point","coordinates":[5.405981,52.116499]},"properties":{"category":"transformatorhuisje","name":"","operator":""}},{"type":"Feature","geometry":{"type":"Point","coordinates":[5.421456,52.120445]},"properties":{"category":"transformatorhuisje","name":"","operator":"Stedin"}},{"type":"Feature","geometry":{"type":"Point","coordinates":[5.433143,52.138484]},"properties":{"category":"transformatorhuisje","name":"","operator":"stedin"}},{"type":"Feature","geometry":{"type":"Point","coordinates":[5.424398,52.123584]},"properties":{"category":"transformatorhuisje","name":"","operator":"stedin"}},{"type":"Feature","geometry":{"type":"Point","coordinates":[5.391226,52.13103]},"properties":{"category":"hogeschool","name":"Beeckestijn","operator":"Beeckestijn Business School"}},{"type":"Feature","geometry":{"type":"Point","coordinates":[5.510969,52.135245]},"properties":{"category":"sportveld","name":"Sportpark Kerstens","operator":""}},{"type":"Feature","geometry":{"type":"Point","coordinates":[5.412529,52.128175]},"properties":{"category":"sportveld","name":"Burgemeester Buiningpark","operator":""}},{"type":"Feature","geometry":{"type":"Point","coordinates":[5.43981,52.141218]},"properties":{"category":"sportveld","name":"Sportpark De Wetering","operator":""}},{"type":"Feature","geometry":{"type":"Point","coordinates":[5.498881,52.134101]},"properties":{"category":"fietsenstalling","name":"","operator":""}},{"type":"Feature","geometry":{"type":"Point","coordinates":[5.41745,52.145912]},"properties":{"category":"fietsenstalling","name":"","operator":""}},{"type":"Feature","geometry":{"type":"Point","coordinates":[5.415858,52.122216]},"properties":{"category":"fietsenstalling","name":"","operator":""}},{"type":"Feature","geometry":{"type":"Point","coordinates":[5.420375,52.13917]},"properties":{"category":"fietsenstalling","name":"","operator":""}},{"type":"Feature","geometry":{"type":"Point","coordinates":[5.426908,52.127936]},"properties":{"category":"parkeergarage","name":"","operator":""}},{"type":"Feature","geometry":{"type":"Point","coordinates":[5.429314,52.129787]},"properties":{"category":"parkeergarage","name":"Hamershof","operator":""}},{"type":"Feature","geometry":{"type":"Point","coordinates":[5.423328,52.14423]},"properties":{"category":"parkeergarage","name":"dotNL Parking","operator":""}},{"type":"Feature","geometry":{"type":"Point","coordinates":[5.420513,52.143989]},"properties":{"category":"parkeergarage","name":"","operator":""}}]}