{"type":"FeatureCollection","metadata":{"gemeente":"Loon op Zand","slug":"loon-op-zand","by_category":{"bus_halte":43,"supermarkt":6,"inzamelpunt":2,"bibliotheek":2,"ov_knooppunt":1,"gemeentehuis":1,"middelbare_school":1,"sportveld":1,"winkelcentrum":1,"fietsenstalling":1},"total":59},"features":[{"type":"Feature","geometry":{"type":"Point","coordinates":[5.062436,51.631942]},"properties":{"category":"bus_halte","name":"Busstation","operator":""}},{"type":"Feature","geometry":{"type":"Point","coordinates":[5.069781,51.626424]},"properties":{"category":"bus_halte","name":"Kerkstraat","operator":""}},{"type":"Feature","geometry":{"type":"Point","coordinates":[5.066604,51.628882]},"properties":{"category":"bus_halte","name":"de Hoogt","operator":""}},{"type":"Feature","geometry":{"type":"Point","coordinates":[5.02793,51.651199]},"properties":{"category":"bus_halte","name":"Europalaan","operator":""}},{"type":"Feature","geometry":{"type":"Point","coordinates":[5.023323,51.654355]},"properties":{"category":"bus_halte","name":"Paulus Potterplein","operator":""}},{"type":"Feature","geometry":{"type":"Point","coordinates":[5.037674,51.652378]},"properties":{"category":"bus_halte","name":"Braakakker","operator":""}},{"type":"Feature","geometry":{"type":"Point","coordinates":[5.032421,51.654681]},"properties":{"category":"bus_halte","name":"Marktstraat","operator":""}},{"type":"Feature","geometry":{"type":"Point","coordinates":[5.053001,51.65497]},"properties":{"category":"bus_halte","name":"Horst","operator":""}},{"type":"Feature","geometry":{"type":"Point","coordinates":[5.024668,51.658355]},"properties":{"category":"bus_halte","name":"Prins Mauritsplein","operator":""}},{"type":"Feature","geometry":{"type":"Point","coordinates":[5.029795,51.659601]},"properties":{"category":"bus_halte","name":"Berndijksestraat","operator":""}},{"type":"Feature","geometry":{"type":"Point","coordinates":[5.030812,51.664474]},"properties":{"category":"bus_halte","name":"Jan de Rooijstraat","operator":""}},{"type":"Feature","geometry":{"type":"Point","coordinates":[5.042143,51.653574]},"properties":{"category":"bus_halte","name":"Efteling","operator":""}},{"type":"Feature","geometry":{"type":"Point","coordinates":[5.042185,51.653472]},"properties":{"category":"bus_halte","name":"Efteling","operator":""}},{"type":"Feature","geometry":{"type":"Point","coordinates":[5.040924,51.644468]},"properties":{"category":"bus_halte","name":"Boshalte","operator":"Efteling"}},{"type":"Feature","geometry":{"type":"Point","coordinates":[5.042103,51.646262]},"properties":{"category":"bus_halte","name":"Boshalte","operator":"Efteling"}},{"type":"Feature","geometry":{"type":"Point","coordinates":[5.038261,51.646414]},"properties":{"category":"bus_halte","name":"Boshalte","operator":"Efteling"}},{"type":"Feature","geometry":{"type":"Point","coordinates":[5.029553,51.659505]},"properties":{"category":"bus_halte","name":"Berndijksestraat","operator":""}},{"type":"Feature","geometry":{"type":"Point","coordinates":[5.036496,51.651565]},"properties":{"category":"bus_halte","name":"Braakakker","operator":""}},{"type":"Feature","geometry":{"type":"Point","coordinates":[5.080006,51.624389]},"properties":{"category":"bus_halte","name":"Ecliptica","operator":""}},{"type":"Feature","geometry":{"type":"Point","coordinates":[5.079365,51.624643]},"properties":{"category":"bus_halte","name":"Ecliptica","operator":""}},{"type":"Feature","geometry":{"type":"Point","coordinates":[5.029943,51.651269]},"properties":{"category":"bus_halte","name":"Europalaan","operator":""}},{"type":"Feature","geometry":{"type":"Point","coordinates":[5.053079,51.655132]},"properties":{"category":"bus_halte","name":"Horst","operator":""}},{"type":"Feature","geometry":{"type":"Point","coordinates":[5.030996,51.663548]},"properties":{"category":"bus_halte","name":"Jan de Rooijstraat","operator":""}},{"type":"Feature","geometry":{"type":"Point","coordinates":[5.023554,51.654364]},"properties":{"category":"bus_halte","name":"Paulus Potterplein","operator":""}},{"type":"Feature","geometry":{"type":"Point","coordinates":[5.024779,51.65833]},"properties":{"category":"bus_halte","name":"Prins Mauritsplein","operator":""}},{"type":"Feature","geometry":{"type":"Point","coordinates":[5.098885,51.623569]},"properties":{"category":"bus_halte","name":"Loonse Molenstraat","operator":""}},{"type":"Feature","geometry":{"type":"Point","coordinates":[5.075208,51.626639]},"properties":{"category":"bus_halte","name":"Oranjeplein","operator":""}},{"type":"Feature","geometry":{"type":"Point","coordinates":[5.075241,51.626703]},"properties":{"category":"bus_halte","name":"Oranjeplein","operator":""}},{"type":"Feature","geometry":{"type":"Point","coordinates":[5.07977,51.62776]},"properties":{"category":"bus_halte","name":"Kloosterstraat","operator":""}},{"type":"Feature","geometry":{"type":"Point","coordinates":[5.080285,51.627896]},"properties":{"category":"bus_halte","name":"Kloosterstraat","operator":""}},{"type":"Feature","geometry":{"type":"Point","coordinates":[5.032552,51.654844]},"properties":{"category":"bus_halte","name":"Marktstraat","operator":""}},{"type":"Feature","geometry":{"type":"Point","coordinates":[5.070615,51.62655]},"properties":{"category":"bus_halte","name":"Kerkstraat","operator":""}},{"type":"Feature","geometry":{"type":"Point","coordinates":[5.061624,51.631924]},"properties":{"category":"bus_halte","name":"Busstation","operator":""}},{"type":"Feature","geometry":{"type":"Point","coordinates":[5.032802,51.659492]},"properties":{"category":"bus_halte","name":"Anton Pieckplein","operator":""}},{"type":"Feature","geometry":{"type":"Point","coordinates":[5.03314,51.658808]},"properties":{"category":"bus_halte","name":"Anton Pieckplein","operator":""}},{"type":"Feature","geometry":{"type":"Point","coordinates":[5.04211,51.653194]},"properties":{"category":"bus_halte","name":"Kaatsheuvel (De Efteling)","operator":""}},{"type":"Feature","geometry":{"type":"Point","coordinates":[5.047165,51.644935]},"properties":{"category":"bus_halte","name":"Boshalte","operator":""}},{"type":"Feature","geometry":{"type":"Point","coordinates":[5.022878,51.662328]},"properties":{"category":"bus_halte","name":"Antoniusstraat","operator":""}},{"type":"Feature","geometry":{"type":"Point","coordinates":[5.039223,51.660643]},"properties":{"category":"bus_halte","name":"Mr. Völkerstraat","operator":""}},{"type":"Feature","geometry":{"type":"Point","coordinates":[5.082161,51.656583]},"properties":{"category":"bus_halte","name":"Roestelbergseweg","operator":""}},{"type":"Feature","geometry":{"type":"Point","coordinates":[5.088936,51.628476]},"properties":{"category":"bus_halte","name":"Kloosterstraat","operator":""}},{"type":"Feature","geometry":{"type":"Point","coordinates":[5.013539,51.624061]},"properties":{"category":"bus_halte","name":"Zijstraat","operator":""}},{"type":"Feature","geometry":{"type":"Point","coordinates":[5.012317,51.614628]},"properties":{"category":"bus_halte","name":"Galgeneind","operator":""}},{"type":"Feature","geometry":{"type":"Point","coordinates":[5.041913,51.653571]},"properties":{"category":"ov_knooppunt","name":"Efteling","operator":""}},{"type":"Feature","geometry":{"type":"Point","coordinates":[5.032625,51.659791]},"properties":{"category":"gemeentehuis","name":"Gemeentehuis Loon op Zand","operator":"Gemeente Loon op Zand"}},{"type":"Feature","geometry":{"type":"Point","coordinates":[5.0398,51.651636]},"properties":{"category":"inzamelpunt","name":"","operator":""}},{"type":"Feature","geometry":{"type":"Point","coordinates":[5.022792,51.666795]},"properties":{"category":"inzamelpunt","name":"","operator":""}},{"type":"Feature","geometry":{"type":"Point","coordinates":[5.071407,51.628494]},"properties":{"category":"bibliotheek","name":"de Bibliotheek Loon op Zand","operator":"de Bibliotheek Midden-Brabant"}},{"type":"Feature","geometry":{"type":"Point","coordinates":[5.032561,51.659607]},"properties":{"category":"bibliotheek","name":"de Bibliotheek Kaatsheuvel","operator":"de Bibliotheek Midden-Brabant"}},{"type":"Feature","geometry":{"type":"Point","coordinates":[5.028312,51.660963]},"properties":{"category":"middelbare_school","name":"Van Haestrecht College","operator":"Ons Middelbaar Onderwijs"}},{"type":"Feature","geometry":{"type":"Point","coordinates":[5.062025,51.660493]},"properties":{"category":"sportveld","name":"Zwembad","operator":""}},{"type":"Feature","geometry":{"type":"Point","coordinates":[5.035728,51.661697]},"properties":{"category":"winkelcentrum","name":"De Hoofdpoort","operator":""}},{"type":"Feature","geometry":{"type":"Point","coordinates":[5.073934,51.627903]},"properties":{"category":"supermarkt","name":"PLUS","operator":""}},{"type":"Feature","geometry":{"type":"Point","coordinates":[5.035744,51.661752]},"properties":{"category":"supermarkt","name":"Jumbo","operator":""}},{"type":"Feature","geometry":{"type":"Point","coordinates":[5.031622,51.662878]},"properties":{"category":"supermarkt","name":"ALDI","operator":""}},{"type":"Feature","geometry":{"type":"Point","coordinates":[5.034845,51.658796]},"properties":{"category":"supermarkt","name":"Lidl","operator":"Lidl Nederland GmbH"}},{"type":"Feature","geometry":{"type":"Point","coordinates":[5.039702,51.656741]},"properties":{"category":"supermarkt","name":"Albert Heijn","operator":""}},{"type":"Feature","geometry":{"type":"Point","coordinates":[5.034447,51.661435]},"properties":{"category":"supermarkt","name":"Food plus","operator":""}},{"type":"Feature","geometry":{"type":"Point","coordinates":[5.031676,51.662932]},"properties":{"category":"fietsenstalling","name":"","operator":""}}]}