{"type":"FeatureCollection","metadata":{"gemeente":"Meerssen","slug":"meerssen","by_category":{"bus_halte":50,"sportveld":8,"supermarkt":5,"fietsenstalling":3,"ns_station":2,"ov_knooppunt":2,"bibliotheek":2,"gemeentehuis":1,"parkeergarage":1,"p_and_r":1},"total":75},"features":[{"type":"Feature","geometry":{"type":"Point","coordinates":[5.736643,50.896776]},"properties":{"category":"ns_station","name":"Bunde","operator":""}},{"type":"Feature","geometry":{"type":"Point","coordinates":[5.750129,50.882607]},"properties":{"category":"ns_station","name":"Meerssen","operator":"ProRail;Arriva Personenvervoer Nederland"}},{"type":"Feature","geometry":{"type":"Point","coordinates":[5.732208,50.901001]},"properties":{"category":"bus_halte","name":"Geuloord","operator":""}},{"type":"Feature","geometry":{"type":"Point","coordinates":[5.736712,50.910502]},"properties":{"category":"bus_halte","name":"Brommelen","operator":""}},{"type":"Feature","geometry":{"type":"Point","coordinates":[5.758254,50.92819]},"properties":{"category":"bus_halte","name":"Bejaardencentrum","operator":""}},{"type":"Feature","geometry":{"type":"Point","coordinates":[5.769305,50.89949]},"properties":{"category":"bus_halte","name":"Putstraat","operator":""}},{"type":"Feature","geometry":{"type":"Point","coordinates":[5.769032,50.899323]},"properties":{"category":"bus_halte","name":"Putstraat","operator":""}},{"type":"Feature","geometry":{"type":"Point","coordinates":[5.774838,50.902679]},"properties":{"category":"bus_halte","name":"Vliek","operator":""}},{"type":"Feature","geometry":{"type":"Point","coordinates":[5.778368,50.903964]},"properties":{"category":"bus_halte","name":"Groot Berghem","operator":""}},{"type":"Feature","geometry":{"type":"Point","coordinates":[5.785002,50.906942]},"properties":{"category":"bus_halte","name":"Kerk","operator":""}},{"type":"Feature","geometry":{"type":"Point","coordinates":[5.785022,50.906798]},"properties":{"category":"bus_halte","name":"Kerk","operator":""}},{"type":"Feature","geometry":{"type":"Point","coordinates":[5.732171,50.892396]},"properties":{"category":"bus_halte","name":"Beukenlaan","operator":""}},{"type":"Feature","geometry":{"type":"Point","coordinates":[5.731401,50.892776]},"properties":{"category":"bus_halte","name":"Beukenlaan","operator":""}},{"type":"Feature","geometry":{"type":"Point","coordinates":[5.735562,50.89301]},"properties":{"category":"bus_halte","name":"Kastanjelaan","operator":""}},{"type":"Feature","geometry":{"type":"Point","coordinates":[5.736534,50.893726]},"properties":{"category":"bus_halte","name":"Kastanjelaan","operator":""}},{"type":"Feature","geometry":{"type":"Point","coordinates":[5.736287,50.896837]},"properties":{"category":"bus_halte","name":"Station Arriva","operator":""}},{"type":"Feature","geometry":{"type":"Point","coordinates":[5.741725,50.890079]},"properties":{"category":"bus_halte","name":"Viaduct","operator":""}},{"type":"Feature","geometry":{"type":"Point","coordinates":[5.73633,50.876734]},"properties":{"category":"bus_halte","name":"Ambyerweg","operator":""}},{"type":"Feature","geometry":{"type":"Point","coordinates":[5.746309,50.886232]},"properties":{"category":"bus_halte","name":"Bunderstraat","operator":""}},{"type":"Feature","geometry":{"type":"Point","coordinates":[5.750924,50.88288]},"properties":{"category":"bus_halte","name":"Station Arriva","operator":""}},{"type":"Feature","geometry":{"type":"Point","coordinates":[5.750979,50.885017]},"properties":{"category":"bus_halte","name":"Montfortlaan","operator":""}},{"type":"Feature","geometry":{"type":"Point","coordinates":[5.750622,50.881467]},"properties":{"category":"bus_halte","name":"Molenveldweg","operator":""}},{"type":"Feature","geometry":{"type":"Point","coordinates":[5.735562,50.876644]},"properties":{"category":"bus_halte","name":"Ambyerweg","operator":""}},{"type":"Feature","geometry":{"type":"Point","coordinates":[5.74549,50.87937]},"properties":{"category":"bus_halte","name":"Tussen de Bruggen","operator":""}},{"type":"Feature","geometry":{"type":"Point","coordinates":[5.742787,50.8891]},"properties":{"category":"bus_halte","name":"Viaduct","operator":""}},{"type":"Feature","geometry":{"type":"Point","coordinates":[5.760831,50.925901]},"properties":{"category":"bus_halte","name":"Kapelletje","operator":""}},{"type":"Feature","geometry":{"type":"Point","coordinates":[5.750274,50.924845]},"properties":{"category":"bus_halte","name":"Processieweg","operator":""}},{"type":"Feature","geometry":{"type":"Point","coordinates":[5.748923,50.929572]},"properties":{"category":"bus_halte","name":"Broekhoven","operator":""}},{"type":"Feature","geometry":{"type":"Point","coordinates":[5.757861,50.889376]},"properties":{"category":"bus_halte","name":"Op de Beukel","operator":""}},{"type":"Feature","geometry":{"type":"Point","coordinates":[5.757381,50.881575]},"properties":{"category":"bus_halte","name":"Stella Maris","operator":""}},{"type":"Feature","geometry":{"type":"Point","coordinates":[5.749187,50.922262]},"properties":{"category":"bus_halte","name":"Harmoniezaal","operator":""}},{"type":"Feature","geometry":{"type":"Point","coordinates":[5.748623,50.92247]},"properties":{"category":"bus_halte","name":"Harmoniezaal","operator":""}},{"type":"Feature","geometry":{"type":"Point","coordinates":[5.746071,50.886404]},"properties":{"category":"bus_halte","name":"Bunderstraat","operator":""}},{"type":"Feature","geometry":{"type":"Point","coordinates":[5.745319,50.879209]},"properties":{"category":"bus_halte","name":"Tussen de Bruggen","operator":""}},{"type":"Feature","geometry":{"type":"Point","coordinates":[5.75012,50.880893]},"properties":{"category":"bus_halte","name":"Molenveldweg","operator":""}},{"type":"Feature","geometry":{"type":"Point","coordinates":[5.751165,50.885068]},"properties":{"category":"bus_halte","name":"Montfortlaan","operator":""}},{"type":"Feature","geometry":{"type":"Point","coordinates":[5.757249,50.881692]},"properties":{"category":"bus_halte","name":"Stella Maris","operator":""}},{"type":"Feature","geometry":{"type":"Point","coordinates":[5.757898,50.889264]},"properties":{"category":"bus_halte","name":"Op de Beukel","operator":""}},{"type":"Feature","geometry":{"type":"Point","coordinates":[5.775081,50.902845]},"properties":{"category":"bus_halte","name":"Vliek","operator":""}},{"type":"Feature","geometry":{"type":"Point","coordinates":[5.778178,50.903988]},"properties":{"category":"bus_halte","name":"Groot Berghem","operator":""}},{"type":"Feature","geometry":{"type":"Point","coordinates":[5.73735,50.911441]},"properties":{"category":"bus_halte","name":"Brommelen","operator":""}},{"type":"Feature","geometry":{"type":"Point","coordinates":[5.760837,50.925733]},"properties":{"category":"bus_halte","name":"Kapelletje","operator":""}},{"type":"Feature","geometry":{"type":"Point","coordinates":[5.758325,50.92829]},"properties":{"category":"bus_halte","name":"Bejaardencentrum","operator":""}},{"type":"Feature","geometry":{"type":"Point","coordinates":[5.750347,50.925026]},"properties":{"category":"bus_halte","name":"Processieweg","operator":""}},{"type":"Feature","geometry":{"type":"Point","coordinates":[5.741549,50.923189]},"properties":{"category":"bus_halte","name":"Kanaalbrug","operator":""}},{"type":"Feature","geometry":{"type":"Point","coordinates":[5.741156,50.923016]},"properties":{"category":"bus_halte","name":"Kanaalbrug","operator":""}},{"type":"Feature","geometry":{"type":"Point","coordinates":[5.739948,50.9183]},"properties":{"category":"bus_halte","name":"Westbroek","operator":""}},{"type":"Feature","geometry":{"type":"Point","coordinates":[5.740078,50.918527]},"properties":{"category":"bus_halte","name":"Westbroek","operator":""}},{"type":"Feature","geometry":{"type":"Point","coordinates":[5.732057,50.90097]},"properties":{"category":"bus_halte","name":"Geuloord","operator":""}},{"type":"Feature","geometry":{"type":"Point","coordinates":[5.749654,50.928428]},"properties":{"category":"bus_halte","name":"Broekhoven","operator":""}},{"type":"Feature","geometry":{"type":"Point","coordinates":[5.732688,50.896761]},"properties":{"category":"bus_halte","name":"Sint Agnesplein","operator":""}},{"type":"Feature","geometry":{"type":"Point","coordinates":[5.732941,50.896819]},"properties":{"category":"bus_halte","name":"Sint Agnesplein","operator":""}},{"type":"Feature","geometry":{"type":"Point","coordinates":[5.736643,50.896776]},"properties":{"category":"ov_knooppunt","name":"Bunde","operator":""}},{"type":"Feature","geometry":{"type":"Point","coordinates":[5.750129,50.882607]},"properties":{"category":"ov_knooppunt","name":"Meerssen","operator":"ProRail;Arriva Personenvervoer Nederland"}},{"type":"Feature","geometry":{"type":"Point","coordinates":[5.753804,50.884122]},"properties":{"category":"gemeentehuis","name":"Klant Contact Centrum Meerssen","operator":"Gemeente Meerssen"}},{"type":"Feature","geometry":{"type":"Point","coordinates":[5.785377,50.906437]},"properties":{"category":"bibliotheek","name":"Bibliotheek Ulestraten","operator":""}},{"type":"Feature","geometry":{"type":"Point","coordinates":[5.750005,50.887667]},"properties":{"category":"bibliotheek","name":"Bibliotheek Meerssen","operator":"Bibliotheek Meerssen"}},{"type":"Feature","geometry":{"type":"Point","coordinates":[5.738793,50.880645]},"properties":{"category":"sportveld","name":"Sportpark RVU","operator":""}},{"type":"Feature","geometry":{"type":"Point","coordinates":[5.739929,50.878851]},"properties":{"category":"sportveld","name":"","operator":""}},{"type":"Feature","geometry":{"type":"Point","coordinates":[5.754783,50.882824]},"properties":{"category":"sportveld","name":"'t Beukeböschke","operator":""}},{"type":"Feature","geometry":{"type":"Point","coordinates":[5.754574,50.881007]},"properties":{"category":"sportveld","name":"TEN the Lifestyle Company | Fitness Meerssen","operator":""}},{"type":"Feature","geometry":{"type":"Point","coordinates":[5.752677,50.881321]},"properties":{"category":"sportveld","name":"Sporthal Marsana","operator":""}},{"type":"Feature","geometry":{"type":"Point","coordinates":[5.764578,50.88993]},"properties":{"category":"sportveld","name":"Stoeterij Vogelzang","operator":""}},{"type":"Feature","geometry":{"type":"Point","coordinates":[5.791197,50.909036]},"properties":{"category":"sportveld","name":"Sportpark De Gewannen","operator":""}},{"type":"Feature","geometry":{"type":"Point","coordinates":[5.744424,50.883649]},"properties":{"category":"sportveld","name":"Sportpark Marsana","operator":""}},{"type":"Feature","geometry":{"type":"Point","coordinates":[5.733652,50.895809]},"properties":{"category":"supermarkt","name":"Albert Heijn","operator":""}},{"type":"Feature","geometry":{"type":"Point","coordinates":[5.738531,50.875489]},"properties":{"category":"supermarkt","name":"Jumbo","operator":""}},{"type":"Feature","geometry":{"type":"Point","coordinates":[5.753641,50.885401]},"properties":{"category":"supermarkt","name":"Lidl","operator":"Lidl Nederland GmbH"}},{"type":"Feature","geometry":{"type":"Point","coordinates":[5.755746,50.884919]},"properties":{"category":"supermarkt","name":"Jumbo","operator":""}},{"type":"Feature","geometry":{"type":"Point","coordinates":[5.731598,50.896967]},"properties":{"category":"supermarkt","name":"Jumbo","operator":""}},{"type":"Feature","geometry":{"type":"Point","coordinates":[5.750207,50.882783]},"properties":{"category":"fietsenstalling","name":"Meersen Station","operator":""}},{"type":"Feature","geometry":{"type":"Point","coordinates":[5.736478,50.896418]},"properties":{"category":"fietsenstalling","name":"Bunde Station","operator":""}},{"type":"Feature","geometry":{"type":"Point","coordinates":[5.736241,50.897092]},"properties":{"category":"fietsenstalling","name":"Bunde Station","operator":""}},{"type":"Feature","geometry":{"type":"Point","coordinates":[5.752836,50.884213]},"properties":{"category":"parkeergarage","name":"Parkeergarage Proosdijpark","operator":""}},{"type":"Feature","geometry":{"type":"Point","coordinates":[5.750349,50.882436]},"properties":{"category":"p_and_r","name":"P+R","operator":"Q-Park"}}]}