{"type":"FeatureCollection","metadata":{"gemeente":"Middelburg","slug":"middelburg","by_category":{"bus_halte":89,"fietsenstalling":19,"supermarkt":14,"middelbare_school":12,"transformatorhuisje":10,"parkeergarage":9,"ov_knooppunt":5,"universiteit":4,"sportveld":3,"ns_station":2,"inzamelpunt":2,"winkelcentrum":2,"gemeentehuis":1,"bibliotheek":1,"hogeschool":1,"p_and_r":1},"total":175},"features":[{"type":"Feature","geometry":{"type":"Point","coordinates":[3.618124,51.495247]},"properties":{"category":"ns_station","name":"Middelburg","operator":""}},{"type":"Feature","geometry":{"type":"Point","coordinates":[3.669543,51.501532]},"properties":{"category":"ns_station","name":"Arnemuiden","operator":""}},{"type":"Feature","geometry":{"type":"Point","coordinates":[3.672851,51.505786]},"properties":{"category":"bus_halte","name":"Akkerlaan","operator":""}},{"type":"Feature","geometry":{"type":"Point","coordinates":[3.672801,51.505862]},"properties":{"category":"bus_halte","name":"Akkerlaan","operator":""}},{"type":"Feature","geometry":{"type":"Point","coordinates":[3.626458,51.497375]},"properties":{"category":"bus_halte","name":"Crematorium","operator":""}},{"type":"Feature","geometry":{"type":"Point","coordinates":[3.618156,51.498634]},"properties":{"category":"bus_halte","name":"Bierkaai","operator":""}},{"type":"Feature","geometry":{"type":"Point","coordinates":[3.618593,51.498715]},"properties":{"category":"bus_halte","name":"Bierkaai","operator":""}},{"type":"Feature","geometry":{"type":"Point","coordinates":[3.605914,51.528345]},"properties":{"category":"bus_halte","name":"Boudaenlaan","operator":""}},{"type":"Feature","geometry":{"type":"Point","coordinates":[3.606052,51.528358]},"properties":{"category":"bus_halte","name":"Boudaenlaan","operator":""}},{"type":"Feature","geometry":{"type":"Point","coordinates":[3.674153,51.504153]},"properties":{"category":"bus_halte","name":"Brakenburg","operator":""}},{"type":"Feature","geometry":{"type":"Point","coordinates":[3.674294,51.504227]},"properties":{"category":"bus_halte","name":"Brakenburg","operator":""}},{"type":"Feature","geometry":{"type":"Point","coordinates":[3.676316,51.498843]},"properties":{"category":"bus_halte","name":"Clasinastraat","operator":""}},{"type":"Feature","geometry":{"type":"Point","coordinates":[3.676194,51.498739]},"properties":{"category":"bus_halte","name":"Clasinastraat","operator":""}},{"type":"Feature","geometry":{"type":"Point","coordinates":[3.658319,51.48287]},"properties":{"category":"bus_halte","name":"Dorp","operator":""}},{"type":"Feature","geometry":{"type":"Point","coordinates":[3.658254,51.482998]},"properties":{"category":"bus_halte","name":"Dorp","operator":""}},{"type":"Feature","geometry":{"type":"Point","coordinates":[3.663465,51.519016]},"properties":{"category":"bus_halte","name":"Dorpsstraat","operator":""}},{"type":"Feature","geometry":{"type":"Point","coordinates":[3.663555,51.51904]},"properties":{"category":"bus_halte","name":"Dorpsstraat","operator":""}},{"type":"Feature","geometry":{"type":"Point","coordinates":[3.670384,51.504377]},"properties":{"category":"bus_halte","name":"Gerstakker","operator":""}},{"type":"Feature","geometry":{"type":"Point","coordinates":[3.670569,51.504601]},"properties":{"category":"bus_halte","name":"Gerstakker","operator":""}},{"type":"Feature","geometry":{"type":"Point","coordinates":[3.598306,51.484515]},"properties":{"category":"bus_halte","name":"Grevelingenstraat","operator":""}},{"type":"Feature","geometry":{"type":"Point","coordinates":[3.598701,51.485191]},"properties":{"category":"bus_halte","name":"Grevelingenstraat","operator":""}},{"type":"Feature","geometry":{"type":"Point","coordinates":[3.597726,51.482435]},"properties":{"category":"bus_halte","name":"Haringvlietstraat","operator":""}},{"type":"Feature","geometry":{"type":"Point","coordinates":[3.598155,51.483128]},"properties":{"category":"bus_halte","name":"Haringvlietstraat","operator":""}},{"type":"Feature","geometry":{"type":"Point","coordinates":[3.605489,51.49694]},"properties":{"category":"bus_halte","name":"Hof van Tange","operator":""}},{"type":"Feature","geometry":{"type":"Point","coordinates":[3.605452,51.497353]},"properties":{"category":"bus_halte","name":"Hof van Tange","operator":""}},{"type":"Feature","geometry":{"type":"Point","coordinates":[3.639797,51.499607]},"properties":{"category":"bus_halte","name":"Industrieweg","operator":""}},{"type":"Feature","geometry":{"type":"Point","coordinates":[3.639661,51.499758]},"properties":{"category":"bus_halte","name":"Industrieweg","operator":""}},{"type":"Feature","geometry":{"type":"Point","coordinates":[3.613577,51.48597]},"properties":{"category":"bus_halte","name":"J.H.Huyssenstraat","operator":""}},{"type":"Feature","geometry":{"type":"Point","coordinates":[3.61373,51.485994]},"properties":{"category":"bus_halte","name":"J.H.Huyssenstraat","operator":""}},{"type":"Feature","geometry":{"type":"Point","coordinates":[3.609967,51.495961]},"properties":{"category":"bus_halte","name":"Koestraat","operator":""}},{"type":"Feature","geometry":{"type":"Point","coordinates":[3.610619,51.496058]},"properties":{"category":"bus_halte","name":"Koestraat","operator":""}},{"type":"Feature","geometry":{"type":"Point","coordinates":[3.596594,51.504184]},"properties":{"category":"bus_halte","name":"Laan der Verenigde Naties","operator":""}},{"type":"Feature","geometry":{"type":"Point","coordinates":[3.604107,51.494592]},"properties":{"category":"bus_halte","name":"Langevieleweg","operator":""}},{"type":"Feature","geometry":{"type":"Point","coordinates":[3.603893,51.494627]},"properties":{"category":"bus_halte","name":"Langevieleweg","operator":""}},{"type":"Feature","geometry":{"type":"Point","coordinates":[3.614295,51.496368]},"properties":{"category":"bus_halte","name":"Nieuwe Haven (Centrum)","operator":""}},{"type":"Feature","geometry":{"type":"Point","coordinates":[3.605061,51.521931]},"properties":{"category":"bus_halte","name":"Noordweg","operator":""}},{"type":"Feature","geometry":{"type":"Point","coordinates":[3.605896,51.522601]},"properties":{"category":"bus_halte","name":"Noordweg","operator":""}},{"type":"Feature","geometry":{"type":"Point","coordinates":[3.602184,51.488739]},"properties":{"category":"bus_halte","name":"Oosterscheldestraat","operator":""}},{"type":"Feature","geometry":{"type":"Point","coordinates":[3.602073,51.489014]},"properties":{"category":"bus_halte","name":"Oosterscheldestraat","operator":""}},{"type":"Feature","geometry":{"type":"Point","coordinates":[3.702704,51.508727]},"properties":{"category":"bus_halte","name":"Oranjeplaat","operator":""}},{"type":"Feature","geometry":{"type":"Point","coordinates":[3.660284,51.484384]},"properties":{"category":"bus_halte","name":"Oude Rijksweg","operator":""}},{"type":"Feature","geometry":{"type":"Point","coordinates":[3.660551,51.484446]},"properties":{"category":"bus_halte","name":"Oude Rijksweg","operator":""}},{"type":"Feature","geometry":{"type":"Point","coordinates":[3.620997,51.481203]},"properties":{"category":"bus_halte","name":"Prinsenlaan","operator":""}},{"type":"Feature","geometry":{"type":"Point","coordinates":[3.620843,51.481376]},"properties":{"category":"bus_halte","name":"Prinsenlaan","operator":""}},{"type":"Feature","geometry":{"type":"Point","coordinates":[3.596199,51.506445]},"properties":{"category":"bus_halte","name":"RK Kerkhof","operator":""}},{"type":"Feature","geometry":{"type":"Point","coordinates":[3.596411,51.506556]},"properties":{"category":"bus_halte","name":"RK Kerkhof","operator":""}},{"type":"Feature","geometry":{"type":"Point","coordinates":[3.634311,51.479728]},"properties":{"category":"bus_halte","name":"Podium/Scalda","operator":""}},{"type":"Feature","geometry":{"type":"Point","coordinates":[3.618343,51.482408]},"properties":{"category":"bus_halte","name":"Reyershove","operator":""}},{"type":"Feature","geometry":{"type":"Point","coordinates":[3.617917,51.482368]},"properties":{"category":"bus_halte","name":"Reyershove","operator":""}},{"type":"Feature","geometry":{"type":"Point","coordinates":[3.623883,51.502765]},"properties":{"category":"bus_halte","name":"Nederstraat","operator":""}},{"type":"Feature","geometry":{"type":"Point","coordinates":[3.623748,51.502329]},"properties":{"category":"bus_halte","name":"Nederstraat","operator":""}},{"type":"Feature","geometry":{"type":"Point","coordinates":[3.601399,51.505616]},"properties":{"category":"bus_halte","name":"Sandberglaan","operator":""}},{"type":"Feature","geometry":{"type":"Point","coordinates":[3.601269,51.506511]},"properties":{"category":"bus_halte","name":"Sandberglaan","operator":""}},{"type":"Feature","geometry":{"type":"Point","coordinates":[3.612923,51.483201]},"properties":{"category":"bus_halte","name":"Spinhuisweg","operator":""}},{"type":"Feature","geometry":{"type":"Point","coordinates":[3.61273,51.483294]},"properties":{"category":"bus_halte","name":"Spinhuisweg","operator":""}},{"type":"Feature","geometry":{"type":"Point","coordinates":[3.616883,51.489205]},"properties":{"category":"bus_halte","name":"Statenlaan","operator":""}},{"type":"Feature","geometry":{"type":"Point","coordinates":[3.617198,51.489334]},"properties":{"category":"bus_halte","name":"Statenlaan","operator":""}},{"type":"Feature","geometry":{"type":"Point","coordinates":[3.619136,51.495737]},"properties":{"category":"bus_halte","name":"Station","operator":""}},{"type":"Feature","geometry":{"type":"Point","coordinates":[3.598387,51.481425]},"properties":{"category":"bus_halte","name":"Stromenweg","operator":""}},{"type":"Feature","geometry":{"type":"Point","coordinates":[3.59429,51.489965]},"properties":{"category":"bus_halte","name":"Toorenvliedt","operator":""}},{"type":"Feature","geometry":{"type":"Point","coordinates":[3.596411,51.490971]},"properties":{"category":"bus_halte","name":"Toorenvliedt","operator":""}},{"type":"Feature","geometry":{"type":"Point","coordinates":[3.628073,51.506109]},"properties":{"category":"bus_halte","name":"Veerseweg","operator":""}},{"type":"Feature","geometry":{"type":"Point","coordinates":[3.628098,51.506277]},"properties":{"category":"bus_halte","name":"Veerseweg","operator":""}},{"type":"Feature","geometry":{"type":"Point","coordinates":[3.619214,51.495648]},"properties":{"category":"bus_halte","name":"Station","operator":""}},{"type":"Feature","geometry":{"type":"Point","coordinates":[3.619173,51.495686]},"properties":{"category":"bus_halte","name":"Station","operator":""}},{"type":"Feature","geometry":{"type":"Point","coordinates":[3.630556,51.482097]},"properties":{"category":"bus_halte","name":"Althoornweg","operator":""}},{"type":"Feature","geometry":{"type":"Point","coordinates":[3.626675,51.497334]},"properties":{"category":"bus_halte","name":"Crematorium","operator":""}},{"type":"Feature","geometry":{"type":"Point","coordinates":[3.623083,51.492697]},"properties":{"category":"bus_halte","name":"Winkelcentrum Dauwendaele","operator":""}},{"type":"Feature","geometry":{"type":"Point","coordinates":[3.623172,51.49276]},"properties":{"category":"bus_halte","name":"Winkelcentrum Dauwendaele","operator":""}},{"type":"Feature","geometry":{"type":"Point","coordinates":[3.651781,51.494963]},"properties":{"category":"bus_halte","name":"Diodeweg","operator":""}},{"type":"Feature","geometry":{"type":"Point","coordinates":[3.651867,51.495028]},"properties":{"category":"bus_halte","name":"Diodeweg","operator":""}},{"type":"Feature","geometry":{"type":"Point","coordinates":[3.622487,51.489946]},"properties":{"category":"bus_halte","name":"Ewisland","operator":""}},{"type":"Feature","geometry":{"type":"Point","coordinates":[3.622471,51.48969]},"properties":{"category":"bus_halte","name":"Ewisland","operator":""}},{"type":"Feature","geometry":{"type":"Point","coordinates":[3.627927,51.487256]},"properties":{"category":"bus_halte","name":"Duunmede","operator":""}},{"type":"Feature","geometry":{"type":"Point","coordinates":[3.627896,51.487645]},"properties":{"category":"bus_halte","name":"Duunmede","operator":""}},{"type":"Feature","geometry":{"type":"Point","coordinates":[3.632348,51.48869]},"properties":{"category":"bus_halte","name":"Torenweg","operator":""}},{"type":"Feature","geometry":{"type":"Point","coordinates":[3.632115,51.488761]},"properties":{"category":"bus_halte","name":"Torenweg","operator":""}},{"type":"Feature","geometry":{"type":"Point","coordinates":[3.610438,51.495242]},"properties":{"category":"bus_halte","name":"Groene Woud","operator":""}},{"type":"Feature","geometry":{"type":"Point","coordinates":[3.619244,51.495798]},"properties":{"category":"bus_halte","name":"Station","operator":""}},{"type":"Feature","geometry":{"type":"Point","coordinates":[3.620965,51.507672]},"properties":{"category":"bus_halte","name":"Nassaulaan","operator":""}},{"type":"Feature","geometry":{"type":"Point","coordinates":[3.614552,51.506985]},"properties":{"category":"bus_halte","name":"Churchilllaan","operator":""}},{"type":"Feature","geometry":{"type":"Point","coordinates":[3.610043,51.506571]},"properties":{"category":"bus_halte","name":"Roggeveenhof","operator":""}},{"type":"Feature","geometry":{"type":"Point","coordinates":[3.609393,51.503926]},"properties":{"category":"bus_halte","name":"Noordpoortbrug","operator":""}},{"type":"Feature","geometry":{"type":"Point","coordinates":[3.606069,51.504785]},"properties":{"category":"bus_halte","name":"Hof ter Veste","operator":""}},{"type":"Feature","geometry":{"type":"Point","coordinates":[3.593893,51.504897]},"properties":{"category":"bus_halte","name":"Eben Haëzer","operator":""}},{"type":"Feature","geometry":{"type":"Point","coordinates":[3.597218,51.502033]},"properties":{"category":"bus_halte","name":"Hof 't Seijs","operator":""}},{"type":"Feature","geometry":{"type":"Point","coordinates":[3.602051,51.500704]},"properties":{"category":"bus_halte","name":"Olmenhof","operator":""}},{"type":"Feature","geometry":{"type":"Point","coordinates":[3.610592,51.497629]},"properties":{"category":"bus_halte","name":"Plein 1940","operator":""}},{"type":"Feature","geometry":{"type":"Point","coordinates":[3.622606,51.498815]},"properties":{"category":"bus_halte","name":"Maïsbaai","operator":""}},{"type":"Feature","geometry":{"type":"Point","coordinates":[3.61771,51.49637]},"properties":{"category":"bus_halte","name":"Station-Loskade","operator":""}},{"type":"Feature","geometry":{"type":"Point","coordinates":[3.605325,51.493305]},"properties":{"category":"bus_halte","name":"Poelendaeleweg/De Ruyterstraat","operator":""}},{"type":"Feature","geometry":{"type":"Point","coordinates":[3.606452,51.485468]},"properties":{"category":"ov_knooppunt","name":"","operator":""}},{"type":"Feature","geometry":{"type":"Point","coordinates":[3.606374,51.485357]},"properties":{"category":"ov_knooppunt","name":"","operator":""}},{"type":"Feature","geometry":{"type":"Point","coordinates":[3.619298,51.495704]},"properties":{"category":"ov_knooppunt","name":"Station Middelburg","operator":""}},{"type":"Feature","geometry":{"type":"Point","coordinates":[3.618124,51.495247]},"properties":{"category":"ov_knooppunt","name":"Middelburg","operator":""}},{"type":"Feature","geometry":{"type":"Point","coordinates":[3.669543,51.501532]},"properties":{"category":"ov_knooppunt","name":"Arnemuiden","operator":""}},{"type":"Feature","geometry":{"type":"Point","coordinates":[3.62436,51.497609]},"properties":{"category":"gemeentehuis","name":"Stadskantoor Middelburg","operator":"Gemeente Middelburg"}},{"type":"Feature","geometry":{"type":"Point","coordinates":[3.644599,51.497185]},"properties":{"category":"inzamelpunt","name":"Milieustraat Middelburg","operator":"Zeeuwse ReinigingsDienst B.V."}},{"type":"Feature","geometry":{"type":"Point","coordinates":[3.608376,51.508393]},"properties":{"category":"inzamelpunt","name":"","operator":""}},{"type":"Feature","geometry":{"type":"Point","coordinates":[3.615795,51.496322]},"properties":{"category":"bibliotheek","name":"Zeeuwse Bibliotheek Middelburg","operator":"ZB Bibliotheek van Zeeland"}},{"type":"Feature","geometry":{"type":"Point","coordinates":[3.649054,51.488023]},"properties":{"category":"transformatorhuisje","name":"","operator":""}},{"type":"Feature","geometry":{"type":"Point","coordinates":[3.648877,51.488133]},"properties":{"category":"transformatorhuisje","name":"","operator":""}},{"type":"Feature","geometry":{"type":"Point","coordinates":[3.648755,51.488217]},"properties":{"category":"transformatorhuisje","name":"","operator":""}},{"type":"Feature","geometry":{"type":"Point","coordinates":[3.649175,51.487941]},"properties":{"category":"transformatorhuisje","name":"","operator":""}},{"type":"Feature","geometry":{"type":"Point","coordinates":[3.626783,51.509791]},"properties":{"category":"transformatorhuisje","name":"","operator":""}},{"type":"Feature","geometry":{"type":"Point","coordinates":[3.628448,51.503415]},"properties":{"category":"transformatorhuisje","name":"","operator":""}},{"type":"Feature","geometry":{"type":"Point","coordinates":[3.655973,51.482662]},"properties":{"category":"transformatorhuisje","name":"","operator":""}},{"type":"Feature","geometry":{"type":"Point","coordinates":[3.659056,51.473002]},"properties":{"category":"transformatorhuisje","name":"","operator":""}},{"type":"Feature","geometry":{"type":"Point","coordinates":[3.59749,51.48225]},"properties":{"category":"transformatorhuisje","name":"","operator":""}},{"type":"Feature","geometry":{"type":"Point","coordinates":[3.681286,51.502225]},"properties":{"category":"transformatorhuisje","name":"","operator":""}},{"type":"Feature","geometry":{"type":"Point","coordinates":[3.611,51.499104]},"properties":{"category":"universiteit","name":"University College Roosevelt","operator":""}},{"type":"Feature","geometry":{"type":"Point","coordinates":[3.610498,51.499598]},"properties":{"category":"universiteit","name":"University College Roosevelt (Eleanor)","operator":""}},{"type":"Feature","geometry":{"type":"Point","coordinates":[3.609497,51.499798]},"properties":{"category":"universiteit","name":"University College Roosevelt (Anne)","operator":""}},{"type":"Feature","geometry":{"type":"Point","coordinates":[3.609617,51.495007]},"properties":{"category":"universiteit","name":"HZ University of Applied Sciences","operator":""}},{"type":"Feature","geometry":{"type":"Point","coordinates":[3.634501,51.480044]},"properties":{"category":"hogeschool","name":"ROC Scalda","operator":""}},{"type":"Feature","geometry":{"type":"Point","coordinates":[3.597288,51.491825]},"properties":{"category":"middelbare_school","name":"Asteria College","operator":"Ozeo"}},{"type":"Feature","geometry":{"type":"Point","coordinates":[3.612904,51.49891]},"properties":{"category":"middelbare_school","name":"Vanvoor","operator":"Ozeo"}},{"type":"Feature","geometry":{"type":"Point","coordinates":[3.597355,51.491701]},"properties":{"category":"middelbare_school","name":"Klimopschool","operator":"Ozeo"}},{"type":"Feature","geometry":{"type":"Point","coordinates":[3.610883,51.509532]},"properties":{"category":"middelbare_school","name":"Toorop Talent College","operator":"VO-Walcheren"}},{"type":"Feature","geometry":{"type":"Point","coordinates":[3.597017,51.501126]},"properties":{"category":"middelbare_school","name":"Van de Perre","operator":"VO-Walcheren"}},{"type":"Feature","geometry":{"type":"Point","coordinates":[3.595583,51.491414]},"properties":{"category":"middelbare_school","name":"Nehalennia","operator":"VO-Walcheren"}},{"type":"Feature","geometry":{"type":"Point","coordinates":[3.625828,51.49646]},"properties":{"category":"middelbare_school","name":"Calvijn College","operator":""}},{"type":"Feature","geometry":{"type":"Point","coordinates":[3.596564,51.494442]},"properties":{"category":"middelbare_school","name":"Nehalennia","operator":"VO-Walcheren"}},{"type":"Feature","geometry":{"type":"Point","coordinates":[3.597183,51.502511]},"properties":{"category":"middelbare_school","name":"Internationale Schakelklas Walcheren","operator":"VO-Walcheren"}},{"type":"Feature","geometry":{"type":"Point","coordinates":[3.597178,51.491647]},"properties":{"category":"middelbare_school","name":"Atalant","operator":"Ozeo"}},{"type":"Feature","geometry":{"type":"Point","coordinates":[3.610267,51.486155]},"properties":{"category":"middelbare_school","name":"Het Bolwerk","operator":"Ozeo"}},{"type":"Feature","geometry":{"type":"Point","coordinates":[3.609729,51.509768]},"properties":{"category":"middelbare_school","name":"De Vrijeschool","operator":"VO-Walcheren"}},{"type":"Feature","geometry":{"type":"Point","coordinates":[3.663302,51.484849]},"properties":{"category":"sportveld","name":"Sportpark Nieuwland","operator":""}},{"type":"Feature","geometry":{"type":"Point","coordinates":[3.593081,51.497642]},"properties":{"category":"sportveld","name":"De Sprong","operator":""}},{"type":"Feature","geometry":{"type":"Point","coordinates":[3.604378,51.52222]},"properties":{"category":"sportveld","name":"Sportpark de Brigge","operator":""}},{"type":"Feature","geometry":{"type":"Point","coordinates":[3.624474,51.481175]},"properties":{"category":"winkelcentrum","name":"Woonboulevard De Mortiere","operator":""}},{"type":"Feature","geometry":{"type":"Point","coordinates":[3.621994,51.492446]},"properties":{"category":"winkelcentrum","name":"Winkelcentrum Dauwendaele","operator":""}},{"type":"Feature","geometry":{"type":"Point","coordinates":[3.607634,51.496281]},"properties":{"category":"supermarkt","name":"Albert Heijn","operator":""}},{"type":"Feature","geometry":{"type":"Point","coordinates":[3.596922,51.504018]},"properties":{"category":"supermarkt","name":"ALDI","operator":""}},{"type":"Feature","geometry":{"type":"Point","coordinates":[3.603039,51.489193]},"properties":{"category":"supermarkt","name":"ALDI","operator":""}},{"type":"Feature","geometry":{"type":"Point","coordinates":[3.6217,51.492712]},"properties":{"category":"supermarkt","name":"Jumbo","operator":""}},{"type":"Feature","geometry":{"type":"Point","coordinates":[3.676643,51.500212]},"properties":{"category":"supermarkt","name":"Jumbo van Overveld","operator":""}},{"type":"Feature","geometry":{"type":"Point","coordinates":[3.621993,51.492496]},"properties":{"category":"supermarkt","name":"Siya Supermarkt en Slagerij","operator":""}},{"type":"Feature","geometry":{"type":"Point","coordinates":[3.622351,51.492796]},"properties":{"category":"supermarkt","name":"ALDI","operator":""}},{"type":"Feature","geometry":{"type":"Point","coordinates":[3.618285,51.485845]},"properties":{"category":"supermarkt","name":"Lidl","operator":"Lidl Nederland GmbH"}},{"type":"Feature","geometry":{"type":"Point","coordinates":[3.602396,51.48941]},"properties":{"category":"supermarkt","name":"Elmas Turkish supermarket","operator":""}},{"type":"Feature","geometry":{"type":"Point","coordinates":[3.602698,51.489185]},"properties":{"category":"supermarkt","name":"SPAR Beeke","operator":""}},{"type":"Feature","geometry":{"type":"Point","coordinates":[3.612508,51.509158]},"properties":{"category":"supermarkt","name":"Jumbo","operator":""}},{"type":"Feature","geometry":{"type":"Point","coordinates":[3.626405,51.507052]},"properties":{"category":"supermarkt","name":"Albert Heijn","operator":""}},{"type":"Feature","geometry":{"type":"Point","coordinates":[3.61622,51.499468]},"properties":{"category":"supermarkt","name":"De Tuin van Broeder Ludovicus","operator":""}},{"type":"Feature","geometry":{"type":"Point","coordinates":[3.617638,51.486396]},"properties":{"category":"supermarkt","name":"Jumbo","operator":""}},{"type":"Feature","geometry":{"type":"Point","coordinates":[3.669603,51.501417]},"properties":{"category":"fietsenstalling","name":"","operator":""}},{"type":"Feature","geometry":{"type":"Point","coordinates":[3.669378,51.501711]},"properties":{"category":"fietsenstalling","name":"","operator":""}},{"type":"Feature","geometry":{"type":"Point","coordinates":[3.616451,51.495966]},"properties":{"category":"fietsenstalling","name":"","operator":""}},{"type":"Feature","geometry":{"type":"Point","coordinates":[3.619348,51.504667]},"properties":{"category":"fietsenstalling","name":"","operator":""}},{"type":"Feature","geometry":{"type":"Point","coordinates":[3.621926,51.507078]},"properties":{"category":"fietsenstalling","name":"","operator":""}},{"type":"Feature","geometry":{"type":"Point","coordinates":[3.605698,51.499609]},"properties":{"category":"fietsenstalling","name":"","operator":""}},{"type":"Feature","geometry":{"type":"Point","coordinates":[3.596912,51.502182]},"properties":{"category":"fietsenstalling","name":"","operator":""}},{"type":"Feature","geometry":{"type":"Point","coordinates":[3.619867,51.495293]},"properties":{"category":"fietsenstalling","name":"","operator":""}},{"type":"Feature","geometry":{"type":"Point","coordinates":[3.628092,51.490802]},"properties":{"category":"fietsenstalling","name":"","operator":""}},{"type":"Feature","geometry":{"type":"Point","coordinates":[3.617316,51.496927]},"properties":{"category":"fietsenstalling","name":"","operator":""}},{"type":"Feature","geometry":{"type":"Point","coordinates":[3.624601,51.493646]},"properties":{"category":"fietsenstalling","name":"","operator":""}},{"type":"Feature","geometry":{"type":"Point","coordinates":[3.633209,51.483209]},"properties":{"category":"fietsenstalling","name":"","operator":""}},{"type":"Feature","geometry":{"type":"Point","coordinates":[3.612678,51.502314]},"properties":{"category":"fietsenstalling","name":"","operator":""}},{"type":"Feature","geometry":{"type":"Point","coordinates":[3.612809,51.502321]},"properties":{"category":"fietsenstalling","name":"","operator":""}},{"type":"Feature","geometry":{"type":"Point","coordinates":[3.613097,51.502336]},"properties":{"category":"fietsenstalling","name":"","operator":""}},{"type":"Feature","geometry":{"type":"Point","coordinates":[3.612956,51.502329]},"properties":{"category":"fietsenstalling","name":"","operator":""}},{"type":"Feature","geometry":{"type":"Point","coordinates":[3.613245,51.502344]},"properties":{"category":"fietsenstalling","name":"","operator":""}},{"type":"Feature","geometry":{"type":"Point","coordinates":[3.613359,51.502278]},"properties":{"category":"fietsenstalling","name":"","operator":""}},{"type":"Feature","geometry":{"type":"Point","coordinates":[3.613365,51.502215]},"properties":{"category":"fietsenstalling","name":"","operator":""}},{"type":"Feature","geometry":{"type":"Point","coordinates":[3.622622,51.497034]},"properties":{"category":"parkeergarage","name":"","operator":""}},{"type":"Feature","geometry":{"type":"Point","coordinates":[3.624948,51.509167]},"properties":{"category":"parkeergarage","name":"","operator":""}},{"type":"Feature","geometry":{"type":"Point","coordinates":[3.626707,51.506959]},"properties":{"category":"parkeergarage","name":"","operator":""}},{"type":"Feature","geometry":{"type":"Point","coordinates":[3.60567,51.497861]},"properties":{"category":"parkeergarage","name":"","operator":""}},{"type":"Feature","geometry":{"type":"Point","coordinates":[3.614729,51.495897]},"properties":{"category":"parkeergarage","name":"","operator":""}},{"type":"Feature","geometry":{"type":"Point","coordinates":[3.609371,51.496378]},"properties":{"category":"parkeergarage","name":"Parkeergarage Geere","operator":""}},{"type":"Feature","geometry":{"type":"Point","coordinates":[3.628255,51.51066]},"properties":{"category":"parkeergarage","name":"","operator":""}},{"type":"Feature","geometry":{"type":"Point","coordinates":[3.607766,51.49584]},"properties":{"category":"parkeergarage","name":"Parkeergarage Tref","operator":""}},{"type":"Feature","geometry":{"type":"Point","coordinates":[3.622455,51.492849]},"properties":{"category":"parkeergarage","name":"","operator":""}},{"type":"Feature","geometry":{"type":"Point","coordinates":[3.616955,51.494422]},"properties":{"category":"p_and_r","name":"P+R terrein Segeerssingel","operator":""}}]}