{"type":"FeatureCollection","metadata":{"gemeente":"Midden-Drenthe","slug":"midden-drenthe","by_category":{"bus_halte":138,"fietsenstalling":23,"ov_knooppunt":7,"sportveld":7,"transformatorhuisje":6,"inzamelpunt":3,"gemeentehuis":2,"bibliotheek":2,"middelbare_school":2,"ns_station":1,"p_and_r":1},"total":192},"features":[{"type":"Feature","geometry":{"type":"Point","coordinates":[6.521311,52.855065]},"properties":{"category":"ns_station","name":"Beilen","operator":""}},{"type":"Feature","geometry":{"type":"Point","coordinates":[6.429472,52.934968]},"properties":{"category":"bus_halte","name":"Wittewijk","operator":""}},{"type":"Feature","geometry":{"type":"Point","coordinates":[6.429651,52.935958]},"properties":{"category":"bus_halte","name":"Wittewijk","operator":""}},{"type":"Feature","geometry":{"type":"Point","coordinates":[6.429634,52.935308]},"properties":{"category":"bus_halte","name":"Wittewijk","operator":""}},{"type":"Feature","geometry":{"type":"Point","coordinates":[6.429548,52.936097]},"properties":{"category":"bus_halte","name":"Wittewijk","operator":""}},{"type":"Feature","geometry":{"type":"Point","coordinates":[6.434381,52.93945]},"properties":{"category":"bus_halte","name":"Vroomsdraai","operator":""}},{"type":"Feature","geometry":{"type":"Point","coordinates":[6.434182,52.939441]},"properties":{"category":"bus_halte","name":"Vroomsdraai","operator":""}},{"type":"Feature","geometry":{"type":"Point","coordinates":[6.439862,52.944211]},"properties":{"category":"bus_halte","name":"Veenhoopsbrug","operator":""}},{"type":"Feature","geometry":{"type":"Point","coordinates":[6.439706,52.943922]},"properties":{"category":"bus_halte","name":"Veenhoopsbrug","operator":""}},{"type":"Feature","geometry":{"type":"Point","coordinates":[6.444082,52.948143]},"properties":{"category":"bus_halte","name":"Centrum","operator":""}},{"type":"Feature","geometry":{"type":"Point","coordinates":[6.444235,52.948027]},"properties":{"category":"bus_halte","name":"Centrum","operator":""}},{"type":"Feature","geometry":{"type":"Point","coordinates":[6.44765,52.951425]},"properties":{"category":"bus_halte","name":"Polakkenbrug","operator":""}},{"type":"Feature","geometry":{"type":"Point","coordinates":[6.448979,52.95249]},"properties":{"category":"bus_halte","name":"Polakkenbrug","operator":""}},{"type":"Feature","geometry":{"type":"Point","coordinates":[6.456764,52.959878]},"properties":{"category":"bus_halte","name":"Jonkersbrug","operator":""}},{"type":"Feature","geometry":{"type":"Point","coordinates":[6.457055,52.959991]},"properties":{"category":"bus_halte","name":"Jonkersbrug","operator":""}},{"type":"Feature","geometry":{"type":"Point","coordinates":[6.466587,52.968973]},"properties":{"category":"bus_halte","name":"Grietmansbrug","operator":""}},{"type":"Feature","geometry":{"type":"Point","coordinates":[6.467671,52.969759]},"properties":{"category":"bus_halte","name":"Grietmansbrug","operator":""}},{"type":"Feature","geometry":{"type":"Point","coordinates":[6.477825,52.979398]},"properties":{"category":"bus_halte","name":"Schoolstraat","operator":""}},{"type":"Feature","geometry":{"type":"Point","coordinates":[6.478962,52.980264]},"properties":{"category":"bus_halte","name":"Schoolstraat","operator":""}},{"type":"Feature","geometry":{"type":"Point","coordinates":[6.485411,52.98621]},"properties":{"category":"bus_halte","name":"Van Liersbrug","operator":""}},{"type":"Feature","geometry":{"type":"Point","coordinates":[6.484856,52.985864]},"properties":{"category":"bus_halte","name":"Van Liersbrug","operator":""}},{"type":"Feature","geometry":{"type":"Point","coordinates":[6.520956,52.855196]},"properties":{"category":"bus_halte","name":"Station","operator":""}},{"type":"Feature","geometry":{"type":"Point","coordinates":[6.510543,52.857188]},"properties":{"category":"bus_halte","name":"Het Spiek","operator":""}},{"type":"Feature","geometry":{"type":"Point","coordinates":[6.510411,52.85725]},"properties":{"category":"bus_halte","name":"Het Spiek","operator":""}},{"type":"Feature","geometry":{"type":"Point","coordinates":[6.51462,52.857852]},"properties":{"category":"bus_halte","name":"Kerk","operator":""}},{"type":"Feature","geometry":{"type":"Point","coordinates":[6.514454,52.857737]},"properties":{"category":"bus_halte","name":"Kerk","operator":""}},{"type":"Feature","geometry":{"type":"Point","coordinates":[6.510111,52.858516]},"properties":{"category":"bus_halte","name":"Linthorst Homansweg","operator":""}},{"type":"Feature","geometry":{"type":"Point","coordinates":[6.51003,52.858603]},"properties":{"category":"bus_halte","name":"Linthorst Homansweg","operator":""}},{"type":"Feature","geometry":{"type":"Point","coordinates":[6.512946,52.861777]},"properties":{"category":"bus_halte","name":"Esweg","operator":""}},{"type":"Feature","geometry":{"type":"Point","coordinates":[6.51288,52.86187]},"properties":{"category":"bus_halte","name":"Esweg","operator":""}},{"type":"Feature","geometry":{"type":"Point","coordinates":[6.523832,52.855518]},"properties":{"category":"bus_halte","name":"Oosterstraat","operator":""}},{"type":"Feature","geometry":{"type":"Point","coordinates":[6.524061,52.855425]},"properties":{"category":"bus_halte","name":"Oosterstraat","operator":""}},{"type":"Feature","geometry":{"type":"Point","coordinates":[6.528373,52.850962]},"properties":{"category":"bus_halte","name":"Lieving 29","operator":""}},{"type":"Feature","geometry":{"type":"Point","coordinates":[6.528343,52.851223]},"properties":{"category":"bus_halte","name":"Lieving 29","operator":""}},{"type":"Feature","geometry":{"type":"Point","coordinates":[6.534853,52.851277]},"properties":{"category":"bus_halte","name":"Makkum","operator":""}},{"type":"Feature","geometry":{"type":"Point","coordinates":[6.534323,52.851277]},"properties":{"category":"bus_halte","name":"Makkum","operator":""}},{"type":"Feature","geometry":{"type":"Point","coordinates":[6.543735,52.851656]},"properties":{"category":"bus_halte","name":"Lieving","operator":""}},{"type":"Feature","geometry":{"type":"Point","coordinates":[6.543962,52.851735]},"properties":{"category":"bus_halte","name":"Lieving","operator":""}},{"type":"Feature","geometry":{"type":"Point","coordinates":[6.553869,52.85241]},"properties":{"category":"bus_halte","name":"Tolmaatsweg","operator":""}},{"type":"Feature","geometry":{"type":"Point","coordinates":[6.55417,52.852473]},"properties":{"category":"bus_halte","name":"Tolmaatsweg","operator":""}},{"type":"Feature","geometry":{"type":"Point","coordinates":[6.563361,52.855489]},"properties":{"category":"bus_halte","name":"Beilerstraat 1","operator":""}},{"type":"Feature","geometry":{"type":"Point","coordinates":[6.5637,52.855511]},"properties":{"category":"bus_halte","name":"Beilerstraat 1","operator":""}},{"type":"Feature","geometry":{"type":"Point","coordinates":[6.573231,52.853799]},"properties":{"category":"bus_halte","name":"Beilerstraat 7","operator":""}},{"type":"Feature","geometry":{"type":"Point","coordinates":[6.573381,52.8537]},"properties":{"category":"bus_halte","name":"Beilerstraat 7","operator":""}},{"type":"Feature","geometry":{"type":"Point","coordinates":[6.582065,52.852447]},"properties":{"category":"bus_halte","name":"Beilerstraat 18","operator":""}},{"type":"Feature","geometry":{"type":"Point","coordinates":[6.581904,52.852521]},"properties":{"category":"bus_halte","name":"Beilerstraat 18","operator":""}},{"type":"Feature","geometry":{"type":"Point","coordinates":[6.587192,52.852619]},"properties":{"category":"bus_halte","name":"Beilerstraat 24","operator":""}},{"type":"Feature","geometry":{"type":"Point","coordinates":[6.586728,52.852667]},"properties":{"category":"bus_halte","name":"Beilerstraat 24","operator":""}},{"type":"Feature","geometry":{"type":"Point","coordinates":[6.516851,52.866787]},"properties":{"category":"bus_halte","name":"Eursingerweg","operator":""}},{"type":"Feature","geometry":{"type":"Point","coordinates":[6.517148,52.866848]},"properties":{"category":"bus_halte","name":"Eursingerweg","operator":""}},{"type":"Feature","geometry":{"type":"Point","coordinates":[6.518571,52.870232]},"properties":{"category":"bus_halte","name":"Papenkamp","operator":""}},{"type":"Feature","geometry":{"type":"Point","coordinates":[6.519619,52.871541]},"properties":{"category":"bus_halte","name":"Papenkamp","operator":""}},{"type":"Feature","geometry":{"type":"Point","coordinates":[6.522258,52.875518]},"properties":{"category":"bus_halte","name":"De Hanekampen","operator":""}},{"type":"Feature","geometry":{"type":"Point","coordinates":[6.522346,52.875431]},"properties":{"category":"bus_halte","name":"De Hanekampen","operator":""}},{"type":"Feature","geometry":{"type":"Point","coordinates":[6.526763,52.88093]},"properties":{"category":"bus_halte","name":"Eursing/Driesprong","operator":""}},{"type":"Feature","geometry":{"type":"Point","coordinates":[6.52742,52.882516]},"properties":{"category":"bus_halte","name":"Eursing/Driesprong","operator":""}},{"type":"Feature","geometry":{"type":"Point","coordinates":[6.531529,52.888717]},"properties":{"category":"bus_halte","name":"Hooghalerbrug","operator":""}},{"type":"Feature","geometry":{"type":"Point","coordinates":[6.532159,52.889359]},"properties":{"category":"bus_halte","name":"Hooghalerbrug","operator":""}},{"type":"Feature","geometry":{"type":"Point","coordinates":[6.534652,52.89591]},"properties":{"category":"bus_halte","name":"Beilerweg 24","operator":""}},{"type":"Feature","geometry":{"type":"Point","coordinates":[6.535488,52.896831]},"properties":{"category":"bus_halte","name":"Beilerweg 24","operator":""}},{"type":"Feature","geometry":{"type":"Point","coordinates":[6.539606,52.907953]},"properties":{"category":"bus_halte","name":"Zwiggelterweg","operator":""}},{"type":"Feature","geometry":{"type":"Point","coordinates":[6.539916,52.908176]},"properties":{"category":"bus_halte","name":"Zwiggelterweg","operator":""}},{"type":"Feature","geometry":{"type":"Point","coordinates":[6.627566,52.843581]},"properties":{"category":"bus_halte","name":"Orvelterstraat 1","operator":""}},{"type":"Feature","geometry":{"type":"Point","coordinates":[6.627606,52.843649]},"properties":{"category":"bus_halte","name":"Orvelterstraat 1","operator":""}},{"type":"Feature","geometry":{"type":"Point","coordinates":[6.599961,52.852932]},"properties":{"category":"bus_halte","name":"Westeinde","operator":""}},{"type":"Feature","geometry":{"type":"Point","coordinates":[6.599863,52.852823]},"properties":{"category":"bus_halte","name":"Westeinde","operator":""}},{"type":"Feature","geometry":{"type":"Point","coordinates":[6.605758,52.850624]},"properties":{"category":"bus_halte","name":"Burg. van Weezelplein","operator":""}},{"type":"Feature","geometry":{"type":"Point","coordinates":[6.605688,52.850764]},"properties":{"category":"bus_halte","name":"Burg. van Weezelplein","operator":""}},{"type":"Feature","geometry":{"type":"Point","coordinates":[6.613546,52.84963]},"properties":{"category":"bus_halte","name":"Wilhelminastraat","operator":""}},{"type":"Feature","geometry":{"type":"Point","coordinates":[6.614182,52.849373]},"properties":{"category":"bus_halte","name":"Wilhelminastraat","operator":""}},{"type":"Feature","geometry":{"type":"Point","coordinates":[6.620192,52.846598]},"properties":{"category":"bus_halte","name":"Oosteinde","operator":""}},{"type":"Feature","geometry":{"type":"Point","coordinates":[6.619551,52.846835]},"properties":{"category":"bus_halte","name":"Oosteinde","operator":""}},{"type":"Feature","geometry":{"type":"Point","coordinates":[6.636775,52.843048]},"properties":{"category":"bus_halte","name":"Orvelterstraat 2","operator":""}},{"type":"Feature","geometry":{"type":"Point","coordinates":[6.637361,52.842937]},"properties":{"category":"bus_halte","name":"Orvelterstraat 2","operator":""}},{"type":"Feature","geometry":{"type":"Point","coordinates":[6.653442,52.841977]},"properties":{"category":"bus_halte","name":"Zuideresweg","operator":""}},{"type":"Feature","geometry":{"type":"Point","coordinates":[6.653373,52.841912]},"properties":{"category":"bus_halte","name":"Zuideresweg","operator":""}},{"type":"Feature","geometry":{"type":"Point","coordinates":[6.660796,52.840111]},"properties":{"category":"bus_halte","name":"De Wiet","operator":""}},{"type":"Feature","geometry":{"type":"Point","coordinates":[6.661328,52.840077]},"properties":{"category":"bus_halte","name":"De Wiet","operator":""}},{"type":"Feature","geometry":{"type":"Point","coordinates":[6.668916,52.838554]},"properties":{"category":"bus_halte","name":"Mr. J.B. Kanweg","operator":""}},{"type":"Feature","geometry":{"type":"Point","coordinates":[6.669089,52.838419]},"properties":{"category":"bus_halte","name":"Mr. J.B. Kanweg","operator":""}},{"type":"Feature","geometry":{"type":"Point","coordinates":[6.544956,52.931893]},"properties":{"category":"bus_halte","name":"Asserweg 4","operator":""}},{"type":"Feature","geometry":{"type":"Point","coordinates":[6.5454,52.932791]},"properties":{"category":"bus_halte","name":"Asserweg 4","operator":""}},{"type":"Feature","geometry":{"type":"Point","coordinates":[6.547168,52.93962]},"properties":{"category":"bus_halte","name":"Geelbroekerweg","operator":""}},{"type":"Feature","geometry":{"type":"Point","coordinates":[6.54677,52.938887]},"properties":{"category":"bus_halte","name":"Geelbroekerweg","operator":""}},{"type":"Feature","geometry":{"type":"Point","coordinates":[6.689853,52.831531]},"properties":{"category":"bus_halte","name":"Wezuperweg 1","operator":""}},{"type":"Feature","geometry":{"type":"Point","coordinates":[6.689764,52.831712]},"properties":{"category":"bus_halte","name":"Wezuperweg 1","operator":""}},{"type":"Feature","geometry":{"type":"Point","coordinates":[6.390087,52.89866]},"properties":{"category":"bus_halte","name":"Hendrik Oostdraai","operator":""}},{"type":"Feature","geometry":{"type":"Point","coordinates":[6.391223,52.899564]},"properties":{"category":"bus_halte","name":"Hendrik Oostdraai","operator":""}},{"type":"Feature","geometry":{"type":"Point","coordinates":[6.398109,52.906127]},"properties":{"category":"bus_halte","name":"Schultestraat","operator":""}},{"type":"Feature","geometry":{"type":"Point","coordinates":[6.409431,52.91661]},"properties":{"category":"bus_halte","name":"Spiersbrug","operator":""}},{"type":"Feature","geometry":{"type":"Point","coordinates":[6.419099,52.925577]},"properties":{"category":"bus_halte","name":"Leembrug","operator":""}},{"type":"Feature","geometry":{"type":"Point","coordinates":[6.479574,52.816894]},"properties":{"category":"bus_halte","name":"Oosterveldseweg","operator":""}},{"type":"Feature","geometry":{"type":"Point","coordinates":[6.479129,52.816908]},"properties":{"category":"bus_halte","name":"Oosterveldseweg","operator":""}},{"type":"Feature","geometry":{"type":"Point","coordinates":[6.486144,52.81762]},"properties":{"category":"bus_halte","name":"Wijsterseweg 17","operator":""}},{"type":"Feature","geometry":{"type":"Point","coordinates":[6.485634,52.81765]},"properties":{"category":"bus_halte","name":"Wijsterseweg 17","operator":""}},{"type":"Feature","geometry":{"type":"Point","coordinates":[6.515851,52.81517]},"properties":{"category":"bus_halte","name":"Meester Haddersstraat","operator":""}},{"type":"Feature","geometry":{"type":"Point","coordinates":[6.515474,52.815257]},"properties":{"category":"bus_halte","name":"Meester Haddersstraat","operator":""}},{"type":"Feature","geometry":{"type":"Point","coordinates":[6.609118,52.766576]},"properties":{"category":"bus_halte","name":"Haarweg","operator":""}},{"type":"Feature","geometry":{"type":"Point","coordinates":[6.609373,52.766656]},"properties":{"category":"bus_halte","name":"Haarweg","operator":""}},{"type":"Feature","geometry":{"type":"Point","coordinates":[6.612353,52.801088]},"properties":{"category":"bus_halte","name":"Mantingerdijk","operator":""}},{"type":"Feature","geometry":{"type":"Point","coordinates":[6.612228,52.801076]},"properties":{"category":"bus_halte","name":"Mantingerdijk","operator":""}},{"type":"Feature","geometry":{"type":"Point","coordinates":[6.62485,52.819761]},"properties":{"category":"bus_halte","name":"Spekdiek","operator":""}},{"type":"Feature","geometry":{"type":"Point","coordinates":[6.623984,52.820041]},"properties":{"category":"bus_halte","name":"Spekdiek","operator":""}},{"type":"Feature","geometry":{"type":"Point","coordinates":[6.628714,52.81134]},"properties":{"category":"bus_halte","name":"Balinge","operator":""}},{"type":"Feature","geometry":{"type":"Point","coordinates":[6.629225,52.811527]},"properties":{"category":"bus_halte","name":"Balinge","operator":""}},{"type":"Feature","geometry":{"type":"Point","coordinates":[6.510982,52.864001]},"properties":{"category":"bus_halte","name":"Berkenlaan","operator":""}},{"type":"Feature","geometry":{"type":"Point","coordinates":[6.510162,52.864046]},"properties":{"category":"bus_halte","name":"Berkenlaan","operator":""}},{"type":"Feature","geometry":{"type":"Point","coordinates":[6.498548,52.89484]},"properties":{"category":"bus_halte","name":"Westeinde","operator":""}},{"type":"Feature","geometry":{"type":"Point","coordinates":[6.445595,52.908103]},"properties":{"category":"bus_halte","name":"Oranje 8","operator":""}},{"type":"Feature","geometry":{"type":"Point","coordinates":[6.44582,52.908194]},"properties":{"category":"bus_halte","name":"Oranje 8","operator":""}},{"type":"Feature","geometry":{"type":"Point","coordinates":[6.409718,52.915768]},"properties":{"category":"bus_halte","name":"Spiersbrug","operator":""}},{"type":"Feature","geometry":{"type":"Point","coordinates":[6.409827,52.915824]},"properties":{"category":"bus_halte","name":"Spiersbrug","operator":""}},{"type":"Feature","geometry":{"type":"Point","coordinates":[6.513371,52.864152]},"properties":{"category":"bus_halte","name":"Sportlaan","operator":""}},{"type":"Feature","geometry":{"type":"Point","coordinates":[6.513969,52.864115]},"properties":{"category":"bus_halte","name":"Sportlaan","operator":""}},{"type":"Feature","geometry":{"type":"Point","coordinates":[6.376268,52.885945]},"properties":{"category":"bus_halte","name":"Rijksweg 254","operator":""}},{"type":"Feature","geometry":{"type":"Point","coordinates":[6.377177,52.88665]},"properties":{"category":"bus_halte","name":"Rijksweg 254","operator":""}},{"type":"Feature","geometry":{"type":"Point","coordinates":[6.397611,52.905504]},"properties":{"category":"bus_halte","name":"Schultestraat","operator":""}},{"type":"Feature","geometry":{"type":"Point","coordinates":[6.409648,52.916651]},"properties":{"category":"bus_halte","name":"Spiersbrug","operator":""}},{"type":"Feature","geometry":{"type":"Point","coordinates":[6.421239,52.927375]},"properties":{"category":"bus_halte","name":"Leembrug","operator":""}},{"type":"Feature","geometry":{"type":"Point","coordinates":[6.544073,52.919661]},"properties":{"category":"bus_halte","name":"Busstation","operator":""}},{"type":"Feature","geometry":{"type":"Point","coordinates":[6.544195,52.919614]},"properties":{"category":"bus_halte","name":"Busstation","operator":""}},{"type":"Feature","geometry":{"type":"Point","coordinates":[6.613987,52.805067]},"properties":{"category":"bus_halte","name":"De Palts","operator":""}},{"type":"Feature","geometry":{"type":"Point","coordinates":[6.614259,52.805199]},"properties":{"category":"bus_halte","name":"De Palts","operator":""}},{"type":"Feature","geometry":{"type":"Point","coordinates":[6.467432,52.81739]},"properties":{"category":"bus_halte","name":"Brinkkampen","operator":""}},{"type":"Feature","geometry":{"type":"Point","coordinates":[6.467539,52.817539]},"properties":{"category":"bus_halte","name":"Brinkkampen","operator":""}},{"type":"Feature","geometry":{"type":"Point","coordinates":[6.515304,52.860905]},"properties":{"category":"bus_halte","name":"Karspelstraat","operator":""}},{"type":"Feature","geometry":{"type":"Point","coordinates":[6.515526,52.861021]},"properties":{"category":"bus_halte","name":"Karspelstraat","operator":""}},{"type":"Feature","geometry":{"type":"Point","coordinates":[6.396358,52.905629]},"properties":{"category":"bus_halte","name":"Drostenstraat","operator":""}},{"type":"Feature","geometry":{"type":"Point","coordinates":[6.498482,52.894885]},"properties":{"category":"bus_halte","name":"Westeinde","operator":""}},{"type":"Feature","geometry":{"type":"Point","coordinates":[6.532335,52.846602]},"properties":{"category":"bus_halte","name":"Molen","operator":""}},{"type":"Feature","geometry":{"type":"Point","coordinates":[6.534302,52.843125]},"properties":{"category":"bus_halte","name":"Holthe","operator":""}},{"type":"Feature","geometry":{"type":"Point","coordinates":[6.534449,52.843135]},"properties":{"category":"bus_halte","name":"Holthe","operator":""}},{"type":"Feature","geometry":{"type":"Point","coordinates":[6.51628,52.81803]},"properties":{"category":"bus_halte","name":"Sportweg","operator":""}},{"type":"Feature","geometry":{"type":"Point","coordinates":[6.516204,52.817947]},"properties":{"category":"bus_halte","name":"Sportweg","operator":""}},{"type":"Feature","geometry":{"type":"Point","coordinates":[6.532204,52.846588]},"properties":{"category":"bus_halte","name":"Molen","operator":""}},{"type":"Feature","geometry":{"type":"Point","coordinates":[6.660604,52.81364]},"properties":{"category":"bus_halte","name":"Kerkweg","operator":""}},{"type":"Feature","geometry":{"type":"Point","coordinates":[6.66064,52.813714]},"properties":{"category":"bus_halte","name":"Kerkweg","operator":""}},{"type":"Feature","geometry":{"type":"Point","coordinates":[6.604736,52.76793]},"properties":{"category":"bus_halte","name":"Lijsterstraat","operator":""}},{"type":"Feature","geometry":{"type":"Point","coordinates":[6.604782,52.767843]},"properties":{"category":"bus_halte","name":"Lijsterstraat","operator":""}},{"type":"Feature","geometry":{"type":"Point","coordinates":[6.518345,52.894773]},"properties":{"category":"ov_knooppunt","name":"","operator":""}},{"type":"Feature","geometry":{"type":"Point","coordinates":[6.518262,52.894656]},"properties":{"category":"ov_knooppunt","name":"","operator":""}},{"type":"Feature","geometry":{"type":"Point","coordinates":[6.521311,52.855065]},"properties":{"category":"ov_knooppunt","name":"Beilen","operator":""}},{"type":"Feature","geometry":{"type":"Point","coordinates":[6.531312,52.830575]},"properties":{"category":"ov_knooppunt","name":"","operator":""}},{"type":"Feature","geometry":{"type":"Point","coordinates":[6.531061,52.830518]},"properties":{"category":"ov_knooppunt","name":"","operator":""}},{"type":"Feature","geometry":{"type":"Point","coordinates":[6.530689,52.858325]},"properties":{"category":"ov_knooppunt","name":"","operator":""}},{"type":"Feature","geometry":{"type":"Point","coordinates":[6.530788,52.858263]},"properties":{"category":"ov_knooppunt","name":"","operator":""}},{"type":"Feature","geometry":{"type":"Point","coordinates":[6.4507,52.953442]},"properties":{"category":"gemeentehuis","name":"Gemeentehuis Midden-Drenthe","operator":"Gemeente Midden-Drenthe"}},{"type":"Feature","geometry":{"type":"Point","coordinates":[6.514872,52.860478]},"properties":{"category":"gemeentehuis","name":"Gemeentehuis Midden-Drenthe","operator":"Gemeente Midden-Drenthe"}},{"type":"Feature","geometry":{"type":"Point","coordinates":[6.666495,52.833745]},"properties":{"category":"inzamelpunt","name":"","operator":"Landal Orverltermarke"}},{"type":"Feature","geometry":{"type":"Point","coordinates":[6.55913,52.920621]},"properties":{"category":"inzamelpunt","name":"","operator":"Camping Tikvah"}},{"type":"Feature","geometry":{"type":"Point","coordinates":[6.523041,52.874263]},"properties":{"category":"inzamelpunt","name":"Milieustraat Midden-Drenthe","operator":"Gemeente Midden-Drenthe"}},{"type":"Feature","geometry":{"type":"Point","coordinates":[6.512703,52.86058]},"properties":{"category":"bibliotheek","name":"Bibliotheek Beilen","operator":""}},{"type":"Feature","geometry":{"type":"Point","coordinates":[6.448476,52.946084]},"properties":{"category":"bibliotheek","name":"","operator":""}},{"type":"Feature","geometry":{"type":"Point","coordinates":[6.518673,52.887731]},"properties":{"category":"transformatorhuisje","name":"","operator":""}},{"type":"Feature","geometry":{"type":"Point","coordinates":[6.518541,52.88832]},"properties":{"category":"transformatorhuisje","name":"","operator":""}},{"type":"Feature","geometry":{"type":"Point","coordinates":[6.496315,52.860906]},"properties":{"category":"transformatorhuisje","name":"","operator":""}},{"type":"Feature","geometry":{"type":"Point","coordinates":[6.50534,52.849211]},"properties":{"category":"transformatorhuisje","name":"","operator":""}},{"type":"Feature","geometry":{"type":"Point","coordinates":[6.503121,52.788428]},"properties":{"category":"transformatorhuisje","name":"","operator":""}},{"type":"Feature","geometry":{"type":"Point","coordinates":[6.506642,52.84749]},"properties":{"category":"transformatorhuisje","name":"","operator":""}},{"type":"Feature","geometry":{"type":"Point","coordinates":[6.507824,52.85833]},"properties":{"category":"middelbare_school","name":"Vincent van Gogh Lyceum","operator":""}},{"type":"Feature","geometry":{"type":"Point","coordinates":[6.508333,52.857735]},"properties":{"category":"middelbare_school","name":"Volta","operator":"NassauVincent"}},{"type":"Feature","geometry":{"type":"Point","coordinates":[6.496513,52.894854]},"properties":{"category":"sportveld","name":"Gymnastieklokaal Hijken","operator":""}},{"type":"Feature","geometry":{"type":"Point","coordinates":[6.601259,52.849326]},"properties":{"category":"sportveld","name":"De Börkerkoel","operator":""}},{"type":"Feature","geometry":{"type":"Point","coordinates":[6.512836,52.864664]},"properties":{"category":"sportveld","name":"","operator":""}},{"type":"Feature","geometry":{"type":"Point","coordinates":[6.508525,52.869823]},"properties":{"category":"sportveld","name":"Sportpark Noord-West","operator":""}},{"type":"Feature","geometry":{"type":"Point","coordinates":[6.38262,52.904849]},"properties":{"category":"sportveld","name":"Bosbad Hoogersmilde","operator":"Stichting Recreatie Hoogersmilde"}},{"type":"Feature","geometry":{"type":"Point","coordinates":[6.512863,52.81999]},"properties":{"category":"sportveld","name":"","operator":""}},{"type":"Feature","geometry":{"type":"Point","coordinates":[6.601717,52.769925]},"properties":{"category":"sportveld","name":"Sportpark Nieuw-Balinge","operator":""}},{"type":"Feature","geometry":{"type":"Point","coordinates":[6.587607,52.853457]},"properties":{"category":"fietsenstalling","name":"","operator":""}},{"type":"Feature","geometry":{"type":"Point","coordinates":[6.521629,52.863319]},"properties":{"category":"fietsenstalling","name":"","operator":""}},{"type":"Feature","geometry":{"type":"Point","coordinates":[6.605457,52.767901]},"properties":{"category":"fietsenstalling","name":"","operator":""}},{"type":"Feature","geometry":{"type":"Point","coordinates":[6.444028,52.947786]},"properties":{"category":"fietsenstalling","name":"","operator":""}},{"type":"Feature","geometry":{"type":"Point","coordinates":[6.444074,52.947827]},"properties":{"category":"fietsenstalling","name":"","operator":""}},{"type":"Feature","geometry":{"type":"Point","coordinates":[6.44412,52.947871]},"properties":{"category":"fietsenstalling","name":"","operator":""}},{"type":"Feature","geometry":{"type":"Point","coordinates":[6.444166,52.947913]},"properties":{"category":"fietsenstalling","name":"","operator":""}},{"type":"Feature","geometry":{"type":"Point","coordinates":[6.521318,52.855821]},"properties":{"category":"fietsenstalling","name":"","operator":""}},{"type":"Feature","geometry":{"type":"Point","coordinates":[6.521401,52.855911]},"properties":{"category":"fietsenstalling","name":"","operator":""}},{"type":"Feature","geometry":{"type":"Point","coordinates":[6.521375,52.855966]},"properties":{"category":"fietsenstalling","name":"","operator":""}},{"type":"Feature","geometry":{"type":"Point","coordinates":[6.521333,52.855921]},"properties":{"category":"fietsenstalling","name":"","operator":""}},{"type":"Feature","geometry":{"type":"Point","coordinates":[6.521301,52.855773]},"properties":{"category":"fietsenstalling","name":"","operator":""}},{"type":"Feature","geometry":{"type":"Point","coordinates":[6.521284,52.855726]},"properties":{"category":"fietsenstalling","name":"","operator":""}},{"type":"Feature","geometry":{"type":"Point","coordinates":[6.521266,52.855676]},"properties":{"category":"fietsenstalling","name":"","operator":""}},{"type":"Feature","geometry":{"type":"Point","coordinates":[6.521246,52.855629]},"properties":{"category":"fietsenstalling","name":"","operator":""}},{"type":"Feature","geometry":{"type":"Point","coordinates":[6.52123,52.85558]},"properties":{"category":"fietsenstalling","name":"","operator":""}},{"type":"Feature","geometry":{"type":"Point","coordinates":[6.521211,52.855531]},"properties":{"category":"fietsenstalling","name":"","operator":""}},{"type":"Feature","geometry":{"type":"Point","coordinates":[6.521192,52.855482]},"properties":{"category":"fietsenstalling","name":"","operator":""}},{"type":"Feature","geometry":{"type":"Point","coordinates":[6.521176,52.855433]},"properties":{"category":"fietsenstalling","name":"","operator":""}},{"type":"Feature","geometry":{"type":"Point","coordinates":[6.521157,52.855385]},"properties":{"category":"fietsenstalling","name":"","operator":""}},{"type":"Feature","geometry":{"type":"Point","coordinates":[6.521138,52.855337]},"properties":{"category":"fietsenstalling","name":"","operator":""}},{"type":"Feature","geometry":{"type":"Point","coordinates":[6.521102,52.855246]},"properties":{"category":"fietsenstalling","name":"","operator":""}},{"type":"Feature","geometry":{"type":"Point","coordinates":[6.52112,52.855289]},"properties":{"category":"fietsenstalling","name":"","operator":""}},{"type":"Feature","geometry":{"type":"Point","coordinates":[6.520337,52.8539]},"properties":{"category":"p_and_r","name":"P+R Stationslaan","operator":""}}]}