{"type":"FeatureCollection","metadata":{"gemeente":"Montfoort","slug":"montfoort","by_category":{"bus_halte":49,"transformatorhuisje":3,"supermarkt":3,"bibliotheek":2,"sportveld":2,"gemeentehuis":1,"middelbare_school":1,"fietsenstalling":1},"total":62},"features":[{"type":"Feature","geometry":{"type":"Point","coordinates":[4.907684,52.023879]},"properties":{"category":"bus_halte","name":"De Schans","operator":"Syntus Utrecht"}},{"type":"Feature","geometry":{"type":"Point","coordinates":[4.908475,52.023751]},"properties":{"category":"bus_halte","name":"De Schans","operator":"Syntus Utrecht"}},{"type":"Feature","geometry":{"type":"Point","coordinates":[4.919244,52.025335]},"properties":{"category":"bus_halte","name":"Nieuw Kooilust","operator":"Syntus Utrecht"}},{"type":"Feature","geometry":{"type":"Point","coordinates":[4.91978,52.025298]},"properties":{"category":"bus_halte","name":"Nieuw Kooilust","operator":"Syntus Utrecht"}},{"type":"Feature","geometry":{"type":"Point","coordinates":[4.92664,52.027105]},"properties":{"category":"bus_halte","name":"Nieuweweg","operator":"Syntus Utrecht"}},{"type":"Feature","geometry":{"type":"Point","coordinates":[4.927463,52.02743]},"properties":{"category":"bus_halte","name":"Nieuweweg","operator":""}},{"type":"Feature","geometry":{"type":"Point","coordinates":[4.913055,52.063982]},"properties":{"category":"bus_halte","name":"Van Rietlaan","operator":""}},{"type":"Feature","geometry":{"type":"Point","coordinates":[4.91909,52.062027]},"properties":{"category":"bus_halte","name":"Laan van Rapijnen","operator":""}},{"type":"Feature","geometry":{"type":"Point","coordinates":[4.919203,52.062074]},"properties":{"category":"bus_halte","name":"Laan van Rapijnen","operator":""}},{"type":"Feature","geometry":{"type":"Point","coordinates":[4.90359,52.068968]},"properties":{"category":"bus_halte","name":"Hoogspanningskabels","operator":""}},{"type":"Feature","geometry":{"type":"Point","coordinates":[4.903809,52.069029]},"properties":{"category":"bus_halte","name":"Hoogspanningskabels","operator":""}},{"type":"Feature","geometry":{"type":"Point","coordinates":[4.912967,52.064209]},"properties":{"category":"bus_halte","name":"Van Rietlaan","operator":""}},{"type":"Feature","geometry":{"type":"Point","coordinates":[4.916095,52.064324]},"properties":{"category":"bus_halte","name":"Het Jaagpad","operator":""}},{"type":"Feature","geometry":{"type":"Point","coordinates":[4.915882,52.064593]},"properties":{"category":"bus_halte","name":"Het Jaagpad","operator":""}},{"type":"Feature","geometry":{"type":"Point","coordinates":[4.932365,52.031962]},"properties":{"category":"bus_halte","name":"'t Hemeltje","operator":"Syntus Utrecht"}},{"type":"Feature","geometry":{"type":"Point","coordinates":[4.933031,52.032391]},"properties":{"category":"bus_halte","name":"'t Hemeltje","operator":""}},{"type":"Feature","geometry":{"type":"Point","coordinates":[4.938902,52.038349]},"properties":{"category":"bus_halte","name":"Groen","operator":"Syntus Utrecht"}},{"type":"Feature","geometry":{"type":"Point","coordinates":[4.938478,52.037957]},"properties":{"category":"bus_halte","name":"Groen","operator":"Syntus Utrecht"}},{"type":"Feature","geometry":{"type":"Point","coordinates":[4.92967,52.046789]},"properties":{"category":"bus_halte","name":"Het Eng","operator":""}},{"type":"Feature","geometry":{"type":"Point","coordinates":[4.930356,52.045602]},"properties":{"category":"bus_halte","name":"Het Eng","operator":""}},{"type":"Feature","geometry":{"type":"Point","coordinates":[4.95732,52.039614]},"properties":{"category":"bus_halte","name":"Wollegras","operator":""}},{"type":"Feature","geometry":{"type":"Point","coordinates":[4.949767,52.043731]},"properties":{"category":"bus_halte","name":"Kasteelplein","operator":"Syntus Utrecht"}},{"type":"Feature","geometry":{"type":"Point","coordinates":[4.950494,52.043746]},"properties":{"category":"bus_halte","name":"Kasteelplein","operator":"Syntus Utrecht"}},{"type":"Feature","geometry":{"type":"Point","coordinates":[4.953626,52.045515]},"properties":{"category":"bus_halte","name":"Heeswijkerpoort","operator":"Syntus Utrecht"}},{"type":"Feature","geometry":{"type":"Point","coordinates":[4.953508,52.045193]},"properties":{"category":"bus_halte","name":"Heeswijkerpoort","operator":"Syntus Utrecht"}},{"type":"Feature","geometry":{"type":"Point","coordinates":[4.953055,52.048123]},"properties":{"category":"bus_halte","name":"Keizerrijk","operator":"Syntus Utrecht"}},{"type":"Feature","geometry":{"type":"Point","coordinates":[4.956782,52.045938]},"properties":{"category":"bus_halte","name":"Anne Franklaan","operator":""}},{"type":"Feature","geometry":{"type":"Point","coordinates":[4.9569,52.046465]},"properties":{"category":"bus_halte","name":"Anne Franklaan","operator":""}},{"type":"Feature","geometry":{"type":"Point","coordinates":[4.922996,52.057422]},"properties":{"category":"bus_halte","name":"Trienali","operator":""}},{"type":"Feature","geometry":{"type":"Point","coordinates":[4.922672,52.05765]},"properties":{"category":"bus_halte","name":"Trienali","operator":""}},{"type":"Feature","geometry":{"type":"Point","coordinates":[4.967193,52.05155]},"properties":{"category":"bus_halte","name":"Snel","operator":"Syntus Utrecht"}},{"type":"Feature","geometry":{"type":"Point","coordinates":[4.974799,52.051644]},"properties":{"category":"bus_halte","name":"RBB","operator":"Syntus Utrecht"}},{"type":"Feature","geometry":{"type":"Point","coordinates":[4.975938,52.05163]},"properties":{"category":"bus_halte","name":"RBB","operator":"Syntus Utrecht"}},{"type":"Feature","geometry":{"type":"Point","coordinates":[4.984812,52.05294]},"properties":{"category":"bus_halte","name":"Achtersloot","operator":"Syntus Utrecht"}},{"type":"Feature","geometry":{"type":"Point","coordinates":[4.985552,52.052981]},"properties":{"category":"bus_halte","name":"Achtersloot","operator":"Syntus Utrecht"}},{"type":"Feature","geometry":{"type":"Point","coordinates":[4.991564,52.054783]},"properties":{"category":"bus_halte","name":"Slotlaan","operator":""}},{"type":"Feature","geometry":{"type":"Point","coordinates":[4.992119,52.054643]},"properties":{"category":"bus_halte","name":"Slotlaan","operator":""}},{"type":"Feature","geometry":{"type":"Point","coordinates":[5.001527,52.055298]},"properties":{"category":"bus_halte","name":"Achthoven","operator":"Syntus Utrecht"}},{"type":"Feature","geometry":{"type":"Point","coordinates":[5.002779,52.055549]},"properties":{"category":"bus_halte","name":"Achthoven","operator":"Syntus Utrecht"}},{"type":"Feature","geometry":{"type":"Point","coordinates":[5.009626,52.056391]},"properties":{"category":"bus_halte","name":"'t Akkerhuis","operator":"Syntus Utrecht"}},{"type":"Feature","geometry":{"type":"Point","coordinates":[5.010942,52.056193]},"properties":{"category":"bus_halte","name":"'t Akkerhuis","operator":""}},{"type":"Feature","geometry":{"type":"Point","coordinates":[5.016314,52.060916]},"properties":{"category":"bus_halte","name":"Stenenkamer","operator":"Syntus Utrecht"}},{"type":"Feature","geometry":{"type":"Point","coordinates":[5.017466,52.061746]},"properties":{"category":"bus_halte","name":"Stenenkamer","operator":""}},{"type":"Feature","geometry":{"type":"Point","coordinates":[4.956681,52.042892]},"properties":{"category":"bus_halte","name":"Fluitenkruidhof","operator":""}},{"type":"Feature","geometry":{"type":"Point","coordinates":[4.956519,52.042965]},"properties":{"category":"bus_halte","name":"Fluitenkruidhof","operator":""}},{"type":"Feature","geometry":{"type":"Point","coordinates":[4.955602,52.048143]},"properties":{"category":"bus_halte","name":"Keizerrijk","operator":""}},{"type":"Feature","geometry":{"type":"Point","coordinates":[4.966107,52.051772]},"properties":{"category":"bus_halte","name":"Snel","operator":"Syntus Utrecht"}},{"type":"Feature","geometry":{"type":"Point","coordinates":[4.956065,52.048901]},"properties":{"category":"bus_halte","name":"Keizerrijk","operator":"Syntus Utrecht"}},{"type":"Feature","geometry":{"type":"Point","coordinates":[4.957341,52.039924]},"properties":{"category":"bus_halte","name":"Wollegras","operator":""}},{"type":"Feature","geometry":{"type":"Point","coordinates":[4.950501,52.04423]},"properties":{"category":"gemeentehuis","name":"Stadskantoor Montfoort","operator":"Gemeente Montfoort"}},{"type":"Feature","geometry":{"type":"Point","coordinates":[4.950594,52.044178]},"properties":{"category":"bibliotheek","name":"Afhaalpunt Montfoort","operator":"Bibliotheek Het Groene Hart"}},{"type":"Feature","geometry":{"type":"Point","coordinates":[4.918602,52.063511]},"properties":{"category":"bibliotheek","name":"de Bibliotheek Linschoten","operator":"Bibliotheek Het Groene Hart"}},{"type":"Feature","geometry":{"type":"Point","coordinates":[4.939587,52.044218]},"properties":{"category":"transformatorhuisje","name":"","operator":""}},{"type":"Feature","geometry":{"type":"Point","coordinates":[4.939531,52.044266]},"properties":{"category":"transformatorhuisje","name":"","operator":""}},{"type":"Feature","geometry":{"type":"Point","coordinates":[4.939482,52.044247]},"properties":{"category":"transformatorhuisje","name":"50 kV Montfoort","operator":"Stedin"}},{"type":"Feature","geometry":{"type":"Point","coordinates":[4.946491,52.048321]},"properties":{"category":"middelbare_school","name":"Yuverta vmbo","operator":"Yuverta"}},{"type":"Feature","geometry":{"type":"Point","coordinates":[4.953485,52.040422]},"properties":{"category":"sportveld","name":"Sportpark Hofland","operator":""}},{"type":"Feature","geometry":{"type":"Point","coordinates":[4.950547,52.050409]},"properties":{"category":"sportveld","name":"Het knopenbad","operator":""}},{"type":"Feature","geometry":{"type":"Point","coordinates":[4.946147,52.043058]},"properties":{"category":"supermarkt","name":"Jumbo Aarnoudse","operator":""}},{"type":"Feature","geometry":{"type":"Point","coordinates":[4.951367,52.047227]},"properties":{"category":"supermarkt","name":"Albert Heijn","operator":"Albert Heijn"}},{"type":"Feature","geometry":{"type":"Point","coordinates":[4.917069,52.06336]},"properties":{"category":"supermarkt","name":"Boon's Markt","operator":""}},{"type":"Feature","geometry":{"type":"Point","coordinates":[4.950822,52.043746]},"properties":{"category":"fietsenstalling","name":"","operator":""}}]}