{"type":"FeatureCollection","metadata":{"gemeente":"Oirschot","slug":"oirschot","by_category":{"bus_halte":71,"sportveld":8,"parkeergarage":2,"gemeentehuis":1,"inzamelpunt":1,"bibliotheek":1,"middelbare_school":1},"total":85},"features":[{"type":"Feature","geometry":{"type":"Point","coordinates":[5.224454,51.472999]},"properties":{"category":"bus_halte","name":"Voorteindseweg","operator":""}},{"type":"Feature","geometry":{"type":"Point","coordinates":[5.250254,51.467786]},"properties":{"category":"bus_halte","name":"Hertog Janstraat","operator":""}},{"type":"Feature","geometry":{"type":"Point","coordinates":[5.240378,51.473337]},"properties":{"category":"bus_halte","name":"Heiakkerweg","operator":""}},{"type":"Feature","geometry":{"type":"Point","coordinates":[5.259191,51.468605]},"properties":{"category":"bus_halte","name":"Sportparklaan","operator":""}},{"type":"Feature","geometry":{"type":"Point","coordinates":[5.316065,51.49775]},"properties":{"category":"bus_halte","name":"Kempenweg","operator":""}},{"type":"Feature","geometry":{"type":"Point","coordinates":[5.317907,51.50574]},"properties":{"category":"bus_halte","name":"Van Tuldenstraat","operator":""}},{"type":"Feature","geometry":{"type":"Point","coordinates":[5.319884,51.504432]},"properties":{"category":"bus_halte","name":"Raffendonkstraat","operator":""}},{"type":"Feature","geometry":{"type":"Point","coordinates":[5.335905,51.504959]},"properties":{"category":"bus_halte","name":"Bestseweg","operator":""}},{"type":"Feature","geometry":{"type":"Point","coordinates":[5.341596,51.505591]},"properties":{"category":"bus_halte","name":"Wevershoek","operator":""}},{"type":"Feature","geometry":{"type":"Point","coordinates":[5.258701,51.519351]},"properties":{"category":"bus_halte","name":"Langedonksedijk","operator":""}},{"type":"Feature","geometry":{"type":"Point","coordinates":[5.268829,51.519606]},"properties":{"category":"bus_halte","name":"Bernadettestraat","operator":""}},{"type":"Feature","geometry":{"type":"Point","coordinates":[5.271638,51.518563]},"properties":{"category":"bus_halte","name":"Spoordonkseweg","operator":""}},{"type":"Feature","geometry":{"type":"Point","coordinates":[5.286093,51.515105]},"properties":{"category":"bus_halte","name":"Mousten","operator":""}},{"type":"Feature","geometry":{"type":"Point","coordinates":[5.298342,51.511204]},"properties":{"category":"bus_halte","name":"Bellefleur","operator":""}},{"type":"Feature","geometry":{"type":"Point","coordinates":[5.313077,51.509026]},"properties":{"category":"bus_halte","name":"Vendeliersstraat","operator":""}},{"type":"Feature","geometry":{"type":"Point","coordinates":[5.30742,51.510967]},"properties":{"category":"bus_halte","name":"Kortenaarlaan","operator":""}},{"type":"Feature","geometry":{"type":"Point","coordinates":[5.24719,51.470239]},"properties":{"category":"bus_halte","name":"Hoogdijk","operator":""}},{"type":"Feature","geometry":{"type":"Point","coordinates":[5.247181,51.470372]},"properties":{"category":"bus_halte","name":"Hoogdijk","operator":""}},{"type":"Feature","geometry":{"type":"Point","coordinates":[5.375775,51.477041]},"properties":{"category":"bus_halte","name":"Kazerne","operator":""}},{"type":"Feature","geometry":{"type":"Point","coordinates":[5.260541,51.449021]},"properties":{"category":"bus_halte","name":"Kuikseindseweg","operator":""}},{"type":"Feature","geometry":{"type":"Point","coordinates":[5.260307,51.450529]},"properties":{"category":"bus_halte","name":"Kuikseindseweg","operator":""}},{"type":"Feature","geometry":{"type":"Point","coordinates":[5.308026,51.50317]},"properties":{"category":"bus_halte","name":"Markt","operator":""}},{"type":"Feature","geometry":{"type":"Point","coordinates":[5.314137,51.506183]},"properties":{"category":"bus_halte","name":"Sint Jorisstraat","operator":""}},{"type":"Feature","geometry":{"type":"Point","coordinates":[5.304705,51.506746]},"properties":{"category":"bus_halte","name":"Karel Doormanlaan","operator":""}},{"type":"Feature","geometry":{"type":"Point","coordinates":[5.298769,51.510318]},"properties":{"category":"bus_halte","name":"Michiel de Ruyterlaan","operator":""}},{"type":"Feature","geometry":{"type":"Point","coordinates":[5.284288,51.541716]},"properties":{"category":"bus_halte","name":"Kampina","operator":""}},{"type":"Feature","geometry":{"type":"Point","coordinates":[5.317529,51.505859]},"properties":{"category":"bus_halte","name":"Van Tuldenstraat","operator":""}},{"type":"Feature","geometry":{"type":"Point","coordinates":[5.312966,51.508937]},"properties":{"category":"bus_halte","name":"Vendeliersstraat","operator":""}},{"type":"Feature","geometry":{"type":"Point","coordinates":[5.341275,51.505655]},"properties":{"category":"bus_halte","name":"Wevershoek","operator":""}},{"type":"Feature","geometry":{"type":"Point","coordinates":[5.306943,51.511038]},"properties":{"category":"bus_halte","name":"Kortenaarlaan","operator":""}},{"type":"Feature","geometry":{"type":"Point","coordinates":[5.285839,51.515258]},"properties":{"category":"bus_halte","name":"Mousten","operator":""}},{"type":"Feature","geometry":{"type":"Point","coordinates":[5.319756,51.504318]},"properties":{"category":"bus_halte","name":"Raffendonkstraat","operator":""}},{"type":"Feature","geometry":{"type":"Point","coordinates":[5.271704,51.518422]},"properties":{"category":"bus_halte","name":"Spoordonkseweg","operator":""}},{"type":"Feature","geometry":{"type":"Point","coordinates":[5.260098,51.468885]},"properties":{"category":"bus_halte","name":"Sportparklaan","operator":""}},{"type":"Feature","geometry":{"type":"Point","coordinates":[5.298358,51.511101]},"properties":{"category":"bus_halte","name":"Bellefleur","operator":""}},{"type":"Feature","geometry":{"type":"Point","coordinates":[5.268969,51.519442]},"properties":{"category":"bus_halte","name":"Bernadettestraat","operator":""}},{"type":"Feature","geometry":{"type":"Point","coordinates":[5.335701,51.505047]},"properties":{"category":"bus_halte","name":"Bestseweg","operator":""}},{"type":"Feature","geometry":{"type":"Point","coordinates":[5.237228,51.473423]},"properties":{"category":"bus_halte","name":"Heiakkerweg","operator":""}},{"type":"Feature","geometry":{"type":"Point","coordinates":[5.250083,51.467953]},"properties":{"category":"bus_halte","name":"Hertog Janstraat","operator":""}},{"type":"Feature","geometry":{"type":"Point","coordinates":[5.250617,51.522713]},"properties":{"category":"bus_halte","name":"Geeneindseweg","operator":""}},{"type":"Feature","geometry":{"type":"Point","coordinates":[5.249933,51.523167]},"properties":{"category":"bus_halte","name":"Geeneindseweg","operator":""}},{"type":"Feature","geometry":{"type":"Point","coordinates":[5.227082,51.472979]},"properties":{"category":"bus_halte","name":"Voorteindseweg","operator":""}},{"type":"Feature","geometry":{"type":"Point","coordinates":[5.26897,51.473101]},"properties":{"category":"bus_halte","name":"Andreasstraat","operator":""}},{"type":"Feature","geometry":{"type":"Point","coordinates":[5.268803,51.472935]},"properties":{"category":"bus_halte","name":"Andreasstraat","operator":""}},{"type":"Feature","geometry":{"type":"Point","coordinates":[5.315698,51.49749]},"properties":{"category":"bus_halte","name":"Kempenweg","operator":""}},{"type":"Feature","geometry":{"type":"Point","coordinates":[5.225237,51.432924]},"properties":{"category":"bus_halte","name":"Broekeindsedijk","operator":""}},{"type":"Feature","geometry":{"type":"Point","coordinates":[5.225106,51.432928]},"properties":{"category":"bus_halte","name":"Broekeindsedijk","operator":""}},{"type":"Feature","geometry":{"type":"Point","coordinates":[5.211447,51.444352]},"properties":{"category":"bus_halte","name":"Rakelbos","operator":""}},{"type":"Feature","geometry":{"type":"Point","coordinates":[5.21155,51.444398]},"properties":{"category":"bus_halte","name":"Rakelbos","operator":""}},{"type":"Feature","geometry":{"type":"Point","coordinates":[5.25834,51.51948]},"properties":{"category":"bus_halte","name":"Langedonksedijk","operator":""}},{"type":"Feature","geometry":{"type":"Point","coordinates":[5.298861,51.491553]},"properties":{"category":"bus_halte","name":"Beerschotseweg","operator":""}},{"type":"Feature","geometry":{"type":"Point","coordinates":[5.296681,51.491671]},"properties":{"category":"bus_halte","name":"Beerschotseweg","operator":""}},{"type":"Feature","geometry":{"type":"Point","coordinates":[5.375884,51.477178]},"properties":{"category":"bus_halte","name":"Kazerne","operator":""}},{"type":"Feature","geometry":{"type":"Point","coordinates":[5.284131,51.541742]},"properties":{"category":"bus_halte","name":"Kampina","operator":""}},{"type":"Feature","geometry":{"type":"Point","coordinates":[5.298722,51.510285]},"properties":{"category":"bus_halte","name":"Michiel de Ruyterlaan","operator":""}},{"type":"Feature","geometry":{"type":"Point","coordinates":[5.24542,51.468818]},"properties":{"category":"bus_halte","name":"Ganzeakkers","operator":""}},{"type":"Feature","geometry":{"type":"Point","coordinates":[5.314231,51.506583]},"properties":{"category":"bus_halte","name":"Sint Jorisstraat","operator":""}},{"type":"Feature","geometry":{"type":"Point","coordinates":[5.24649,51.470557]},"properties":{"category":"bus_halte","name":"Vestdijk","operator":""}},{"type":"Feature","geometry":{"type":"Point","coordinates":[5.251051,51.489291]},"properties":{"category":"bus_halte","name":"Natuurbegraafplaats Bos v/d Heilige Geest","operator":""}},{"type":"Feature","geometry":{"type":"Point","coordinates":[5.257097,51.464633]},"properties":{"category":"bus_halte","name":"Tinnegieter","operator":""}},{"type":"Feature","geometry":{"type":"Point","coordinates":[5.231592,51.466013]},"properties":{"category":"bus_halte","name":"Huijgevoort","operator":""}},{"type":"Feature","geometry":{"type":"Point","coordinates":[5.211274,51.439549]},"properties":{"category":"bus_halte","name":"Kapel","operator":""}},{"type":"Feature","geometry":{"type":"Point","coordinates":[5.210957,51.439683]},"properties":{"category":"bus_halte","name":"Kapel","operator":""}},{"type":"Feature","geometry":{"type":"Point","coordinates":[5.296024,51.500319]},"properties":{"category":"bus_halte","name":"Brug Heuvel","operator":""}},{"type":"Feature","geometry":{"type":"Point","coordinates":[5.305644,51.500182]},"properties":{"category":"bus_halte","name":"Moorland","operator":""}},{"type":"Feature","geometry":{"type":"Point","coordinates":[5.322087,51.502853]},"properties":{"category":"bus_halte","name":"Industrieweg","operator":""}},{"type":"Feature","geometry":{"type":"Point","coordinates":[5.274707,51.466143]},"properties":{"category":"bus_halte","name":"Hillestraat","operator":""}},{"type":"Feature","geometry":{"type":"Point","coordinates":[5.307688,51.517595]},"properties":{"category":"bus_halte","name":"Hedel","operator":""}},{"type":"Feature","geometry":{"type":"Point","coordinates":[5.319045,51.514995]},"properties":{"category":"bus_halte","name":"Notel / Schansstraat","operator":""}},{"type":"Feature","geometry":{"type":"Point","coordinates":[5.279649,51.524853]},"properties":{"category":"bus_halte","name":"Bremsteeg","operator":""}},{"type":"Feature","geometry":{"type":"Point","coordinates":[5.266074,51.53079]},"properties":{"category":"bus_halte","name":"Broekstraat","operator":""}},{"type":"Feature","geometry":{"type":"Point","coordinates":[5.313669,51.505462]},"properties":{"category":"gemeentehuis","name":"Gemeentehuis Oirschot","operator":"Gemeente Oirschot"}},{"type":"Feature","geometry":{"type":"Point","coordinates":[5.303387,51.492382]},"properties":{"category":"inzamelpunt","name":"Milieustraat","operator":""}},{"type":"Feature","geometry":{"type":"Point","coordinates":[5.313114,51.505069]},"properties":{"category":"bibliotheek","name":"Bibliotheek Oirschot","operator":"Bibliotheek De Kempen"}},{"type":"Feature","geometry":{"type":"Point","coordinates":[5.314662,51.497255]},"properties":{"category":"middelbare_school","name":"Kempenhorst College","operator":""}},{"type":"Feature","geometry":{"type":"Point","coordinates":[5.323611,51.495698]},"properties":{"category":"sportveld","name":"Atletiekvereniging Oirschot","operator":""}},{"type":"Feature","geometry":{"type":"Point","coordinates":[5.305423,51.496458]},"properties":{"category":"sportveld","name":"Hockeyclub Oirschot","operator":""}},{"type":"Feature","geometry":{"type":"Point","coordinates":[5.304835,51.498665]},"properties":{"category":"sportveld","name":"Sportpark Jumbo Moorland","operator":""}},{"type":"Feature","geometry":{"type":"Point","coordinates":[5.274835,51.519696]},"properties":{"category":"sportveld","name":"'t Horstje","operator":""}},{"type":"Feature","geometry":{"type":"Point","coordinates":[5.321196,51.494839]},"properties":{"category":"sportveld","name":"Tennisclub Oirschot","operator":""}},{"type":"Feature","geometry":{"type":"Point","coordinates":[5.260626,51.4666]},"properties":{"category":"sportveld","name":"Voetbalvereniging Beerse Boys","operator":""}},{"type":"Feature","geometry":{"type":"Point","coordinates":[5.260646,51.466608]},"properties":{"category":"sportveld","name":"Sportpark de Klep","operator":""}},{"type":"Feature","geometry":{"type":"Point","coordinates":[5.261039,51.466711]},"properties":{"category":"sportveld","name":"Tennis- en padelvereniging Fidote","operator":""}},{"type":"Feature","geometry":{"type":"Point","coordinates":[5.305007,51.502688]},"properties":{"category":"parkeergarage","name":"","operator":""}},{"type":"Feature","geometry":{"type":"Point","coordinates":[5.38597,51.476254]},"properties":{"category":"parkeergarage","name":"","operator":""}}]}