{"type":"FeatureCollection","metadata":{"gemeente":"Oosterhout","slug":"oosterhout","by_category":{"bus_halte":105,"transformatorhuisje":4,"sportveld":4,"fietsenstalling":4,"bibliotheek":3,"middelbare_school":3,"parkeergarage":3,"ziekenhuis":2,"ov_knooppunt":1,"gemeentehuis":1,"inzamelpunt":1,"hogeschool":1,"winkelcentrum":1},"total":133},"features":[{"type":"Feature","geometry":{"type":"Point","coordinates":[4.865838,51.64509]},"properties":{"category":"bus_halte","name":"Busstation","operator":""}},{"type":"Feature","geometry":{"type":"Point","coordinates":[4.845972,51.634794]},"properties":{"category":"bus_halte","name":"De Warande","operator":""}},{"type":"Feature","geometry":{"type":"Point","coordinates":[4.853522,51.623951]},"properties":{"category":"bus_halte","name":"Burgemeester Holtroplaan","operator":""}},{"type":"Feature","geometry":{"type":"Point","coordinates":[4.837461,51.62652]},"properties":{"category":"bus_halte","name":"Burgemeester Materlaan","operator":""}},{"type":"Feature","geometry":{"type":"Point","coordinates":[4.857722,51.628631]},"properties":{"category":"bus_halte","name":"Zuiderhout","operator":""}},{"type":"Feature","geometry":{"type":"Point","coordinates":[4.868595,51.628239]},"properties":{"category":"bus_halte","name":"Europaweg","operator":""}},{"type":"Feature","geometry":{"type":"Point","coordinates":[4.858713,51.637182]},"properties":{"category":"bus_halte","name":"Slotlaan","operator":""}},{"type":"Feature","geometry":{"type":"Point","coordinates":[4.863639,51.64111]},"properties":{"category":"bus_halte","name":"Keiweg","operator":""}},{"type":"Feature","geometry":{"type":"Point","coordinates":[4.862189,51.643495]},"properties":{"category":"bus_halte","name":"Mathildastraat","operator":""}},{"type":"Feature","geometry":{"type":"Point","coordinates":[4.868182,51.636258]},"properties":{"category":"bus_halte","name":"Sint Antoniusstraat","operator":""}},{"type":"Feature","geometry":{"type":"Point","coordinates":[4.860677,51.648053]},"properties":{"category":"bus_halte","name":"Strijenstraat","operator":""}},{"type":"Feature","geometry":{"type":"Point","coordinates":[4.860684,51.652127]},"properties":{"category":"bus_halte","name":"Sterkenburg","operator":""}},{"type":"Feature","geometry":{"type":"Point","coordinates":[4.862567,51.655866]},"properties":{"category":"bus_halte","name":"Sterrenlaan","operator":""}},{"type":"Feature","geometry":{"type":"Point","coordinates":[4.870949,51.654507]},"properties":{"category":"bus_halte","name":"Burgemeester Elkhuizenlaan","operator":""}},{"type":"Feature","geometry":{"type":"Point","coordinates":[4.86149,51.658835]},"properties":{"category":"bus_halte","name":"Biezenbeemd","operator":""}},{"type":"Feature","geometry":{"type":"Point","coordinates":[4.86474,51.664556]},"properties":{"category":"bus_halte","name":"Professor Rommehoek","operator":""}},{"type":"Feature","geometry":{"type":"Point","coordinates":[4.865693,51.663238]},"properties":{"category":"bus_halte","name":"Teldershof","operator":""}},{"type":"Feature","geometry":{"type":"Point","coordinates":[4.872196,51.658416]},"properties":{"category":"bus_halte","name":"Dommelbergenweg","operator":""}},{"type":"Feature","geometry":{"type":"Point","coordinates":[4.875181,51.662042]},"properties":{"category":"bus_halte","name":"Kreeksluisweg","operator":""}},{"type":"Feature","geometry":{"type":"Point","coordinates":[4.867269,51.664845]},"properties":{"category":"bus_halte","name":"Wiardi Beckmanhof","operator":""}},{"type":"Feature","geometry":{"type":"Point","coordinates":[4.903449,51.634519]},"properties":{"category":"bus_halte","name":"Heistraat","operator":""}},{"type":"Feature","geometry":{"type":"Point","coordinates":[4.856803,51.589809]},"properties":{"category":"bus_halte","name":"Kapelerf","operator":""}},{"type":"Feature","geometry":{"type":"Point","coordinates":[4.869039,51.627458]},"properties":{"category":"bus_halte","name":"Europaweg","operator":""}},{"type":"Feature","geometry":{"type":"Point","coordinates":[4.861409,51.647571]},"properties":{"category":"bus_halte","name":"Strijenstraat","operator":""}},{"type":"Feature","geometry":{"type":"Point","coordinates":[4.867268,51.647792]},"properties":{"category":"bus_halte","name":"Nijenrode","operator":""}},{"type":"Feature","geometry":{"type":"Point","coordinates":[4.868918,51.648699]},"properties":{"category":"bus_halte","name":"Amphia Ziekenhuis Pasteurlaan","operator":""}},{"type":"Feature","geometry":{"type":"Point","coordinates":[4.861729,51.662731]},"properties":{"category":"bus_halte","name":"Hoofseweg","operator":""}},{"type":"Feature","geometry":{"type":"Point","coordinates":[4.861942,51.662572]},"properties":{"category":"bus_halte","name":"Hoofseweg","operator":""}},{"type":"Feature","geometry":{"type":"Point","coordinates":[4.865186,51.641012]},"properties":{"category":"bus_halte","name":"Keiweg","operator":""}},{"type":"Feature","geometry":{"type":"Point","coordinates":[4.926431,51.650118]},"properties":{"category":"bus_halte","name":"Groenendijk","operator":""}},{"type":"Feature","geometry":{"type":"Point","coordinates":[4.926269,51.650219]},"properties":{"category":"bus_halte","name":"Groenendijk","operator":""}},{"type":"Feature","geometry":{"type":"Point","coordinates":[4.914396,51.649028]},"properties":{"category":"bus_halte","name":"Rijsdijk","operator":""}},{"type":"Feature","geometry":{"type":"Point","coordinates":[4.916064,51.649133]},"properties":{"category":"bus_halte","name":"Rijsdijk","operator":""}},{"type":"Feature","geometry":{"type":"Point","coordinates":[4.900697,51.64517]},"properties":{"category":"bus_halte","name":"Schoolpad","operator":""}},{"type":"Feature","geometry":{"type":"Point","coordinates":[4.900723,51.64535]},"properties":{"category":"bus_halte","name":"Schoolpad","operator":""}},{"type":"Feature","geometry":{"type":"Point","coordinates":[4.856543,51.627959]},"properties":{"category":"bus_halte","name":"Zuiderhout","operator":""}},{"type":"Feature","geometry":{"type":"Point","coordinates":[4.861401,51.659139]},"properties":{"category":"bus_halte","name":"Biezenbeemd","operator":""}},{"type":"Feature","geometry":{"type":"Point","coordinates":[4.853349,51.624019]},"properties":{"category":"bus_halte","name":"Burgemeester Holtroplaan","operator":""}},{"type":"Feature","geometry":{"type":"Point","coordinates":[4.838321,51.626434]},"properties":{"category":"bus_halte","name":"Burgemeester Materlaan","operator":""}},{"type":"Feature","geometry":{"type":"Point","coordinates":[4.867932,51.636679]},"properties":{"category":"bus_halte","name":"Sint Antoniusstraat","operator":""}},{"type":"Feature","geometry":{"type":"Point","coordinates":[4.860346,51.651077]},"properties":{"category":"bus_halte","name":"Sterkenburg","operator":""}},{"type":"Feature","geometry":{"type":"Point","coordinates":[4.862213,51.655634]},"properties":{"category":"bus_halte","name":"Sterrenlaan","operator":""}},{"type":"Feature","geometry":{"type":"Point","coordinates":[4.859051,51.636112]},"properties":{"category":"bus_halte","name":"Slotlaan","operator":""}},{"type":"Feature","geometry":{"type":"Point","coordinates":[4.870488,51.654339]},"properties":{"category":"bus_halte","name":"Burgemeester Elkhuizenlaan","operator":""}},{"type":"Feature","geometry":{"type":"Point","coordinates":[4.871943,51.658176]},"properties":{"category":"bus_halte","name":"Dommelbergenweg","operator":""}},{"type":"Feature","geometry":{"type":"Point","coordinates":[4.87385,51.662081]},"properties":{"category":"bus_halte","name":"Kreeksluisweg","operator":""}},{"type":"Feature","geometry":{"type":"Point","coordinates":[4.902033,51.635292]},"properties":{"category":"bus_halte","name":"Heistraat","operator":""}},{"type":"Feature","geometry":{"type":"Point","coordinates":[4.861569,51.643392]},"properties":{"category":"bus_halte","name":"Mathildastraat","operator":""}},{"type":"Feature","geometry":{"type":"Point","coordinates":[4.832455,51.650573]},"properties":{"category":"bus_halte","name":"Vrachelsestraat","operator":"Bravo (Arriva)"}},{"type":"Feature","geometry":{"type":"Point","coordinates":[4.832489,51.651644]},"properties":{"category":"bus_halte","name":"Vrachelsestraat","operator":""}},{"type":"Feature","geometry":{"type":"Point","coordinates":[4.847053,51.643231]},"properties":{"category":"bus_halte","name":"Wilhelminalaan","operator":""}},{"type":"Feature","geometry":{"type":"Point","coordinates":[4.847297,51.643264]},"properties":{"category":"bus_halte","name":"Wilhelminalaan","operator":""}},{"type":"Feature","geometry":{"type":"Point","coordinates":[4.838283,51.644604]},"properties":{"category":"bus_halte","name":"Gaffelstraat","operator":""}},{"type":"Feature","geometry":{"type":"Point","coordinates":[4.837445,51.644906]},"properties":{"category":"bus_halte","name":"Gaffelstraat","operator":""}},{"type":"Feature","geometry":{"type":"Point","coordinates":[4.815165,51.656875]},"properties":{"category":"bus_halte","name":"Herstraat","operator":""}},{"type":"Feature","geometry":{"type":"Point","coordinates":[4.815635,51.656869]},"properties":{"category":"bus_halte","name":"Herstraat","operator":""}},{"type":"Feature","geometry":{"type":"Point","coordinates":[4.812717,51.660358]},"properties":{"category":"bus_halte","name":"Houtse Heuvel","operator":""}},{"type":"Feature","geometry":{"type":"Point","coordinates":[4.812589,51.65972]},"properties":{"category":"bus_halte","name":"Houtse Heuvel","operator":"Bravo (Arriva)"}},{"type":"Feature","geometry":{"type":"Point","coordinates":[4.83353,51.646582]},"properties":{"category":"bus_halte","name":"Lage Molenpolderweg","operator":""}},{"type":"Feature","geometry":{"type":"Point","coordinates":[4.83338,51.647737]},"properties":{"category":"bus_halte","name":"Lage Molenpolderweg","operator":""}},{"type":"Feature","geometry":{"type":"Point","coordinates":[4.856624,51.647456]},"properties":{"category":"bus_halte","name":"Prins Frederikstraat","operator":""}},{"type":"Feature","geometry":{"type":"Point","coordinates":[4.857401,51.647664]},"properties":{"category":"bus_halte","name":"Prins Frederikstraat","operator":""}},{"type":"Feature","geometry":{"type":"Point","coordinates":[4.851202,51.644163]},"properties":{"category":"bus_halte","name":"Van Liedekerkestraat","operator":""}},{"type":"Feature","geometry":{"type":"Point","coordinates":[4.85145,51.644072]},"properties":{"category":"bus_halte","name":"Van Liedekerkestraat","operator":""}},{"type":"Feature","geometry":{"type":"Point","coordinates":[4.852754,51.628009]},"properties":{"category":"bus_halte","name":"Buurstede","operator":""}},{"type":"Feature","geometry":{"type":"Point","coordinates":[4.868193,51.628036]},"properties":{"category":"bus_halte","name":"Europaweg","operator":""}},{"type":"Feature","geometry":{"type":"Point","coordinates":[4.833711,51.653949]},"properties":{"category":"bus_halte","name":"Het Goorke","operator":""}},{"type":"Feature","geometry":{"type":"Point","coordinates":[4.870391,51.648173]},"properties":{"category":"bus_halte","name":"Amphia Ziekenhuis Pasteurlaan","operator":""}},{"type":"Feature","geometry":{"type":"Point","coordinates":[4.857737,51.589778]},"properties":{"category":"bus_halte","name":"Kapelerf","operator":""}},{"type":"Feature","geometry":{"type":"Point","coordinates":[4.861041,51.607093]},"properties":{"category":"bus_halte","name":"Hannebroeck","operator":""}},{"type":"Feature","geometry":{"type":"Point","coordinates":[4.861004,51.60687]},"properties":{"category":"bus_halte","name":"Hannebroeck","operator":""}},{"type":"Feature","geometry":{"type":"Point","coordinates":[4.857233,51.589954]},"properties":{"category":"bus_halte","name":"Kapelerf","operator":""}},{"type":"Feature","geometry":{"type":"Point","coordinates":[4.857461,51.589849]},"properties":{"category":"bus_halte","name":"Kapelerf","operator":""}},{"type":"Feature","geometry":{"type":"Point","coordinates":[4.86022,51.591288]},"properties":{"category":"bus_halte","name":"Dennenlaan","operator":""}},{"type":"Feature","geometry":{"type":"Point","coordinates":[4.860204,51.591084]},"properties":{"category":"bus_halte","name":"Dennenlaan","operator":""}},{"type":"Feature","geometry":{"type":"Point","coordinates":[4.8346,51.64276]},"properties":{"category":"bus_halte","name":"Oranjetipje","operator":""}},{"type":"Feature","geometry":{"type":"Point","coordinates":[4.857155,51.627055]},"properties":{"category":"bus_halte","name":"Vondellaan","operator":""}},{"type":"Feature","geometry":{"type":"Point","coordinates":[4.862924,51.624468]},"properties":{"category":"bus_halte","name":"Ranonkelstraat","operator":""}},{"type":"Feature","geometry":{"type":"Point","coordinates":[4.863025,51.624544]},"properties":{"category":"bus_halte","name":"Ranonkelstraat","operator":""}},{"type":"Feature","geometry":{"type":"Point","coordinates":[4.834649,51.642683]},"properties":{"category":"bus_halte","name":"Oranjetipje","operator":""}},{"type":"Feature","geometry":{"type":"Point","coordinates":[4.868511,51.648977]},"properties":{"category":"bus_halte","name":"Amphia Ziekenhuis Pasteurlaan","operator":""}},{"type":"Feature","geometry":{"type":"Point","coordinates":[4.865588,51.645012]},"properties":{"category":"bus_halte","name":"Busstation","operator":""}},{"type":"Feature","geometry":{"type":"Point","coordinates":[4.865697,51.644784]},"properties":{"category":"bus_halte","name":"Busstation","operator":""}},{"type":"Feature","geometry":{"type":"Point","coordinates":[4.865958,51.64486]},"properties":{"category":"bus_halte","name":"Busstation","operator":""}},{"type":"Feature","geometry":{"type":"Point","coordinates":[4.895695,51.644073]},"properties":{"category":"bus_halte","name":"Hoogeind","operator":""}},{"type":"Feature","geometry":{"type":"Point","coordinates":[4.895832,51.643993]},"properties":{"category":"bus_halte","name":"Hoogeind","operator":""}},{"type":"Feature","geometry":{"type":"Point","coordinates":[4.828299,51.669281]},"properties":{"category":"bus_halte","name":"Logistiekweg","operator":""}},{"type":"Feature","geometry":{"type":"Point","coordinates":[4.824259,51.672785]},"properties":{"category":"bus_halte","name":"Technologieweg","operator":""}},{"type":"Feature","geometry":{"type":"Point","coordinates":[4.828593,51.669136]},"properties":{"category":"bus_halte","name":"Logistiekweg","operator":""}},{"type":"Feature","geometry":{"type":"Point","coordinates":[4.824212,51.67295]},"properties":{"category":"bus_halte","name":"Technologieweg","operator":""}},{"type":"Feature","geometry":{"type":"Point","coordinates":[4.870002,51.659181]},"properties":{"category":"bus_halte","name":"Dommelbergenweg","operator":""}},{"type":"Feature","geometry":{"type":"Point","coordinates":[4.845641,51.591059]},"properties":{"category":"bus_halte","name":"Rijksweg","operator":""}},{"type":"Feature","geometry":{"type":"Point","coordinates":[4.845434,51.590951]},"properties":{"category":"bus_halte","name":"Rijksweg","operator":""}},{"type":"Feature","geometry":{"type":"Point","coordinates":[4.835242,51.641091]},"properties":{"category":"bus_halte","name":"Zeislaan","operator":""}},{"type":"Feature","geometry":{"type":"Point","coordinates":[4.825112,51.672389]},"properties":{"category":"bus_halte","name":"Technologieweg","operator":""}},{"type":"Feature","geometry":{"type":"Point","coordinates":[4.888522,51.644225]},"properties":{"category":"bus_halte","name":"Provincialeweg","operator":""}},{"type":"Feature","geometry":{"type":"Point","coordinates":[4.888997,51.645266]},"properties":{"category":"bus_halte","name":"Provincialeweg","operator":""}},{"type":"Feature","geometry":{"type":"Point","coordinates":[4.835052,51.640579]},"properties":{"category":"bus_halte","name":"Zeislaan","operator":""}},{"type":"Feature","geometry":{"type":"Point","coordinates":[4.833303,51.654001]},"properties":{"category":"bus_halte","name":"Het Goorke","operator":""}},{"type":"Feature","geometry":{"type":"Point","coordinates":[4.84019,51.65448]},"properties":{"category":"bus_halte","name":"Max Havelaardreef","operator":""}},{"type":"Feature","geometry":{"type":"Point","coordinates":[4.840104,51.654388]},"properties":{"category":"bus_halte","name":"Max Havelaardreef","operator":""}},{"type":"Feature","geometry":{"type":"Point","coordinates":[4.846795,51.635401]},"properties":{"category":"bus_halte","name":"De Warande","operator":""}},{"type":"Feature","geometry":{"type":"Point","coordinates":[4.846956,51.635231]},"properties":{"category":"bus_halte","name":"De Warande","operator":""}},{"type":"Feature","geometry":{"type":"Point","coordinates":[4.848038,51.638805]},"properties":{"category":"bus_halte","name":"Koning Willem-Alexanderlaan","operator":""}},{"type":"Feature","geometry":{"type":"Point","coordinates":[4.874419,51.622186]},"properties":{"category":"bus_halte","name":"Florijnstraat","operator":""}},{"type":"Feature","geometry":{"type":"Point","coordinates":[4.865752,51.644932]},"properties":{"category":"ov_knooppunt","name":"Busstation","operator":""}},{"type":"Feature","geometry":{"type":"Point","coordinates":[4.86174,51.639056]},"properties":{"category":"gemeentehuis","name":"Stadhuis Oosterhout","operator":"Gemeente Oosterhout"}},{"type":"Feature","geometry":{"type":"Point","coordinates":[4.847845,51.648185]},"properties":{"category":"inzamelpunt","name":"Milieustraat Oosterhout","operator":""}},{"type":"Feature","geometry":{"type":"Point","coordinates":[4.860868,51.645841]},"properties":{"category":"bibliotheek","name":"Theek 5 Oosterhout Centrum","operator":"Theek 5"}},{"type":"Feature","geometry":{"type":"Point","coordinates":[4.864446,51.658518]},"properties":{"category":"bibliotheek","name":"Theek 5 Dommelbergen","operator":"Theek 5"}},{"type":"Feature","geometry":{"type":"Point","coordinates":[4.866453,51.624754]},"properties":{"category":"bibliotheek","name":"Theek 5 Oosterheide","operator":"Theek 5"}},{"type":"Feature","geometry":{"type":"Point","coordinates":[4.87178,51.648364]},"properties":{"category":"ziekenhuis","name":"Amphia","operator":""}},{"type":"Feature","geometry":{"type":"Point","coordinates":[4.870159,51.647672]},"properties":{"category":"ziekenhuis","name":"Amphia","operator":""}},{"type":"Feature","geometry":{"type":"Point","coordinates":[4.925886,51.646154]},"properties":{"category":"transformatorhuisje","name":"","operator":""}},{"type":"Feature","geometry":{"type":"Point","coordinates":[4.926281,51.646168]},"properties":{"category":"transformatorhuisje","name":"","operator":""}},{"type":"Feature","geometry":{"type":"Point","coordinates":[4.925646,51.646444]},"properties":{"category":"transformatorhuisje","name":"","operator":""}},{"type":"Feature","geometry":{"type":"Point","coordinates":[4.872259,51.593317]},"properties":{"category":"transformatorhuisje","name":"","operator":""}},{"type":"Feature","geometry":{"type":"Point","coordinates":[4.858665,51.634684]},"properties":{"category":"hogeschool","name":"Mgr. Frencken College","operator":""}},{"type":"Feature","geometry":{"type":"Point","coordinates":[4.854793,51.630223]},"properties":{"category":"middelbare_school","name":"Sint-Oelbert vwo","operator":"Libréon"}},{"type":"Feature","geometry":{"type":"Point","coordinates":[4.851944,51.635969]},"properties":{"category":"middelbare_school","name":"Hanze College","operator":"Ons Middelbaar Onderwijs"}},{"type":"Feature","geometry":{"type":"Point","coordinates":[4.843756,51.635422]},"properties":{"category":"middelbare_school","name":"Plein³","operator":"Koraal Onderwijs"}},{"type":"Feature","geometry":{"type":"Point","coordinates":[4.880763,51.654563]},"properties":{"category":"sportveld","name":"Tennis- en Padelvereniging Strijdo","operator":""}},{"type":"Feature","geometry":{"type":"Point","coordinates":[4.853693,51.623479]},"properties":{"category":"sportveld","name":"Sporthal Oosterheide","operator":""}},{"type":"Feature","geometry":{"type":"Point","coordinates":[4.831779,51.630756]},"properties":{"category":"sportveld","name":"Zwembad","operator":""}},{"type":"Feature","geometry":{"type":"Point","coordinates":[4.828783,51.656474]},"properties":{"category":"sportveld","name":"Sportpark 'De Contreie'","operator":""}},{"type":"Feature","geometry":{"type":"Point","coordinates":[4.857562,51.627425]},"properties":{"category":"winkelcentrum","name":"Winkelcentrum Zuiderhout","operator":""}},{"type":"Feature","geometry":{"type":"Point","coordinates":[4.856829,51.64417]},"properties":{"category":"fietsenstalling","name":"Arendshof","operator":""}},{"type":"Feature","geometry":{"type":"Point","coordinates":[4.861402,51.644785]},"properties":{"category":"fietsenstalling","name":"","operator":""}},{"type":"Feature","geometry":{"type":"Point","coordinates":[4.860952,51.630205]},"properties":{"category":"fietsenstalling","name":"","operator":""}},{"type":"Feature","geometry":{"type":"Point","coordinates":[4.872614,51.655247]},"properties":{"category":"fietsenstalling","name":"","operator":"Florijn College"}},{"type":"Feature","geometry":{"type":"Point","coordinates":[4.852724,51.642708]},"properties":{"category":"parkeergarage","name":"Bouwlingplein","operator":"Jumbo"}},{"type":"Feature","geometry":{"type":"Point","coordinates":[4.85451,51.642445]},"properties":{"category":"parkeergarage","name":"Forvm","operator":""}},{"type":"Feature","geometry":{"type":"Point","coordinates":[4.855414,51.644953]},"properties":{"category":"parkeergarage","name":"Q-Park De Arendshof","operator":"Q-Park"}}]}