{"type":"FeatureCollection","metadata":{"gemeente":"Papendrecht","slug":"papendrecht","by_category":{"bus_halte":51,"parkeergarage":7,"fietsenstalling":6,"transformatorhuisje":2,"middelbare_school":2,"winkelcentrum":2,"gemeentehuis":1,"inzamelpunt":1,"bibliotheek":1,"sportveld":1},"total":74},"features":[{"type":"Feature","geometry":{"type":"Point","coordinates":[4.692866,51.827464]},"properties":{"category":"bus_halte","name":"Edelweisslaan","operator":""}},{"type":"Feature","geometry":{"type":"Point","coordinates":[4.700407,51.82813]},"properties":{"category":"bus_halte","name":"Willem Dreeslaan","operator":""}},{"type":"Feature","geometry":{"type":"Point","coordinates":[4.71877,51.828507]},"properties":{"category":"bus_halte","name":"Kooihaven","operator":""}},{"type":"Feature","geometry":{"type":"Point","coordinates":[4.718218,51.829039]},"properties":{"category":"bus_halte","name":"Kooihaven","operator":""}},{"type":"Feature","geometry":{"type":"Point","coordinates":[4.732779,51.827543]},"properties":{"category":"bus_halte","name":"Ketelhaven","operator":""}},{"type":"Feature","geometry":{"type":"Point","coordinates":[4.731624,51.828061]},"properties":{"category":"bus_halte","name":"Ketelhaven","operator":""}},{"type":"Feature","geometry":{"type":"Point","coordinates":[4.678506,51.829976]},"properties":{"category":"bus_halte","name":"P.C. Hooftlaan","operator":""}},{"type":"Feature","geometry":{"type":"Point","coordinates":[4.678503,51.8298]},"properties":{"category":"bus_halte","name":"P.C. Hooftlaan","operator":""}},{"type":"Feature","geometry":{"type":"Point","coordinates":[4.685485,51.824267]},"properties":{"category":"bus_halte","name":"Veerdam","operator":""}},{"type":"Feature","geometry":{"type":"Point","coordinates":[4.685785,51.824291]},"properties":{"category":"bus_halte","name":"Veerdam","operator":""}},{"type":"Feature","geometry":{"type":"Point","coordinates":[4.683903,51.827631]},"properties":{"category":"bus_halte","name":"Constantijn Huygenslaan","operator":""}},{"type":"Feature","geometry":{"type":"Point","coordinates":[4.683391,51.82768]},"properties":{"category":"bus_halte","name":"Constantijn Huygenslaan","operator":""}},{"type":"Feature","geometry":{"type":"Point","coordinates":[4.691706,51.824533]},"properties":{"category":"bus_halte","name":"Middenstraat","operator":""}},{"type":"Feature","geometry":{"type":"Point","coordinates":[4.691827,51.824941]},"properties":{"category":"bus_halte","name":"Middenstraat","operator":""}},{"type":"Feature","geometry":{"type":"Point","coordinates":[4.700245,51.827936]},"properties":{"category":"bus_halte","name":"Willem Dreeslaan","operator":""}},{"type":"Feature","geometry":{"type":"Point","coordinates":[4.682221,51.834668]},"properties":{"category":"bus_halte","name":"Jan Steenlaan","operator":""}},{"type":"Feature","geometry":{"type":"Point","coordinates":[4.682614,51.834774]},"properties":{"category":"bus_halte","name":"Jan Steenlaan","operator":""}},{"type":"Feature","geometry":{"type":"Point","coordinates":[4.706187,51.827095]},"properties":{"category":"bus_halte","name":"Zernikelaan","operator":""}},{"type":"Feature","geometry":{"type":"Point","coordinates":[4.706435,51.826995]},"properties":{"category":"bus_halte","name":"Zernikelaan","operator":""}},{"type":"Feature","geometry":{"type":"Point","coordinates":[4.709754,51.829116]},"properties":{"category":"bus_halte","name":"Pieter Zeemanlaan","operator":""}},{"type":"Feature","geometry":{"type":"Point","coordinates":[4.709964,51.829096]},"properties":{"category":"bus_halte","name":"Pieter Zeemanlaan","operator":""}},{"type":"Feature","geometry":{"type":"Point","coordinates":[4.722523,51.835321]},"properties":{"category":"bus_halte","name":"Lancasterplein","operator":""}},{"type":"Feature","geometry":{"type":"Point","coordinates":[4.723487,51.834872]},"properties":{"category":"bus_halte","name":"Lancasterplein","operator":"QBuzz"}},{"type":"Feature","geometry":{"type":"Point","coordinates":[4.685883,51.825783]},"properties":{"category":"bus_halte","name":"Winkelcentrum de Meent","operator":""}},{"type":"Feature","geometry":{"type":"Point","coordinates":[4.686037,51.825872]},"properties":{"category":"bus_halte","name":"Winkelcentrum de Meent","operator":""}},{"type":"Feature","geometry":{"type":"Point","coordinates":[4.732038,51.833334]},"properties":{"category":"bus_halte","name":"Markt van Matena","operator":""}},{"type":"Feature","geometry":{"type":"Point","coordinates":[4.731855,51.833498]},"properties":{"category":"bus_halte","name":"Markt van Matena","operator":""}},{"type":"Feature","geometry":{"type":"Point","coordinates":[4.684838,51.838546]},"properties":{"category":"bus_halte","name":"Busstation","operator":""}},{"type":"Feature","geometry":{"type":"Point","coordinates":[4.685214,51.838401]},"properties":{"category":"bus_halte","name":"Busstation","operator":""}},{"type":"Feature","geometry":{"type":"Point","coordinates":[4.684879,51.838148]},"properties":{"category":"bus_halte","name":"Busstation","operator":""}},{"type":"Feature","geometry":{"type":"Point","coordinates":[4.686562,51.837593]},"properties":{"category":"bus_halte","name":"Busstation","operator":""}},{"type":"Feature","geometry":{"type":"Point","coordinates":[4.682343,51.822428]},"properties":{"category":"bus_halte","name":"Veer","operator":""}},{"type":"Feature","geometry":{"type":"Point","coordinates":[4.684719,51.833163]},"properties":{"category":"bus_halte","name":"Paulus Potterstraat","operator":""}},{"type":"Feature","geometry":{"type":"Point","coordinates":[4.685894,51.832593]},"properties":{"category":"bus_halte","name":"Paulus Potterstraat","operator":""}},{"type":"Feature","geometry":{"type":"Point","coordinates":[4.690425,51.836448]},"properties":{"category":"bus_halte","name":"De Lage Waard","operator":""}},{"type":"Feature","geometry":{"type":"Point","coordinates":[4.691213,51.835926]},"properties":{"category":"bus_halte","name":"De Lage Waard","operator":""}},{"type":"Feature","geometry":{"type":"Point","coordinates":[4.689146,51.840323]},"properties":{"category":"bus_halte","name":"Walmolen","operator":""}},{"type":"Feature","geometry":{"type":"Point","coordinates":[4.689378,51.840709]},"properties":{"category":"bus_halte","name":"Walmolen","operator":""}},{"type":"Feature","geometry":{"type":"Point","coordinates":[4.693436,51.84088]},"properties":{"category":"bus_halte","name":"Stellingmolen","operator":""}},{"type":"Feature","geometry":{"type":"Point","coordinates":[4.693514,51.840781]},"properties":{"category":"bus_halte","name":"Stellingmolen","operator":""}},{"type":"Feature","geometry":{"type":"Point","coordinates":[4.706204,51.831608]},"properties":{"category":"bus_halte","name":"Viaduct N3 West","operator":""}},{"type":"Feature","geometry":{"type":"Point","coordinates":[4.707736,51.831339]},"properties":{"category":"bus_halte","name":"Viaduct N3 Oost","operator":""}},{"type":"Feature","geometry":{"type":"Point","coordinates":[4.715451,51.833161]},"properties":{"category":"bus_halte","name":"Oostpolderpark","operator":""}},{"type":"Feature","geometry":{"type":"Point","coordinates":[4.713888,51.833191]},"properties":{"category":"bus_halte","name":"Oostpolderpark","operator":""}},{"type":"Feature","geometry":{"type":"Point","coordinates":[4.708855,51.830671]},"properties":{"category":"bus_halte","name":"Viaduct N3 Oost","operator":""}},{"type":"Feature","geometry":{"type":"Point","coordinates":[4.708605,51.830387]},"properties":{"category":"bus_halte","name":"Viaduct N3 Oost","operator":""}},{"type":"Feature","geometry":{"type":"Point","coordinates":[4.705,51.831611]},"properties":{"category":"bus_halte","name":"Viaduct N3 West","operator":""}},{"type":"Feature","geometry":{"type":"Point","coordinates":[4.704804,51.831371]},"properties":{"category":"bus_halte","name":"Viaduct N3 West","operator":""}},{"type":"Feature","geometry":{"type":"Point","coordinates":[4.698753,51.833638]},"properties":{"category":"bus_halte","name":"Vijverpark","operator":""}},{"type":"Feature","geometry":{"type":"Point","coordinates":[4.700397,51.832827]},"properties":{"category":"bus_halte","name":"Vijverpark","operator":""}},{"type":"Feature","geometry":{"type":"Point","coordinates":[4.694358,51.828415]},"properties":{"category":"bus_halte","name":"Sterflat","operator":""}},{"type":"Feature","geometry":{"type":"Point","coordinates":[4.682617,51.826372]},"properties":{"category":"gemeentehuis","name":"Gemeentehuis Papendrecht","operator":"Gemeente Papendrecht"}},{"type":"Feature","geometry":{"type":"Point","coordinates":[4.699284,51.827899]},"properties":{"category":"inzamelpunt","name":"Gemeentewerf","operator":""}},{"type":"Feature","geometry":{"type":"Point","coordinates":[4.682546,51.826267]},"properties":{"category":"bibliotheek","name":"Bibliotheek Papendrecht","operator":"Bibliotheek AanZet"}},{"type":"Feature","geometry":{"type":"Point","coordinates":[4.683447,51.843994]},"properties":{"category":"transformatorhuisje","name":"107031049","operator":"Stedin"}},{"type":"Feature","geometry":{"type":"Point","coordinates":[4.696938,51.827207]},"properties":{"category":"transformatorhuisje","name":"50 kV Papendrecht","operator":"Stedin"}},{"type":"Feature","geometry":{"type":"Point","coordinates":[4.707498,51.828719]},"properties":{"category":"middelbare_school","name":"Stedelijk Dalton Lyceum","operator":""}},{"type":"Feature","geometry":{"type":"Point","coordinates":[4.683801,51.832768]},"properties":{"category":"middelbare_school","name":"Willem de Zwijger College","operator":"OZHW"}},{"type":"Feature","geometry":{"type":"Point","coordinates":[4.714844,51.83678]},"properties":{"category":"sportveld","name":"Sportcomplex Oostpolder","operator":""}},{"type":"Feature","geometry":{"type":"Point","coordinates":[4.684227,51.825807]},"properties":{"category":"winkelcentrum","name":"De Meent","operator":""}},{"type":"Feature","geometry":{"type":"Point","coordinates":[4.701761,51.836347]},"properties":{"category":"winkelcentrum","name":"Wilgendonk","operator":""}},{"type":"Feature","geometry":{"type":"Point","coordinates":[4.72939,51.825147]},"properties":{"category":"fietsenstalling","name":"","operator":""}},{"type":"Feature","geometry":{"type":"Point","coordinates":[4.686176,51.837636]},"properties":{"category":"fietsenstalling","name":"","operator":""}},{"type":"Feature","geometry":{"type":"Point","coordinates":[4.691159,51.83585]},"properties":{"category":"fietsenstalling","name":"","operator":""}},{"type":"Feature","geometry":{"type":"Point","coordinates":[4.709573,51.83073]},"properties":{"category":"fietsenstalling","name":"","operator":""}},{"type":"Feature","geometry":{"type":"Point","coordinates":[4.731814,51.833508]},"properties":{"category":"fietsenstalling","name":"","operator":""}},{"type":"Feature","geometry":{"type":"Point","coordinates":[4.685634,51.838268]},"properties":{"category":"fietsenstalling","name":"","operator":""}},{"type":"Feature","geometry":{"type":"Point","coordinates":[4.684793,51.826643]},"properties":{"category":"parkeergarage","name":"Parkeergarage de Meent","operator":"Gemeente Papendrecht"}},{"type":"Feature","geometry":{"type":"Point","coordinates":[4.695403,51.832638]},"properties":{"category":"parkeergarage","name":"","operator":""}},{"type":"Feature","geometry":{"type":"Point","coordinates":[4.694149,51.831338]},"properties":{"category":"parkeergarage","name":"","operator":""}},{"type":"Feature","geometry":{"type":"Point","coordinates":[4.685851,51.825132]},"properties":{"category":"parkeergarage","name":"Overtoom","operator":"Gemeente Papendrecht"}},{"type":"Feature","geometry":{"type":"Point","coordinates":[4.726023,51.824721]},"properties":{"category":"parkeergarage","name":"Boskalis P6","operator":""}},{"type":"Feature","geometry":{"type":"Point","coordinates":[4.681622,51.822486]},"properties":{"category":"parkeergarage","name":"","operator":""}},{"type":"Feature","geometry":{"type":"Point","coordinates":[4.673213,51.827127]},"properties":{"category":"parkeergarage","name":"GKN FokkerAerostructures","operator":""}}]}