{"type":"FeatureCollection","metadata":{"gemeente":"Purmerend","slug":"purmerend","by_category":{"bus_halte":189,"fietsenstalling":29,"winkelcentrum":10,"sportveld":8,"ov_knooppunt":5,"bibliotheek":4,"ns_station":3,"inzamelpunt":3,"parkeergarage":3,"p_and_r":2,"gemeentehuis":1,"ziekenhuis":1,"hogeschool":1},"total":259},"features":[{"type":"Feature","geometry":{"type":"Point","coordinates":[4.967088,52.511222]},"properties":{"category":"ns_station","name":"Purmerend Overwhere","operator":""}},{"type":"Feature","geometry":{"type":"Point","coordinates":[4.954412,52.503952]},"properties":{"category":"ns_station","name":"Purmerend","operator":""}},{"type":"Feature","geometry":{"type":"Point","coordinates":[4.935029,52.49638]},"properties":{"category":"ns_station","name":"Purmerend Weidevenne","operator":""}},{"type":"Feature","geometry":{"type":"Point","coordinates":[4.963546,52.490239]},"properties":{"category":"bus_halte","name":"Cornelis Edelmanstraat","operator":""}},{"type":"Feature","geometry":{"type":"Point","coordinates":[4.96267,52.490243]},"properties":{"category":"bus_halte","name":"Cornelis Edelmanstraat","operator":""}},{"type":"Feature","geometry":{"type":"Point","coordinates":[4.965473,52.495065]},"properties":{"category":"bus_halte","name":"Mergelland","operator":""}},{"type":"Feature","geometry":{"type":"Point","coordinates":[4.966256,52.494681]},"properties":{"category":"bus_halte","name":"Mergelland","operator":""}},{"type":"Feature","geometry":{"type":"Point","coordinates":[4.960245,52.487727]},"properties":{"category":"bus_halte","name":"Moeder Terresastraat","operator":""}},{"type":"Feature","geometry":{"type":"Point","coordinates":[4.958934,52.486649]},"properties":{"category":"bus_halte","name":"Moeder Terresastraat","operator":""}},{"type":"Feature","geometry":{"type":"Point","coordinates":[4.945632,52.51084]},"properties":{"category":"bus_halte","name":"Gedempte Singelgracht","operator":""}},{"type":"Feature","geometry":{"type":"Point","coordinates":[4.953889,52.507228]},"properties":{"category":"bus_halte","name":"Stadhuis","operator":""}},{"type":"Feature","geometry":{"type":"Point","coordinates":[4.954635,52.50719]},"properties":{"category":"bus_halte","name":"Stadhuis","operator":""}},{"type":"Feature","geometry":{"type":"Point","coordinates":[4.96541,52.512205]},"properties":{"category":"bus_halte","name":"Van IJsendijkstraat","operator":""}},{"type":"Feature","geometry":{"type":"Point","coordinates":[4.966702,52.510362]},"properties":{"category":"bus_halte","name":"Station Overwhere","operator":""}},{"type":"Feature","geometry":{"type":"Point","coordinates":[4.966908,52.510555]},"properties":{"category":"bus_halte","name":"Station Overwhere","operator":""}},{"type":"Feature","geometry":{"type":"Point","coordinates":[4.971091,52.509918]},"properties":{"category":"bus_halte","name":"Anne Franklaan","operator":""}},{"type":"Feature","geometry":{"type":"Point","coordinates":[4.970782,52.510037]},"properties":{"category":"bus_halte","name":"Anne Franklaan","operator":""}},{"type":"Feature","geometry":{"type":"Point","coordinates":[4.964198,52.517159]},"properties":{"category":"bus_halte","name":"Flevostraat","operator":""}},{"type":"Feature","geometry":{"type":"Point","coordinates":[4.964292,52.515801]},"properties":{"category":"bus_halte","name":"Flevostraat","operator":""}},{"type":"Feature","geometry":{"type":"Point","coordinates":[4.965242,52.513335]},"properties":{"category":"bus_halte","name":"Van IJsendijkstraat","operator":""}},{"type":"Feature","geometry":{"type":"Point","coordinates":[4.933482,52.499859]},"properties":{"category":"bus_halte","name":"Savannestraat","operator":""}},{"type":"Feature","geometry":{"type":"Point","coordinates":[4.962363,52.496997]},"properties":{"category":"bus_halte","name":"Bovenlandsestraat","operator":""}},{"type":"Feature","geometry":{"type":"Point","coordinates":[4.959896,52.499466]},"properties":{"category":"bus_halte","name":"Veenweidestraat/Ziekenhuis","operator":""}},{"type":"Feature","geometry":{"type":"Point","coordinates":[4.955089,52.503491]},"properties":{"category":"bus_halte","name":"Station Purmerend","operator":""}},{"type":"Feature","geometry":{"type":"Point","coordinates":[4.955592,52.503301]},"properties":{"category":"bus_halte","name":"Station Purmerend","operator":""}},{"type":"Feature","geometry":{"type":"Point","coordinates":[4.960715,52.499259]},"properties":{"category":"bus_halte","name":"Veenweidestraat/Ziekenhuis","operator":""}},{"type":"Feature","geometry":{"type":"Point","coordinates":[4.962552,52.497078]},"properties":{"category":"bus_halte","name":"Bovenlandsestraat","operator":""}},{"type":"Feature","geometry":{"type":"Point","coordinates":[4.978367,52.498713]},"properties":{"category":"bus_halte","name":"Tilburyplein","operator":""}},{"type":"Feature","geometry":{"type":"Point","coordinates":[4.942086,52.500938]},"properties":{"category":"bus_halte","name":"Retiropark","operator":""}},{"type":"Feature","geometry":{"type":"Point","coordinates":[4.934937,52.510236]},"properties":{"category":"bus_halte","name":"Graanmaalderij","operator":""}},{"type":"Feature","geometry":{"type":"Point","coordinates":[4.96422,52.524274]},"properties":{"category":"bus_halte","name":"M.L. Kingweg","operator":""}},{"type":"Feature","geometry":{"type":"Point","coordinates":[4.952623,52.497122]},"properties":{"category":"bus_halte","name":"Linnaeuslaan","operator":""}},{"type":"Feature","geometry":{"type":"Point","coordinates":[4.96126,52.502104]},"properties":{"category":"bus_halte","name":"Waterlandlaan","operator":""}},{"type":"Feature","geometry":{"type":"Point","coordinates":[4.966145,52.489347]},"properties":{"category":"bus_halte","name":"Brahmsstraat","operator":""}},{"type":"Feature","geometry":{"type":"Point","coordinates":[4.952398,52.487302]},"properties":{"category":"bus_halte","name":"Klaverblad","operator":""}},{"type":"Feature","geometry":{"type":"Point","coordinates":[4.987766,52.502038]},"properties":{"category":"bus_halte","name":"Bunderstraat","operator":""}},{"type":"Feature","geometry":{"type":"Point","coordinates":[4.962624,52.502001]},"properties":{"category":"bus_halte","name":"Waterlandlaan","operator":""}},{"type":"Feature","geometry":{"type":"Point","coordinates":[4.948936,52.510151]},"properties":{"category":"bus_halte","name":"Gedempte Where","operator":""}},{"type":"Feature","geometry":{"type":"Point","coordinates":[4.93775,52.495491]},"properties":{"category":"bus_halte","name":"Canberrastraat","operator":""}},{"type":"Feature","geometry":{"type":"Point","coordinates":[4.99524,52.515578]},"properties":{"category":"bus_halte","name":"Kelvinstraat","operator":""}},{"type":"Feature","geometry":{"type":"Point","coordinates":[4.953585,52.490057]},"properties":{"category":"bus_halte","name":"Fonteinkruid","operator":""}},{"type":"Feature","geometry":{"type":"Point","coordinates":[4.975033,52.493163]},"properties":{"category":"bus_halte","name":"Mastbos","operator":""}},{"type":"Feature","geometry":{"type":"Point","coordinates":[4.977051,52.495616]},"properties":{"category":"bus_halte","name":"IJsselmeerlaan","operator":""}},{"type":"Feature","geometry":{"type":"Point","coordinates":[4.982863,52.504078]},"properties":{"category":"bus_halte","name":"Wijkcentrum","operator":""}},{"type":"Feature","geometry":{"type":"Point","coordinates":[4.969031,52.495742]},"properties":{"category":"bus_halte","name":"Delfland","operator":""}},{"type":"Feature","geometry":{"type":"Point","coordinates":[4.985153,52.499655]},"properties":{"category":"bus_halte","name":"Zuivelpad","operator":""}},{"type":"Feature","geometry":{"type":"Point","coordinates":[4.970324,52.521879]},"properties":{"category":"bus_halte","name":"Koogsingel","operator":""}},{"type":"Feature","geometry":{"type":"Point","coordinates":[4.990711,52.5088]},"properties":{"category":"bus_halte","name":"Boekweitstraat","operator":""}},{"type":"Feature","geometry":{"type":"Point","coordinates":[4.959073,52.503883]},"properties":{"category":"bus_halte","name":"Waterlandplein","operator":""}},{"type":"Feature","geometry":{"type":"Point","coordinates":[4.957602,52.510086]},"properties":{"category":"bus_halte","name":"Doplaan","operator":""}},{"type":"Feature","geometry":{"type":"Point","coordinates":[4.973575,52.497769]},"properties":{"category":"bus_halte","name":"Slotermeer","operator":""}},{"type":"Feature","geometry":{"type":"Point","coordinates":[4.97264,52.517432]},"properties":{"category":"bus_halte","name":"Cantekoogweg","operator":""}},{"type":"Feature","geometry":{"type":"Point","coordinates":[4.978195,52.498713]},"properties":{"category":"bus_halte","name":"Tilburyplein","operator":""}},{"type":"Feature","geometry":{"type":"Point","coordinates":[4.934352,52.509809]},"properties":{"category":"bus_halte","name":"Graanmaalderij","operator":""}},{"type":"Feature","geometry":{"type":"Point","coordinates":[4.981488,52.502651]},"properties":{"category":"bus_halte","name":"Hoefsmidpad","operator":""}},{"type":"Feature","geometry":{"type":"Point","coordinates":[4.94045,52.510773]},"properties":{"category":"bus_halte","name":"Sluisbrug","operator":""}},{"type":"Feature","geometry":{"type":"Point","coordinates":[4.96239,52.524192]},"properties":{"category":"bus_halte","name":"M.L. Kingweg","operator":""}},{"type":"Feature","geometry":{"type":"Point","coordinates":[4.938858,52.491193]},"properties":{"category":"bus_halte","name":"Karavaanstraat","operator":""}},{"type":"Feature","geometry":{"type":"Point","coordinates":[4.961169,52.502903]},"properties":{"category":"bus_halte","name":"Waterlandlaan","operator":""}},{"type":"Feature","geometry":{"type":"Point","coordinates":[4.94569,52.51111]},"properties":{"category":"bus_halte","name":"Gedempte Singelgracht","operator":""}},{"type":"Feature","geometry":{"type":"Point","coordinates":[4.98939,52.50679]},"properties":{"category":"bus_halte","name":"Tarwestraat","operator":""}},{"type":"Feature","geometry":{"type":"Point","coordinates":[4.993067,52.511985]},"properties":{"category":"bus_halte","name":"Korenstraat","operator":""}},{"type":"Feature","geometry":{"type":"Point","coordinates":[4.971488,52.495027]},"properties":{"category":"bus_halte","name":"Grevelingenmeer","operator":""}},{"type":"Feature","geometry":{"type":"Point","coordinates":[5.000667,52.515799]},"properties":{"category":"bus_halte","name":"Ampèrestraat","operator":""}},{"type":"Feature","geometry":{"type":"Point","coordinates":[4.945515,52.492339]},"properties":{"category":"bus_halte","name":"Eufraatlaan","operator":""}},{"type":"Feature","geometry":{"type":"Point","coordinates":[4.972403,52.490461]},"properties":{"category":"bus_halte","name":"Frescobaldistraat","operator":""}},{"type":"Feature","geometry":{"type":"Point","coordinates":[4.98096,52.497582]},"properties":{"category":"bus_halte","name":"Sjeesstraat","operator":""}},{"type":"Feature","geometry":{"type":"Point","coordinates":[4.983974,52.50626]},"properties":{"category":"bus_halte","name":"Gildeplein","operator":""}},{"type":"Feature","geometry":{"type":"Point","coordinates":[4.957053,52.52104]},"properties":{"category":"bus_halte","name":"Sternstraat","operator":""}},{"type":"Feature","geometry":{"type":"Point","coordinates":[4.969298,52.497041]},"properties":{"category":"bus_halte","name":"Salland","operator":""}},{"type":"Feature","geometry":{"type":"Point","coordinates":[4.958205,52.504877]},"properties":{"category":"bus_halte","name":"Waterlandplein","operator":""}},{"type":"Feature","geometry":{"type":"Point","coordinates":[4.96338,52.51889]},"properties":{"category":"bus_halte","name":"Prof. Mr. P.J. Oudlaan","operator":""}},{"type":"Feature","geometry":{"type":"Point","coordinates":[4.99966,52.515079]},"properties":{"category":"bus_halte","name":"Ampèrestraat","operator":""}},{"type":"Feature","geometry":{"type":"Point","coordinates":[4.945977,52.502885]},"properties":{"category":"bus_halte","name":"Rozenstraat","operator":""}},{"type":"Feature","geometry":{"type":"Point","coordinates":[4.973713,52.496623]},"properties":{"category":"bus_halte","name":"Slotermeer","operator":""}},{"type":"Feature","geometry":{"type":"Point","coordinates":[4.980933,52.50227]},"properties":{"category":"bus_halte","name":"Hoefsmidpad","operator":""}},{"type":"Feature","geometry":{"type":"Point","coordinates":[4.940504,52.510882]},"properties":{"category":"bus_halte","name":"Sluisbrug","operator":""}},{"type":"Feature","geometry":{"type":"Point","coordinates":[4.965174,52.523399]},"properties":{"category":"bus_halte","name":"M.L. Kingweg","operator":""}},{"type":"Feature","geometry":{"type":"Point","coordinates":[4.943057,52.496176]},"properties":{"category":"bus_halte","name":"Aziëlaan","operator":""}},{"type":"Feature","geometry":{"type":"Point","coordinates":[4.959642,52.500345]},"properties":{"category":"bus_halte","name":"Veenweidestraat","operator":""}},{"type":"Feature","geometry":{"type":"Point","coordinates":[4.968438,52.487874]},"properties":{"category":"bus_halte","name":"Beethovenstraat","operator":""}},{"type":"Feature","geometry":{"type":"Point","coordinates":[4.957442,52.524748]},"properties":{"category":"bus_halte","name":"Aalscholverstraat","operator":""}},{"type":"Feature","geometry":{"type":"Point","coordinates":[4.965498,52.500893]},"properties":{"category":"bus_halte","name":"Basisveenstraat","operator":""}},{"type":"Feature","geometry":{"type":"Point","coordinates":[4.96313,52.503592]},"properties":{"category":"bus_halte","name":"Brug / Wheermolen","operator":""}},{"type":"Feature","geometry":{"type":"Point","coordinates":[4.931301,52.492219]},"properties":{"category":"bus_halte","name":"Zoeloestraat","operator":""}},{"type":"Feature","geometry":{"type":"Point","coordinates":[4.95031,52.509177]},"properties":{"category":"bus_halte","name":"Gedempte Where","operator":""}},{"type":"Feature","geometry":{"type":"Point","coordinates":[4.930962,52.490051]},"properties":{"category":"bus_halte","name":"Melkweg 21","operator":""}},{"type":"Feature","geometry":{"type":"Point","coordinates":[4.994482,52.515152]},"properties":{"category":"bus_halte","name":"Kelvinstraat","operator":""}},{"type":"Feature","geometry":{"type":"Point","coordinates":[4.959459,52.495683]},"properties":{"category":"bus_halte","name":"Dijckscampenlaan","operator":""}},{"type":"Feature","geometry":{"type":"Point","coordinates":[4.967566,52.50761]},"properties":{"category":"bus_halte","name":"Churchilllaan","operator":""}},{"type":"Feature","geometry":{"type":"Point","coordinates":[4.968829,52.494739]},"properties":{"category":"bus_halte","name":"Meerland","operator":""}},{"type":"Feature","geometry":{"type":"Point","coordinates":[4.945973,52.501947]},"properties":{"category":"bus_halte","name":"Rozenstraat","operator":""}},{"type":"Feature","geometry":{"type":"Point","coordinates":[4.984045,52.505659]},"properties":{"category":"bus_halte","name":"Gildeplein","operator":""}},{"type":"Feature","geometry":{"type":"Point","coordinates":[4.943992,52.507093]},"properties":{"category":"bus_halte","name":"Tramplein","operator":""}},{"type":"Feature","geometry":{"type":"Point","coordinates":[4.985424,52.499717]},"properties":{"category":"bus_halte","name":"Zuivelpad","operator":""}},{"type":"Feature","geometry":{"type":"Point","coordinates":[4.983569,52.508189]},"properties":{"category":"bus_halte","name":"Zichthof","operator":""}},{"type":"Feature","geometry":{"type":"Point","coordinates":[4.972994,52.517643]},"properties":{"category":"bus_halte","name":"Cantekoogweg","operator":""}},{"type":"Feature","geometry":{"type":"Point","coordinates":[4.956005,52.516748]},"properties":{"category":"bus_halte","name":"Wilgenhoek","operator":""}},{"type":"Feature","geometry":{"type":"Point","coordinates":[4.974488,52.497536]},"properties":{"category":"bus_halte","name":"Slotermeer","operator":""}},{"type":"Feature","geometry":{"type":"Point","coordinates":[4.964643,52.501477]},"properties":{"category":"bus_halte","name":"Basisveenstraat","operator":""}},{"type":"Feature","geometry":{"type":"Point","coordinates":[4.940436,52.507417]},"properties":{"category":"bus_halte","name":"Vuurtorengracht","operator":""}},{"type":"Feature","geometry":{"type":"Point","coordinates":[4.981834,52.518509]},"properties":{"category":"bus_halte","name":"Kwadijkerkoogweg","operator":""}},{"type":"Feature","geometry":{"type":"Point","coordinates":[4.982397,52.503746]},"properties":{"category":"bus_halte","name":"Wijkcentrum","operator":""}},{"type":"Feature","geometry":{"type":"Point","coordinates":[4.969551,52.507714]},"properties":{"category":"bus_halte","name":"Hannie Schaftstraat","operator":""}},{"type":"Feature","geometry":{"type":"Point","coordinates":[4.94427,52.507077]},"properties":{"category":"bus_halte","name":"Tramplein","operator":""}},{"type":"Feature","geometry":{"type":"Point","coordinates":[4.957275,52.524514]},"properties":{"category":"bus_halte","name":"Aalscholverstraat","operator":""}},{"type":"Feature","geometry":{"type":"Point","coordinates":[4.970014,52.507413]},"properties":{"category":"bus_halte","name":"Hannie Schaftstraat","operator":""}},{"type":"Feature","geometry":{"type":"Point","coordinates":[4.941867,52.501128]},"properties":{"category":"bus_halte","name":"Retiropark","operator":""}},{"type":"Feature","geometry":{"type":"Point","coordinates":[4.947698,52.497224]},"properties":{"category":"bus_halte","name":"Jan Blankenbrug","operator":""}},{"type":"Feature","geometry":{"type":"Point","coordinates":[4.974486,52.508573]},"properties":{"category":"bus_halte","name":"Albert Schweitzerlaan","operator":""}},{"type":"Feature","geometry":{"type":"Point","coordinates":[4.967142,52.485101]},"properties":{"category":"bus_halte","name":"Dom Helder Camerastraat","operator":""}},{"type":"Feature","geometry":{"type":"Point","coordinates":[4.964685,52.504618]},"properties":{"category":"bus_halte","name":"Brug / Wheermolen","operator":""}},{"type":"Feature","geometry":{"type":"Point","coordinates":[4.931296,52.491918]},"properties":{"category":"bus_halte","name":"Zoeloestraat","operator":""}},{"type":"Feature","geometry":{"type":"Point","coordinates":[4.931239,52.490265]},"properties":{"category":"bus_halte","name":"Melkweg 21","operator":""}},{"type":"Feature","geometry":{"type":"Point","coordinates":[4.938951,52.504354]},"properties":{"category":"bus_halte","name":"Vallettastraat","operator":""}},{"type":"Feature","geometry":{"type":"Point","coordinates":[4.987527,52.502072]},"properties":{"category":"bus_halte","name":"Bunderstraat","operator":""}},{"type":"Feature","geometry":{"type":"Point","coordinates":[4.959589,52.495475]},"properties":{"category":"bus_halte","name":"Dijckscampenlaan","operator":""}},{"type":"Feature","geometry":{"type":"Point","coordinates":[4.969925,52.494218]},"properties":{"category":"bus_halte","name":"Meerland","operator":""}},{"type":"Feature","geometry":{"type":"Point","coordinates":[4.967846,52.507549]},"properties":{"category":"bus_halte","name":"Churchilllaan","operator":""}},{"type":"Feature","geometry":{"type":"Point","coordinates":[4.935103,52.491848]},"properties":{"category":"bus_halte","name":"Woestijnstraat","operator":""}},{"type":"Feature","geometry":{"type":"Point","coordinates":[4.958421,52.492595]},"properties":{"category":"bus_halte","name":"Lepelblad","operator":""}},{"type":"Feature","geometry":{"type":"Point","coordinates":[4.973539,52.493061]},"properties":{"category":"bus_halte","name":"Mastbos","operator":""}},{"type":"Feature","geometry":{"type":"Point","coordinates":[4.978287,52.496474]},"properties":{"category":"bus_halte","name":"IJsselmeerlaan","operator":""}},{"type":"Feature","geometry":{"type":"Point","coordinates":[4.984556,52.508499]},"properties":{"category":"bus_halte","name":"Zichthof","operator":""}},{"type":"Feature","geometry":{"type":"Point","coordinates":[4.949999,52.490184]},"properties":{"category":"bus_halte","name":"Vurige Staart","operator":""}},{"type":"Feature","geometry":{"type":"Point","coordinates":[4.956326,52.516376]},"properties":{"category":"bus_halte","name":"Wilgenhoek","operator":""}},{"type":"Feature","geometry":{"type":"Point","coordinates":[4.968436,52.495322]},"properties":{"category":"bus_halte","name":"Delfland","operator":""}},{"type":"Feature","geometry":{"type":"Point","coordinates":[4.986702,52.510253]},"properties":{"category":"bus_halte","name":"De Graeffweg","operator":""}},{"type":"Feature","geometry":{"type":"Point","coordinates":[4.985991,52.520818]},"properties":{"category":"bus_halte","name":"Nieuwe Gouw","operator":""}},{"type":"Feature","geometry":{"type":"Point","coordinates":[5.00996,52.510081]},"properties":{"category":"bus_halte","name":"Magneet","operator":""}},{"type":"Feature","geometry":{"type":"Point","coordinates":[4.957134,52.512701]},"properties":{"category":"bus_halte","name":"Wormerplein","operator":""}},{"type":"Feature","geometry":{"type":"Point","coordinates":[4.9709,52.494606]},"properties":{"category":"bus_halte","name":"Grevelingenmeer","operator":""}},{"type":"Feature","geometry":{"type":"Point","coordinates":[4.981399,52.518555]},"properties":{"category":"bus_halte","name":"Kwadijkerkoogweg","operator":""}},{"type":"Feature","geometry":{"type":"Point","coordinates":[4.932197,52.499672]},"properties":{"category":"bus_halte","name":"Savannestraat","operator":""}},{"type":"Feature","geometry":{"type":"Point","coordinates":[4.947794,52.495897]},"properties":{"category":"bus_halte","name":"Jan Blankenbrug","operator":""}},{"type":"Feature","geometry":{"type":"Point","coordinates":[4.958117,52.499473]},"properties":{"category":"bus_halte","name":"Veenweidestraat","operator":""}},{"type":"Feature","geometry":{"type":"Point","coordinates":[4.969957,52.487966]},"properties":{"category":"bus_halte","name":"Beethovenstraat","operator":""}},{"type":"Feature","geometry":{"type":"Point","coordinates":[4.957424,52.521706]},"properties":{"category":"bus_halte","name":"Sternstraat","operator":""}},{"type":"Feature","geometry":{"type":"Point","coordinates":[4.973969,52.50823]},"properties":{"category":"bus_halte","name":"Albert Schweitzerlaan","operator":""}},{"type":"Feature","geometry":{"type":"Point","coordinates":[4.952688,52.497371]},"properties":{"category":"bus_halte","name":"Linnaeuslaan","operator":""}},{"type":"Feature","geometry":{"type":"Point","coordinates":[4.962712,52.502889]},"properties":{"category":"bus_halte","name":"Waterlandlaan","operator":""}},{"type":"Feature","geometry":{"type":"Point","coordinates":[4.938718,52.504297]},"properties":{"category":"bus_halte","name":"Vallettastraat","operator":""}},{"type":"Feature","geometry":{"type":"Point","coordinates":[4.966244,52.488511]},"properties":{"category":"bus_halte","name":"Brahmsstraat","operator":""}},{"type":"Feature","geometry":{"type":"Point","coordinates":[4.935089,52.492048]},"properties":{"category":"bus_halte","name":"Woestijnstraat","operator":""}},{"type":"Feature","geometry":{"type":"Point","coordinates":[4.989712,52.50688]},"properties":{"category":"bus_halte","name":"Tarwestraat","operator":""}},{"type":"Feature","geometry":{"type":"Point","coordinates":[4.958508,52.492523]},"properties":{"category":"bus_halte","name":"Lepelblad","operator":""}},{"type":"Feature","geometry":{"type":"Point","coordinates":[4.973701,52.492181]},"properties":{"category":"bus_halte","name":"Mastbos","operator":""}},{"type":"Feature","geometry":{"type":"Point","coordinates":[4.938087,52.495394]},"properties":{"category":"bus_halte","name":"Canberrastraat","operator":""}},{"type":"Feature","geometry":{"type":"Point","coordinates":[4.944176,52.495691]},"properties":{"category":"bus_halte","name":"Azielaan","operator":""}},{"type":"Feature","geometry":{"type":"Point","coordinates":[4.953432,52.490079]},"properties":{"category":"bus_halte","name":"Fonteinkruid","operator":""}},{"type":"Feature","geometry":{"type":"Point","coordinates":[4.971024,52.489449]},"properties":{"category":"bus_halte","name":"Frescobaldistraat","operator":""}},{"type":"Feature","geometry":{"type":"Point","coordinates":[4.949378,52.491314]},"properties":{"category":"bus_halte","name":"Vurige Staart","operator":""}},{"type":"Feature","geometry":{"type":"Point","coordinates":[4.981251,52.497654]},"properties":{"category":"bus_halte","name":"Sjeesstraat","operator":""}},{"type":"Feature","geometry":{"type":"Point","coordinates":[4.944672,52.491844]},"properties":{"category":"bus_halte","name":"Eufraatlaan","operator":""}},{"type":"Feature","geometry":{"type":"Point","coordinates":[4.98667,52.510985]},"properties":{"category":"bus_halte","name":"De Graeffweg","operator":""}},{"type":"Feature","geometry":{"type":"Point","coordinates":[4.969557,52.520852]},"properties":{"category":"bus_halte","name":"Koogsingel","operator":""}},{"type":"Feature","geometry":{"type":"Point","coordinates":[4.957346,52.512718]},"properties":{"category":"bus_halte","name":"Wormerplein","operator":""}},{"type":"Feature","geometry":{"type":"Point","coordinates":[4.969882,52.497426]},"properties":{"category":"bus_halte","name":"Salland","operator":""}},{"type":"Feature","geometry":{"type":"Point","coordinates":[4.940772,52.506675]},"properties":{"category":"bus_halte","name":"Vuurtorengracht","operator":""}},{"type":"Feature","geometry":{"type":"Point","coordinates":[4.985045,52.520086]},"properties":{"category":"bus_halte","name":"Nieuwe Gouw","operator":""}},{"type":"Feature","geometry":{"type":"Point","coordinates":[4.957892,52.510449]},"properties":{"category":"bus_halte","name":"Doplaan","operator":""}},{"type":"Feature","geometry":{"type":"Point","coordinates":[4.929137,52.496786]},"properties":{"category":"bus_halte","name":"Orinocostraat","operator":""}},{"type":"Feature","geometry":{"type":"Point","coordinates":[4.961629,52.519474]},"properties":{"category":"bus_halte","name":"Prof. Mr. P.J. Oudlaan","operator":""}},{"type":"Feature","geometry":{"type":"Point","coordinates":[4.964903,52.519652]},"properties":{"category":"bus_halte","name":"Prof. Mr. P.J. Oudlaan","operator":""}},{"type":"Feature","geometry":{"type":"Point","coordinates":[4.94886,52.496693]},"properties":{"category":"bus_halte","name":"Jan Blankenbrug","operator":""}},{"type":"Feature","geometry":{"type":"Point","coordinates":[4.954231,52.512016]},"properties":{"category":"bus_halte","name":"Anette Poelmanstraat","operator":""}},{"type":"Feature","geometry":{"type":"Point","coordinates":[4.954238,52.512083]},"properties":{"category":"bus_halte","name":"Anette Poelmanstraat","operator":""}},{"type":"Feature","geometry":{"type":"Point","coordinates":[4.964736,52.523657]},"properties":{"category":"bus_halte","name":"M.L. Kingweg","operator":""}},{"type":"Feature","geometry":{"type":"Point","coordinates":[4.963361,52.520077]},"properties":{"category":"bus_halte","name":"Prof. Mr. P.J. Oudlaan","operator":""}},{"type":"Feature","geometry":{"type":"Point","coordinates":[4.985602,52.496352]},"properties":{"category":"bus_halte","name":"Purmerbuurt","operator":""}},{"type":"Feature","geometry":{"type":"Point","coordinates":[4.985564,52.496457]},"properties":{"category":"bus_halte","name":"Purmerbuurt","operator":""}},{"type":"Feature","geometry":{"type":"Point","coordinates":[4.96282,52.523957]},"properties":{"category":"bus_halte","name":"M.L. Kingweg","operator":""}},{"type":"Feature","geometry":{"type":"Point","coordinates":[4.936544,52.50922]},"properties":{"category":"bus_halte","name":"Neckerstraat","operator":""}},{"type":"Feature","geometry":{"type":"Point","coordinates":[4.936654,52.509906]},"properties":{"category":"bus_halte","name":"Neckerstraat","operator":""}},{"type":"Feature","geometry":{"type":"Point","coordinates":[4.962811,52.501135]},"properties":{"category":"bus_halte","name":"Dijklander Ziekenhuis","operator":""}},{"type":"Feature","geometry":{"type":"Point","coordinates":[4.966048,52.527226]},"properties":{"category":"bus_halte","name":"P+R N244","operator":""}},{"type":"Feature","geometry":{"type":"Point","coordinates":[4.966188,52.527253]},"properties":{"category":"bus_halte","name":"P+R N244","operator":""}},{"type":"Feature","geometry":{"type":"Point","coordinates":[5.00309,52.518859]},"properties":{"category":"bus_halte","name":"Polderweg","operator":""}},{"type":"Feature","geometry":{"type":"Point","coordinates":[5.00315,52.518712]},"properties":{"category":"bus_halte","name":"Polderweg","operator":""}},{"type":"Feature","geometry":{"type":"Point","coordinates":[5.010781,52.516258]},"properties":{"category":"bus_halte","name":"Visserijweg","operator":""}},{"type":"Feature","geometry":{"type":"Point","coordinates":[5.010874,52.516112]},"properties":{"category":"bus_halte","name":"Visserijweg","operator":""}},{"type":"Feature","geometry":{"type":"Point","coordinates":[4.963302,52.52327]},"properties":{"category":"bus_halte","name":"M.L. Kingweg","operator":""}},{"type":"Feature","geometry":{"type":"Point","coordinates":[4.944361,52.507418]},"properties":{"category":"bus_halte","name":"Tramplein","operator":""}},{"type":"Feature","geometry":{"type":"Point","coordinates":[4.944086,52.507362]},"properties":{"category":"bus_halte","name":"Tramplein","operator":""}},{"type":"Feature","geometry":{"type":"Point","coordinates":[4.987376,52.511407]},"properties":{"category":"bus_halte","name":"De Graeffweg","operator":""}},{"type":"Feature","geometry":{"type":"Point","coordinates":[4.993999,52.511115]},"properties":{"category":"bus_halte","name":"Korenstraat","operator":""}},{"type":"Feature","geometry":{"type":"Point","coordinates":[4.963574,52.51272]},"properties":{"category":"bus_halte","name":"Van IJsendijkstraat","operator":""}},{"type":"Feature","geometry":{"type":"Point","coordinates":[4.99341,52.511586]},"properties":{"category":"bus_halte","name":"Korenstraat","operator":""}},{"type":"Feature","geometry":{"type":"Point","coordinates":[5.006264,52.513144]},"properties":{"category":"bus_halte","name":"Signaal","operator":""}},{"type":"Feature","geometry":{"type":"Point","coordinates":[5.007195,52.512718]},"properties":{"category":"bus_halte","name":"Signaal","operator":""}},{"type":"Feature","geometry":{"type":"Point","coordinates":[5.009633,52.510857]},"properties":{"category":"bus_halte","name":"Magneet","operator":""}},{"type":"Feature","geometry":{"type":"Point","coordinates":[4.943946,52.507532]},"properties":{"category":"bus_halte","name":"Tramplein","operator":""}},{"type":"Feature","geometry":{"type":"Point","coordinates":[4.967088,52.511222]},"properties":{"category":"ov_knooppunt","name":"Purmerend Overwhere","operator":""}},{"type":"Feature","geometry":{"type":"Point","coordinates":[4.954412,52.503952]},"properties":{"category":"ov_knooppunt","name":"Purmerend","operator":""}},{"type":"Feature","geometry":{"type":"Point","coordinates":[4.935029,52.49638]},"properties":{"category":"ov_knooppunt","name":"Purmerend Weidevenne","operator":""}},{"type":"Feature","geometry":{"type":"Point","coordinates":[4.944182,52.507288]},"properties":{"category":"ov_knooppunt","name":"Busstation Tramplein","operator":""}},{"type":"Feature","geometry":{"type":"Point","coordinates":[4.993496,52.511489]},"properties":{"category":"ov_knooppunt","name":"Korenstraat","operator":""}},{"type":"Feature","geometry":{"type":"Point","coordinates":[4.953685,52.50657]},"properties":{"category":"gemeentehuis","name":"Stadhuis van Purmerend","operator":"Gemeente Purmerend"}},{"type":"Feature","geometry":{"type":"Point","coordinates":[4.994123,52.516251]},"properties":{"category":"inzamelpunt","name":"De Graaf","operator":""}},{"type":"Feature","geometry":{"type":"Point","coordinates":[5.011422,52.512138]},"properties":{"category":"inzamelpunt","name":"HVC Composteringsinstallatie","operator":"HVC"}},{"type":"Feature","geometry":{"type":"Point","coordinates":[4.986549,52.517772]},"properties":{"category":"inzamelpunt","name":"Milleustraat","operator":""}},{"type":"Feature","geometry":{"type":"Point","coordinates":[4.95754,52.504807]},"properties":{"category":"bibliotheek","name":"Bibliotheek Purmerend","operator":"Bibliotheek Waterland"}},{"type":"Feature","geometry":{"type":"Point","coordinates":[4.984591,52.508009]},"properties":{"category":"bibliotheek","name":"Servicepunt Purmerend Het Parelhof","operator":"Bibliotheek Waterland"}},{"type":"Feature","geometry":{"type":"Point","coordinates":[4.933471,52.491889]},"properties":{"category":"bibliotheek","name":"Servicepunt Purmerend De Kraal","operator":"Bibliotheek Waterland"}},{"type":"Feature","geometry":{"type":"Point","coordinates":[4.973545,52.506991]},"properties":{"category":"bibliotheek","name":"Servicepunt Purmerend Wheermolen","operator":"Bibliotheek Waterland"}},{"type":"Feature","geometry":{"type":"Point","coordinates":[4.962108,52.500316]},"properties":{"category":"ziekenhuis","name":"Dijklander Ziekenhuis","operator":"Dijklander Ziekenhuis"}},{"type":"Feature","geometry":{"type":"Point","coordinates":[4.963827,52.520554]},"properties":{"category":"hogeschool","name":"ROC Horizon College Purmerend","operator":""}},{"type":"Feature","geometry":{"type":"Point","coordinates":[4.952184,52.502432]},"properties":{"category":"sportveld","name":"LTC Anonymus","operator":""}},{"type":"Feature","geometry":{"type":"Point","coordinates":[4.982084,52.496176]},"properties":{"category":"sportveld","name":"v.v. De Wherevogels","operator":""}},{"type":"Feature","geometry":{"type":"Point","coordinates":[4.963979,52.495868]},"properties":{"category":"sportveld","name":"De Vaart","operator":""}},{"type":"Feature","geometry":{"type":"Point","coordinates":[4.978102,52.488101]},"properties":{"category":"sportveld","name":"Manege Purmerbos","operator":""}},{"type":"Feature","geometry":{"type":"Point","coordinates":[4.973028,52.515718]},"properties":{"category":"sportveld","name":"De Beuk","operator":""}},{"type":"Feature","geometry":{"type":"Point","coordinates":[4.972268,52.500645]},"properties":{"category":"sportveld","name":"Leeghwaterbad","operator":"Spurd"}},{"type":"Feature","geometry":{"type":"Point","coordinates":[4.990296,52.513629]},"properties":{"category":"sportveld","name":"Sportpark Purmer-Noord","operator":"Korfbalvereniging Purmer"}},{"type":"Feature","geometry":{"type":"Point","coordinates":[4.968657,52.512658]},"properties":{"category":"sportveld","name":"Sportpark de Dop","operator":""}},{"type":"Feature","geometry":{"type":"Point","coordinates":[4.968849,52.50909]},"properties":{"category":"winkelcentrum","name":"Makado","operator":""}},{"type":"Feature","geometry":{"type":"Point","coordinates":[4.961566,52.520907]},"properties":{"category":"winkelcentrum","name":"Winkelcentrum Overwhere","operator":""}},{"type":"Feature","geometry":{"type":"Point","coordinates":[4.93819,52.496657]},"properties":{"category":"winkelcentrum","name":"Winkelcentrum Weidevenne","operator":""}},{"type":"Feature","geometry":{"type":"Point","coordinates":[4.999233,52.516482]},"properties":{"category":"winkelcentrum","name":"BaanStay","operator":"Volume Vastgoed Faciliteiten"}},{"type":"Feature","geometry":{"type":"Point","coordinates":[4.998519,52.513672]},"properties":{"category":"winkelcentrum","name":"Woonboulevard Purmerend","operator":""}},{"type":"Feature","geometry":{"type":"Point","coordinates":[4.959861,52.509984]},"properties":{"category":"winkelcentrum","name":"Winkelcentrum Miro","operator":""}},{"type":"Feature","geometry":{"type":"Point","coordinates":[4.984917,52.505753]},"properties":{"category":"winkelcentrum","name":"Winkelcentrum Gildeplein","operator":""}},{"type":"Feature","geometry":{"type":"Point","coordinates":[4.953093,52.494337]},"properties":{"category":"winkelcentrum","name":"Winkelcentrum De Gors","operator":""}},{"type":"Feature","geometry":{"type":"Point","coordinates":[4.969203,52.493971]},"properties":{"category":"winkelcentrum","name":"Winkelcentrum Meerland","operator":""}},{"type":"Feature","geometry":{"type":"Point","coordinates":[4.947152,52.508519]},"properties":{"category":"winkelcentrum","name":"Willem Eggertcentrum","operator":""}},{"type":"Feature","geometry":{"type":"Point","coordinates":[4.934914,52.496128]},"properties":{"category":"fietsenstalling","name":"","operator":""}},{"type":"Feature","geometry":{"type":"Point","coordinates":[4.943674,52.507862]},"properties":{"category":"fietsenstalling","name":"","operator":""}},{"type":"Feature","geometry":{"type":"Point","coordinates":[4.956869,52.510925]},"properties":{"category":"fietsenstalling","name":"","operator":""}},{"type":"Feature","geometry":{"type":"Point","coordinates":[4.964146,52.520789]},"properties":{"category":"fietsenstalling","name":"","operator":""}},{"type":"Feature","geometry":{"type":"Point","coordinates":[4.966322,52.527304]},"properties":{"category":"fietsenstalling","name":"","operator":""}},{"type":"Feature","geometry":{"type":"Point","coordinates":[4.993813,52.513992]},"properties":{"category":"fietsenstalling","name":"","operator":""}},{"type":"Feature","geometry":{"type":"Point","coordinates":[4.997325,52.514422]},"properties":{"category":"fietsenstalling","name":"","operator":""}},{"type":"Feature","geometry":{"type":"Point","coordinates":[5.00127,52.513629]},"properties":{"category":"fietsenstalling","name":"","operator":""}},{"type":"Feature","geometry":{"type":"Point","coordinates":[5.007648,52.512488]},"properties":{"category":"fietsenstalling","name":"","operator":""}},{"type":"Feature","geometry":{"type":"Point","coordinates":[5.000363,52.5181]},"properties":{"category":"fietsenstalling","name":"","operator":""}},{"type":"Feature","geometry":{"type":"Point","coordinates":[4.965875,52.500392]},"properties":{"category":"fietsenstalling","name":"","operator":""}},{"type":"Feature","geometry":{"type":"Point","coordinates":[4.954547,52.503531]},"properties":{"category":"fietsenstalling","name":"","operator":""}},{"type":"Feature","geometry":{"type":"Point","coordinates":[4.957692,52.503142]},"properties":{"category":"fietsenstalling","name":"","operator":""}},{"type":"Feature","geometry":{"type":"Point","coordinates":[4.957431,52.504013]},"properties":{"category":"fietsenstalling","name":"","operator":""}},{"type":"Feature","geometry":{"type":"Point","coordinates":[4.957574,52.504212]},"properties":{"category":"fietsenstalling","name":"","operator":""}},{"type":"Feature","geometry":{"type":"Point","coordinates":[4.956024,52.505016]},"properties":{"category":"fietsenstalling","name":"","operator":""}},{"type":"Feature","geometry":{"type":"Point","coordinates":[4.963752,52.504707]},"properties":{"category":"fietsenstalling","name":"","operator":""}},{"type":"Feature","geometry":{"type":"Point","coordinates":[4.962308,52.503805]},"properties":{"category":"fietsenstalling","name":"","operator":""}},{"type":"Feature","geometry":{"type":"Point","coordinates":[4.960675,52.509105]},"properties":{"category":"fietsenstalling","name":"","operator":""}},{"type":"Feature","geometry":{"type":"Point","coordinates":[4.961964,52.509399]},"properties":{"category":"fietsenstalling","name":"","operator":""}},{"type":"Feature","geometry":{"type":"Point","coordinates":[4.961891,52.509509]},"properties":{"category":"fietsenstalling","name":"","operator":""}},{"type":"Feature","geometry":{"type":"Point","coordinates":[4.964837,52.510168]},"properties":{"category":"fietsenstalling","name":"","operator":""}},{"type":"Feature","geometry":{"type":"Point","coordinates":[4.966945,52.510908]},"properties":{"category":"fietsenstalling","name":"","operator":""}},{"type":"Feature","geometry":{"type":"Point","coordinates":[4.967513,52.511209]},"properties":{"category":"fietsenstalling","name":"","operator":""}},{"type":"Feature","geometry":{"type":"Point","coordinates":[4.967842,52.511287]},"properties":{"category":"fietsenstalling","name":"","operator":""}},{"type":"Feature","geometry":{"type":"Point","coordinates":[4.96861,52.511259]},"properties":{"category":"fietsenstalling","name":"","operator":""}},{"type":"Feature","geometry":{"type":"Point","coordinates":[4.9531,52.512625]},"properties":{"category":"fietsenstalling","name":"","operator":""}},{"type":"Feature","geometry":{"type":"Point","coordinates":[4.961189,52.518476]},"properties":{"category":"fietsenstalling","name":"","operator":""}},{"type":"Feature","geometry":{"type":"Point","coordinates":[4.960168,52.512885]},"properties":{"category":"fietsenstalling","name":"","operator":""}},{"type":"Feature","geometry":{"type":"Point","coordinates":[4.943227,52.508852]},"properties":{"category":"parkeergarage","name":"Claxonate","operator":"Gemeente Purmerend"}},{"type":"Feature","geometry":{"type":"Point","coordinates":[4.953495,52.507207]},"properties":{"category":"parkeergarage","name":"Stadhuispleingarage","operator":"Gemeente Purmerend"}},{"type":"Feature","geometry":{"type":"Point","coordinates":[4.960272,52.504083]},"properties":{"category":"parkeergarage","name":"","operator":"Waterlandhuis"}},{"type":"Feature","geometry":{"type":"Point","coordinates":[4.95357,52.503543]},"properties":{"category":"p_and_r","name":"P+R Wilhelminalaan","operator":""}},{"type":"Feature","geometry":{"type":"Point","coordinates":[4.967522,52.511101]},"properties":{"category":"p_and_r","name":"P+R Station Purmerend Overwhere","operator":""}}]}