{"type":"FeatureCollection","metadata":{"gemeente":"Raalte","slug":"raalte","by_category":{"bus_halte":99,"supermarkt":13,"sportveld":8,"ov_knooppunt":4,"transformatorhuisje":3,"fietsenstalling":3,"ns_station":2,"inzamelpunt":2,"bibliotheek":2,"gemeentehuis":1,"hogeschool":1,"parkeergarage":1,"p_and_r":1},"total":140},"features":[{"type":"Feature","geometry":{"type":"Point","coordinates":[6.222031,52.426958]},"properties":{"category":"ns_station","name":"Heino","operator":""}},{"type":"Feature","geometry":{"type":"Point","coordinates":[6.277624,52.391778]},"properties":{"category":"ns_station","name":"Raalte","operator":""}},{"type":"Feature","geometry":{"type":"Point","coordinates":[6.236307,52.351364]},"properties":{"category":"bus_halte","name":"Pleegsterhalte","operator":""}},{"type":"Feature","geometry":{"type":"Point","coordinates":[6.238294,52.352168]},"properties":{"category":"bus_halte","name":"Pleegsterhalte","operator":""}},{"type":"Feature","geometry":{"type":"Point","coordinates":[6.246745,52.356478]},"properties":{"category":"bus_halte","name":"Van Rossum","operator":""}},{"type":"Feature","geometry":{"type":"Point","coordinates":[6.248788,52.357305]},"properties":{"category":"bus_halte","name":"Van Rossum","operator":""}},{"type":"Feature","geometry":{"type":"Point","coordinates":[6.254583,52.360509]},"properties":{"category":"bus_halte","name":"Hoogspanningsgebouw","operator":""}},{"type":"Feature","geometry":{"type":"Point","coordinates":[6.256175,52.361287]},"properties":{"category":"bus_halte","name":"Hoogspanningsgebouw","operator":""}},{"type":"Feature","geometry":{"type":"Point","coordinates":[6.261231,52.364482]},"properties":{"category":"bus_halte","name":"De Heuvel","operator":""}},{"type":"Feature","geometry":{"type":"Point","coordinates":[6.260339,52.364097]},"properties":{"category":"bus_halte","name":"De Heuvel","operator":""}},{"type":"Feature","geometry":{"type":"Point","coordinates":[6.279821,52.315444]},"properties":{"category":"bus_halte","name":"Zonnenbergerdijk","operator":""}},{"type":"Feature","geometry":{"type":"Point","coordinates":[6.246389,52.42047]},"properties":{"category":"bus_halte","name":"'t Reelaer","operator":""}},{"type":"Feature","geometry":{"type":"Point","coordinates":[6.258379,52.407917]},"properties":{"category":"bus_halte","name":"Peelsbos","operator":""}},{"type":"Feature","geometry":{"type":"Point","coordinates":[6.219069,52.452791]},"properties":{"category":"bus_halte","name":"De Gunne","operator":""}},{"type":"Feature","geometry":{"type":"Point","coordinates":[6.228438,52.445772]},"properties":{"category":"bus_halte","name":"Jonkman","operator":""}},{"type":"Feature","geometry":{"type":"Point","coordinates":[6.210984,52.459889]},"properties":{"category":"bus_halte","name":"De Jong","operator":""}},{"type":"Feature","geometry":{"type":"Point","coordinates":[6.238226,52.438434]},"properties":{"category":"bus_halte","name":"De Haarstraat","operator":""}},{"type":"Feature","geometry":{"type":"Point","coordinates":[6.272543,52.383591]},"properties":{"category":"bus_halte","name":"Westdorplaan","operator":""}},{"type":"Feature","geometry":{"type":"Point","coordinates":[6.267877,52.381698]},"properties":{"category":"bus_halte","name":"Dumbarstraat","operator":""}},{"type":"Feature","geometry":{"type":"Point","coordinates":[6.287631,52.390798]},"properties":{"category":"bus_halte","name":"Merel","operator":""}},{"type":"Feature","geometry":{"type":"Point","coordinates":[6.234537,52.440652]},"properties":{"category":"bus_halte","name":"Van der Capellenweg","operator":""}},{"type":"Feature","geometry":{"type":"Point","coordinates":[6.271377,52.379766]},"properties":{"category":"bus_halte","name":"Pauluskerk","operator":""}},{"type":"Feature","geometry":{"type":"Point","coordinates":[6.24243,52.429057]},"properties":{"category":"bus_halte","name":"Wolfkamp","operator":""}},{"type":"Feature","geometry":{"type":"Point","coordinates":[6.245889,52.421388]},"properties":{"category":"bus_halte","name":"'t Reelaer","operator":""}},{"type":"Feature","geometry":{"type":"Point","coordinates":[6.239372,52.432868]},"properties":{"category":"bus_halte","name":"Klaproos","operator":""}},{"type":"Feature","geometry":{"type":"Point","coordinates":[6.282565,52.329085]},"properties":{"category":"bus_halte","name":"Stellingmolen","operator":""}},{"type":"Feature","geometry":{"type":"Point","coordinates":[6.271738,52.386654]},"properties":{"category":"bus_halte","name":"Willem Stoltehof","operator":""}},{"type":"Feature","geometry":{"type":"Point","coordinates":[6.263428,52.383082]},"properties":{"category":"bus_halte","name":"De Haar","operator":""}},{"type":"Feature","geometry":{"type":"Point","coordinates":[6.26304,52.387158]},"properties":{"category":"bus_halte","name":"Langkampweg","operator":""}},{"type":"Feature","geometry":{"type":"Point","coordinates":[6.267985,52.381742]},"properties":{"category":"bus_halte","name":"Dumbarstraat","operator":""}},{"type":"Feature","geometry":{"type":"Point","coordinates":[6.268574,52.375307]},"properties":{"category":"bus_halte","name":"De Hoven","operator":""}},{"type":"Feature","geometry":{"type":"Point","coordinates":[6.267256,52.399616]},"properties":{"category":"bus_halte","name":"Carpoolplaats","operator":""}},{"type":"Feature","geometry":{"type":"Point","coordinates":[6.219349,52.452783]},"properties":{"category":"bus_halte","name":"De Gunne","operator":""}},{"type":"Feature","geometry":{"type":"Point","coordinates":[6.234451,52.435308]},"properties":{"category":"bus_halte","name":"Marktplein","operator":""}},{"type":"Feature","geometry":{"type":"Point","coordinates":[6.2723,52.383639]},"properties":{"category":"bus_halte","name":"Westdorplaan","operator":""}},{"type":"Feature","geometry":{"type":"Point","coordinates":[6.27549,52.388277]},"properties":{"category":"bus_halte","name":"Kruisstraat","operator":""}},{"type":"Feature","geometry":{"type":"Point","coordinates":[6.279991,52.315442]},"properties":{"category":"bus_halte","name":"Zonnenbergerdijk","operator":""}},{"type":"Feature","geometry":{"type":"Point","coordinates":[6.271131,52.379481]},"properties":{"category":"bus_halte","name":"Pauluskerk","operator":""}},{"type":"Feature","geometry":{"type":"Point","coordinates":[6.240375,52.43008]},"properties":{"category":"bus_halte","name":"Wolfkamp","operator":""}},{"type":"Feature","geometry":{"type":"Point","coordinates":[6.258991,52.406976]},"properties":{"category":"bus_halte","name":"Peelsbos","operator":""}},{"type":"Feature","geometry":{"type":"Point","coordinates":[6.211423,52.459302]},"properties":{"category":"bus_halte","name":"De Jong","operator":""}},{"type":"Feature","geometry":{"type":"Point","coordinates":[6.20154,52.46768]},"properties":{"category":"bus_halte","name":"Hagenweg","operator":""}},{"type":"Feature","geometry":{"type":"Point","coordinates":[6.280822,52.333091]},"properties":{"category":"bus_halte","name":"Centrum","operator":""}},{"type":"Feature","geometry":{"type":"Point","coordinates":[6.26321,52.386978]},"properties":{"category":"bus_halte","name":"Langkampweg","operator":""}},{"type":"Feature","geometry":{"type":"Point","coordinates":[6.234303,52.440965]},"properties":{"category":"bus_halte","name":"Van der Capellenweg","operator":""}},{"type":"Feature","geometry":{"type":"Point","coordinates":[6.269011,52.375445]},"properties":{"category":"bus_halte","name":"De Hoven","operator":""}},{"type":"Feature","geometry":{"type":"Point","coordinates":[6.239326,52.43225]},"properties":{"category":"bus_halte","name":"Klaproos","operator":""}},{"type":"Feature","geometry":{"type":"Point","coordinates":[6.229182,52.445038]},"properties":{"category":"bus_halte","name":"Jonkman","operator":""}},{"type":"Feature","geometry":{"type":"Point","coordinates":[6.23438,52.435243]},"properties":{"category":"bus_halte","name":"Marktplein","operator":""}},{"type":"Feature","geometry":{"type":"Point","coordinates":[6.263761,52.38292]},"properties":{"category":"bus_halte","name":"De Haar","operator":""}},{"type":"Feature","geometry":{"type":"Point","coordinates":[6.282793,52.330011]},"properties":{"category":"bus_halte","name":"Stellingmolen","operator":""}},{"type":"Feature","geometry":{"type":"Point","coordinates":[6.271709,52.385944]},"properties":{"category":"bus_halte","name":"Willem Stoltehof","operator":""}},{"type":"Feature","geometry":{"type":"Point","coordinates":[6.28098,52.333095]},"properties":{"category":"bus_halte","name":"Centrum","operator":""}},{"type":"Feature","geometry":{"type":"Point","coordinates":[6.275079,52.387689]},"properties":{"category":"bus_halte","name":"Kruisstraat","operator":""}},{"type":"Feature","geometry":{"type":"Point","coordinates":[6.287756,52.390812]},"properties":{"category":"bus_halte","name":"Merel","operator":""}},{"type":"Feature","geometry":{"type":"Point","coordinates":[6.348424,52.316486]},"properties":{"category":"bus_halte","name":"Bijvanksweg","operator":""}},{"type":"Feature","geometry":{"type":"Point","coordinates":[6.348548,52.316467]},"properties":{"category":"bus_halte","name":"Bijvanksweg","operator":""}},{"type":"Feature","geometry":{"type":"Point","coordinates":[6.351592,52.32009]},"properties":{"category":"bus_halte","name":"'t Pleintje","operator":""}},{"type":"Feature","geometry":{"type":"Point","coordinates":[6.232357,52.435689]},"properties":{"category":"bus_halte","name":"Bibliotheek","operator":""}},{"type":"Feature","geometry":{"type":"Point","coordinates":[6.232324,52.435903]},"properties":{"category":"bus_halte","name":"Bibliotheek","operator":""}},{"type":"Feature","geometry":{"type":"Point","coordinates":[6.226844,52.437977]},"properties":{"category":"bus_halte","name":"Het Sterrenrijk","operator":""}},{"type":"Feature","geometry":{"type":"Point","coordinates":[6.226716,52.437975]},"properties":{"category":"bus_halte","name":"Het Sterrenrijk","operator":""}},{"type":"Feature","geometry":{"type":"Point","coordinates":[6.194282,52.435167]},"properties":{"category":"bus_halte","name":"Brug","operator":""}},{"type":"Feature","geometry":{"type":"Point","coordinates":[6.194249,52.435255]},"properties":{"category":"bus_halte","name":"Brug","operator":""}},{"type":"Feature","geometry":{"type":"Point","coordinates":[6.202157,52.438709]},"properties":{"category":"bus_halte","name":"Kappert","operator":""}},{"type":"Feature","geometry":{"type":"Point","coordinates":[6.203481,52.439286]},"properties":{"category":"bus_halte","name":"Kappert","operator":""}},{"type":"Feature","geometry":{"type":"Point","coordinates":[6.23266,52.429921]},"properties":{"category":"bus_halte","name":"Kastanje","operator":""}},{"type":"Feature","geometry":{"type":"Point","coordinates":[6.173383,52.459066]},"properties":{"category":"bus_halte","name":"Kerk","operator":""}},{"type":"Feature","geometry":{"type":"Point","coordinates":[6.22293,52.442544]},"properties":{"category":"bus_halte","name":"Kiezebos","operator":""}},{"type":"Feature","geometry":{"type":"Point","coordinates":[6.222897,52.442618]},"properties":{"category":"bus_halte","name":"Kiezebos","operator":""}},{"type":"Feature","geometry":{"type":"Point","coordinates":[6.232191,52.430956]},"properties":{"category":"bus_halte","name":"Prunus","operator":""}},{"type":"Feature","geometry":{"type":"Point","coordinates":[6.23222,52.431004]},"properties":{"category":"bus_halte","name":"Prunus","operator":""}},{"type":"Feature","geometry":{"type":"Point","coordinates":[6.192392,52.436689]},"properties":{"category":"bus_halte","name":"School","operator":""}},{"type":"Feature","geometry":{"type":"Point","coordinates":[6.192652,52.436633]},"properties":{"category":"bus_halte","name":"School","operator":""}},{"type":"Feature","geometry":{"type":"Point","coordinates":[6.222127,52.427062]},"properties":{"category":"bus_halte","name":"Station","operator":""}},{"type":"Feature","geometry":{"type":"Point","coordinates":[6.267792,52.400747]},"properties":{"category":"bus_halte","name":"Carpoolplaats","operator":""}},{"type":"Feature","geometry":{"type":"Point","coordinates":[6.323033,52.381187]},"properties":{"category":"bus_halte","name":"Nijverdalseweg","operator":""}},{"type":"Feature","geometry":{"type":"Point","coordinates":[6.321506,52.381301]},"properties":{"category":"bus_halte","name":"Nijverdalseweg","operator":""}},{"type":"Feature","geometry":{"type":"Point","coordinates":[6.26845,52.392487]},"properties":{"category":"bus_halte","name":"Ceintuurbaan","operator":""}},{"type":"Feature","geometry":{"type":"Point","coordinates":[6.268317,52.392265]},"properties":{"category":"bus_halte","name":"Ceintuurbaan","operator":""}},{"type":"Feature","geometry":{"type":"Point","coordinates":[6.233816,52.435381]},"properties":{"category":"bus_halte","name":"Marktplein","operator":""}},{"type":"Feature","geometry":{"type":"Point","coordinates":[6.199272,52.362766]},"properties":{"category":"bus_halte","name":"Broekland","operator":""}},{"type":"Feature","geometry":{"type":"Point","coordinates":[6.199607,52.362796]},"properties":{"category":"bus_halte","name":"Broekland","operator":""}},{"type":"Feature","geometry":{"type":"Point","coordinates":[6.32914,52.30802]},"properties":{"category":"bus_halte","name":"Vlessendijk","operator":""}},{"type":"Feature","geometry":{"type":"Point","coordinates":[6.329217,52.308061]},"properties":{"category":"bus_halte","name":"Vlessendijk","operator":""}},{"type":"Feature","geometry":{"type":"Point","coordinates":[6.270533,52.388742]},"properties":{"category":"bus_halte","name":"Gemeentehuis","operator":""}},{"type":"Feature","geometry":{"type":"Point","coordinates":[6.271159,52.388131]},"properties":{"category":"bus_halte","name":"Gemeentehuis","operator":""}},{"type":"Feature","geometry":{"type":"Point","coordinates":[6.266253,52.37952]},"properties":{"category":"bus_halte","name":"Hartkampweg","operator":""}},{"type":"Feature","geometry":{"type":"Point","coordinates":[6.266001,52.379405]},"properties":{"category":"bus_halte","name":"Hartkampweg","operator":""}},{"type":"Feature","geometry":{"type":"Point","coordinates":[6.277425,52.33484]},"properties":{"category":"bus_halte","name":"Stevenskamp","operator":""}},{"type":"Feature","geometry":{"type":"Point","coordinates":[6.276814,52.335031]},"properties":{"category":"bus_halte","name":"Stevenskamp","operator":""}},{"type":"Feature","geometry":{"type":"Point","coordinates":[6.364721,52.404128]},"properties":{"category":"bus_halte","name":"Heuvelweg","operator":""}},{"type":"Feature","geometry":{"type":"Point","coordinates":[6.367691,52.410089]},"properties":{"category":"bus_halte","name":"Ter Borgweg","operator":""}},{"type":"Feature","geometry":{"type":"Point","coordinates":[6.367814,52.410093]},"properties":{"category":"bus_halte","name":"Ter Borgweg","operator":""}},{"type":"Feature","geometry":{"type":"Point","coordinates":[6.36517,52.404409]},"properties":{"category":"bus_halte","name":"Heuvelweg","operator":""}},{"type":"Feature","geometry":{"type":"Point","coordinates":[6.269325,52.393053]},"properties":{"category":"bus_halte","name":"Zwolsestraat","operator":""}},{"type":"Feature","geometry":{"type":"Point","coordinates":[6.276262,52.387439]},"properties":{"category":"bus_halte","name":"Varkensmarkt","operator":""}},{"type":"Feature","geometry":{"type":"Point","coordinates":[6.18643,52.448656]},"properties":{"category":"bus_halte","name":"Colckhof","operator":""}},{"type":"Feature","geometry":{"type":"Point","coordinates":[6.186537,52.448692]},"properties":{"category":"bus_halte","name":"Colckhof","operator":""}},{"type":"Feature","geometry":{"type":"Point","coordinates":[6.276494,52.392034]},"properties":{"category":"bus_halte","name":"Station","operator":""}},{"type":"Feature","geometry":{"type":"Point","coordinates":[6.276267,52.392106]},"properties":{"category":"bus_halte","name":"Station","operator":""}},{"type":"Feature","geometry":{"type":"Point","coordinates":[6.271984,52.349057]},"properties":{"category":"ov_knooppunt","name":"","operator":""}},{"type":"Feature","geometry":{"type":"Point","coordinates":[6.272208,52.349054]},"properties":{"category":"ov_knooppunt","name":"","operator":""}},{"type":"Feature","geometry":{"type":"Point","coordinates":[6.222031,52.426958]},"properties":{"category":"ov_knooppunt","name":"Heino","operator":""}},{"type":"Feature","geometry":{"type":"Point","coordinates":[6.277624,52.391778]},"properties":{"category":"ov_knooppunt","name":"Raalte","operator":""}},{"type":"Feature","geometry":{"type":"Point","coordinates":[6.272224,52.388241]},"properties":{"category":"gemeentehuis","name":"Gemeentehuis Raalte","operator":"Gemeente Raalte"}},{"type":"Feature","geometry":{"type":"Point","coordinates":[6.284353,52.373472]},"properties":{"category":"inzamelpunt","name":"Reko","operator":""}},{"type":"Feature","geometry":{"type":"Point","coordinates":[6.292456,52.377441]},"properties":{"category":"inzamelpunt","name":"Afvalbrengstation Raalte","operator":"ROVA"}},{"type":"Feature","geometry":{"type":"Point","coordinates":[6.232057,52.435766]},"properties":{"category":"bibliotheek","name":"Bibliotheek Heino","operator":""}},{"type":"Feature","geometry":{"type":"Point","coordinates":[6.276704,52.385786]},"properties":{"category":"bibliotheek","name":"Bibliotheek Raalte","operator":""}},{"type":"Feature","geometry":{"type":"Point","coordinates":[6.270827,52.377232]},"properties":{"category":"transformatorhuisje","name":"","operator":""}},{"type":"Feature","geometry":{"type":"Point","coordinates":[6.271035,52.377674]},"properties":{"category":"transformatorhuisje","name":"","operator":""}},{"type":"Feature","geometry":{"type":"Point","coordinates":[6.271127,52.37784]},"properties":{"category":"transformatorhuisje","name":"","operator":""}},{"type":"Feature","geometry":{"type":"Point","coordinates":[6.266951,52.394622]},"properties":{"category":"hogeschool","name":"Landstede","operator":""}},{"type":"Feature","geometry":{"type":"Point","coordinates":[6.319405,52.382687]},"properties":{"category":"sportveld","name":"'t Asspel","operator":""}},{"type":"Feature","geometry":{"type":"Point","coordinates":[6.228557,52.438097]},"properties":{"category":"sportveld","name":"Hoogerheyne","operator":""}},{"type":"Feature","geometry":{"type":"Point","coordinates":[6.266519,52.396207]},"properties":{"category":"sportveld","name":"Tijenraan","operator":""}},{"type":"Feature","geometry":{"type":"Point","coordinates":[6.255927,52.376413]},"properties":{"category":"sportveld","name":"Sportpark Ramele","operator":""}},{"type":"Feature","geometry":{"type":"Point","coordinates":[6.227547,52.434657]},"properties":{"category":"sportveld","name":"De Kampen","operator":""}},{"type":"Feature","geometry":{"type":"Point","coordinates":[6.345122,52.327736]},"properties":{"category":"sportveld","name":"De Belte","operator":""}},{"type":"Feature","geometry":{"type":"Point","coordinates":[6.36233,52.398681]},"properties":{"category":"sportveld","name":"De Achterberg","operator":""}},{"type":"Feature","geometry":{"type":"Point","coordinates":[6.207702,52.365841]},"properties":{"category":"sportveld","name":"Horsthuis","operator":"Stichting Beheer Horsthuis"}},{"type":"Feature","geometry":{"type":"Point","coordinates":[6.274583,52.384664]},"properties":{"category":"supermarkt","name":"Jumbo","operator":""}},{"type":"Feature","geometry":{"type":"Point","coordinates":[6.286767,52.392968]},"properties":{"category":"supermarkt","name":"Jumbo","operator":""}},{"type":"Feature","geometry":{"type":"Point","coordinates":[6.236924,52.435891]},"properties":{"category":"supermarkt","name":"ALDI","operator":""}},{"type":"Feature","geometry":{"type":"Point","coordinates":[6.276979,52.386279]},"properties":{"category":"supermarkt","name":"Albert Heijn","operator":""}},{"type":"Feature","geometry":{"type":"Point","coordinates":[6.276769,52.386691]},"properties":{"category":"supermarkt","name":"Dirk","operator":""}},{"type":"Feature","geometry":{"type":"Point","coordinates":[6.23649,52.434647]},"properties":{"category":"supermarkt","name":"Nettorama","operator":""}},{"type":"Feature","geometry":{"type":"Point","coordinates":[6.368588,52.404519]},"properties":{"category":"supermarkt","name":"Gewoon Coop Compact","operator":""}},{"type":"Feature","geometry":{"type":"Point","coordinates":[6.282619,52.33058]},"properties":{"category":"supermarkt","name":"PLUS","operator":"Kolkman"}},{"type":"Feature","geometry":{"type":"Point","coordinates":[6.234421,52.435698]},"properties":{"category":"supermarkt","name":"Albert Heijn","operator":""}},{"type":"Feature","geometry":{"type":"Point","coordinates":[6.233587,52.436144]},"properties":{"category":"supermarkt","name":"Budget Food Heino","operator":"Budget Food"}},{"type":"Feature","geometry":{"type":"Point","coordinates":[6.239633,52.422701]},"properties":{"category":"supermarkt","name":"Supermarkt in het Bos","operator":""}},{"type":"Feature","geometry":{"type":"Point","coordinates":[6.2777,52.386074]},"properties":{"category":"supermarkt","name":"ALDI","operator":""}},{"type":"Feature","geometry":{"type":"Point","coordinates":[6.276545,52.387535]},"properties":{"category":"supermarkt","name":"Nour Alsham","operator":""}},{"type":"Feature","geometry":{"type":"Point","coordinates":[6.277262,52.391765]},"properties":{"category":"fietsenstalling","name":"","operator":""}},{"type":"Feature","geometry":{"type":"Point","coordinates":[6.22261,52.426802]},"properties":{"category":"fietsenstalling","name":"","operator":""}},{"type":"Feature","geometry":{"type":"Point","coordinates":[6.277332,52.392453]},"properties":{"category":"fietsenstalling","name":"","operator":""}},{"type":"Feature","geometry":{"type":"Point","coordinates":[6.276897,52.385139]},"properties":{"category":"parkeergarage","name":"Het Schip","operator":""}},{"type":"Feature","geometry":{"type":"Point","coordinates":[6.222535,52.426409]},"properties":{"category":"p_and_r","name":"","operator":""}}]}