{"type":"FeatureCollection","metadata":{"gemeente":"Renkum","slug":"renkum","by_category":{"bus_halte":148,"transformatorhuisje":9,"fietsenstalling":8,"sportveld":7,"middelbare_school":3,"ns_station":2,"ov_knooppunt":2,"inzamelpunt":2,"bibliotheek":2,"gemeentehuis":1,"hogeschool":1,"winkelcentrum":1},"total":186},"features":[{"type":"Feature","geometry":{"type":"Point","coordinates":[5.792394,52.005672]},"properties":{"category":"ns_station","name":"Wolfheze","operator":""}},{"type":"Feature","geometry":{"type":"Point","coordinates":[5.840487,51.994783]},"properties":{"category":"ns_station","name":"Oosterbeek","operator":""}},{"type":"Feature","geometry":{"type":"Point","coordinates":[5.753693,51.983859]},"properties":{"category":"bus_halte","name":"Dopheidelaan","operator":""}},{"type":"Feature","geometry":{"type":"Point","coordinates":[5.795391,51.978794]},"properties":{"category":"bus_halte","name":"Winkelcentrum De Weerd","operator":""}},{"type":"Feature","geometry":{"type":"Point","coordinates":[5.841926,51.987529]},"properties":{"category":"bus_halte","name":"Raadhuisplein","operator":"Breng"}},{"type":"Feature","geometry":{"type":"Point","coordinates":[5.841004,51.987554]},"properties":{"category":"bus_halte","name":"Raadhuisplein","operator":""}},{"type":"Feature","geometry":{"type":"Point","coordinates":[5.722767,51.970483]},"properties":{"category":"bus_halte","name":"Bokkedijk","operator":""}},{"type":"Feature","geometry":{"type":"Point","coordinates":[5.721602,51.969832]},"properties":{"category":"bus_halte","name":"Bokkedijk","operator":""}},{"type":"Feature","geometry":{"type":"Point","coordinates":[5.754576,51.983491]},"properties":{"category":"bus_halte","name":"Dopheidelaan","operator":""}},{"type":"Feature","geometry":{"type":"Point","coordinates":[5.765131,51.981295]},"properties":{"category":"bus_halte","name":"Doorwerthsestraat","operator":""}},{"type":"Feature","geometry":{"type":"Point","coordinates":[5.766813,51.980826]},"properties":{"category":"bus_halte","name":"Doorwerthsestraat","operator":""}},{"type":"Feature","geometry":{"type":"Point","coordinates":[5.775762,51.982697]},"properties":{"category":"bus_halte","name":"Kievitsdel West","operator":""}},{"type":"Feature","geometry":{"type":"Point","coordinates":[5.77791,51.98202]},"properties":{"category":"bus_halte","name":"Kievitsdel","operator":""}},{"type":"Feature","geometry":{"type":"Point","coordinates":[5.778918,51.981532]},"properties":{"category":"bus_halte","name":"Kievitsdel","operator":""}},{"type":"Feature","geometry":{"type":"Point","coordinates":[5.784407,51.980785]},"properties":{"category":"bus_halte","name":"Van Aldenburglaan","operator":""}},{"type":"Feature","geometry":{"type":"Point","coordinates":[5.794423,51.978799]},"properties":{"category":"bus_halte","name":"Winkelcentrum De Weerd","operator":""}},{"type":"Feature","geometry":{"type":"Point","coordinates":[5.804853,51.978552]},"properties":{"category":"bus_halte","name":"Van der Molenplein","operator":""}},{"type":"Feature","geometry":{"type":"Point","coordinates":[5.804009,51.978647]},"properties":{"category":"bus_halte","name":"Van der Molenplein","operator":""}},{"type":"Feature","geometry":{"type":"Point","coordinates":[5.831457,51.978609]},"properties":{"category":"bus_halte","name":"Kneppelhoutweg","operator":""}},{"type":"Feature","geometry":{"type":"Point","coordinates":[5.832404,51.978681]},"properties":{"category":"bus_halte","name":"Kneppelhoutweg","operator":""}},{"type":"Feature","geometry":{"type":"Point","coordinates":[5.845097,51.979107]},"properties":{"category":"bus_halte","name":"Van Toulon v.d. Koogweg","operator":""}},{"type":"Feature","geometry":{"type":"Point","coordinates":[5.846468,51.979171]},"properties":{"category":"bus_halte","name":"Van Toulon v.d. Koogweg","operator":""}},{"type":"Feature","geometry":{"type":"Point","coordinates":[5.850056,51.981758]},"properties":{"category":"bus_halte","name":"Vogelweg","operator":""}},{"type":"Feature","geometry":{"type":"Point","coordinates":[5.850421,51.982264]},"properties":{"category":"bus_halte","name":"Vogelweg","operator":""}},{"type":"Feature","geometry":{"type":"Point","coordinates":[5.733817,51.975178]},"properties":{"category":"bus_halte","name":"Don Boscoweg","operator":""}},{"type":"Feature","geometry":{"type":"Point","coordinates":[5.734775,51.975036]},"properties":{"category":"bus_halte","name":"Don Boscoweg","operator":""}},{"type":"Feature","geometry":{"type":"Point","coordinates":[5.739353,51.974578]},"properties":{"category":"bus_halte","name":"Groeneweg","operator":""}},{"type":"Feature","geometry":{"type":"Point","coordinates":[5.740974,51.974621]},"properties":{"category":"bus_halte","name":"Groeneweg","operator":""}},{"type":"Feature","geometry":{"type":"Point","coordinates":[5.747091,51.97716]},"properties":{"category":"bus_halte","name":"Heidesteinlaan","operator":""}},{"type":"Feature","geometry":{"type":"Point","coordinates":[5.746348,51.976715]},"properties":{"category":"bus_halte","name":"Heidesteinlaan","operator":""}},{"type":"Feature","geometry":{"type":"Point","coordinates":[5.7784,51.983002]},"properties":{"category":"bus_halte","name":"Kievitsdel","operator":""}},{"type":"Feature","geometry":{"type":"Point","coordinates":[5.793023,51.986693]},"properties":{"category":"bus_halte","name":"Kasteelweg","operator":""}},{"type":"Feature","geometry":{"type":"Point","coordinates":[5.791463,51.986631]},"properties":{"category":"bus_halte","name":"Kasteelweg","operator":""}},{"type":"Feature","geometry":{"type":"Point","coordinates":[5.822395,51.9866]},"properties":{"category":"bus_halte","name":"d'Oude Herbergh","operator":""}},{"type":"Feature","geometry":{"type":"Point","coordinates":[5.822226,51.986751]},"properties":{"category":"bus_halte","name":"d'Oude Herbergh","operator":""}},{"type":"Feature","geometry":{"type":"Point","coordinates":[5.801314,51.987542]},"properties":{"category":"bus_halte","name":"Kerklaan","operator":""}},{"type":"Feature","geometry":{"type":"Point","coordinates":[5.803556,51.987515]},"properties":{"category":"bus_halte","name":"Kerklaan","operator":""}},{"type":"Feature","geometry":{"type":"Point","coordinates":[5.814672,51.987991]},"properties":{"category":"bus_halte","name":"Wolfhezerweg","operator":""}},{"type":"Feature","geometry":{"type":"Point","coordinates":[5.814971,51.98813]},"properties":{"category":"bus_halte","name":"Wolfhezerweg","operator":""}},{"type":"Feature","geometry":{"type":"Point","coordinates":[5.834686,51.988398]},"properties":{"category":"bus_halte","name":"Airbornemuseum","operator":""}},{"type":"Feature","geometry":{"type":"Point","coordinates":[5.834111,51.988378]},"properties":{"category":"bus_halte","name":"Airbornemuseum","operator":""}},{"type":"Feature","geometry":{"type":"Point","coordinates":[5.800634,51.978537]},"properties":{"category":"bus_halte","name":"Berkenlaan","operator":""}},{"type":"Feature","geometry":{"type":"Point","coordinates":[5.850891,51.986305]},"properties":{"category":"bus_halte","name":"Beukenlaan","operator":""}},{"type":"Feature","geometry":{"type":"Point","coordinates":[5.85075,51.986396]},"properties":{"category":"bus_halte","name":"Beukenlaan","operator":""}},{"type":"Feature","geometry":{"type":"Point","coordinates":[5.728285,51.975002]},"properties":{"category":"bus_halte","name":"Europalaan","operator":""}},{"type":"Feature","geometry":{"type":"Point","coordinates":[5.72772,51.974891]},"properties":{"category":"bus_halte","name":"Europalaan","operator":""}},{"type":"Feature","geometry":{"type":"Point","coordinates":[5.757642,51.981108]},"properties":{"category":"bus_halte","name":"Het Beekdal","operator":""}},{"type":"Feature","geometry":{"type":"Point","coordinates":[5.75814,51.98141]},"properties":{"category":"bus_halte","name":"Het Beekdal","operator":""}},{"type":"Feature","geometry":{"type":"Point","coordinates":[5.862484,51.985276]},"properties":{"category":"bus_halte","name":"Mariëndaal","operator":""}},{"type":"Feature","geometry":{"type":"Point","coordinates":[5.861668,51.98548]},"properties":{"category":"bus_halte","name":"Mariëndaal","operator":""}},{"type":"Feature","geometry":{"type":"Point","coordinates":[5.782917,51.984384]},"properties":{"category":"bus_halte","name":"Kievitsdel Noord","operator":""}},{"type":"Feature","geometry":{"type":"Point","coordinates":[5.78272,51.984475]},"properties":{"category":"bus_halte","name":"Kievitsdel Noord","operator":""}},{"type":"Feature","geometry":{"type":"Point","coordinates":[5.725777,51.971256]},"properties":{"category":"bus_halte","name":"Nieuweweg","operator":""}},{"type":"Feature","geometry":{"type":"Point","coordinates":[5.725398,51.971266]},"properties":{"category":"bus_halte","name":"Nieuweweg","operator":""}},{"type":"Feature","geometry":{"type":"Point","coordinates":[5.753147,51.979369]},"properties":{"category":"bus_halte","name":"Patrimoniumweg","operator":""}},{"type":"Feature","geometry":{"type":"Point","coordinates":[5.753368,51.979578]},"properties":{"category":"bus_halte","name":"Patrimoniumweg","operator":""}},{"type":"Feature","geometry":{"type":"Point","coordinates":[5.846168,51.986894]},"properties":{"category":"bus_halte","name":"Weverstraat","operator":"Breng"}},{"type":"Feature","geometry":{"type":"Point","coordinates":[5.846114,51.986969]},"properties":{"category":"bus_halte","name":"Weverstraat","operator":"Breng"}},{"type":"Feature","geometry":{"type":"Point","coordinates":[5.838411,51.988913]},"properties":{"category":"bus_halte","name":"A. Weeninklaan","operator":""}},{"type":"Feature","geometry":{"type":"Point","coordinates":[5.83858,51.988994]},"properties":{"category":"bus_halte","name":"A. Weeninklaan","operator":""}},{"type":"Feature","geometry":{"type":"Point","coordinates":[5.796888,51.999619]},"properties":{"category":"bus_halte","name":"Balijeweg","operator":""}},{"type":"Feature","geometry":{"type":"Point","coordinates":[5.796941,51.999698]},"properties":{"category":"bus_halte","name":"Balijeweg","operator":""}},{"type":"Feature","geometry":{"type":"Point","coordinates":[5.811624,51.975014]},"properties":{"category":"bus_halte","name":"Beeklaan","operator":""}},{"type":"Feature","geometry":{"type":"Point","coordinates":[5.812069,51.97503]},"properties":{"category":"bus_halte","name":"Beeklaan","operator":""}},{"type":"Feature","geometry":{"type":"Point","coordinates":[5.731859,51.977747]},"properties":{"category":"bus_halte","name":"Bellevue","operator":""}},{"type":"Feature","geometry":{"type":"Point","coordinates":[5.73259,51.977984]},"properties":{"category":"bus_halte","name":"Bellevue","operator":""}},{"type":"Feature","geometry":{"type":"Point","coordinates":[5.799654,51.978603]},"properties":{"category":"bus_halte","name":"Berkenlaan","operator":""}},{"type":"Feature","geometry":{"type":"Point","coordinates":[5.809124,51.989808]},"properties":{"category":"bus_halte","name":"Bilderberglaan","operator":""}},{"type":"Feature","geometry":{"type":"Point","coordinates":[5.808684,51.990168]},"properties":{"category":"bus_halte","name":"Bilderberglaan","operator":""}},{"type":"Feature","geometry":{"type":"Point","coordinates":[5.840368,51.992156]},"properties":{"category":"bus_halte","name":"Cronjéweg","operator":""}},{"type":"Feature","geometry":{"type":"Point","coordinates":[5.840273,51.992311]},"properties":{"category":"bus_halte","name":"Cronjéweg","operator":""}},{"type":"Feature","geometry":{"type":"Point","coordinates":[5.815767,51.973688]},"properties":{"category":"bus_halte","name":"Dunolaan","operator":""}},{"type":"Feature","geometry":{"type":"Point","coordinates":[5.815441,51.973859]},"properties":{"category":"bus_halte","name":"Dunolaan","operator":""}},{"type":"Feature","geometry":{"type":"Point","coordinates":[5.740077,51.983104]},"properties":{"category":"bus_halte","name":"Fluitersheuvel","operator":""}},{"type":"Feature","geometry":{"type":"Point","coordinates":[5.739403,51.982594]},"properties":{"category":"bus_halte","name":"Fluitersheuvel","operator":""}},{"type":"Feature","geometry":{"type":"Point","coordinates":[5.840747,51.989021]},"properties":{"category":"bus_halte","name":"Gezondheidscentrum Dennenkamp","operator":""}},{"type":"Feature","geometry":{"type":"Point","coordinates":[5.748547,51.985368]},"properties":{"category":"bus_halte","name":"Hackettweg","operator":""}},{"type":"Feature","geometry":{"type":"Point","coordinates":[5.748344,51.985537]},"properties":{"category":"bus_halte","name":"Hackettweg","operator":""}},{"type":"Feature","geometry":{"type":"Point","coordinates":[5.794204,52.007248]},"properties":{"category":"bus_halte","name":"Het Schild","operator":""}},{"type":"Feature","geometry":{"type":"Point","coordinates":[5.802912,51.99403]},"properties":{"category":"bus_halte","name":"Hotel Wolfheze","operator":""}},{"type":"Feature","geometry":{"type":"Point","coordinates":[5.803076,51.994118]},"properties":{"category":"bus_halte","name":"Hotel Wolfheze","operator":""}},{"type":"Feature","geometry":{"type":"Point","coordinates":[5.80951,51.976597]},"properties":{"category":"bus_halte","name":"Oude Oosterbeekseweg","operator":""}},{"type":"Feature","geometry":{"type":"Point","coordinates":[5.80978,51.976656]},"properties":{"category":"bus_halte","name":"Oude Oosterbeekseweg","operator":""}},{"type":"Feature","geometry":{"type":"Point","coordinates":[5.824393,51.993143]},"properties":{"category":"bus_halte","name":"Parkflat de Valkenburcht","operator":""}},{"type":"Feature","geometry":{"type":"Point","coordinates":[5.825669,51.994208]},"properties":{"category":"bus_halte","name":"Parkflat de Valkenburcht","operator":""}},{"type":"Feature","geometry":{"type":"Point","coordinates":[5.831839,51.99524]},"properties":{"category":"bus_halte","name":"Rechterenborg","operator":""}},{"type":"Feature","geometry":{"type":"Point","coordinates":[5.831144,51.99541]},"properties":{"category":"bus_halte","name":"Rechterenborg","operator":""}},{"type":"Feature","geometry":{"type":"Point","coordinates":[5.796085,51.976393]},"properties":{"category":"bus_halte","name":"Rolandseck","operator":""}},{"type":"Feature","geometry":{"type":"Point","coordinates":[5.796061,51.976333]},"properties":{"category":"bus_halte","name":"Rolandseck","operator":""}},{"type":"Feature","geometry":{"type":"Point","coordinates":[5.793006,51.977488]},"properties":{"category":"bus_halte","name":"Spechtlaan","operator":""}},{"type":"Feature","geometry":{"type":"Point","coordinates":[5.792872,51.977464]},"properties":{"category":"bus_halte","name":"Spechtlaan","operator":""}},{"type":"Feature","geometry":{"type":"Point","coordinates":[5.737025,51.98086]},"properties":{"category":"bus_halte","name":"Doelum","operator":""}},{"type":"Feature","geometry":{"type":"Point","coordinates":[5.736554,51.980638]},"properties":{"category":"bus_halte","name":"Doelum","operator":""}},{"type":"Feature","geometry":{"type":"Point","coordinates":[5.840933,51.99369]},"properties":{"category":"bus_halte","name":"Station Oosterbeek","operator":""}},{"type":"Feature","geometry":{"type":"Point","coordinates":[5.840566,51.993854]},"properties":{"category":"bus_halte","name":"Station Oosterbeek","operator":""}},{"type":"Feature","geometry":{"type":"Point","coordinates":[5.840487,51.99393]},"properties":{"category":"bus_halte","name":"Station Oosterbeek","operator":""}},{"type":"Feature","geometry":{"type":"Point","coordinates":[5.792015,52.004882]},"properties":{"category":"bus_halte","name":"Station Wolfheze","operator":""}},{"type":"Feature","geometry":{"type":"Point","coordinates":[5.792189,52.00495]},"properties":{"category":"bus_halte","name":"Station Wolfheze","operator":""}},{"type":"Feature","geometry":{"type":"Point","coordinates":[5.743744,51.985782]},"properties":{"category":"bus_halte","name":"Telefoonweg","operator":""}},{"type":"Feature","geometry":{"type":"Point","coordinates":[5.744263,51.986039]},"properties":{"category":"bus_halte","name":"Telefoonweg","operator":""}},{"type":"Feature","geometry":{"type":"Point","coordinates":[5.823376,51.982495]},"properties":{"category":"bus_halte","name":"Tuin de Lage Oorsprong","operator":""}},{"type":"Feature","geometry":{"type":"Point","coordinates":[5.823728,51.981197]},"properties":{"category":"bus_halte","name":"Tuin de Lage Oorsprong","operator":""}},{"type":"Feature","geometry":{"type":"Point","coordinates":[5.85522,51.985387]},"properties":{"category":"bus_halte","name":"Julianaweg","operator":""}},{"type":"Feature","geometry":{"type":"Point","coordinates":[5.855214,51.985539]},"properties":{"category":"bus_halte","name":"Julianaweg","operator":""}},{"type":"Feature","geometry":{"type":"Point","coordinates":[5.821793,51.987212]},"properties":{"category":"bus_halte","name":"Valkenburglaan","operator":""}},{"type":"Feature","geometry":{"type":"Point","coordinates":[5.821712,51.987352]},"properties":{"category":"bus_halte","name":"Valkenburglaan","operator":""}},{"type":"Feature","geometry":{"type":"Point","coordinates":[5.823864,51.975006]},"properties":{"category":"bus_halte","name":"Drielse Veer","operator":""}},{"type":"Feature","geometry":{"type":"Point","coordinates":[5.824319,51.975061]},"properties":{"category":"bus_halte","name":"Drielse Veer","operator":""}},{"type":"Feature","geometry":{"type":"Point","coordinates":[5.81972,51.976686]},"properties":{"category":"bus_halte","name":"Westerbouwing","operator":""}},{"type":"Feature","geometry":{"type":"Point","coordinates":[5.819241,51.976764]},"properties":{"category":"bus_halte","name":"Westerbouwing","operator":""}},{"type":"Feature","geometry":{"type":"Point","coordinates":[5.838807,51.978181]},"properties":{"category":"bus_halte","name":"Oude kerk","operator":""}},{"type":"Feature","geometry":{"type":"Point","coordinates":[5.838686,51.978259]},"properties":{"category":"bus_halte","name":"Oude kerk","operator":""}},{"type":"Feature","geometry":{"type":"Point","coordinates":[5.809108,51.976345]},"properties":{"category":"bus_halte","name":"Wilhelmilaan","operator":""}},{"type":"Feature","geometry":{"type":"Point","coordinates":[5.80895,51.975875]},"properties":{"category":"bus_halte","name":"Wilhelmilaan","operator":""}},{"type":"Feature","geometry":{"type":"Point","coordinates":[5.827476,51.977737]},"properties":{"category":"bus_halte","name":"van Borsselenweg","operator":""}},{"type":"Feature","geometry":{"type":"Point","coordinates":[5.827859,51.97779]},"properties":{"category":"bus_halte","name":"van Borsselenweg","operator":""}},{"type":"Feature","geometry":{"type":"Point","coordinates":[5.783943,51.980879]},"properties":{"category":"bus_halte","name":"Van Aldenburglaan","operator":""}},{"type":"Feature","geometry":{"type":"Point","coordinates":[5.721559,51.981335]},"properties":{"category":"bus_halte","name":"Begraafplaats","operator":""}},{"type":"Feature","geometry":{"type":"Point","coordinates":[5.721674,51.981362]},"properties":{"category":"bus_halte","name":"Begraafplaats","operator":""}},{"type":"Feature","geometry":{"type":"Point","coordinates":[5.774855,52.008387]},"properties":{"category":"bus_halte","name":"Boshoeve","operator":""}},{"type":"Feature","geometry":{"type":"Point","coordinates":[5.775126,52.008445]},"properties":{"category":"bus_halte","name":"Boshoeve","operator":""}},{"type":"Feature","geometry":{"type":"Point","coordinates":[5.763632,52.009707]},"properties":{"category":"bus_halte","name":"Buunderkamp","operator":""}},{"type":"Feature","geometry":{"type":"Point","coordinates":[5.763897,52.009764]},"properties":{"category":"bus_halte","name":"Buunderkamp","operator":""}},{"type":"Feature","geometry":{"type":"Point","coordinates":[5.730995,51.971783]},"properties":{"category":"bus_halte","name":"Centrum","operator":""}},{"type":"Feature","geometry":{"type":"Point","coordinates":[5.730686,51.971801]},"properties":{"category":"bus_halte","name":"Centrum","operator":""}},{"type":"Feature","geometry":{"type":"Point","coordinates":[5.728109,51.971761]},"properties":{"category":"bus_halte","name":"Dorpsstraat","operator":""}},{"type":"Feature","geometry":{"type":"Point","coordinates":[5.748247,51.979542]},"properties":{"category":"bus_halte","name":"Heidestein","operator":""}},{"type":"Feature","geometry":{"type":"Point","coordinates":[5.748021,51.979514]},"properties":{"category":"bus_halte","name":"Heidestein","operator":""}},{"type":"Feature","geometry":{"type":"Point","coordinates":[5.721084,51.97402]},"properties":{"category":"bus_halte","name":"IJsbaan/Kortenburg","operator":""}},{"type":"Feature","geometry":{"type":"Point","coordinates":[5.721282,51.974013]},"properties":{"category":"bus_halte","name":"IJsbaan/Kortenburg","operator":""}},{"type":"Feature","geometry":{"type":"Point","coordinates":[5.738757,51.973867]},"properties":{"category":"bus_halte","name":"Maatweg","operator":""}},{"type":"Feature","geometry":{"type":"Point","coordinates":[5.73453,51.979569]},"properties":{"category":"bus_halte","name":"Nieuwe Keijenbergseweg","operator":""}},{"type":"Feature","geometry":{"type":"Point","coordinates":[5.82189,51.989521]},"properties":{"category":"bus_halte","name":"Sonnenberglaan","operator":""}},{"type":"Feature","geometry":{"type":"Point","coordinates":[5.822038,51.989658]},"properties":{"category":"bus_halte","name":"Sonnenberglaan","operator":""}},{"type":"Feature","geometry":{"type":"Point","coordinates":[5.791376,52.005504]},"properties":{"category":"bus_halte","name":"Station/Parallelweg","operator":""}},{"type":"Feature","geometry":{"type":"Point","coordinates":[5.791422,52.005556]},"properties":{"category":"bus_halte","name":"Station/Parallelweg","operator":""}},{"type":"Feature","geometry":{"type":"Point","coordinates":[5.72887,51.971468]},"properties":{"category":"bus_halte","name":"Van Riessenstraat","operator":""}},{"type":"Feature","geometry":{"type":"Point","coordinates":[5.727566,51.979069]},"properties":{"category":"bus_halte","name":"Waterweg","operator":""}},{"type":"Feature","geometry":{"type":"Point","coordinates":[5.727536,51.979144]},"properties":{"category":"bus_halte","name":"Waterweg","operator":""}},{"type":"Feature","geometry":{"type":"Point","coordinates":[5.733359,51.972254]},"properties":{"category":"bus_halte","name":"Wilgenpas","operator":""}},{"type":"Feature","geometry":{"type":"Point","coordinates":[5.733519,51.972352]},"properties":{"category":"bus_halte","name":"Wilgenpas","operator":""}},{"type":"Feature","geometry":{"type":"Point","coordinates":[5.840805,51.989076]},"properties":{"category":"bus_halte","name":"Gezondheidscentrum Dennenkamp","operator":""}},{"type":"Feature","geometry":{"type":"Point","coordinates":[5.753311,51.979964]},"properties":{"category":"bus_halte","name":"Patrimoniumweg","operator":"Breng"}},{"type":"Feature","geometry":{"type":"Point","coordinates":[5.752813,51.980065]},"properties":{"category":"bus_halte","name":"Patrimoniumweg","operator":"Breng"}},{"type":"Feature","geometry":{"type":"Point","coordinates":[5.802563,51.986824]},"properties":{"category":"bus_halte","name":"Kerklaan","operator":""}},{"type":"Feature","geometry":{"type":"Point","coordinates":[5.734478,51.979498]},"properties":{"category":"bus_halte","name":"Nieuwe Keijenbergseweg","operator":""}},{"type":"Feature","geometry":{"type":"Point","coordinates":[5.812462,51.988037]},"properties":{"category":"bus_halte","name":"Wolfhezerweg","operator":""}},{"type":"Feature","geometry":{"type":"Point","coordinates":[5.73709,51.973308]},"properties":{"category":"bus_halte","name":"Melkdam","operator":""}},{"type":"Feature","geometry":{"type":"Point","coordinates":[5.736445,51.973127]},"properties":{"category":"bus_halte","name":"Melkdam","operator":""}},{"type":"Feature","geometry":{"type":"Point","coordinates":[5.794775,51.978843]},"properties":{"category":"bus_halte","name":"Winkelcentrum De Weerd","operator":""}},{"type":"Feature","geometry":{"type":"Point","coordinates":[5.792394,52.005672]},"properties":{"category":"ov_knooppunt","name":"Wolfheze","operator":""}},{"type":"Feature","geometry":{"type":"Point","coordinates":[5.840487,51.994783]},"properties":{"category":"ov_knooppunt","name":"Oosterbeek","operator":""}},{"type":"Feature","geometry":{"type":"Point","coordinates":[5.842337,51.988246]},"properties":{"category":"gemeentehuis","name":"Gemeentehuis Renkum","operator":"Gemeente Renkum"}},{"type":"Feature","geometry":{"type":"Point","coordinates":[5.7412,51.984945]},"properties":{"category":"inzamelpunt","name":"Tijo Recycling","operator":""}},{"type":"Feature","geometry":{"type":"Point","coordinates":[5.763154,51.983536]},"properties":{"category":"inzamelpunt","name":"","operator":""}},{"type":"Feature","geometry":{"type":"Point","coordinates":[5.728682,51.973189]},"properties":{"category":"bibliotheek","name":"Bibliotheek Renkum","operator":""}},{"type":"Feature","geometry":{"type":"Point","coordinates":[5.841851,51.989174]},"properties":{"category":"bibliotheek","name":"de Bibliotheek Oosterbeek | De Klipper","operator":""}},{"type":"Feature","geometry":{"type":"Point","coordinates":[5.721062,51.967204]},"properties":{"category":"transformatorhuisje","name":"","operator":""}},{"type":"Feature","geometry":{"type":"Point","coordinates":[5.721503,51.967339]},"properties":{"category":"transformatorhuisje","name":"","operator":""}},{"type":"Feature","geometry":{"type":"Point","coordinates":[5.721626,51.967397]},"properties":{"category":"transformatorhuisje","name":"","operator":""}},{"type":"Feature","geometry":{"type":"Point","coordinates":[5.7206,51.968035]},"properties":{"category":"transformatorhuisje","name":"","operator":""}},{"type":"Feature","geometry":{"type":"Point","coordinates":[5.721025,51.968162]},"properties":{"category":"transformatorhuisje","name":"","operator":""}},{"type":"Feature","geometry":{"type":"Point","coordinates":[5.830225,51.995303]},"properties":{"category":"transformatorhuisje","name":"","operator":""}},{"type":"Feature","geometry":{"type":"Point","coordinates":[5.830098,51.995324]},"properties":{"category":"transformatorhuisje","name":"","operator":""}},{"type":"Feature","geometry":{"type":"Point","coordinates":[5.7922,52.006579]},"properties":{"category":"transformatorhuisje","name":"","operator":""}},{"type":"Feature","geometry":{"type":"Point","coordinates":[5.830174,51.995279]},"properties":{"category":"transformatorhuisje","name":"50 kV Oosterbeek","operator":"Liander"}},{"type":"Feature","geometry":{"type":"Point","coordinates":[5.742192,51.986796]},"properties":{"category":"hogeschool","name":"Rijn IJssel","operator":""}},{"type":"Feature","geometry":{"type":"Point","coordinates":[5.817339,51.984189]},"properties":{"category":"middelbare_school","name":"Vierbeekcollege","operator":"De Onderwijsspecialisten"}},{"type":"Feature","geometry":{"type":"Point","coordinates":[5.854153,51.981614]},"properties":{"category":"middelbare_school","name":"Vierbeekcollege","operator":"De Onderwijsspecialisten"}},{"type":"Feature","geometry":{"type":"Point","coordinates":[5.841676,51.992627]},"properties":{"category":"middelbare_school","name":"De Brouwerij","operator":"De Onderwijsspecialisten"}},{"type":"Feature","geometry":{"type":"Point","coordinates":[5.784394,52.011116]},"properties":{"category":"sportveld","name":"","operator":""}},{"type":"Feature","geometry":{"type":"Point","coordinates":[5.786136,52.011248]},"properties":{"category":"sportveld","name":"","operator":""}},{"type":"Feature","geometry":{"type":"Point","coordinates":[5.785302,52.010408]},"properties":{"category":"sportveld","name":"Tennisvereniging De Slenk","operator":""}},{"type":"Feature","geometry":{"type":"Point","coordinates":[5.760218,51.988786]},"properties":{"category":"sportveld","name":"Sportpark Wilhelmina","operator":""}},{"type":"Feature","geometry":{"type":"Point","coordinates":[5.788424,51.975765]},"properties":{"category":"sportveld","name":"De Waayenberg","operator":""}},{"type":"Feature","geometry":{"type":"Point","coordinates":[5.834266,51.985719]},"properties":{"category":"sportveld","name":"Sportpark Hartenstein","operator":""}},{"type":"Feature","geometry":{"type":"Point","coordinates":[5.821529,51.994997]},"properties":{"category":"sportveld","name":"De Bilderberg","operator":""}},{"type":"Feature","geometry":{"type":"Point","coordinates":[5.795126,51.979122]},"properties":{"category":"winkelcentrum","name":"de Weerd","operator":""}},{"type":"Feature","geometry":{"type":"Point","coordinates":[5.841694,51.994527]},"properties":{"category":"fietsenstalling","name":"","operator":""}},{"type":"Feature","geometry":{"type":"Point","coordinates":[5.792509,52.005467]},"properties":{"category":"fietsenstalling","name":"","operator":""}},{"type":"Feature","geometry":{"type":"Point","coordinates":[5.806736,52.018911]},"properties":{"category":"fietsenstalling","name":"","operator":""}},{"type":"Feature","geometry":{"type":"Point","coordinates":[5.797366,51.984674]},"properties":{"category":"fietsenstalling","name":"","operator":"Dorenweerd College"}},{"type":"Feature","geometry":{"type":"Point","coordinates":[5.797282,51.984695]},"properties":{"category":"fietsenstalling","name":"","operator":"Dorenweerd College"}},{"type":"Feature","geometry":{"type":"Point","coordinates":[5.797195,51.984715]},"properties":{"category":"fietsenstalling","name":"","operator":"Dorenweerd College"}},{"type":"Feature","geometry":{"type":"Point","coordinates":[5.79711,51.984736]},"properties":{"category":"fietsenstalling","name":"","operator":"Dorenweerd College"}},{"type":"Feature","geometry":{"type":"Point","coordinates":[5.836666,51.988652]},"properties":{"category":"fietsenstalling","name":"","operator":""}}]}