{"type":"FeatureCollection","metadata":{"gemeente":"Rucphen","slug":"rucphen","by_category":{"bus_halte":21,"supermarkt":8,"bibliotheek":2,"transformatorhuisje":2,"sportveld":2,"gemeentehuis":1,"middelbare_school":1,"fietsenstalling":1},"total":38},"features":[{"type":"Feature","geometry":{"type":"Point","coordinates":[4.565502,51.532192]},"properties":{"category":"bus_halte","name":"Sprundelseweg","operator":""}},{"type":"Feature","geometry":{"type":"Point","coordinates":[4.549948,51.534691]},"properties":{"category":"bus_halte","name":"Gebrande Hoefstraat","operator":""}},{"type":"Feature","geometry":{"type":"Point","coordinates":[4.559577,51.533619]},"properties":{"category":"bus_halte","name":"Raadhuisstraat","operator":""}},{"type":"Feature","geometry":{"type":"Point","coordinates":[4.57618,51.53133]},"properties":{"category":"bus_halte","name":"Expeditieweg","operator":""}},{"type":"Feature","geometry":{"type":"Point","coordinates":[4.516071,51.561085]},"properties":{"category":"bus_halte","name":"Bosschenhoofdseweg","operator":""}},{"type":"Feature","geometry":{"type":"Point","coordinates":[4.516225,51.561125]},"properties":{"category":"bus_halte","name":"Bosschenhoofdseweg","operator":""}},{"type":"Feature","geometry":{"type":"Point","coordinates":[4.516368,51.555619]},"properties":{"category":"bus_halte","name":"Onze Lieve Vrouwestraat","operator":""}},{"type":"Feature","geometry":{"type":"Point","coordinates":[4.516249,51.555615]},"properties":{"category":"bus_halte","name":"Onze Lieve Vrouwestraat","operator":""}},{"type":"Feature","geometry":{"type":"Point","coordinates":[4.576241,51.531273]},"properties":{"category":"bus_halte","name":"Expeditieweg","operator":""}},{"type":"Feature","geometry":{"type":"Point","coordinates":[4.550086,51.534593]},"properties":{"category":"bus_halte","name":"Gebrande Hoefstraat","operator":""}},{"type":"Feature","geometry":{"type":"Point","coordinates":[4.558254,51.533329]},"properties":{"category":"bus_halte","name":"Raadhuisstraat","operator":""}},{"type":"Feature","geometry":{"type":"Point","coordinates":[4.565311,51.532159]},"properties":{"category":"bus_halte","name":"Sprundelseweg","operator":""}},{"type":"Feature","geometry":{"type":"Point","coordinates":[4.558048,51.497126]},"properties":{"category":"bus_halte","name":"Hoeksestraat","operator":""}},{"type":"Feature","geometry":{"type":"Point","coordinates":[4.557874,51.497101]},"properties":{"category":"bus_halte","name":"Hoeksestraat","operator":""}},{"type":"Feature","geometry":{"type":"Point","coordinates":[4.575495,51.537991]},"properties":{"category":"bus_halte","name":"Sporthei","operator":""}},{"type":"Feature","geometry":{"type":"Point","coordinates":[4.575146,51.537641]},"properties":{"category":"bus_halte","name":"Sporthei","operator":""}},{"type":"Feature","geometry":{"type":"Point","coordinates":[4.594045,51.542171]},"properties":{"category":"bus_halte","name":"Noorderstraat","operator":""}},{"type":"Feature","geometry":{"type":"Point","coordinates":[4.593565,51.542186]},"properties":{"category":"bus_halte","name":"Noorderstraat","operator":""}},{"type":"Feature","geometry":{"type":"Point","coordinates":[4.599294,51.538112]},"properties":{"category":"bus_halte","name":"Sint Jansstraat","operator":""}},{"type":"Feature","geometry":{"type":"Point","coordinates":[4.591337,51.552934]},"properties":{"category":"bus_halte","name":"Dorpsstraat","operator":""}},{"type":"Feature","geometry":{"type":"Point","coordinates":[4.505869,51.54433]},"properties":{"category":"bus_halte","name":"Winkelcentrum A58","operator":""}},{"type":"Feature","geometry":{"type":"Point","coordinates":[4.579038,51.538887]},"properties":{"category":"gemeentehuis","name":"Gemeentehuis Rucphen","operator":"Gemeente Rucphen"}},{"type":"Feature","geometry":{"type":"Point","coordinates":[4.578642,51.538739]},"properties":{"category":"bibliotheek","name":"Bibliotheek Rucphen","operator":"Bibliotheek West-Brabant"}},{"type":"Feature","geometry":{"type":"Point","coordinates":[4.549448,51.533823]},"properties":{"category":"bibliotheek","name":"Haal- en Brengpunt Rucphen-Kerkakkers","operator":"Bibliotheek West-Brabant"}},{"type":"Feature","geometry":{"type":"Point","coordinates":[4.595252,51.536386]},"properties":{"category":"transformatorhuisje","name":"","operator":""}},{"type":"Feature","geometry":{"type":"Point","coordinates":[4.594786,51.532687]},"properties":{"category":"transformatorhuisje","name":"","operator":""}},{"type":"Feature","geometry":{"type":"Point","coordinates":[4.56748,51.532588]},"properties":{"category":"middelbare_school","name":"Munnikenheide College","operator":"Ons Middelbaar Onderwijs"}},{"type":"Feature","geometry":{"type":"Point","coordinates":[4.571111,51.538795]},"properties":{"category":"sportveld","name":"SnowWorld Rucphen-Breda","operator":""}},{"type":"Feature","geometry":{"type":"Point","coordinates":[4.514201,51.55384]},"properties":{"category":"sportveld","name":"T.C. Hooghei","operator":""}},{"type":"Feature","geometry":{"type":"Point","coordinates":[4.592092,51.545627]},"properties":{"category":"supermarkt","name":"Dirk","operator":""}},{"type":"Feature","geometry":{"type":"Point","coordinates":[4.560585,51.497476]},"properties":{"category":"supermarkt","name":"Super Dichtbij","operator":""}},{"type":"Feature","geometry":{"type":"Point","coordinates":[4.55904,51.532296]},"properties":{"category":"supermarkt","name":"PLUS","operator":""}},{"type":"Feature","geometry":{"type":"Point","coordinates":[4.590298,51.545668]},"properties":{"category":"supermarkt","name":"Jumbo","operator":""}},{"type":"Feature","geometry":{"type":"Point","coordinates":[4.517185,51.555775]},"properties":{"category":"supermarkt","name":"Super Dichtbij Zegge","operator":""}},{"type":"Feature","geometry":{"type":"Point","coordinates":[4.589456,51.546244]},"properties":{"category":"supermarkt","name":"ALDI","operator":""}},{"type":"Feature","geometry":{"type":"Point","coordinates":[4.56259,51.532328]},"properties":{"category":"supermarkt","name":"Lidl","operator":"Lidl Nederland GmbH"}},{"type":"Feature","geometry":{"type":"Point","coordinates":[4.506473,51.544885]},"properties":{"category":"supermarkt","name":"Albert Heijn","operator":""}},{"type":"Feature","geometry":{"type":"Point","coordinates":[4.593394,51.542215]},"properties":{"category":"fietsenstalling","name":"","operator":"Gemeente Rucphen"}}]}