{"type":"FeatureCollection","metadata":{"gemeente":"s-Hertogenbosch","slug":"s-hertogenbosch","by_category":{"bus_halte":343,"parkeergarage":47,"sportveld":37,"fietsenstalling":23,"universiteit":7,"middelbare_school":7,"transformatorhuisje":6,"hogeschool":6,"ov_knooppunt":4,"bibliotheek":4,"ns_station":3,"gemeentehuis":3,"inzamelpunt":3,"p_and_r":3,"ziekenhuis":2,"winkelcentrum":2},"total":500},"features":[{"type":"Feature","geometry":{"type":"Point","coordinates":[5.369582,51.715152]},"properties":{"category":"ns_station","name":"Rosmalen","operator":""}},{"type":"Feature","geometry":{"type":"Point","coordinates":[5.293709,51.690516]},"properties":{"category":"ns_station","name":"'s-Hertogenbosch","operator":""}},{"type":"Feature","geometry":{"type":"Point","coordinates":[5.319116,51.700554]},"properties":{"category":"ns_station","name":"'s-Hertogenbosch Oost","operator":""}},{"type":"Feature","geometry":{"type":"Point","coordinates":[5.323781,51.684958]},"properties":{"category":"bus_halte","name":"Erasmusstraat","operator":""}},{"type":"Feature","geometry":{"type":"Point","coordinates":[5.315082,51.681181]},"properties":{"category":"bus_halte","name":"Philips de Tweedestraat","operator":""}},{"type":"Feature","geometry":{"type":"Point","coordinates":[5.282401,51.690679]},"properties":{"category":"bus_halte","name":"Simon Stevinweg","operator":""}},{"type":"Feature","geometry":{"type":"Point","coordinates":[5.281639,51.69098]},"properties":{"category":"bus_halte","name":"Simon Stevinweg","operator":""}},{"type":"Feature","geometry":{"type":"Point","coordinates":[5.310287,51.693658]},"properties":{"category":"bus_halte","name":"Kapelaan Koopmansplein","operator":""}},{"type":"Feature","geometry":{"type":"Point","coordinates":[5.325491,51.696424]},"properties":{"category":"bus_halte","name":"Rubensstraat","operator":""}},{"type":"Feature","geometry":{"type":"Point","coordinates":[5.318517,51.699175]},"properties":{"category":"bus_halte","name":"Aartshertogenlaan","operator":""}},{"type":"Feature","geometry":{"type":"Point","coordinates":[5.31898,51.701408]},"properties":{"category":"bus_halte","name":"Station Oost","operator":""}},{"type":"Feature","geometry":{"type":"Point","coordinates":[5.323803,51.728826]},"properties":{"category":"bus_halte","name":"Klaverstraat","operator":""}},{"type":"Feature","geometry":{"type":"Point","coordinates":[5.370745,51.709095]},"properties":{"category":"bus_halte","name":"Oude Baan","operator":""}},{"type":"Feature","geometry":{"type":"Point","coordinates":[5.365448,51.708595]},"properties":{"category":"bus_halte","name":"Huygensstraat","operator":""}},{"type":"Feature","geometry":{"type":"Point","coordinates":[5.371436,51.709233]},"properties":{"category":"bus_halte","name":"Oude Baan","operator":""}},{"type":"Feature","geometry":{"type":"Point","coordinates":[5.361851,51.707049]},"properties":{"category":"bus_halte","name":"Molenstraat","operator":""}},{"type":"Feature","geometry":{"type":"Point","coordinates":[5.36158,51.707944]},"properties":{"category":"bus_halte","name":"Molenstraat","operator":""}},{"type":"Feature","geometry":{"type":"Point","coordinates":[5.369323,51.715276]},"properties":{"category":"bus_halte","name":"Station","operator":""}},{"type":"Feature","geometry":{"type":"Point","coordinates":[5.379526,51.708746]},"properties":{"category":"bus_halte","name":"Maliskamp","operator":""}},{"type":"Feature","geometry":{"type":"Point","coordinates":[5.332551,51.699744]},"properties":{"category":"bus_halte","name":"Goudenregenstraat","operator":""}},{"type":"Feature","geometry":{"type":"Point","coordinates":[5.368891,51.731187]},"properties":{"category":"bus_halte","name":"Laaghemaal","operator":""}},{"type":"Feature","geometry":{"type":"Point","coordinates":[5.363801,51.734637]},"properties":{"category":"bus_halte","name":"Groote Wielenlaan","operator":""}},{"type":"Feature","geometry":{"type":"Point","coordinates":[5.438191,51.722192]},"properties":{"category":"bus_halte","name":"Hoogstraat","operator":""}},{"type":"Feature","geometry":{"type":"Point","coordinates":[5.327559,51.682547]},"properties":{"category":"bus_halte","name":"Gestelseweg","operator":""}},{"type":"Feature","geometry":{"type":"Point","coordinates":[5.326651,51.682936]},"properties":{"category":"bus_halte","name":"Zuiderparkweg","operator":""}},{"type":"Feature","geometry":{"type":"Point","coordinates":[5.333242,51.677546]},"properties":{"category":"bus_halte","name":"Pettelaarpark","operator":""}},{"type":"Feature","geometry":{"type":"Point","coordinates":[5.333553,51.679225]},"properties":{"category":"bus_halte","name":"Brabantlaan","operator":""}},{"type":"Feature","geometry":{"type":"Point","coordinates":[5.327652,51.679638]},"properties":{"category":"bus_halte","name":"Provinciehuis","operator":""}},{"type":"Feature","geometry":{"type":"Point","coordinates":[5.326181,51.679227]},"properties":{"category":"bus_halte","name":"Provinciehuis","operator":""}},{"type":"Feature","geometry":{"type":"Point","coordinates":[5.325019,51.689974]},"properties":{"category":"bus_halte","name":"Merwedelaan","operator":""}},{"type":"Feature","geometry":{"type":"Point","coordinates":[5.324676,51.689962]},"properties":{"category":"bus_halte","name":"Merwedelaan","operator":""}},{"type":"Feature","geometry":{"type":"Point","coordinates":[5.328817,51.690239]},"properties":{"category":"bus_halte","name":"Rivierenplein","operator":""}},{"type":"Feature","geometry":{"type":"Point","coordinates":[5.330316,51.691274]},"properties":{"category":"bus_halte","name":"Geulweg","operator":""}},{"type":"Feature","geometry":{"type":"Point","coordinates":[5.335943,51.689969]},"properties":{"category":"bus_halte","name":"Oosterplas","operator":""}},{"type":"Feature","geometry":{"type":"Point","coordinates":[5.328168,51.679263]},"properties":{"category":"bus_halte","name":"Guido Gezellelaan","operator":""}},{"type":"Feature","geometry":{"type":"Point","coordinates":[5.329391,51.679152]},"properties":{"category":"bus_halte","name":"Guido Gezellelaan","operator":""}},{"type":"Feature","geometry":{"type":"Point","coordinates":[5.324826,51.684605]},"properties":{"category":"bus_halte","name":"Vondelstraat","operator":""}},{"type":"Feature","geometry":{"type":"Point","coordinates":[5.309846,51.684274]},"properties":{"category":"bus_halte","name":"Hertog Hendriksingel","operator":""}},{"type":"Feature","geometry":{"type":"Point","coordinates":[5.310289,51.684142]},"properties":{"category":"bus_halte","name":"Hertog Hendriksingel","operator":""}},{"type":"Feature","geometry":{"type":"Point","coordinates":[5.307554,51.686747]},"properties":{"category":"bus_halte","name":"Parade","operator":""}},{"type":"Feature","geometry":{"type":"Point","coordinates":[5.307932,51.689287]},"properties":{"category":"bus_halte","name":"Sint Josephstraat","operator":""}},{"type":"Feature","geometry":{"type":"Point","coordinates":[5.329723,51.688293]},"properties":{"category":"bus_halte","name":"Balistraat","operator":""}},{"type":"Feature","geometry":{"type":"Point","coordinates":[5.333297,51.687844]},"properties":{"category":"bus_halte","name":"Dommelstraat","operator":""}},{"type":"Feature","geometry":{"type":"Point","coordinates":[5.335504,51.692068]},"properties":{"category":"bus_halte","name":"Scheldestraat","operator":""}},{"type":"Feature","geometry":{"type":"Point","coordinates":[5.332804,51.692428]},"properties":{"category":"bus_halte","name":"Maassingel","operator":""}},{"type":"Feature","geometry":{"type":"Point","coordinates":[5.293512,51.685735]},"properties":{"category":"bus_halte","name":"Koningsweg","operator":""}},{"type":"Feature","geometry":{"type":"Point","coordinates":[5.274724,51.68678]},"properties":{"category":"bus_halte","name":"Vlijmenseweg","operator":""}},{"type":"Feature","geometry":{"type":"Point","coordinates":[5.259662,51.692415]},"properties":{"category":"bus_halte","name":"Helftheuvelweg","operator":""}},{"type":"Feature","geometry":{"type":"Point","coordinates":[5.317478,51.679675]},"properties":{"category":"bus_halte","name":"Sweelinckplein","operator":""}},{"type":"Feature","geometry":{"type":"Point","coordinates":[5.322712,51.679122]},"properties":{"category":"bus_halte","name":"Chopinstraat/Provinciehuis","operator":""}},{"type":"Feature","geometry":{"type":"Point","coordinates":[5.252966,51.695242]},"properties":{"category":"bus_halte","name":"Admiraliteitslaan","operator":""}},{"type":"Feature","geometry":{"type":"Point","coordinates":[5.258298,51.695694]},"properties":{"category":"bus_halte","name":"Churchilllaan","operator":""}},{"type":"Feature","geometry":{"type":"Point","coordinates":[5.252278,51.696316]},"properties":{"category":"bus_halte","name":"Karel Doormanstraat","operator":""}},{"type":"Feature","geometry":{"type":"Point","coordinates":[5.255662,51.698757]},"properties":{"category":"bus_halte","name":"Kardinaal de Jongsingel","operator":""}},{"type":"Feature","geometry":{"type":"Point","coordinates":[5.261165,51.69778]},"properties":{"category":"bus_halte","name":"Evert van Dijkstraat","operator":""}},{"type":"Feature","geometry":{"type":"Point","coordinates":[5.259643,51.701189]},"properties":{"category":"bus_halte","name":"Kruiskampsingel","operator":""}},{"type":"Feature","geometry":{"type":"Point","coordinates":[5.267879,51.69411]},"properties":{"category":"bus_halte","name":"Rijzertlaan","operator":""}},{"type":"Feature","geometry":{"type":"Point","coordinates":[5.268388,51.694832]},"properties":{"category":"bus_halte","name":"Rijzertlaan","operator":""}},{"type":"Feature","geometry":{"type":"Point","coordinates":[5.26561,51.698106]},"properties":{"category":"bus_halte","name":"Kooikersweg","operator":""}},{"type":"Feature","geometry":{"type":"Point","coordinates":[5.269303,51.696277]},"properties":{"category":"bus_halte","name":"Helftheuvelpassage","operator":""}},{"type":"Feature","geometry":{"type":"Point","coordinates":[5.277084,51.689865]},"properties":{"category":"bus_halte","name":"Boschmeerplein","operator":""}},{"type":"Feature","geometry":{"type":"Point","coordinates":[5.273288,51.691375]},"properties":{"category":"bus_halte","name":"Boschmeersingel","operator":""}},{"type":"Feature","geometry":{"type":"Point","coordinates":[5.288025,51.692193]},"properties":{"category":"bus_halte","name":"Christiaan Huygensweg","operator":""}},{"type":"Feature","geometry":{"type":"Point","coordinates":[5.290859,51.691724]},"properties":{"category":"bus_halte","name":"Christiaan Huygensweg","operator":""}},{"type":"Feature","geometry":{"type":"Point","coordinates":[5.301195,51.684984]},"properties":{"category":"bus_halte","name":"Spinhuiswal","operator":""}},{"type":"Feature","geometry":{"type":"Point","coordinates":[5.298044,51.686067]},"properties":{"category":"bus_halte","name":"Achter de Boogaard","operator":""}},{"type":"Feature","geometry":{"type":"Point","coordinates":[5.30064,51.686829]},"properties":{"category":"bus_halte","name":"Vughterstraat","operator":""}},{"type":"Feature","geometry":{"type":"Point","coordinates":[5.312783,51.68256]},"properties":{"category":"bus_halte","name":"Pettelaarseweg","operator":""}},{"type":"Feature","geometry":{"type":"Point","coordinates":[5.31371,51.681895]},"properties":{"category":"bus_halte","name":"Pettelaarseweg","operator":""}},{"type":"Feature","geometry":{"type":"Point","coordinates":[5.318785,51.692397]},"properties":{"category":"bus_halte","name":"Graafseweg","operator":""}},{"type":"Feature","geometry":{"type":"Point","coordinates":[5.312242,51.698004]},"properties":{"category":"bus_halte","name":"Monseigneur Diepenstraat","operator":""}},{"type":"Feature","geometry":{"type":"Point","coordinates":[5.313155,51.711297]},"properties":{"category":"bus_halte","name":"Rompertpassage","operator":""}},{"type":"Feature","geometry":{"type":"Point","coordinates":[5.31419,51.711511]},"properties":{"category":"bus_halte","name":"Rompertpassage","operator":""}},{"type":"Feature","geometry":{"type":"Point","coordinates":[5.319006,51.698985]},"properties":{"category":"bus_halte","name":"Aartshertogenlaan","operator":""}},{"type":"Feature","geometry":{"type":"Point","coordinates":[5.319083,51.707966]},"properties":{"category":"bus_halte","name":"Slagen Zuid","operator":""}},{"type":"Feature","geometry":{"type":"Point","coordinates":[5.320142,51.708675]},"properties":{"category":"bus_halte","name":"Slagen Zuid","operator":""}},{"type":"Feature","geometry":{"type":"Point","coordinates":[5.323529,51.71111]},"properties":{"category":"bus_halte","name":"Haren Zuid","operator":""}},{"type":"Feature","geometry":{"type":"Point","coordinates":[5.325005,51.711553]},"properties":{"category":"bus_halte","name":"Haren Zuid","operator":""}},{"type":"Feature","geometry":{"type":"Point","coordinates":[5.319714,51.713852]},"properties":{"category":"bus_halte","name":"De Harendonkweg","operator":""}},{"type":"Feature","geometry":{"type":"Point","coordinates":[5.320413,51.714559]},"properties":{"category":"bus_halte","name":"De Harendonkweg","operator":""}},{"type":"Feature","geometry":{"type":"Point","coordinates":[5.30411,51.698287]},"properties":{"category":"bus_halte","name":"Orthenseweg","operator":""}},{"type":"Feature","geometry":{"type":"Point","coordinates":[5.303826,51.698744]},"properties":{"category":"bus_halte","name":"Orthenseweg","operator":""}},{"type":"Feature","geometry":{"type":"Point","coordinates":[5.302904,51.70508]},"properties":{"category":"bus_halte","name":"Orthen","operator":""}},{"type":"Feature","geometry":{"type":"Point","coordinates":[5.302769,51.705824]},"properties":{"category":"bus_halte","name":"Orthen","operator":""}},{"type":"Feature","geometry":{"type":"Point","coordinates":[5.298409,51.711042]},"properties":{"category":"bus_halte","name":"Hambakenweg","operator":""}},{"type":"Feature","geometry":{"type":"Point","coordinates":[5.312958,51.688388]},"properties":{"category":"bus_halte","name":"Hinthamerstraat","operator":""}},{"type":"Feature","geometry":{"type":"Point","coordinates":[5.295007,51.722352]},"properties":{"category":"bus_halte","name":"Larenweg","operator":""}},{"type":"Feature","geometry":{"type":"Point","coordinates":[5.294693,51.721207]},"properties":{"category":"bus_halte","name":"Larenweg","operator":""}},{"type":"Feature","geometry":{"type":"Point","coordinates":[5.295137,51.724063]},"properties":{"category":"bus_halte","name":"Zwartbroekweg","operator":""}},{"type":"Feature","geometry":{"type":"Point","coordinates":[5.295428,51.724022]},"properties":{"category":"bus_halte","name":"Zwartbroekweg","operator":""}},{"type":"Feature","geometry":{"type":"Point","coordinates":[5.332811,51.696443]},"properties":{"category":"bus_halte","name":"van Broeckhovenlaan","operator":""}},{"type":"Feature","geometry":{"type":"Point","coordinates":[5.360123,51.703293]},"properties":{"category":"bus_halte","name":"Graafsebaan","operator":""}},{"type":"Feature","geometry":{"type":"Point","coordinates":[5.360548,51.703626]},"properties":{"category":"bus_halte","name":"Graafsebaan","operator":""}},{"type":"Feature","geometry":{"type":"Point","coordinates":[5.282565,51.733853]},"properties":{"category":"bus_halte","name":"Maasoever","operator":""}},{"type":"Feature","geometry":{"type":"Point","coordinates":[5.291383,51.72734]},"properties":{"category":"bus_halte","name":"Lugteren","operator":""}},{"type":"Feature","geometry":{"type":"Point","coordinates":[5.29144,51.727364]},"properties":{"category":"bus_halte","name":"Lugteren","operator":""}},{"type":"Feature","geometry":{"type":"Point","coordinates":[5.365866,51.724946]},"properties":{"category":"bus_halte","name":"Zustersbosweg","operator":""}},{"type":"Feature","geometry":{"type":"Point","coordinates":[5.365557,51.724709]},"properties":{"category":"bus_halte","name":"Zustersbosweg","operator":""}},{"type":"Feature","geometry":{"type":"Point","coordinates":[5.261838,51.691765]},"properties":{"category":"bus_halte","name":"Helftheuvelweg","operator":""}},{"type":"Feature","geometry":{"type":"Point","coordinates":[5.26646,51.706081]},"properties":{"category":"bus_halte","name":"Rietveldenweg","operator":""}},{"type":"Feature","geometry":{"type":"Point","coordinates":[5.266125,51.706636]},"properties":{"category":"bus_halte","name":"Rietveldenweg","operator":""}},{"type":"Feature","geometry":{"type":"Point","coordinates":[5.269938,51.704237]},"properties":{"category":"bus_halte","name":"Kasteleinenkampweg","operator":""}},{"type":"Feature","geometry":{"type":"Point","coordinates":[5.272764,51.702313]},"properties":{"category":"bus_halte","name":"Zandzuigerstraat","operator":""}},{"type":"Feature","geometry":{"type":"Point","coordinates":[5.272461,51.70218]},"properties":{"category":"bus_halte","name":"Zandzuigerstraat","operator":""}},{"type":"Feature","geometry":{"type":"Point","coordinates":[5.269185,51.704385]},"properties":{"category":"bus_halte","name":"Kasteleinenkampweg","operator":""}},{"type":"Feature","geometry":{"type":"Point","coordinates":[5.259779,51.723167]},"properties":{"category":"bus_halte","name":"Regenwulp","operator":""}},{"type":"Feature","geometry":{"type":"Point","coordinates":[5.260788,51.722769]},"properties":{"category":"bus_halte","name":"Regenwulp","operator":""}},{"type":"Feature","geometry":{"type":"Point","coordinates":[5.263252,51.715674]},"properties":{"category":"bus_halte","name":"De Vutter","operator":""}},{"type":"Feature","geometry":{"type":"Point","coordinates":[5.268935,51.720166]},"properties":{"category":"bus_halte","name":"Schoolstraat","operator":""}},{"type":"Feature","geometry":{"type":"Point","coordinates":[5.269005,51.719929]},"properties":{"category":"bus_halte","name":"Schoolstraat","operator":""}},{"type":"Feature","geometry":{"type":"Point","coordinates":[5.247879,51.724906]},"properties":{"category":"bus_halte","name":"Velderwoude","operator":""}},{"type":"Feature","geometry":{"type":"Point","coordinates":[5.332127,51.708672]},"properties":{"category":"bus_halte","name":"Ploegweg","operator":""}},{"type":"Feature","geometry":{"type":"Point","coordinates":[5.298334,51.726639]},"properties":{"category":"bus_halte","name":"Troelstradreef","operator":""}},{"type":"Feature","geometry":{"type":"Point","coordinates":[5.293064,51.677257]},"properties":{"category":"bus_halte","name":"Vughterweg","operator":""}},{"type":"Feature","geometry":{"type":"Point","coordinates":[5.293366,51.6858]},"properties":{"category":"bus_halte","name":"Koningsweg","operator":""}},{"type":"Feature","geometry":{"type":"Point","coordinates":[5.317152,51.717154]},"properties":{"category":"bus_halte","name":"De Morgen","operator":""}},{"type":"Feature","geometry":{"type":"Point","coordinates":[5.316202,51.718426]},"properties":{"category":"bus_halte","name":"De Morgen","operator":""}},{"type":"Feature","geometry":{"type":"Point","coordinates":[5.299266,51.728586]},"properties":{"category":"bus_halte","name":"Thorbeckeplantsoen","operator":""}},{"type":"Feature","geometry":{"type":"Point","coordinates":[5.335641,51.678079]},"properties":{"category":"bus_halte","name":"P+R Pettelaarpark","operator":""}},{"type":"Feature","geometry":{"type":"Point","coordinates":[5.311325,51.699081]},"properties":{"category":"bus_halte","name":"Baden Powellstraat","operator":""}},{"type":"Feature","geometry":{"type":"Point","coordinates":[5.311085,51.699264]},"properties":{"category":"bus_halte","name":"Baden Powellstraat","operator":""}},{"type":"Feature","geometry":{"type":"Point","coordinates":[5.305276,51.708153]},"properties":{"category":"bus_halte","name":"Orthensehoven","operator":""}},{"type":"Feature","geometry":{"type":"Point","coordinates":[5.305461,51.708702]},"properties":{"category":"bus_halte","name":"Orthensehoven","operator":""}},{"type":"Feature","geometry":{"type":"Point","coordinates":[5.304351,51.712508]},"properties":{"category":"bus_halte","name":"Hambakendreef","operator":""}},{"type":"Feature","geometry":{"type":"Point","coordinates":[5.304575,51.712459]},"properties":{"category":"bus_halte","name":"Hambakendreef","operator":""}},{"type":"Feature","geometry":{"type":"Point","coordinates":[5.309083,51.714715]},"properties":{"category":"bus_halte","name":"De Clockenweerde","operator":""}},{"type":"Feature","geometry":{"type":"Point","coordinates":[5.32241,51.700339]},"properties":{"category":"bus_halte","name":"P+R De Vliert","operator":""}},{"type":"Feature","geometry":{"type":"Point","coordinates":[5.332826,51.715124]},"properties":{"category":"bus_halte","name":"De Reit","operator":""}},{"type":"Feature","geometry":{"type":"Point","coordinates":[5.333832,51.715088]},"properties":{"category":"bus_halte","name":"De Reit","operator":""}},{"type":"Feature","geometry":{"type":"Point","coordinates":[5.357179,51.731186]},"properties":{"category":"bus_halte","name":"Spirealaan","operator":""}},{"type":"Feature","geometry":{"type":"Point","coordinates":[5.328691,51.700958]},"properties":{"category":"bus_halte","name":"Stadion","operator":""}},{"type":"Feature","geometry":{"type":"Point","coordinates":[5.328853,51.701189]},"properties":{"category":"bus_halte","name":"Stadion","operator":""}},{"type":"Feature","geometry":{"type":"Point","coordinates":[5.339312,51.70019]},"properties":{"category":"bus_halte","name":"Hintham","operator":""}},{"type":"Feature","geometry":{"type":"Point","coordinates":[5.336483,51.70058]},"properties":{"category":"bus_halte","name":"Hintham","operator":"bravo (arriva)"}},{"type":"Feature","geometry":{"type":"Point","coordinates":[5.344737,51.700979]},"properties":{"category":"bus_halte","name":"Tweeberg","operator":""}},{"type":"Feature","geometry":{"type":"Point","coordinates":[5.346931,51.701183]},"properties":{"category":"bus_halte","name":"Tweeberg","operator":""}},{"type":"Feature","geometry":{"type":"Point","coordinates":[5.436405,51.722675]},"properties":{"category":"bus_halte","name":"Hoogstraat","operator":""}},{"type":"Feature","geometry":{"type":"Point","coordinates":[5.325742,51.68773]},"properties":{"category":"bus_halte","name":"Lambooijbrug","operator":""}},{"type":"Feature","geometry":{"type":"Point","coordinates":[5.32672,51.687292]},"properties":{"category":"bus_halte","name":"Maastrichtseweg","operator":""}},{"type":"Feature","geometry":{"type":"Point","coordinates":[5.3236,51.688277]},"properties":{"category":"bus_halte","name":"Lambooijbrug","operator":""}},{"type":"Feature","geometry":{"type":"Point","coordinates":[5.363715,51.700817]},"properties":{"category":"bus_halte","name":"Coudewater","operator":""}},{"type":"Feature","geometry":{"type":"Point","coordinates":[5.364494,51.700269]},"properties":{"category":"bus_halte","name":"Coudewater","operator":""}},{"type":"Feature","geometry":{"type":"Point","coordinates":[5.297352,51.711441]},"properties":{"category":"bus_halte","name":"Hambakenweg","operator":""}},{"type":"Feature","geometry":{"type":"Point","coordinates":[5.274408,51.733427]},"properties":{"category":"bus_halte","name":"Treurenburg","operator":""}},{"type":"Feature","geometry":{"type":"Point","coordinates":[5.273617,51.734198]},"properties":{"category":"bus_halte","name":"Treurenburg","operator":""}},{"type":"Feature","geometry":{"type":"Point","coordinates":[5.307786,51.725643]},"properties":{"category":"bus_halte","name":"Eimeren","operator":""}},{"type":"Feature","geometry":{"type":"Point","coordinates":[5.294583,51.689989]},"properties":{"category":"bus_halte","name":"Centraal Station","operator":""}},{"type":"Feature","geometry":{"type":"Point","coordinates":[5.294663,51.689976]},"properties":{"category":"bus_halte","name":"Centraal Station","operator":""}},{"type":"Feature","geometry":{"type":"Point","coordinates":[5.294821,51.68995]},"properties":{"category":"bus_halte","name":"Centraal Station","operator":""}},{"type":"Feature","geometry":{"type":"Point","coordinates":[5.295042,51.689915]},"properties":{"category":"bus_halte","name":"Centraal Station","operator":""}},{"type":"Feature","geometry":{"type":"Point","coordinates":[5.294742,51.689963]},"properties":{"category":"bus_halte","name":"Centraal Station","operator":""}},{"type":"Feature","geometry":{"type":"Point","coordinates":[5.294963,51.689928]},"properties":{"category":"bus_halte","name":"Centraal Station","operator":""}},{"type":"Feature","geometry":{"type":"Point","coordinates":[5.294883,51.68994]},"properties":{"category":"bus_halte","name":"Centraal Station","operator":""}},{"type":"Feature","geometry":{"type":"Point","coordinates":[5.327951,51.69628]},"properties":{"category":"bus_halte","name":"Pater van den Elsenstraat","operator":""}},{"type":"Feature","geometry":{"type":"Point","coordinates":[5.352482,51.702565]},"properties":{"category":"bus_halte","name":"Industriestraat","operator":""}},{"type":"Feature","geometry":{"type":"Point","coordinates":[5.352226,51.702608]},"properties":{"category":"bus_halte","name":"Industriestraat","operator":""}},{"type":"Feature","geometry":{"type":"Point","coordinates":[5.269602,51.699512]},"properties":{"category":"bus_halte","name":"Moermanstraat","operator":""}},{"type":"Feature","geometry":{"type":"Point","coordinates":[5.270706,51.699953]},"properties":{"category":"bus_halte","name":"Moermanstraat","operator":""}},{"type":"Feature","geometry":{"type":"Point","coordinates":[5.313315,51.708855]},"properties":{"category":"bus_halte","name":"Rompertsebaan","operator":""}},{"type":"Feature","geometry":{"type":"Point","coordinates":[5.313463,51.708934]},"properties":{"category":"bus_halte","name":"Rompertsebaan","operator":""}},{"type":"Feature","geometry":{"type":"Point","coordinates":[5.297596,51.725998]},"properties":{"category":"bus_halte","name":"Troelstradreef","operator":""}},{"type":"Feature","geometry":{"type":"Point","coordinates":[5.400474,51.714643]},"properties":{"category":"bus_halte","name":"Mariaoord","operator":""}},{"type":"Feature","geometry":{"type":"Point","coordinates":[5.461748,51.705351]},"properties":{"category":"bus_halte","name":"Kerk","operator":""}},{"type":"Feature","geometry":{"type":"Point","coordinates":[5.302745,51.687309]},"properties":{"category":"bus_halte","name":"Stadskantoor","operator":""}},{"type":"Feature","geometry":{"type":"Point","coordinates":[5.29522,51.684172]},"properties":{"category":"bus_halte","name":"Wilhelminaplein","operator":""}},{"type":"Feature","geometry":{"type":"Point","coordinates":[5.338658,51.711356]},"properties":{"category":"bus_halte","name":"Europalaan","operator":""}},{"type":"Feature","geometry":{"type":"Point","coordinates":[5.346679,51.699151]},"properties":{"category":"bus_halte","name":"Nicolaas Fierlantsstraat","operator":""}},{"type":"Feature","geometry":{"type":"Point","coordinates":[5.360414,51.725999]},"properties":{"category":"bus_halte","name":"Vlietdijk","operator":""}},{"type":"Feature","geometry":{"type":"Point","coordinates":[5.340127,51.717445]},"properties":{"category":"bus_halte","name":"Brabantpoort","operator":""}},{"type":"Feature","geometry":{"type":"Point","coordinates":[5.356571,51.683641]},"properties":{"category":"bus_halte","name":"De Brand","operator":""}},{"type":"Feature","geometry":{"type":"Point","coordinates":[5.319064,51.692424]},"properties":{"category":"bus_halte","name":"Graafseweg","operator":""}},{"type":"Feature","geometry":{"type":"Point","coordinates":[5.310326,51.693813]},"properties":{"category":"bus_halte","name":"Kapelaan Koopmansplein","operator":""}},{"type":"Feature","geometry":{"type":"Point","coordinates":[5.312355,51.698342]},"properties":{"category":"bus_halte","name":"Monseigneur Diepenstraat","operator":""}},{"type":"Feature","geometry":{"type":"Point","coordinates":[5.323828,51.695758]},"properties":{"category":"bus_halte","name":"Rubensstraat","operator":""}},{"type":"Feature","geometry":{"type":"Point","coordinates":[5.365329,51.708686]},"properties":{"category":"bus_halte","name":"Huygensstraat","operator":""}},{"type":"Feature","geometry":{"type":"Point","coordinates":[5.2929,51.677513]},"properties":{"category":"bus_halte","name":"Vughterweg","operator":""}},{"type":"Feature","geometry":{"type":"Point","coordinates":[5.405822,51.710645]},"properties":{"category":"bus_halte","name":"Autotron","operator":""}},{"type":"Feature","geometry":{"type":"Point","coordinates":[5.405214,51.711349]},"properties":{"category":"bus_halte","name":"Autotron","operator":""}},{"type":"Feature","geometry":{"type":"Point","coordinates":[5.383372,51.709065]},"properties":{"category":"bus_halte","name":"Maliskamp","operator":""}},{"type":"Feature","geometry":{"type":"Point","coordinates":[5.414823,51.714159]},"properties":{"category":"bus_halte","name":"Rijksweg-Zuid","operator":""}},{"type":"Feature","geometry":{"type":"Point","coordinates":[5.414745,51.714238]},"properties":{"category":"bus_halte","name":"Rijksweg-Zuid","operator":""}},{"type":"Feature","geometry":{"type":"Point","coordinates":[5.441455,51.720572]},"properties":{"category":"bus_halte","name":"Rijksweg","operator":""}},{"type":"Feature","geometry":{"type":"Point","coordinates":[5.440956,51.720626]},"properties":{"category":"bus_halte","name":"Rijksweg","operator":""}},{"type":"Feature","geometry":{"type":"Point","coordinates":[5.430563,51.716922]},"properties":{"category":"bus_halte","name":"Vakantiepark Dierenbos","operator":""}},{"type":"Feature","geometry":{"type":"Point","coordinates":[5.430429,51.717039]},"properties":{"category":"bus_halte","name":"Vakantiepark Dierenbos","operator":""}},{"type":"Feature","geometry":{"type":"Point","coordinates":[5.278575,51.684257]},"properties":{"category":"bus_halte","name":"Jeroen Bosch Ziekenhuis","operator":""}},{"type":"Feature","geometry":{"type":"Point","coordinates":[5.27856,51.684621]},"properties":{"category":"bus_halte","name":"Jeroen Bosch Ziekenhuis","operator":""}},{"type":"Feature","geometry":{"type":"Point","coordinates":[5.277306,51.690197]},"properties":{"category":"bus_halte","name":"Boschmeerplein","operator":""}},{"type":"Feature","geometry":{"type":"Point","coordinates":[5.321725,51.714513]},"properties":{"category":"bus_halte","name":"De Harendonkweg","operator":""}},{"type":"Feature","geometry":{"type":"Point","coordinates":[5.346755,51.699338]},"properties":{"category":"bus_halte","name":"Nicolaas Fierlantsstraat","operator":""}},{"type":"Feature","geometry":{"type":"Point","coordinates":[5.31581,51.68821]},"properties":{"category":"bus_halte","name":"Sluis 0","operator":""}},{"type":"Feature","geometry":{"type":"Point","coordinates":[5.316598,51.688877]},"properties":{"category":"bus_halte","name":"Sluis 0","operator":""}},{"type":"Feature","geometry":{"type":"Point","coordinates":[5.373241,51.712753]},"properties":{"category":"bus_halte","name":"T.M. Kortenhorstlaan","operator":""}},{"type":"Feature","geometry":{"type":"Point","coordinates":[5.373129,51.712899]},"properties":{"category":"bus_halte","name":"T.M. Kortenhorstlaan","operator":""}},{"type":"Feature","geometry":{"type":"Point","coordinates":[5.332123,51.70881]},"properties":{"category":"bus_halte","name":"Ploegweg","operator":""}},{"type":"Feature","geometry":{"type":"Point","coordinates":[5.336745,51.708735]},"properties":{"category":"bus_halte","name":"Tinnegieterweg","operator":""}},{"type":"Feature","geometry":{"type":"Point","coordinates":[5.336122,51.708851]},"properties":{"category":"bus_halte","name":"Tinnegieterweg","operator":""}},{"type":"Feature","geometry":{"type":"Point","coordinates":[5.322178,51.702626]},"properties":{"category":"bus_halte","name":"Weidekruidlaan","operator":""}},{"type":"Feature","geometry":{"type":"Point","coordinates":[5.323634,51.703238]},"properties":{"category":"bus_halte","name":"Weidekruidlaan","operator":""}},{"type":"Feature","geometry":{"type":"Point","coordinates":[5.326938,51.730866]},"properties":{"category":"bus_halte","name":"De Brink","operator":""}},{"type":"Feature","geometry":{"type":"Point","coordinates":[5.262887,51.715629]},"properties":{"category":"bus_halte","name":"De Vutter","operator":""}},{"type":"Feature","geometry":{"type":"Point","coordinates":[5.293584,51.725261]},"properties":{"category":"bus_halte","name":"Zilverwilg","operator":""}},{"type":"Feature","geometry":{"type":"Point","coordinates":[5.293159,51.72587]},"properties":{"category":"bus_halte","name":"Zilverwilg","operator":""}},{"type":"Feature","geometry":{"type":"Point","coordinates":[5.363906,51.734737]},"properties":{"category":"bus_halte","name":"Groote Wielenlaan","operator":""}},{"type":"Feature","geometry":{"type":"Point","coordinates":[5.369048,51.730928]},"properties":{"category":"bus_halte","name":"Laaghemaal","operator":""}},{"type":"Feature","geometry":{"type":"Point","coordinates":[5.357369,51.731205]},"properties":{"category":"bus_halte","name":"Spirealaan","operator":""}},{"type":"Feature","geometry":{"type":"Point","coordinates":[5.270147,51.68641]},"properties":{"category":"bus_halte","name":"Deuteren","operator":""}},{"type":"Feature","geometry":{"type":"Point","coordinates":[5.270285,51.686565]},"properties":{"category":"bus_halte","name":"Deuteren","operator":""}},{"type":"Feature","geometry":{"type":"Point","coordinates":[5.273622,51.686593]},"properties":{"category":"bus_halte","name":"Vlijmenseweg","operator":""}},{"type":"Feature","geometry":{"type":"Point","coordinates":[5.2945,51.690004]},"properties":{"category":"bus_halte","name":"Centraal Station","operator":""}},{"type":"Feature","geometry":{"type":"Point","coordinates":[5.294424,51.690015]},"properties":{"category":"bus_halte","name":"Centraal Station","operator":""}},{"type":"Feature","geometry":{"type":"Point","coordinates":[5.284022,51.723633]},"properties":{"category":"bus_halte","name":"Titaniumlaan","operator":""}},{"type":"Feature","geometry":{"type":"Point","coordinates":[5.283987,51.723262]},"properties":{"category":"bus_halte","name":"Titaniumlaan","operator":""}},{"type":"Feature","geometry":{"type":"Point","coordinates":[5.308265,51.725144]},"properties":{"category":"bus_halte","name":"Eimeren","operator":""}},{"type":"Feature","geometry":{"type":"Point","coordinates":[5.331238,51.733583]},"properties":{"category":"bus_halte","name":"Fluitenkruid","operator":""}},{"type":"Feature","geometry":{"type":"Point","coordinates":[5.306484,51.728021]},"properties":{"category":"bus_halte","name":"Fleringen","operator":""}},{"type":"Feature","geometry":{"type":"Point","coordinates":[5.30908,51.71693]},"properties":{"category":"bus_halte","name":"Eerste Morgendreef","operator":""}},{"type":"Feature","geometry":{"type":"Point","coordinates":[5.330768,51.715319]},"properties":{"category":"bus_halte","name":"Eerste Reitse Dreef","operator":""}},{"type":"Feature","geometry":{"type":"Point","coordinates":[5.331339,51.715233]},"properties":{"category":"bus_halte","name":"Eerste Reitse Dreef","operator":""}},{"type":"Feature","geometry":{"type":"Point","coordinates":[5.30112,51.691381]},"properties":{"category":"bus_halte","name":"Orthenstraat","operator":""}},{"type":"Feature","geometry":{"type":"Point","coordinates":[5.356738,51.744405]},"properties":{"category":"bus_halte","name":"Hustenweg","operator":""}},{"type":"Feature","geometry":{"type":"Point","coordinates":[5.356798,51.744351]},"properties":{"category":"bus_halte","name":"Hustenweg","operator":""}},{"type":"Feature","geometry":{"type":"Point","coordinates":[5.311536,51.72331]},"properties":{"category":"bus_halte","name":"Maaspoortweg","operator":""}},{"type":"Feature","geometry":{"type":"Point","coordinates":[5.312271,51.723365]},"properties":{"category":"bus_halte","name":"Maaspoortweg","operator":""}},{"type":"Feature","geometry":{"type":"Point","coordinates":[5.319366,51.702936]},"properties":{"category":"bus_halte","name":"Bruistensingel","operator":""}},{"type":"Feature","geometry":{"type":"Point","coordinates":[5.306753,51.692028]},"properties":{"category":"bus_halte","name":"Zuid Willemsvaart","operator":""}},{"type":"Feature","geometry":{"type":"Point","coordinates":[5.305472,51.692443]},"properties":{"category":"bus_halte","name":"Zuid Willemsvaart","operator":""}},{"type":"Feature","geometry":{"type":"Point","coordinates":[5.242199,51.721144]},"properties":{"category":"bus_halte","name":"Wuyvenhaerd","operator":""}},{"type":"Feature","geometry":{"type":"Point","coordinates":[5.365079,51.71732]},"properties":{"category":"bus_halte","name":"Markt","operator":""}},{"type":"Feature","geometry":{"type":"Point","coordinates":[5.36456,51.718526]},"properties":{"category":"bus_halte","name":"Markt","operator":""}},{"type":"Feature","geometry":{"type":"Point","coordinates":[5.394537,51.731823]},"properties":{"category":"bus_halte","name":"Kruisstraat","operator":""}},{"type":"Feature","geometry":{"type":"Point","coordinates":[5.394439,51.73171]},"properties":{"category":"bus_halte","name":"Kruisstraat","operator":""}},{"type":"Feature","geometry":{"type":"Point","coordinates":[5.433839,51.727129]},"properties":{"category":"bus_halte","name":"Prins Bernhardplein","operator":""}},{"type":"Feature","geometry":{"type":"Point","coordinates":[5.433807,51.727029]},"properties":{"category":"bus_halte","name":"Prins Bernhardplein","operator":""}},{"type":"Feature","geometry":{"type":"Point","coordinates":[5.30229,51.731979]},"properties":{"category":"bus_halte","name":"Prikpolder","operator":""}},{"type":"Feature","geometry":{"type":"Point","coordinates":[5.30269,51.731917]},"properties":{"category":"bus_halte","name":"Prikpolder","operator":""}},{"type":"Feature","geometry":{"type":"Point","coordinates":[5.301099,51.684935]},"properties":{"category":"bus_halte","name":"Spinhuiswal","operator":""}},{"type":"Feature","geometry":{"type":"Point","coordinates":[5.338356,51.711528]},"properties":{"category":"bus_halte","name":"Europalaan","operator":""}},{"type":"Feature","geometry":{"type":"Point","coordinates":[5.43553,51.724901]},"properties":{"category":"bus_halte","name":"Dorpstraat","operator":""}},{"type":"Feature","geometry":{"type":"Point","coordinates":[5.43563,51.724915]},"properties":{"category":"bus_halte","name":"Dorpstraat","operator":""}},{"type":"Feature","geometry":{"type":"Point","coordinates":[5.243831,51.730247]},"properties":{"category":"bus_halte","name":"Beeckendael","operator":""}},{"type":"Feature","geometry":{"type":"Point","coordinates":[5.371196,51.722848]},"properties":{"category":"bus_halte","name":"Bruggen","operator":""}},{"type":"Feature","geometry":{"type":"Point","coordinates":[5.369608,51.721859]},"properties":{"category":"bus_halte","name":"Bruggen","operator":""}},{"type":"Feature","geometry":{"type":"Point","coordinates":[5.329428,51.706584]},"properties":{"category":"bus_halte","name":"Hervensebaan","operator":""}},{"type":"Feature","geometry":{"type":"Point","coordinates":[5.329603,51.706562]},"properties":{"category":"bus_halte","name":"Hervensebaan","operator":""}},{"type":"Feature","geometry":{"type":"Point","coordinates":[5.342449,51.698516]},"properties":{"category":"bus_halte","name":"Jan Heijmanslaan","operator":""}},{"type":"Feature","geometry":{"type":"Point","coordinates":[5.343025,51.698475]},"properties":{"category":"bus_halte","name":"Jan Heijmanslaan","operator":""}},{"type":"Feature","geometry":{"type":"Point","coordinates":[5.321967,51.700342]},"properties":{"category":"bus_halte","name":"Transferium","operator":""}},{"type":"Feature","geometry":{"type":"Point","coordinates":[5.323775,51.679052]},"properties":{"category":"bus_halte","name":"Chopinstraat/Provinciehuis","operator":""}},{"type":"Feature","geometry":{"type":"Point","coordinates":[5.284532,51.685608]},"properties":{"category":"bus_halte","name":"Onderwijsboulevard","operator":""}},{"type":"Feature","geometry":{"type":"Point","coordinates":[5.295115,51.689903]},"properties":{"category":"bus_halte","name":"Centraal Station","operator":""}},{"type":"Feature","geometry":{"type":"Point","coordinates":[5.311227,51.712054]},"properties":{"category":"bus_halte","name":"Klokkenlaan","operator":""}},{"type":"Feature","geometry":{"type":"Point","coordinates":[5.311331,51.712058]},"properties":{"category":"bus_halte","name":"Klokkenlaan","operator":""}},{"type":"Feature","geometry":{"type":"Point","coordinates":[5.304498,51.718448]},"properties":{"category":"bus_halte","name":"De Bokkelaren","operator":""}},{"type":"Feature","geometry":{"type":"Point","coordinates":[5.302353,51.715079]},"properties":{"category":"bus_halte","name":"Klokkendiep","operator":""}},{"type":"Feature","geometry":{"type":"Point","coordinates":[5.30226,51.715042]},"properties":{"category":"bus_halte","name":"Klokkendiep","operator":""}},{"type":"Feature","geometry":{"type":"Point","coordinates":[5.301988,51.717558]},"properties":{"category":"bus_halte","name":"De Baken","operator":""}},{"type":"Feature","geometry":{"type":"Point","coordinates":[5.299307,51.716299]},"properties":{"category":"bus_halte","name":"Saxofoon","operator":""}},{"type":"Feature","geometry":{"type":"Point","coordinates":[5.299785,51.7165]},"properties":{"category":"bus_halte","name":"Saxofoon","operator":""}},{"type":"Feature","geometry":{"type":"Point","coordinates":[5.265471,51.697998]},"properties":{"category":"bus_halte","name":"Kooikersweg","operator":""}},{"type":"Feature","geometry":{"type":"Point","coordinates":[5.3255,51.716463]},"properties":{"category":"bus_halte","name":"Ploossche Hof","operator":""}},{"type":"Feature","geometry":{"type":"Point","coordinates":[5.325428,51.71652]},"properties":{"category":"bus_halte","name":"Ploossche Hof","operator":""}},{"type":"Feature","geometry":{"type":"Point","coordinates":[5.328717,51.716488]},"properties":{"category":"bus_halte","name":"Vierde Reit","operator":""}},{"type":"Feature","geometry":{"type":"Point","coordinates":[5.328725,51.716582]},"properties":{"category":"bus_halte","name":"Vierde Reit","operator":""}},{"type":"Feature","geometry":{"type":"Point","coordinates":[5.272631,51.691783]},"properties":{"category":"bus_halte","name":"Boschmeersingel","operator":""}},{"type":"Feature","geometry":{"type":"Point","coordinates":[5.321519,51.727795]},"properties":{"category":"bus_halte","name":"Haagstraat","operator":""}},{"type":"Feature","geometry":{"type":"Point","coordinates":[5.33303,51.735442]},"properties":{"category":"bus_halte","name":"Berenklauw","operator":""}},{"type":"Feature","geometry":{"type":"Point","coordinates":[5.322991,51.735878]},"properties":{"category":"bus_halte","name":"Tarweakker","operator":""}},{"type":"Feature","geometry":{"type":"Point","coordinates":[5.316722,51.733602]},"properties":{"category":"bus_halte","name":"Meerwijkweg","operator":""}},{"type":"Feature","geometry":{"type":"Point","coordinates":[5.318556,51.705852]},"properties":{"category":"bus_halte","name":"Buitenpepers","operator":""}},{"type":"Feature","geometry":{"type":"Point","coordinates":[5.318179,51.705871]},"properties":{"category":"bus_halte","name":"Buitenpepers","operator":""}},{"type":"Feature","geometry":{"type":"Point","coordinates":[5.303701,51.691117]},"properties":{"category":"bus_halte","name":"Burgemeester Loeffplein","operator":""}},{"type":"Feature","geometry":{"type":"Point","coordinates":[5.327856,51.696248]},"properties":{"category":"bus_halte","name":"Pater van den Elsenstraat","operator":""}},{"type":"Feature","geometry":{"type":"Point","coordinates":[5.332834,51.696344]},"properties":{"category":"bus_halte","name":"van Broeckhovenlaan","operator":""}},{"type":"Feature","geometry":{"type":"Point","coordinates":[5.317427,51.679564]},"properties":{"category":"bus_halte","name":"Sweelinckplein","operator":""}},{"type":"Feature","geometry":{"type":"Point","coordinates":[5.309998,51.710318]},"properties":{"category":"bus_halte","name":"Sint Teunislaan","operator":""}},{"type":"Feature","geometry":{"type":"Point","coordinates":[5.315704,51.689826]},"properties":{"category":"bus_halte","name":"Hinthamereinde","operator":""}},{"type":"Feature","geometry":{"type":"Point","coordinates":[5.313802,51.70646]},"properties":{"category":"bus_halte","name":"Schanswetering","operator":""}},{"type":"Feature","geometry":{"type":"Point","coordinates":[5.313659,51.706464]},"properties":{"category":"bus_halte","name":"Schanswetering","operator":""}},{"type":"Feature","geometry":{"type":"Point","coordinates":[5.312984,51.702335]},"properties":{"category":"bus_halte","name":"Wethouder Schuurmanslaan","operator":""}},{"type":"Feature","geometry":{"type":"Point","coordinates":[5.312847,51.702341]},"properties":{"category":"bus_halte","name":"Wethouder Schuurmanslaan","operator":""}},{"type":"Feature","geometry":{"type":"Point","coordinates":[5.2701,51.685062]},"properties":{"category":"bus_halte","name":"P+R Deutersestraat","operator":""}},{"type":"Feature","geometry":{"type":"Point","coordinates":[5.248763,51.72929]},"properties":{"category":"bus_halte","name":"Lelienhuyze","operator":""}},{"type":"Feature","geometry":{"type":"Point","coordinates":[5.263159,51.712145]},"properties":{"category":"bus_halte","name":"De Beverspijken","operator":""}},{"type":"Feature","geometry":{"type":"Point","coordinates":[5.26309,51.712206]},"properties":{"category":"bus_halte","name":"De Beverspijken","operator":""}},{"type":"Feature","geometry":{"type":"Point","coordinates":[5.265879,51.720885]},"properties":{"category":"bus_halte","name":"Kraanvogellaan","operator":""}},{"type":"Feature","geometry":{"type":"Point","coordinates":[5.265865,51.720807]},"properties":{"category":"bus_halte","name":"Kraanvogellaan","operator":""}},{"type":"Feature","geometry":{"type":"Point","coordinates":[5.253369,51.727477]},"properties":{"category":"bus_halte","name":"Haverleij","operator":""}},{"type":"Feature","geometry":{"type":"Point","coordinates":[5.253317,51.727381]},"properties":{"category":"bus_halte","name":"Haverleij","operator":""}},{"type":"Feature","geometry":{"type":"Point","coordinates":[5.28531,51.727787]},"properties":{"category":"bus_halte","name":"Klipperstraat","operator":""}},{"type":"Feature","geometry":{"type":"Point","coordinates":[5.285211,51.727755]},"properties":{"category":"bus_halte","name":"Klipperstraat","operator":""}},{"type":"Feature","geometry":{"type":"Point","coordinates":[5.284575,51.730452]},"properties":{"category":"bus_halte","name":"Maasvallei","operator":""}},{"type":"Feature","geometry":{"type":"Point","coordinates":[5.28445,51.73048]},"properties":{"category":"bus_halte","name":"Maasvallei","operator":""}},{"type":"Feature","geometry":{"type":"Point","coordinates":[5.283486,51.732944]},"properties":{"category":"bus_halte","name":"Sluisweg","operator":""}},{"type":"Feature","geometry":{"type":"Point","coordinates":[5.283373,51.732918]},"properties":{"category":"bus_halte","name":"Sluisweg","operator":""}},{"type":"Feature","geometry":{"type":"Point","coordinates":[5.305997,51.728802]},"properties":{"category":"bus_halte","name":"Fleringen","operator":""}},{"type":"Feature","geometry":{"type":"Point","coordinates":[5.305272,51.730709]},"properties":{"category":"bus_halte","name":"Bollenveld","operator":""}},{"type":"Feature","geometry":{"type":"Point","coordinates":[5.30498,51.731145]},"properties":{"category":"bus_halte","name":"Bollenveld","operator":""}},{"type":"Feature","geometry":{"type":"Point","coordinates":[5.298815,51.731015]},"properties":{"category":"bus_halte","name":"Marie Koenenlaan","operator":""}},{"type":"Feature","geometry":{"type":"Point","coordinates":[5.298692,51.731023]},"properties":{"category":"bus_halte","name":"Marie Koenenlaan","operator":""}},{"type":"Feature","geometry":{"type":"Point","coordinates":[5.23342,51.736983]},"properties":{"category":"bus_halte","name":"Kerk","operator":""}},{"type":"Feature","geometry":{"type":"Point","coordinates":[5.233434,51.736915]},"properties":{"category":"bus_halte","name":"Kerk","operator":""}},{"type":"Feature","geometry":{"type":"Point","coordinates":[5.298324,51.712103]},"properties":{"category":"bus_halte","name":"Hambakenweg","operator":""}},{"type":"Feature","geometry":{"type":"Point","coordinates":[5.34645,51.735243]},"properties":{"category":"bus_halte","name":"Lunersingel","operator":""}},{"type":"Feature","geometry":{"type":"Point","coordinates":[5.346412,51.735481]},"properties":{"category":"bus_halte","name":"Lunersingel","operator":""}},{"type":"Feature","geometry":{"type":"Point","coordinates":[5.353438,51.735945]},"properties":{"category":"bus_halte","name":"Meander","operator":""}},{"type":"Feature","geometry":{"type":"Point","coordinates":[5.353634,51.736064]},"properties":{"category":"bus_halte","name":"Meander","operator":""}},{"type":"Feature","geometry":{"type":"Point","coordinates":[5.297249,51.71519]},"properties":{"category":"bus_halte","name":"Hambakenwetering","operator":""}},{"type":"Feature","geometry":{"type":"Point","coordinates":[5.296842,51.715128]},"properties":{"category":"bus_halte","name":"Hambakenwetering","operator":""}},{"type":"Feature","geometry":{"type":"Point","coordinates":[5.466708,51.725928]},"properties":{"category":"bus_halte","name":"Hanenberg","operator":""}},{"type":"Feature","geometry":{"type":"Point","coordinates":[5.467486,51.725859]},"properties":{"category":"bus_halte","name":"Hanenberg","operator":""}},{"type":"Feature","geometry":{"type":"Point","coordinates":[5.299052,51.72846]},"properties":{"category":"bus_halte","name":"Thorbeckeplantsoen","operator":""}},{"type":"Feature","geometry":{"type":"Point","coordinates":[5.369582,51.71594]},"properties":{"category":"bus_halte","name":"Station","operator":""}},{"type":"Feature","geometry":{"type":"Point","coordinates":[5.369814,51.716011]},"properties":{"category":"bus_halte","name":"Station","operator":""}},{"type":"Feature","geometry":{"type":"Point","coordinates":[5.362909,51.684105]},"properties":{"category":"bus_halte","name":"De Steenbok","operator":""}},{"type":"Feature","geometry":{"type":"Point","coordinates":[5.362189,51.684197]},"properties":{"category":"bus_halte","name":"De Steenbok","operator":""}},{"type":"Feature","geometry":{"type":"Point","coordinates":[5.35854,51.687059]},"properties":{"category":"bus_halte","name":"Het Sterrenbeeld","operator":""}},{"type":"Feature","geometry":{"type":"Point","coordinates":[5.358247,51.686813]},"properties":{"category":"bus_halte","name":"Het Sterrenbeeld","operator":""}},{"type":"Feature","geometry":{"type":"Point","coordinates":[5.239552,51.735515]},"properties":{"category":"bus_halte","name":"Bokhovense Maasdijk","operator":""}},{"type":"Feature","geometry":{"type":"Point","coordinates":[5.402849,51.720638]},"properties":{"category":"bus_halte","name":"Binckhorst","operator":""}},{"type":"Feature","geometry":{"type":"Point","coordinates":[5.402558,51.720501]},"properties":{"category":"bus_halte","name":"Binckhorst","operator":""}},{"type":"Feature","geometry":{"type":"Point","coordinates":[5.36664,51.720646]},"properties":{"category":"bus_halte","name":"Schoolstraat","operator":""}},{"type":"Feature","geometry":{"type":"Point","coordinates":[5.36633,51.720412]},"properties":{"category":"bus_halte","name":"Schoolstraat","operator":""}},{"type":"Feature","geometry":{"type":"Point","coordinates":[5.375078,51.717528]},"properties":{"category":"bus_halte","name":"Hoff van Hollantlaan","operator":""}},{"type":"Feature","geometry":{"type":"Point","coordinates":[5.374499,51.717915]},"properties":{"category":"bus_halte","name":"Hoff van Hollantlaan","operator":""}},{"type":"Feature","geometry":{"type":"Point","coordinates":[5.316359,51.724055]},"properties":{"category":"bus_halte","name":"Burgemeester Godschalxstraat","operator":""}},{"type":"Feature","geometry":{"type":"Point","coordinates":[5.316239,51.724087]},"properties":{"category":"bus_halte","name":"Burgemeester Godschalxstraat","operator":""}},{"type":"Feature","geometry":{"type":"Point","coordinates":[5.346353,51.730735]},"properties":{"category":"bus_halte","name":"Blauwe Sluisweg","operator":""}},{"type":"Feature","geometry":{"type":"Point","coordinates":[5.346076,51.730612]},"properties":{"category":"bus_halte","name":"Blauwe Sluisweg","operator":""}},{"type":"Feature","geometry":{"type":"Point","coordinates":[5.28859,51.696416]},"properties":{"category":"bus_halte","name":"Oude Vlijmenseweg","operator":""}},{"type":"Feature","geometry":{"type":"Point","coordinates":[5.288311,51.696399]},"properties":{"category":"bus_halte","name":"Oude Vlijmenseweg","operator":""}},{"type":"Feature","geometry":{"type":"Point","coordinates":[5.286609,51.684773]},"properties":{"category":"bus_halte","name":"Onderwijsboulevard","operator":""}},{"type":"Feature","geometry":{"type":"Point","coordinates":[5.345681,51.722265]},"properties":{"category":"bus_halte","name":"Groote Vlietlaan","operator":""}},{"type":"Feature","geometry":{"type":"Point","coordinates":[5.284712,51.684894]},"properties":{"category":"bus_halte","name":"Onderwijsboulevard","operator":""}},{"type":"Feature","geometry":{"type":"Point","coordinates":[5.462079,51.705418]},"properties":{"category":"bus_halte","name":"Kerk","operator":""}},{"type":"Feature","geometry":{"type":"Point","coordinates":[5.259617,51.7011]},"properties":{"category":"bus_halte","name":"Kruiskampsingel","operator":""}},{"type":"Feature","geometry":{"type":"Point","coordinates":[5.3962,51.727884]},"properties":{"category":"bus_halte","name":"Friezenstraat","operator":""}},{"type":"Feature","geometry":{"type":"Point","coordinates":[5.396533,51.727346]},"properties":{"category":"bus_halte","name":"Friezenstraat","operator":""}},{"type":"Feature","geometry":{"type":"Point","coordinates":[5.268644,51.696391]},"properties":{"category":"bus_halte","name":"Helftheuvelpassage","operator":""}},{"type":"Feature","geometry":{"type":"Point","coordinates":[5.380271,51.715801]},"properties":{"category":"bus_halte","name":"Burg. Molenaarhoeven","operator":""}},{"type":"Feature","geometry":{"type":"Point","coordinates":[5.371263,51.735494]},"properties":{"category":"bus_halte","name":"De Groote Rede","operator":""}},{"type":"Feature","geometry":{"type":"Point","coordinates":[5.251977,51.72037]},"properties":{"category":"bus_halte","name":"Zwaenenstede","operator":""}},{"type":"Feature","geometry":{"type":"Point","coordinates":[5.293401,51.710982]},"properties":{"category":"bus_halte","name":"Engelsedijk","operator":""}},{"type":"Feature","geometry":{"type":"Point","coordinates":[5.346265,51.748539]},"properties":{"category":"bus_halte","name":"Gewande","operator":""}},{"type":"Feature","geometry":{"type":"Point","coordinates":[5.355888,51.71622]},"properties":{"category":"bus_halte","name":"Azaleastraat","operator":""}},{"type":"Feature","geometry":{"type":"Point","coordinates":[5.386131,51.706049]},"properties":{"category":"bus_halte","name":"Lindenlaan","operator":""}},{"type":"Feature","geometry":{"type":"Point","coordinates":[5.369582,51.715152]},"properties":{"category":"ov_knooppunt","name":"Rosmalen","operator":""}},{"type":"Feature","geometry":{"type":"Point","coordinates":[5.293709,51.690516]},"properties":{"category":"ov_knooppunt","name":"'s-Hertogenbosch","operator":""}},{"type":"Feature","geometry":{"type":"Point","coordinates":[5.319116,51.700554]},"properties":{"category":"ov_knooppunt","name":"'s-Hertogenbosch Oost","operator":""}},{"type":"Feature","geometry":{"type":"Point","coordinates":[5.2948,51.689954]},"properties":{"category":"ov_knooppunt","name":"Centraal Station","operator":""}},{"type":"Feature","geometry":{"type":"Point","coordinates":[5.303101,51.688443]},"properties":{"category":"gemeentehuis","name":"Stadhuis 's-Hertogenbosch","operator":"Gemeente 's-Hertogenbosch"}},{"type":"Feature","geometry":{"type":"Point","coordinates":[5.302946,51.687077]},"properties":{"category":"gemeentehuis","name":"Stadskantoor 's-Hertogenbosch","operator":"Gemeente 's-Hertogenbosch"}},{"type":"Feature","geometry":{"type":"Point","coordinates":[5.303449,51.68787]},"properties":{"category":"gemeentehuis","name":"Bestuurscentrum","operator":"Gemeente 's-Hertogenbosch"}},{"type":"Feature","geometry":{"type":"Point","coordinates":[5.318367,51.690925]},"properties":{"category":"inzamelpunt","name":"","operator":""}},{"type":"Feature","geometry":{"type":"Point","coordinates":[5.287355,51.718875]},"properties":{"category":"inzamelpunt","name":"Milieustation Treurenburg","operator":"Gemeente s'-Hertogenbosch"}},{"type":"Feature","geometry":{"type":"Point","coordinates":[5.397423,51.72847]},"properties":{"category":"inzamelpunt","name":"Milieustation Rosmalen","operator":""}},{"type":"Feature","geometry":{"type":"Point","coordinates":[5.307967,51.688876]},"properties":{"category":"bibliotheek","name":"Huis73","operator":"Huis73"}},{"type":"Feature","geometry":{"type":"Point","coordinates":[5.266036,51.694948]},"properties":{"category":"bibliotheek","name":"DigiTAALpunt West","operator":"Huis73"}},{"type":"Feature","geometry":{"type":"Point","coordinates":[5.370488,51.716049]},"properties":{"category":"bibliotheek","name":"Bibliotheek Rosmalen","operator":"Huis73"}},{"type":"Feature","geometry":{"type":"Point","coordinates":[5.302121,51.715926]},"properties":{"category":"bibliotheek","name":"DigiTAALpunt Noord","operator":"Huis73"}},{"type":"Feature","geometry":{"type":"Point","coordinates":[5.370334,51.713645]},"properties":{"category":"ziekenhuis","name":"Polikliniek Jeroen Bosch Ziekenhuis","operator":""}},{"type":"Feature","geometry":{"type":"Point","coordinates":[5.276114,51.685133]},"properties":{"category":"ziekenhuis","name":"Jeroen Bosch Ziekenhuis","operator":""}},{"type":"Feature","geometry":{"type":"Point","coordinates":[5.298794,51.709099]},"properties":{"category":"transformatorhuisje","name":"","operator":""}},{"type":"Feature","geometry":{"type":"Point","coordinates":[5.298801,51.709298]},"properties":{"category":"transformatorhuisje","name":"","operator":""}},{"type":"Feature","geometry":{"type":"Point","coordinates":[5.298787,51.709508]},"properties":{"category":"transformatorhuisje","name":"","operator":""}},{"type":"Feature","geometry":{"type":"Point","coordinates":[5.274263,51.712525]},"properties":{"category":"transformatorhuisje","name":"","operator":""}},{"type":"Feature","geometry":{"type":"Point","coordinates":[5.274197,51.712629]},"properties":{"category":"transformatorhuisje","name":"","operator":""}},{"type":"Feature","geometry":{"type":"Point","coordinates":[5.298791,51.70941]},"properties":{"category":"transformatorhuisje","name":"","operator":""}},{"type":"Feature","geometry":{"type":"Point","coordinates":[5.29854,51.688204]},"properties":{"category":"universiteit","name":"Jheronimus Academy of Data Science","operator":""}},{"type":"Feature","geometry":{"type":"Point","coordinates":[5.294138,51.689347]},"properties":{"category":"universiteit","name":"Avans Hogeschool","operator":""}},{"type":"Feature","geometry":{"type":"Point","coordinates":[5.311457,51.704842]},"properties":{"category":"universiteit","name":"Fontys Hogeschool","operator":""}},{"type":"Feature","geometry":{"type":"Point","coordinates":[5.285025,51.686734]},"properties":{"category":"universiteit","name":"HAS green academy","operator":""}},{"type":"Feature","geometry":{"type":"Point","coordinates":[5.298131,51.692105]},"properties":{"category":"universiteit","name":"Volksuniversiteit","operator":""}},{"type":"Feature","geometry":{"type":"Point","coordinates":[5.322287,51.701914]},"properties":{"category":"universiteit","name":"Avans Hogeschool","operator":""}},{"type":"Feature","geometry":{"type":"Point","coordinates":[5.286147,51.68836]},"properties":{"category":"universiteit","name":"Avans Hogeschool","operator":""}},{"type":"Feature","geometry":{"type":"Point","coordinates":[5.293352,51.694013]},"properties":{"category":"hogeschool","name":"Avans","operator":""}},{"type":"Feature","geometry":{"type":"Point","coordinates":[5.285838,51.68393]},"properties":{"category":"hogeschool","name":"Koning Willem I College","operator":""}},{"type":"Feature","geometry":{"type":"Point","coordinates":[5.289227,51.690543]},"properties":{"category":"hogeschool","name":"Stedelijk Gymnasium","operator":"Onderwijsstichting Zelfstandige Gymnasia (OSZG)"}},{"type":"Feature","geometry":{"type":"Point","coordinates":[5.286041,51.690532]},"properties":{"category":"hogeschool","name":"Koning Willem I College","operator":""}},{"type":"Feature","geometry":{"type":"Point","coordinates":[5.274428,51.687634]},"properties":{"category":"hogeschool","name":"Koning Willem I College","operator":""}},{"type":"Feature","geometry":{"type":"Point","coordinates":[5.28313,51.6862]},"properties":{"category":"hogeschool","name":"Yuverta mbo","operator":"Yuverta"}},{"type":"Feature","geometry":{"type":"Point","coordinates":[5.323705,51.702144]},"properties":{"category":"middelbare_school","name":"Dieze College","operator":"Koraal Onderwijs"}},{"type":"Feature","geometry":{"type":"Point","coordinates":[5.323032,51.702496]},"properties":{"category":"middelbare_school","name":"De Bossche Vakschool","operator":"Ons Middelbaar Onderwijs"}},{"type":"Feature","geometry":{"type":"Point","coordinates":[5.3172,51.678348]},"properties":{"category":"middelbare_school","name":"Sint-Janslyceum","operator":"Ons Middelbaar Onderwijs"}},{"type":"Feature","geometry":{"type":"Point","coordinates":[5.324774,51.702661]},"properties":{"category":"middelbare_school","name":"Yuverta vmbo","operator":"Yuverta"}},{"type":"Feature","geometry":{"type":"Point","coordinates":[5.318007,51.699891]},"properties":{"category":"middelbare_school","name":"Pierson College","operator":""}},{"type":"Feature","geometry":{"type":"Point","coordinates":[5.351897,51.725264]},"properties":{"category":"middelbare_school","name":"Rodenborch-College","operator":"Ons Middelbaar Onderwijs"}},{"type":"Feature","geometry":{"type":"Point","coordinates":[5.287279,51.691483]},"properties":{"category":"middelbare_school","name":"Van Maerlant","operator":"Ons Middelbaar Onderwijs"}},{"type":"Feature","geometry":{"type":"Point","coordinates":[5.364497,51.729425]},"properties":{"category":"sportveld","name":"v.v. OJC Rosmalen","operator":""}},{"type":"Feature","geometry":{"type":"Point","coordinates":[5.332587,51.702783]},"properties":{"category":"sportveld","name":"BVV Den Bosch","operator":""}},{"type":"Feature","geometry":{"type":"Point","coordinates":[5.354686,51.725872]},"properties":{"category":"sportveld","name":"Sportpark De Groote Wielen","operator":""}},{"type":"Feature","geometry":{"type":"Point","coordinates":[5.337528,51.704617]},"properties":{"category":"sportveld","name":"Bastion Baselaar Tennis & Padel","operator":""}},{"type":"Feature","geometry":{"type":"Point","coordinates":[5.397787,51.705628]},"properties":{"category":"sportveld","name":"rkvv Maliskamp","operator":""}},{"type":"Feature","geometry":{"type":"Point","coordinates":[5.396282,51.706615]},"properties":{"category":"sportveld","name":"MHC Rosmalen","operator":""}},{"type":"Feature","geometry":{"type":"Point","coordinates":[5.395227,51.704743]},"properties":{"category":"sportveld","name":"TPC Maliskamp","operator":"Tennis- en Padelclub Maliskamp"}},{"type":"Feature","geometry":{"type":"Point","coordinates":[5.327325,51.7271]},"properties":{"category":"sportveld","name":"TV Asmunt","operator":""}},{"type":"Feature","geometry":{"type":"Point","coordinates":[5.471651,51.70688]},"properties":{"category":"sportveld","name":"Sportpark De Zwaan","operator":""}},{"type":"Feature","geometry":{"type":"Point","coordinates":[5.393433,51.729809]},"properties":{"category":"sportveld","name":"Sportpark Eikenhage","operator":""}},{"type":"Feature","geometry":{"type":"Point","coordinates":[5.367725,51.712466]},"properties":{"category":"sportveld","name":"Kwekkelstijn","operator":""}},{"type":"Feature","geometry":{"type":"Point","coordinates":[5.272286,51.697047]},"properties":{"category":"sportveld","name":"TPV De Schutskamp","operator":""}},{"type":"Feature","geometry":{"type":"Point","coordinates":[5.347593,51.689866]},"properties":{"category":"sportveld","name":"Hockeyclub 's-Hertogenbosch","operator":""}},{"type":"Feature","geometry":{"type":"Point","coordinates":[5.345339,51.686517]},"properties":{"category":"sportveld","name":"Tennisvereniging Oosterplas","operator":""}},{"type":"Feature","geometry":{"type":"Point","coordinates":[5.329816,51.701636]},"properties":{"category":"sportveld","name":"Stadion De Vliert","operator":"FC Den Bosch"}},{"type":"Feature","geometry":{"type":"Point","coordinates":[5.335401,51.729371]},"properties":{"category":"sportveld","name":"r.k.v.v. Emplina","operator":""}},{"type":"Feature","geometry":{"type":"Point","coordinates":[5.326727,51.700433]},"properties":{"category":"sportveld","name":"Sportiom","operator":""}},{"type":"Feature","geometry":{"type":"Point","coordinates":[5.338673,51.69906]},"properties":{"category":"sportveld","name":"Handboog Vereniging Nimrod","operator":""}},{"type":"Feature","geometry":{"type":"Point","coordinates":[5.371623,51.731874]},"properties":{"category":"sportveld","name":"Manege de Groote Wielen","operator":""}},{"type":"Feature","geometry":{"type":"Point","coordinates":[5.368043,51.712877]},"properties":{"category":"sportveld","name":"De Vrolijke Schutters","operator":""}},{"type":"Feature","geometry":{"type":"Point","coordinates":[5.373137,51.71539]},"properties":{"category":"sportveld","name":"De Hazelaar","operator":""}},{"type":"Feature","geometry":{"type":"Point","coordinates":[5.287506,51.726751]},"properties":{"category":"sportveld","name":"","operator":""}},{"type":"Feature","geometry":{"type":"Point","coordinates":[5.316432,51.722052]},"properties":{"category":"sportveld","name":"Flik-Flak","operator":""}},{"type":"Feature","geometry":{"type":"Point","coordinates":[5.315545,51.722362]},"properties":{"category":"sportveld","name":"Maaspoort Sports & Events","operator":""}},{"type":"Feature","geometry":{"type":"Point","coordinates":[5.339182,51.677464]},"properties":{"category":"sportveld","name":"SV BLC","operator":""}},{"type":"Feature","geometry":{"type":"Point","coordinates":[5.303011,51.709164]},"properties":{"category":"sportveld","name":"Sportpark De Hambaken","operator":""}},{"type":"Feature","geometry":{"type":"Point","coordinates":[5.354186,51.68145]},"properties":{"category":"sportveld","name":"MC Lidu","operator":""}},{"type":"Feature","geometry":{"type":"Point","coordinates":[5.465372,51.704225]},"properties":{"category":"sportveld","name":"T.V. Vinkel","operator":""}},{"type":"Feature","geometry":{"type":"Point","coordinates":[5.313651,51.729427]},"properties":{"category":"sportveld","name":"RKVV Wilhelmina","operator":""}},{"type":"Feature","geometry":{"type":"Point","coordinates":[5.274223,51.696186]},"properties":{"category":"sportveld","name":"O.S.S. - VOLO","operator":""}},{"type":"Feature","geometry":{"type":"Point","coordinates":[5.276968,51.694991]},"properties":{"category":"sportveld","name":"sv CHC","operator":""}},{"type":"Feature","geometry":{"type":"Point","coordinates":[5.317947,51.68548]},"properties":{"category":"sportveld","name":"BTC de Pettelaer","operator":""}},{"type":"Feature","geometry":{"type":"Point","coordinates":[5.316203,51.686132]},"properties":{"category":"sportveld","name":"Rugby The Dukes","operator":""}},{"type":"Feature","geometry":{"type":"Point","coordinates":[5.431475,51.724147]},"properties":{"category":"sportveld","name":"Sportpark Duys en Dael","operator":""}},{"type":"Feature","geometry":{"type":"Point","coordinates":[5.394074,51.706476]},"properties":{"category":"sportveld","name":"MHC Rosmalen","operator":""}},{"type":"Feature","geometry":{"type":"Point","coordinates":[5.317569,51.72335]},"properties":{"category":"sportveld","name":"","operator":""}},{"type":"Feature","geometry":{"type":"Point","coordinates":[5.362337,51.72827]},"properties":{"category":"sportveld","name":"Sportpark De Groote Wielen","operator":""}},{"type":"Feature","geometry":{"type":"Point","coordinates":[5.307417,51.726508]},"properties":{"category":"winkelcentrum","name":"Winkelcentrum Maaspoort","operator":""}},{"type":"Feature","geometry":{"type":"Point","coordinates":[5.33643,51.710313]},"properties":{"category":"winkelcentrum","name":"De Bossche WoonBoulevard","operator":""}},{"type":"Feature","geometry":{"type":"Point","coordinates":[5.295167,51.690528]},"properties":{"category":"fietsenstalling","name":"Station's-Hertogenbosch","operator":""}},{"type":"Feature","geometry":{"type":"Point","coordinates":[5.306418,51.687908]},"properties":{"category":"fietsenstalling","name":"Fietsenstalling Kerkstraat","operator":""}},{"type":"Feature","geometry":{"type":"Point","coordinates":[5.30334,51.686592]},"properties":{"category":"fietsenstalling","name":"Fietsenstalling Wolvenhoek","operator":""}},{"type":"Feature","geometry":{"type":"Point","coordinates":[5.300388,51.69753]},"properties":{"category":"fietsenstalling","name":"","operator":""}},{"type":"Feature","geometry":{"type":"Point","coordinates":[5.28357,51.697422]},"properties":{"category":"fietsenstalling","name":"","operator":""}},{"type":"Feature","geometry":{"type":"Point","coordinates":[5.287472,51.701875]},"properties":{"category":"fietsenstalling","name":"","operator":""}},{"type":"Feature","geometry":{"type":"Point","coordinates":[5.305442,51.691099]},"properties":{"category":"fietsenstalling","name":"Fietsenstalling Gasthuiskwartier","operator":""}},{"type":"Feature","geometry":{"type":"Point","coordinates":[5.301682,51.696816]},"properties":{"category":"fietsenstalling","name":"","operator":""}},{"type":"Feature","geometry":{"type":"Point","coordinates":[5.318619,51.700699]},"properties":{"category":"fietsenstalling","name":"","operator":""}},{"type":"Feature","geometry":{"type":"Point","coordinates":[5.319158,51.700869]},"properties":{"category":"fietsenstalling","name":"","operator":""}},{"type":"Feature","geometry":{"type":"Point","coordinates":[5.369468,51.714965]},"properties":{"category":"fietsenstalling","name":"","operator":""}},{"type":"Feature","geometry":{"type":"Point","coordinates":[5.369435,51.715585]},"properties":{"category":"fietsenstalling","name":"","operator":""}},{"type":"Feature","geometry":{"type":"Point","coordinates":[5.33515,51.676676]},"properties":{"category":"fietsenstalling","name":"","operator":""}},{"type":"Feature","geometry":{"type":"Point","coordinates":[5.369787,51.715032]},"properties":{"category":"fietsenstalling","name":"","operator":""}},{"type":"Feature","geometry":{"type":"Point","coordinates":[5.31822,51.700689]},"properties":{"category":"fietsenstalling","name":"","operator":""}},{"type":"Feature","geometry":{"type":"Point","coordinates":[5.29273,51.690928]},"properties":{"category":"fietsenstalling","name":"","operator":""}},{"type":"Feature","geometry":{"type":"Point","coordinates":[5.365457,51.728804]},"properties":{"category":"fietsenstalling","name":"","operator":""}},{"type":"Feature","geometry":{"type":"Point","coordinates":[5.2851,51.687132]},"properties":{"category":"fietsenstalling","name":"","operator":""}},{"type":"Feature","geometry":{"type":"Point","coordinates":[5.28682,51.690277]},"properties":{"category":"fietsenstalling","name":"","operator":""}},{"type":"Feature","geometry":{"type":"Point","coordinates":[5.285788,51.701747]},"properties":{"category":"fietsenstalling","name":"","operator":""}},{"type":"Feature","geometry":{"type":"Point","coordinates":[5.285306,51.701987]},"properties":{"category":"fietsenstalling","name":"","operator":""}},{"type":"Feature","geometry":{"type":"Point","coordinates":[5.293336,51.699066]},"properties":{"category":"fietsenstalling","name":"","operator":""}},{"type":"Feature","geometry":{"type":"Point","coordinates":[5.290634,51.698486]},"properties":{"category":"fietsenstalling","name":"","operator":""}},{"type":"Feature","geometry":{"type":"Point","coordinates":[5.290811,51.690271]},"properties":{"category":"parkeergarage","name":"","operator":""}},{"type":"Feature","geometry":{"type":"Point","coordinates":[5.340166,51.697638]},"properties":{"category":"parkeergarage","name":"","operator":""}},{"type":"Feature","geometry":{"type":"Point","coordinates":[5.30846,51.689442]},"properties":{"category":"parkeergarage","name":"","operator":""}},{"type":"Feature","geometry":{"type":"Point","coordinates":[5.341455,51.696945]},"properties":{"category":"parkeergarage","name":"","operator":""}},{"type":"Feature","geometry":{"type":"Point","coordinates":[5.363521,51.717225]},"properties":{"category":"parkeergarage","name":"","operator":""}},{"type":"Feature","geometry":{"type":"Point","coordinates":[5.364282,51.717493]},"properties":{"category":"parkeergarage","name":"","operator":""}},{"type":"Feature","geometry":{"type":"Point","coordinates":[5.305748,51.708115]},"properties":{"category":"parkeergarage","name":"","operator":""}},{"type":"Feature","geometry":{"type":"Point","coordinates":[5.303466,51.686763]},"properties":{"category":"parkeergarage","name":"","operator":""}},{"type":"Feature","geometry":{"type":"Point","coordinates":[5.314276,51.685324]},"properties":{"category":"parkeergarage","name":"parkeergarage St Jan","operator":""}},{"type":"Feature","geometry":{"type":"Point","coordinates":[5.288282,51.687698]},"properties":{"category":"parkeergarage","name":"","operator":""}},{"type":"Feature","geometry":{"type":"Point","coordinates":[5.292102,51.685764]},"properties":{"category":"parkeergarage","name":"","operator":""}},{"type":"Feature","geometry":{"type":"Point","coordinates":[5.293108,51.687236]},"properties":{"category":"parkeergarage","name":"P+R Station","operator":"Q-Park"}},{"type":"Feature","geometry":{"type":"Point","coordinates":[5.295119,51.690166]},"properties":{"category":"parkeergarage","name":"Stationsplein","operator":""}},{"type":"Feature","geometry":{"type":"Point","coordinates":[5.306735,51.72694]},"properties":{"category":"parkeergarage","name":"","operator":""}},{"type":"Feature","geometry":{"type":"Point","coordinates":[5.278434,51.6854]},"properties":{"category":"parkeergarage","name":"Parkeergarage bezoekers","operator":""}},{"type":"Feature","geometry":{"type":"Point","coordinates":[5.347589,51.723536]},"properties":{"category":"parkeergarage","name":"","operator":""}},{"type":"Feature","geometry":{"type":"Point","coordinates":[5.31175,51.684194]},"properties":{"category":"parkeergarage","name":"","operator":""}},{"type":"Feature","geometry":{"type":"Point","coordinates":[5.310822,51.696089]},"properties":{"category":"parkeergarage","name":"","operator":""}},{"type":"Feature","geometry":{"type":"Point","coordinates":[5.312163,51.685043]},"properties":{"category":"parkeergarage","name":"Parkeergarage St.-Jan","operator":""}},{"type":"Feature","geometry":{"type":"Point","coordinates":[5.309619,51.687022]},"properties":{"category":"parkeergarage","name":"","operator":""}},{"type":"Feature","geometry":{"type":"Point","coordinates":[5.303789,51.686785]},"properties":{"category":"parkeergarage","name":"Wolvenhoek","operator":""}},{"type":"Feature","geometry":{"type":"Point","coordinates":[5.304558,51.690026]},"properties":{"category":"parkeergarage","name":"Q-Park Tolbrug","operator":"Q-Park"}},{"type":"Feature","geometry":{"type":"Point","coordinates":[5.304005,51.691426]},"properties":{"category":"parkeergarage","name":"","operator":"Q-Park"}},{"type":"Feature","geometry":{"type":"Point","coordinates":[5.292416,51.691045]},"properties":{"category":"parkeergarage","name":"","operator":""}},{"type":"Feature","geometry":{"type":"Point","coordinates":[5.289129,51.684001]},"properties":{"category":"parkeergarage","name":"","operator":""}},{"type":"Feature","geometry":{"type":"Point","coordinates":[5.28937,51.686495]},"properties":{"category":"parkeergarage","name":"","operator":""}},{"type":"Feature","geometry":{"type":"Point","coordinates":[5.290107,51.688312]},"properties":{"category":"parkeergarage","name":"","operator":""}},{"type":"Feature","geometry":{"type":"Point","coordinates":[5.289849,51.687696]},"properties":{"category":"parkeergarage","name":"","operator":""}},{"type":"Feature","geometry":{"type":"Point","coordinates":[5.290348,51.688933]},"properties":{"category":"parkeergarage","name":"","operator":""}},{"type":"Feature","geometry":{"type":"Point","coordinates":[5.289282,51.687727]},"properties":{"category":"parkeergarage","name":"","operator":""}},{"type":"Feature","geometry":{"type":"Point","coordinates":[5.319878,51.69353]},"properties":{"category":"parkeergarage","name":"","operator":""}},{"type":"Feature","geometry":{"type":"Point","coordinates":[5.286652,51.686049]},"properties":{"category":"parkeergarage","name":"","operator":""}},{"type":"Feature","geometry":{"type":"Point","coordinates":[5.289973,51.685746]},"properties":{"category":"parkeergarage","name":"","operator":""}},{"type":"Feature","geometry":{"type":"Point","coordinates":[5.290588,51.686949]},"properties":{"category":"parkeergarage","name":"","operator":""}},{"type":"Feature","geometry":{"type":"Point","coordinates":[5.291385,51.688797]},"properties":{"category":"parkeergarage","name":"","operator":""}},{"type":"Feature","geometry":{"type":"Point","coordinates":[5.311316,51.692536]},"properties":{"category":"parkeergarage","name":"","operator":""}},{"type":"Feature","geometry":{"type":"Point","coordinates":[5.306251,51.686771]},"properties":{"category":"parkeergarage","name":"","operator":""}},{"type":"Feature","geometry":{"type":"Point","coordinates":[5.325606,51.678268]},"properties":{"category":"parkeergarage","name":"","operator":""}},{"type":"Feature","geometry":{"type":"Point","coordinates":[5.2896,51.687081]},"properties":{"category":"parkeergarage","name":"","operator":""}},{"type":"Feature","geometry":{"type":"Point","coordinates":[5.368376,51.714108]},"properties":{"category":"parkeergarage","name":"","operator":""}},{"type":"Feature","geometry":{"type":"Point","coordinates":[5.28838,51.684497]},"properties":{"category":"parkeergarage","name":"","operator":""}},{"type":"Feature","geometry":{"type":"Point","coordinates":[5.287447,51.685074]},"properties":{"category":"parkeergarage","name":"","operator":""}},{"type":"Feature","geometry":{"type":"Point","coordinates":[5.280094,51.684675]},"properties":{"category":"parkeergarage","name":"Willemspoort Zuid","operator":""}},{"type":"Feature","geometry":{"type":"Point","coordinates":[5.291849,51.684359]},"properties":{"category":"parkeergarage","name":"Bastion parkeergarage","operator":""}},{"type":"Feature","geometry":{"type":"Point","coordinates":[5.303683,51.684992]},"properties":{"category":"parkeergarage","name":"","operator":""}},{"type":"Feature","geometry":{"type":"Point","coordinates":[5.294997,51.690244]},"properties":{"category":"parkeergarage","name":"","operator":""}},{"type":"Feature","geometry":{"type":"Point","coordinates":[5.306054,51.691422]},"properties":{"category":"parkeergarage","name":"","operator":""}},{"type":"Feature","geometry":{"type":"Point","coordinates":[5.335796,51.678885]},"properties":{"category":"p_and_r","name":"Transferium Pettelaarpark","operator":"Gemeente 's-Hertogenbosch"}},{"type":"Feature","geometry":{"type":"Point","coordinates":[5.3553,51.737834]},"properties":{"category":"p_and_r","name":"Kiss & Ride","operator":""}},{"type":"Feature","geometry":{"type":"Point","coordinates":[5.354236,51.736469]},"properties":{"category":"p_and_r","name":"Kiss & Ride","operator":""}}]}