{"type":"FeatureCollection","metadata":{"gemeente":"Schiermonnikoog","slug":"schiermonnikoog","by_category":{"bus_halte":36,"fietsenstalling":3,"transformatorhuisje":2,"gemeentehuis":1,"bibliotheek":1,"middelbare_school":1},"total":44},"features":[{"type":"Feature","geometry":{"type":"Point","coordinates":[6.160991,53.477896]},"properties":{"category":"bus_halte","name":"Centrum","operator":""}},{"type":"Feature","geometry":{"type":"Point","coordinates":[6.161132,53.477922]},"properties":{"category":"bus_halte","name":"Centrum","operator":""}},{"type":"Feature","geometry":{"type":"Point","coordinates":[6.1603,53.481802]},"properties":{"category":"bus_halte","name":"Duinzicht","operator":""}},{"type":"Feature","geometry":{"type":"Point","coordinates":[6.16026,53.481668]},"properties":{"category":"bus_halte","name":"Duinzicht","operator":""}},{"type":"Feature","geometry":{"type":"Point","coordinates":[6.158014,53.484264]},"properties":{"category":"bus_halte","name":"Vita Maris/Camping","operator":""}},{"type":"Feature","geometry":{"type":"Point","coordinates":[6.157834,53.48424]},"properties":{"category":"bus_halte","name":"Vita Maris/Camping","operator":""}},{"type":"Feature","geometry":{"type":"Point","coordinates":[6.156166,53.485958]},"properties":{"category":"bus_halte","name":"It Aude Kolonyhûs","operator":""}},{"type":"Feature","geometry":{"type":"Point","coordinates":[6.155929,53.486333]},"properties":{"category":"bus_halte","name":"It Aude Kolonyhûs","operator":""}},{"type":"Feature","geometry":{"type":"Point","coordinates":[6.153053,53.488101]},"properties":{"category":"bus_halte","name":"Vuurtorenpad/Boszicht","operator":""}},{"type":"Feature","geometry":{"type":"Point","coordinates":[6.153409,53.487989]},"properties":{"category":"bus_halte","name":"Vuurtorenpad/Boszicht","operator":""}},{"type":"Feature","geometry":{"type":"Point","coordinates":[6.149877,53.489974]},"properties":{"category":"bus_halte","name":"Strandhotel","operator":""}},{"type":"Feature","geometry":{"type":"Point","coordinates":[6.187163,53.496672]},"properties":{"category":"bus_halte","name":"Badstrand","operator":""}},{"type":"Feature","geometry":{"type":"Point","coordinates":[6.201442,53.468693]},"properties":{"category":"bus_halte","name":"Veerdam","operator":""}},{"type":"Feature","geometry":{"type":"Point","coordinates":[6.154268,53.480601]},"properties":{"category":"bus_halte","name":"Colijnholte","operator":""}},{"type":"Feature","geometry":{"type":"Point","coordinates":[6.166436,53.477778]},"properties":{"category":"bus_halte","name":"Gasaustraat","operator":""}},{"type":"Feature","geometry":{"type":"Point","coordinates":[6.177823,53.476513]},"properties":{"category":"bus_halte","name":"Heereweg","operator":""}},{"type":"Feature","geometry":{"type":"Point","coordinates":[6.177286,53.476579]},"properties":{"category":"bus_halte","name":"Heereweg","operator":""}},{"type":"Feature","geometry":{"type":"Point","coordinates":[6.150067,53.479024]},"properties":{"category":"bus_halte","name":"Klein Zwitserland","operator":""}},{"type":"Feature","geometry":{"type":"Point","coordinates":[6.171216,53.480855]},"properties":{"category":"bus_halte","name":"Reddingsweg/Aisterbun","operator":""}},{"type":"Feature","geometry":{"type":"Point","coordinates":[6.171147,53.480929]},"properties":{"category":"bus_halte","name":"Reddingsweg/Aisterbun","operator":""}},{"type":"Feature","geometry":{"type":"Point","coordinates":[6.155916,53.478751]},"properties":{"category":"bus_halte","name":"Langestreek West","operator":""}},{"type":"Feature","geometry":{"type":"Point","coordinates":[6.15575,53.478803]},"properties":{"category":"bus_halte","name":"Langestreek West","operator":""}},{"type":"Feature","geometry":{"type":"Point","coordinates":[6.157254,53.478101]},"properties":{"category":"bus_halte","name":"Middenstreek","operator":""}},{"type":"Feature","geometry":{"type":"Point","coordinates":[6.157359,53.47818]},"properties":{"category":"bus_halte","name":"Middenstreek","operator":""}},{"type":"Feature","geometry":{"type":"Point","coordinates":[6.174538,53.479747]},"properties":{"category":"bus_halte","name":"de Monnik Noord","operator":""}},{"type":"Feature","geometry":{"type":"Point","coordinates":[6.177054,53.479414]},"properties":{"category":"bus_halte","name":"de Monnik Oost","operator":""}},{"type":"Feature","geometry":{"type":"Point","coordinates":[6.172059,53.479579]},"properties":{"category":"bus_halte","name":"de Monnik West","operator":""}},{"type":"Feature","geometry":{"type":"Point","coordinates":[6.174973,53.478768]},"properties":{"category":"bus_halte","name":"de Monnik Zuid","operator":""}},{"type":"Feature","geometry":{"type":"Point","coordinates":[6.165499,53.47991]},"properties":{"category":"bus_halte","name":"Oosterreeweg","operator":""}},{"type":"Feature","geometry":{"type":"Point","coordinates":[6.165597,53.479996]},"properties":{"category":"bus_halte","name":"Oosterreeweg","operator":""}},{"type":"Feature","geometry":{"type":"Point","coordinates":[6.162688,53.479686]},"properties":{"category":"bus_halte","name":"Langestreek/Molendyk","operator":""}},{"type":"Feature","geometry":{"type":"Point","coordinates":[6.162554,53.479729]},"properties":{"category":"bus_halte","name":"Langestreek/Molendyk","operator":""}},{"type":"Feature","geometry":{"type":"Point","coordinates":[6.156816,53.481806]},"properties":{"category":"bus_halte","name":"Torenvlakte","operator":""}},{"type":"Feature","geometry":{"type":"Point","coordinates":[6.15916,53.479056]},"properties":{"category":"bus_halte","name":"Langestreek/Torenstreek","operator":""}},{"type":"Feature","geometry":{"type":"Point","coordinates":[6.158962,53.479098]},"properties":{"category":"bus_halte","name":"Langestreek/Torenstreek","operator":""}},{"type":"Feature","geometry":{"type":"Point","coordinates":[6.151743,53.480433]},"properties":{"category":"bus_halte","name":"Zwarteduinenweg","operator":""}},{"type":"Feature","geometry":{"type":"Point","coordinates":[6.161582,53.478991]},"properties":{"category":"gemeentehuis","name":"Gemeentehuis Schiermonnikoog","operator":"Gemeente Schiermonnikoog"}},{"type":"Feature","geometry":{"type":"Point","coordinates":[6.159427,53.480285]},"properties":{"category":"bibliotheek","name":"Bibliotheek Schiermonnikoog","operator":"Bibliotheken Noord Fryslân"}},{"type":"Feature","geometry":{"type":"Point","coordinates":[6.167721,53.478618]},"properties":{"category":"transformatorhuisje","name":"","operator":"Liander"}},{"type":"Feature","geometry":{"type":"Point","coordinates":[6.154905,53.476355]},"properties":{"category":"transformatorhuisje","name":"10 kV Schiermonnikoog","operator":"Liander"}},{"type":"Feature","geometry":{"type":"Point","coordinates":[6.163025,53.479272]},"properties":{"category":"middelbare_school","name":"Inspecteur Boelenschool","operator":""}},{"type":"Feature","geometry":{"type":"Point","coordinates":[6.166856,53.480076]},"properties":{"category":"fietsenstalling","name":"","operator":""}},{"type":"Feature","geometry":{"type":"Point","coordinates":[6.162768,53.479327]},"properties":{"category":"fietsenstalling","name":"","operator":""}},{"type":"Feature","geometry":{"type":"Point","coordinates":[6.201887,53.468919]},"properties":{"category":"fietsenstalling","name":"","operator":""}}]}