{"type":"FeatureCollection","metadata":{"gemeente":"Smallingerland","slug":"smallingerland","by_category":{"bus_halte":131,"fietsenstalling":17,"supermarkt":15,"transformatorhuisje":14,"sportveld":13,"parkeergarage":5,"ov_knooppunt":4,"inzamelpunt":4,"gemeentehuis":1,"bibliotheek":1,"ziekenhuis":1,"middelbare_school":1},"total":207},"features":[{"type":"Feature","geometry":{"type":"Point","coordinates":[6.038982,53.081665]},"properties":{"category":"bus_halte","name":"Westerbuorren","operator":""}},{"type":"Feature","geometry":{"type":"Point","coordinates":[6.039683,53.081696]},"properties":{"category":"bus_halte","name":"Westerbuorren","operator":""}},{"type":"Feature","geometry":{"type":"Point","coordinates":[6.045326,53.082815]},"properties":{"category":"bus_halte","name":"Easterbuorren","operator":""}},{"type":"Feature","geometry":{"type":"Point","coordinates":[6.045662,53.083222]},"properties":{"category":"bus_halte","name":"Easterbuorren","operator":""}},{"type":"Feature","geometry":{"type":"Point","coordinates":[6.044456,53.08523]},"properties":{"category":"bus_halte","name":"Nijewei","operator":""}},{"type":"Feature","geometry":{"type":"Point","coordinates":[6.044428,53.085492]},"properties":{"category":"bus_halte","name":"Nijewei","operator":""}},{"type":"Feature","geometry":{"type":"Point","coordinates":[6.038271,53.097155]},"properties":{"category":"bus_halte","name":"De Wilgen","operator":""}},{"type":"Feature","geometry":{"type":"Point","coordinates":[6.038061,53.097337]},"properties":{"category":"bus_halte","name":"De Wilgen","operator":""}},{"type":"Feature","geometry":{"type":"Point","coordinates":[6.043013,53.087887]},"properties":{"category":"bus_halte","name":"Middelgaest","operator":""}},{"type":"Feature","geometry":{"type":"Point","coordinates":[6.042982,53.088169]},"properties":{"category":"bus_halte","name":"Middelgaest","operator":""}},{"type":"Feature","geometry":{"type":"Point","coordinates":[6.047045,53.100121]},"properties":{"category":"bus_halte","name":"Jachthaven","operator":""}},{"type":"Feature","geometry":{"type":"Point","coordinates":[6.046844,53.099873]},"properties":{"category":"bus_halte","name":"Jachthaven","operator":""}},{"type":"Feature","geometry":{"type":"Point","coordinates":[6.057798,53.099879]},"properties":{"category":"bus_halte","name":"Voormalige Manege","operator":""}},{"type":"Feature","geometry":{"type":"Point","coordinates":[6.057782,53.099814]},"properties":{"category":"bus_halte","name":"Voormalige Manege","operator":""}},{"type":"Feature","geometry":{"type":"Point","coordinates":[6.063317,53.098041]},"properties":{"category":"bus_halte","name":"De Slinge","operator":""}},{"type":"Feature","geometry":{"type":"Point","coordinates":[6.063008,53.098391]},"properties":{"category":"bus_halte","name":"De Slinge","operator":""}},{"type":"Feature","geometry":{"type":"Point","coordinates":[6.065905,53.100682]},"properties":{"category":"bus_halte","name":"De Fluessen","operator":""}},{"type":"Feature","geometry":{"type":"Point","coordinates":[6.065688,53.100715]},"properties":{"category":"bus_halte","name":"De Fluessen","operator":""}},{"type":"Feature","geometry":{"type":"Point","coordinates":[6.071113,53.102788]},"properties":{"category":"bus_halte","name":"Flevo","operator":""}},{"type":"Feature","geometry":{"type":"Point","coordinates":[6.070957,53.102902]},"properties":{"category":"bus_halte","name":"Flevo","operator":""}},{"type":"Feature","geometry":{"type":"Point","coordinates":[6.07707,53.102959]},"properties":{"category":"bus_halte","name":"Lauwers","operator":""}},{"type":"Feature","geometry":{"type":"Point","coordinates":[6.077568,53.102874]},"properties":{"category":"bus_halte","name":"Lauwers","operator":""}},{"type":"Feature","geometry":{"type":"Point","coordinates":[6.083436,53.102934]},"properties":{"category":"bus_halte","name":"Zuiderhogeweg","operator":""}},{"type":"Feature","geometry":{"type":"Point","coordinates":[6.084104,53.103079]},"properties":{"category":"bus_halte","name":"Zuiderhogeweg","operator":""}},{"type":"Feature","geometry":{"type":"Point","coordinates":[6.08748,53.095824]},"properties":{"category":"bus_halte","name":"Eikesingel","operator":""}},{"type":"Feature","geometry":{"type":"Point","coordinates":[6.087974,53.09562]},"properties":{"category":"bus_halte","name":"Eikesingel","operator":""}},{"type":"Feature","geometry":{"type":"Point","coordinates":[6.101672,53.095919]},"properties":{"category":"bus_halte","name":"John F. Kennedylaan","operator":""}},{"type":"Feature","geometry":{"type":"Point","coordinates":[6.102013,53.096111]},"properties":{"category":"bus_halte","name":"John F. Kennedylaan","operator":""}},{"type":"Feature","geometry":{"type":"Point","coordinates":[6.091138,53.103011]},"properties":{"category":"bus_halte","name":"Gauke Boelensstraat","operator":""}},{"type":"Feature","geometry":{"type":"Point","coordinates":[6.091768,53.103137]},"properties":{"category":"bus_halte","name":"Gauke Boelensstraat","operator":""}},{"type":"Feature","geometry":{"type":"Point","coordinates":[6.081089,53.108876]},"properties":{"category":"bus_halte","name":"Omloop","operator":""}},{"type":"Feature","geometry":{"type":"Point","coordinates":[6.086144,53.126659]},"properties":{"category":"bus_halte","name":"Burmaniapark","operator":""}},{"type":"Feature","geometry":{"type":"Point","coordinates":[6.082368,53.129691]},"properties":{"category":"bus_halte","name":"Nijtap","operator":""}},{"type":"Feature","geometry":{"type":"Point","coordinates":[6.085376,53.127351]},"properties":{"category":"bus_halte","name":"Burmaniapark","operator":""}},{"type":"Feature","geometry":{"type":"Point","coordinates":[6.107327,53.117481]},"properties":{"category":"bus_halte","name":"De Knobben","operator":""}},{"type":"Feature","geometry":{"type":"Point","coordinates":[6.10748,53.117673]},"properties":{"category":"bus_halte","name":"De Knobben","operator":""}},{"type":"Feature","geometry":{"type":"Point","coordinates":[6.089942,53.124616]},"properties":{"category":"bus_halte","name":"De Folgeren","operator":""}},{"type":"Feature","geometry":{"type":"Point","coordinates":[6.090362,53.124242]},"properties":{"category":"bus_halte","name":"De Folgeren","operator":""}},{"type":"Feature","geometry":{"type":"Point","coordinates":[6.093853,53.120836]},"properties":{"category":"bus_halte","name":"Het Noord","operator":""}},{"type":"Feature","geometry":{"type":"Point","coordinates":[6.093688,53.1213]},"properties":{"category":"bus_halte","name":"Het Noord","operator":""}},{"type":"Feature","geometry":{"type":"Point","coordinates":[6.101313,53.119615]},"properties":{"category":"bus_halte","name":"Schuttersveld","operator":""}},{"type":"Feature","geometry":{"type":"Point","coordinates":[6.102561,53.119751]},"properties":{"category":"bus_halte","name":"Schuttersveld","operator":""}},{"type":"Feature","geometry":{"type":"Point","coordinates":[6.120406,53.105498]},"properties":{"category":"bus_halte","name":"Sportcentrum","operator":""}},{"type":"Feature","geometry":{"type":"Point","coordinates":[6.120782,53.105832]},"properties":{"category":"bus_halte","name":"Sportcentrum","operator":""}},{"type":"Feature","geometry":{"type":"Point","coordinates":[6.082027,53.130221]},"properties":{"category":"bus_halte","name":"Nijtap","operator":""}},{"type":"Feature","geometry":{"type":"Point","coordinates":[6.105728,53.14138]},"properties":{"category":"bus_halte","name":"Rondweg","operator":""}},{"type":"Feature","geometry":{"type":"Point","coordinates":[6.106784,53.141469]},"properties":{"category":"bus_halte","name":"Rondweg","operator":""}},{"type":"Feature","geometry":{"type":"Point","coordinates":[6.113288,53.145781]},"properties":{"category":"bus_halte","name":"Foudenswei","operator":""}},{"type":"Feature","geometry":{"type":"Point","coordinates":[6.114083,53.147432]},"properties":{"category":"bus_halte","name":"Foudenswei","operator":""}},{"type":"Feature","geometry":{"type":"Point","coordinates":[6.144699,53.153828]},"properties":{"category":"bus_halte","name":"Buorren","operator":""}},{"type":"Feature","geometry":{"type":"Point","coordinates":[6.144604,53.153742]},"properties":{"category":"bus_halte","name":"Buorren","operator":""}},{"type":"Feature","geometry":{"type":"Point","coordinates":[6.098312,53.077165]},"properties":{"category":"bus_halte","name":"Welgelegen","operator":""}},{"type":"Feature","geometry":{"type":"Point","coordinates":[6.098732,53.077957]},"properties":{"category":"bus_halte","name":"Welgelegen","operator":""}},{"type":"Feature","geometry":{"type":"Point","coordinates":[6.033161,53.139681]},"properties":{"category":"bus_halte","name":"Nijega","operator":""}},{"type":"Feature","geometry":{"type":"Point","coordinates":[6.033325,53.139577]},"properties":{"category":"bus_halte","name":"Nijega","operator":""}},{"type":"Feature","geometry":{"type":"Point","coordinates":[6.026584,53.140832]},"properties":{"category":"bus_halte","name":"Dorpshuis","operator":""}},{"type":"Feature","geometry":{"type":"Point","coordinates":[6.027942,53.140569]},"properties":{"category":"bus_halte","name":"Dorpshuis","operator":""}},{"type":"Feature","geometry":{"type":"Point","coordinates":[6.022839,53.145393]},"properties":{"category":"bus_halte","name":"Nijega Rijksweg","operator":""}},{"type":"Feature","geometry":{"type":"Point","coordinates":[6.046161,53.136978]},"properties":{"category":"bus_halte","name":"Tsjerkeloane","operator":""}},{"type":"Feature","geometry":{"type":"Point","coordinates":[6.04439,53.137418]},"properties":{"category":"bus_halte","name":"Tsjerkeloane","operator":""}},{"type":"Feature","geometry":{"type":"Point","coordinates":[6.055576,53.135179]},"properties":{"category":"bus_halte","name":"Kanaelsloane","operator":""}},{"type":"Feature","geometry":{"type":"Point","coordinates":[6.055238,53.135165]},"properties":{"category":"bus_halte","name":"Kanaelsloane","operator":""}},{"type":"Feature","geometry":{"type":"Point","coordinates":[6.062747,53.134183]},"properties":{"category":"bus_halte","name":"Middelbuorren","operator":""}},{"type":"Feature","geometry":{"type":"Point","coordinates":[6.062973,53.134072]},"properties":{"category":"bus_halte","name":"Middelbuorren","operator":""}},{"type":"Feature","geometry":{"type":"Point","coordinates":[6.099647,53.088327]},"properties":{"category":"bus_halte","name":"Suderheide","operator":""}},{"type":"Feature","geometry":{"type":"Point","coordinates":[6.099815,53.087658]},"properties":{"category":"bus_halte","name":"Suderheide","operator":""}},{"type":"Feature","geometry":{"type":"Point","coordinates":[6.09896,53.097558]},"properties":{"category":"bus_halte","name":"Bertilla","operator":""}},{"type":"Feature","geometry":{"type":"Point","coordinates":[6.099115,53.09764]},"properties":{"category":"bus_halte","name":"Bertilla","operator":""}},{"type":"Feature","geometry":{"type":"Point","coordinates":[6.115794,53.10409]},"properties":{"category":"bus_halte","name":"Splitting","operator":""}},{"type":"Feature","geometry":{"type":"Point","coordinates":[6.11417,53.104168]},"properties":{"category":"bus_halte","name":"Splitting","operator":""}},{"type":"Feature","geometry":{"type":"Point","coordinates":[6.134874,53.110248]},"properties":{"category":"bus_halte","name":"Noorderend","operator":""}},{"type":"Feature","geometry":{"type":"Point","coordinates":[6.13381,53.109807]},"properties":{"category":"bus_halte","name":"Noorderend","operator":""}},{"type":"Feature","geometry":{"type":"Point","coordinates":[6.069861,53.133735]},"properties":{"category":"bus_halte","name":"Leidyksreed","operator":""}},{"type":"Feature","geometry":{"type":"Point","coordinates":[6.068544,53.133731]},"properties":{"category":"bus_halte","name":"Leidyksreed","operator":""}},{"type":"Feature","geometry":{"type":"Point","coordinates":[6.067401,53.093296]},"properties":{"category":"bus_halte","name":"Zwemmer","operator":""}},{"type":"Feature","geometry":{"type":"Point","coordinates":[6.067822,53.093334]},"properties":{"category":"bus_halte","name":"Zwemmer","operator":""}},{"type":"Feature","geometry":{"type":"Point","coordinates":[6.070797,53.094339]},"properties":{"category":"bus_halte","name":"Morra","operator":""}},{"type":"Feature","geometry":{"type":"Point","coordinates":[6.070421,53.094328]},"properties":{"category":"bus_halte","name":"Morra","operator":""}},{"type":"Feature","geometry":{"type":"Point","coordinates":[6.077146,53.096261]},"properties":{"category":"bus_halte","name":"Eems","operator":""}},{"type":"Feature","geometry":{"type":"Point","coordinates":[6.076584,53.09629]},"properties":{"category":"bus_halte","name":"Eems","operator":""}},{"type":"Feature","geometry":{"type":"Point","coordinates":[6.062459,53.090838]},"properties":{"category":"bus_halte","name":"Himsterhout","operator":""}},{"type":"Feature","geometry":{"type":"Point","coordinates":[6.079385,53.122121]},"properties":{"category":"bus_halte","name":"Noorderhogeweg","operator":""}},{"type":"Feature","geometry":{"type":"Point","coordinates":[6.07945,53.122256]},"properties":{"category":"bus_halte","name":"Noorderhogeweg","operator":""}},{"type":"Feature","geometry":{"type":"Point","coordinates":[6.021177,53.146287]},"properties":{"category":"bus_halte","name":"Nijega Rijksweg","operator":""}},{"type":"Feature","geometry":{"type":"Point","coordinates":[6.096328,53.116988]},"properties":{"category":"bus_halte","name":"Stationsweg","operator":""}},{"type":"Feature","geometry":{"type":"Point","coordinates":[6.096128,53.117117]},"properties":{"category":"bus_halte","name":"Stationsweg","operator":""}},{"type":"Feature","geometry":{"type":"Point","coordinates":[6.098267,53.109562]},"properties":{"category":"bus_halte","name":"Noorderbuurt","operator":""}},{"type":"Feature","geometry":{"type":"Point","coordinates":[6.09783,53.109662]},"properties":{"category":"bus_halte","name":"Noorderbuurt","operator":""}},{"type":"Feature","geometry":{"type":"Point","coordinates":[6.125504,53.105804]},"properties":{"category":"bus_halte","name":"Transferium Oost","operator":""}},{"type":"Feature","geometry":{"type":"Point","coordinates":[6.125524,53.105606]},"properties":{"category":"bus_halte","name":"Transferium Oost","operator":""}},{"type":"Feature","geometry":{"type":"Point","coordinates":[6.125735,53.105456]},"properties":{"category":"bus_halte","name":"Transferium Oost","operator":""}},{"type":"Feature","geometry":{"type":"Point","coordinates":[6.125975,53.105484]},"properties":{"category":"bus_halte","name":"Transferium Oost","operator":""}},{"type":"Feature","geometry":{"type":"Point","coordinates":[6.126141,53.105646]},"properties":{"category":"bus_halte","name":"Transferium Oost","operator":""}},{"type":"Feature","geometry":{"type":"Point","coordinates":[6.126105,53.105848]},"properties":{"category":"bus_halte","name":"Transferium Oost","operator":""}},{"type":"Feature","geometry":{"type":"Point","coordinates":[6.1259,53.105995]},"properties":{"category":"bus_halte","name":"Transferium Oost","operator":""}},{"type":"Feature","geometry":{"type":"Point","coordinates":[6.125659,53.105978]},"properties":{"category":"bus_halte","name":"Transferium Oost","operator":""}},{"type":"Feature","geometry":{"type":"Point","coordinates":[6.108661,53.107995]},"properties":{"category":"bus_halte","name":"Zuidkade","operator":""}},{"type":"Feature","geometry":{"type":"Point","coordinates":[6.108466,53.108181]},"properties":{"category":"bus_halte","name":"Zuidkade","operator":""}},{"type":"Feature","geometry":{"type":"Point","coordinates":[6.107862,53.114468]},"properties":{"category":"bus_halte","name":"Langewijk","operator":""}},{"type":"Feature","geometry":{"type":"Point","coordinates":[6.107692,53.114435]},"properties":{"category":"bus_halte","name":"Langewijk","operator":""}},{"type":"Feature","geometry":{"type":"Point","coordinates":[6.085973,53.134413]},"properties":{"category":"bus_halte","name":"Carpool Noord","operator":""}},{"type":"Feature","geometry":{"type":"Point","coordinates":[6.096002,53.118396]},"properties":{"category":"bus_halte","name":"Ringweg","operator":""}},{"type":"Feature","geometry":{"type":"Point","coordinates":[6.096127,53.118518]},"properties":{"category":"bus_halte","name":"Ringweg","operator":""}},{"type":"Feature","geometry":{"type":"Point","coordinates":[6.093557,53.127048]},"properties":{"category":"bus_halte","name":"Waterlelie","operator":""}},{"type":"Feature","geometry":{"type":"Point","coordinates":[6.093612,53.12699]},"properties":{"category":"bus_halte","name":"Waterlelie","operator":""}},{"type":"Feature","geometry":{"type":"Point","coordinates":[6.132739,53.140066]},"properties":{"category":"bus_halte","name":"Smidswei","operator":""}},{"type":"Feature","geometry":{"type":"Point","coordinates":[6.132686,53.139975]},"properties":{"category":"bus_halte","name":"Smidswei","operator":""}},{"type":"Feature","geometry":{"type":"Point","coordinates":[6.078673,53.132168]},"properties":{"category":"bus_halte","name":"Rydwei","operator":""}},{"type":"Feature","geometry":{"type":"Point","coordinates":[6.078515,53.132347]},"properties":{"category":"bus_halte","name":"Rydwei","operator":""}},{"type":"Feature","geometry":{"type":"Point","coordinates":[6.02145,53.144662]},"properties":{"category":"bus_halte","name":"Nijega Rijksweg","operator":""}},{"type":"Feature","geometry":{"type":"Point","coordinates":[6.126036,53.106513]},"properties":{"category":"bus_halte","name":"Vallaat","operator":""}},{"type":"Feature","geometry":{"type":"Point","coordinates":[6.020075,53.153856]},"properties":{"category":"bus_halte","name":"Susterwei","operator":""}},{"type":"Feature","geometry":{"type":"Point","coordinates":[6.019676,53.153629]},"properties":{"category":"bus_halte","name":"Susterwei","operator":""}},{"type":"Feature","geometry":{"type":"Point","coordinates":[5.951291,53.096623]},"properties":{"category":"bus_halte","name":"De Veenhoop","operator":""}},{"type":"Feature","geometry":{"type":"Point","coordinates":[6.100012,53.103297]},"properties":{"category":"bus_halte","name":"Van Knobelsdorffplein","operator":""}},{"type":"Feature","geometry":{"type":"Point","coordinates":[6.100346,53.10335]},"properties":{"category":"bus_halte","name":"Van Knobelsdorffplein","operator":""}},{"type":"Feature","geometry":{"type":"Point","coordinates":[6.100707,53.103416]},"properties":{"category":"bus_halte","name":"Van Knobelsdorffplein","operator":""}},{"type":"Feature","geometry":{"type":"Point","coordinates":[6.100482,53.103361]},"properties":{"category":"bus_halte","name":"Van Knobelsdorffplein","operator":""}},{"type":"Feature","geometry":{"type":"Point","coordinates":[6.100145,53.10328]},"properties":{"category":"bus_halte","name":"Van Knobelsdorffplein","operator":""}},{"type":"Feature","geometry":{"type":"Point","coordinates":[6.099828,53.103207]},"properties":{"category":"bus_halte","name":"Van Knobelsdorffplein","operator":""}},{"type":"Feature","geometry":{"type":"Point","coordinates":[6.037062,53.152797]},"properties":{"category":"bus_halte","name":"Dorp","operator":""}},{"type":"Feature","geometry":{"type":"Point","coordinates":[5.883599,53.078371]},"properties":{"category":"bus_halte","name":"Goëngahuizen","operator":""}},{"type":"Feature","geometry":{"type":"Point","coordinates":[6.072953,53.07659]},"properties":{"category":"bus_halte","name":"Kortehemmen","operator":""}},{"type":"Feature","geometry":{"type":"Point","coordinates":[5.995264,53.125113]},"properties":{"category":"bus_halte","name":"Buorren","operator":""}},{"type":"Feature","geometry":{"type":"Point","coordinates":[6.017952,53.103762]},"properties":{"category":"bus_halte","name":"Smalle Ee","operator":""}},{"type":"Feature","geometry":{"type":"Point","coordinates":[6.126113,53.10634]},"properties":{"category":"bus_halte","name":"Vallaat","operator":""}},{"type":"Feature","geometry":{"type":"Point","coordinates":[6.086196,53.134339]},"properties":{"category":"bus_halte","name":"Carpool Noord","operator":""}},{"type":"Feature","geometry":{"type":"Point","coordinates":[6.108239,53.0978]},"properties":{"category":"bus_halte","name":"Martin Luther Kingsingel","operator":""}},{"type":"Feature","geometry":{"type":"Point","coordinates":[6.107387,53.097675]},"properties":{"category":"bus_halte","name":"Martin Luther Kingsingel","operator":""}},{"type":"Feature","geometry":{"type":"Point","coordinates":[6.109169,53.100724]},"properties":{"category":"bus_halte","name":"Ziekenhuis","operator":""}},{"type":"Feature","geometry":{"type":"Point","coordinates":[6.109398,53.101163]},"properties":{"category":"bus_halte","name":"Ziekenhuis","operator":""}},{"type":"Feature","geometry":{"type":"Point","coordinates":[5.906629,53.091249]},"properties":{"category":"ov_knooppunt","name":"","operator":""}},{"type":"Feature","geometry":{"type":"Point","coordinates":[5.907077,53.091952]},"properties":{"category":"ov_knooppunt","name":"","operator":""}},{"type":"Feature","geometry":{"type":"Point","coordinates":[6.125725,53.105738]},"properties":{"category":"ov_knooppunt","name":"Transferium Oost","operator":""}},{"type":"Feature","geometry":{"type":"Point","coordinates":[6.100195,53.103337]},"properties":{"category":"ov_knooppunt","name":"Van Knobelsdorffplein","operator":""}},{"type":"Feature","geometry":{"type":"Point","coordinates":[6.096935,53.10352]},"properties":{"category":"gemeentehuis","name":"Gemeentehuis Smallingerland","operator":"Gemeente Smallingerland"}},{"type":"Feature","geometry":{"type":"Point","coordinates":[6.105946,53.112767]},"properties":{"category":"inzamelpunt","name":"","operator":""}},{"type":"Feature","geometry":{"type":"Point","coordinates":[6.10678,53.112895]},"properties":{"category":"inzamelpunt","name":"","operator":""}},{"type":"Feature","geometry":{"type":"Point","coordinates":[6.062082,53.113419]},"properties":{"category":"inzamelpunt","name":"Ecostation de Boeg","operator":"Gemeente Smallingerland"}},{"type":"Feature","geometry":{"type":"Point","coordinates":[6.062825,53.112029]},"properties":{"category":"inzamelpunt","name":"Ecostation De Hemmen","operator":"Gemeente Smallingerland"}},{"type":"Feature","geometry":{"type":"Point","coordinates":[6.098581,53.1044]},"properties":{"category":"bibliotheek","name":"Bibliotheek Drachten","operator":""}},{"type":"Feature","geometry":{"type":"Point","coordinates":[6.111692,53.099725]},"properties":{"category":"ziekenhuis","name":"Nij Smellinghe","operator":""}},{"type":"Feature","geometry":{"type":"Point","coordinates":[6.069393,53.107485]},"properties":{"category":"transformatorhuisje","name":"","operator":""}},{"type":"Feature","geometry":{"type":"Point","coordinates":[6.069136,53.107489]},"properties":{"category":"transformatorhuisje","name":"","operator":""}},{"type":"Feature","geometry":{"type":"Point","coordinates":[6.069264,53.107491]},"properties":{"category":"transformatorhuisje","name":"","operator":""}},{"type":"Feature","geometry":{"type":"Point","coordinates":[6.094853,53.100465]},"properties":{"category":"transformatorhuisje","name":"","operator":"Liander"}},{"type":"Feature","geometry":{"type":"Point","coordinates":[6.061928,53.099277]},"properties":{"category":"transformatorhuisje","name":"","operator":"Liander"}},{"type":"Feature","geometry":{"type":"Point","coordinates":[6.051701,53.100492]},"properties":{"category":"transformatorhuisje","name":"","operator":"Liander"}},{"type":"Feature","geometry":{"type":"Point","coordinates":[6.065576,53.096891]},"properties":{"category":"transformatorhuisje","name":"","operator":"Liander"}},{"type":"Feature","geometry":{"type":"Point","coordinates":[6.056382,53.096914]},"properties":{"category":"transformatorhuisje","name":"","operator":"Liander"}},{"type":"Feature","geometry":{"type":"Point","coordinates":[6.051975,53.095014]},"properties":{"category":"transformatorhuisje","name":"","operator":"Liander"}},{"type":"Feature","geometry":{"type":"Point","coordinates":[6.05022,53.097713]},"properties":{"category":"transformatorhuisje","name":"","operator":"Liander"}},{"type":"Feature","geometry":{"type":"Point","coordinates":[6.053253,53.096951]},"properties":{"category":"transformatorhuisje","name":"","operator":"Liander"}},{"type":"Feature","geometry":{"type":"Point","coordinates":[6.055468,53.094226]},"properties":{"category":"transformatorhuisje","name":"","operator":"Liander"}},{"type":"Feature","geometry":{"type":"Point","coordinates":[6.058333,53.092043]},"properties":{"category":"transformatorhuisje","name":"","operator":"Liander"}},{"type":"Feature","geometry":{"type":"Point","coordinates":[6.090279,53.106926]},"properties":{"category":"transformatorhuisje","name":"","operator":"Liander"}},{"type":"Feature","geometry":{"type":"Point","coordinates":[6.117843,53.102122]},"properties":{"category":"middelbare_school","name":"Singelland ISK","operator":""}},{"type":"Feature","geometry":{"type":"Point","coordinates":[6.052382,53.101903]},"properties":{"category":"sportveld","name":"Drachtster Boys","operator":""}},{"type":"Feature","geometry":{"type":"Point","coordinates":[6.089509,53.10202]},"properties":{"category":"sportveld","name":"","operator":""}},{"type":"Feature","geometry":{"type":"Point","coordinates":[6.123447,53.108787]},"properties":{"category":"sportveld","name":"","operator":""}},{"type":"Feature","geometry":{"type":"Point","coordinates":[6.116667,53.105784]},"properties":{"category":"sportveld","name":"Sportcentrum Drachten","operator":""}},{"type":"Feature","geometry":{"type":"Point","coordinates":[6.104962,53.106474]},"properties":{"category":"sportveld","name":"Eberts","operator":""}},{"type":"Feature","geometry":{"type":"Point","coordinates":[6.086148,53.092076]},"properties":{"category":"sportveld","name":"Snij Noord Hal","operator":""}},{"type":"Feature","geometry":{"type":"Point","coordinates":[6.092813,53.125525]},"properties":{"category":"sportveld","name":"","operator":""}},{"type":"Feature","geometry":{"type":"Point","coordinates":[6.103948,53.121396]},"properties":{"category":"sportveld","name":"Sportpark de Fennen","operator":""}},{"type":"Feature","geometry":{"type":"Point","coordinates":[6.058176,53.131394]},"properties":{"category":"sportveld","name":"Sportpark Douwekamp","operator":""}},{"type":"Feature","geometry":{"type":"Point","coordinates":[6.098647,53.144632]},"properties":{"category":"sportveld","name":"Sportpark 't Hagehiem","operator":""}},{"type":"Feature","geometry":{"type":"Point","coordinates":[6.149646,53.152956]},"properties":{"category":"sportveld","name":"Sportpark Dûnoard","operator":""}},{"type":"Feature","geometry":{"type":"Point","coordinates":[6.1359,53.134105]},"properties":{"category":"sportveld","name":"Sportcomplex “it Trefpunt”","operator":""}},{"type":"Feature","geometry":{"type":"Point","coordinates":[6.045389,53.087179]},"properties":{"category":"sportveld","name":"De Kampslach","operator":""}},{"type":"Feature","geometry":{"type":"Point","coordinates":[6.112308,53.106842]},"properties":{"category":"supermarkt","name":"ALDI","operator":""}},{"type":"Feature","geometry":{"type":"Point","coordinates":[6.074307,53.098883]},"properties":{"category":"supermarkt","name":"Jumbo","operator":""}},{"type":"Feature","geometry":{"type":"Point","coordinates":[6.111506,53.109712]},"properties":{"category":"supermarkt","name":"Albert Heijn","operator":""}},{"type":"Feature","geometry":{"type":"Point","coordinates":[6.097213,53.117498]},"properties":{"category":"supermarkt","name":"Jumbo","operator":""}},{"type":"Feature","geometry":{"type":"Point","coordinates":[6.097337,53.118471]},"properties":{"category":"supermarkt","name":"ALDI","operator":"Aldi"}},{"type":"Feature","geometry":{"type":"Point","coordinates":[6.074011,53.098739]},"properties":{"category":"supermarkt","name":"Lidl","operator":"Lidl Nederland GmbH"}},{"type":"Feature","geometry":{"type":"Point","coordinates":[6.112431,53.110166]},"properties":{"category":"supermarkt","name":"Poiesz","operator":""}},{"type":"Feature","geometry":{"type":"Point","coordinates":[6.09659,53.10115]},"properties":{"category":"supermarkt","name":"Albert Heijn","operator":""}},{"type":"Feature","geometry":{"type":"Point","coordinates":[6.094344,53.107511]},"properties":{"category":"supermarkt","name":"Lidl","operator":"Lidl Nederland GmbH"}},{"type":"Feature","geometry":{"type":"Point","coordinates":[6.096256,53.108451]},"properties":{"category":"supermarkt","name":"Poiesz","operator":""}},{"type":"Feature","geometry":{"type":"Point","coordinates":[6.043735,53.087488]},"properties":{"category":"supermarkt","name":"Poiesz","operator":""}},{"type":"Feature","geometry":{"type":"Point","coordinates":[5.99883,53.125167]},"properties":{"category":"supermarkt","name":"SPAR Adema","operator":""}},{"type":"Feature","geometry":{"type":"Point","coordinates":[6.100619,53.10544]},"properties":{"category":"supermarkt","name":"Albert Heijn","operator":""}},{"type":"Feature","geometry":{"type":"Point","coordinates":[6.100525,53.104409]},"properties":{"category":"supermarkt","name":"Dirk","operator":""}},{"type":"Feature","geometry":{"type":"Point","coordinates":[6.095817,53.10628]},"properties":{"category":"supermarkt","name":"Ekoplaza","operator":""}},{"type":"Feature","geometry":{"type":"Point","coordinates":[6.0219,53.146542]},"properties":{"category":"fietsenstalling","name":"","operator":""}},{"type":"Feature","geometry":{"type":"Point","coordinates":[6.126213,53.106029]},"properties":{"category":"fietsenstalling","name":"","operator":""}},{"type":"Feature","geometry":{"type":"Point","coordinates":[6.100418,53.103637]},"properties":{"category":"fietsenstalling","name":"","operator":"Gemeente Smallingerland"}},{"type":"Feature","geometry":{"type":"Point","coordinates":[6.113336,53.146742]},"properties":{"category":"fietsenstalling","name":"","operator":""}},{"type":"Feature","geometry":{"type":"Point","coordinates":[6.182955,53.130567]},"properties":{"category":"fietsenstalling","name":"","operator":""}},{"type":"Feature","geometry":{"type":"Point","coordinates":[6.182871,53.130597]},"properties":{"category":"fietsenstalling","name":"P & R Frieschepalen","operator":""}},{"type":"Feature","geometry":{"type":"Point","coordinates":[6.022574,53.144653]},"properties":{"category":"fietsenstalling","name":"","operator":""}},{"type":"Feature","geometry":{"type":"Point","coordinates":[6.078626,53.111744]},"properties":{"category":"fietsenstalling","name":"","operator":""}},{"type":"Feature","geometry":{"type":"Point","coordinates":[6.112148,53.107078]},"properties":{"category":"fietsenstalling","name":"","operator":""}},{"type":"Feature","geometry":{"type":"Point","coordinates":[6.092368,53.118814]},"properties":{"category":"fietsenstalling","name":"Fietsenstalling Friese Poort","operator":""}},{"type":"Feature","geometry":{"type":"Point","coordinates":[6.112002,53.100308]},"properties":{"category":"fietsenstalling","name":"","operator":""}},{"type":"Feature","geometry":{"type":"Point","coordinates":[6.111991,53.100376]},"properties":{"category":"fietsenstalling","name":"","operator":""}},{"type":"Feature","geometry":{"type":"Point","coordinates":[6.089495,53.107886]},"properties":{"category":"fietsenstalling","name":"","operator":"Philips"}},{"type":"Feature","geometry":{"type":"Point","coordinates":[6.086241,53.134431]},"properties":{"category":"fietsenstalling","name":"","operator":""}},{"type":"Feature","geometry":{"type":"Point","coordinates":[6.08604,53.134505]},"properties":{"category":"fietsenstalling","name":"","operator":""}},{"type":"Feature","geometry":{"type":"Point","coordinates":[6.018476,53.154719]},"properties":{"category":"fietsenstalling","name":"","operator":""}},{"type":"Feature","geometry":{"type":"Point","coordinates":[6.01933,53.154961]},"properties":{"category":"fietsenstalling","name":"","operator":""}},{"type":"Feature","geometry":{"type":"Point","coordinates":[6.099958,53.103778]},"properties":{"category":"parkeergarage","name":"Parkeergarage Van Knobelsdorffplein Drachten","operator":"Smallingerland"}},{"type":"Feature","geometry":{"type":"Point","coordinates":[6.096693,53.117641]},"properties":{"category":"parkeergarage","name":"","operator":""}},{"type":"Feature","geometry":{"type":"Point","coordinates":[6.096157,53.107106]},"properties":{"category":"parkeergarage","name":"","operator":""}},{"type":"Feature","geometry":{"type":"Point","coordinates":[6.100931,53.105009]},"properties":{"category":"parkeergarage","name":"Parkeergarage Raadhuisplein","operator":"Smallingerland"}},{"type":"Feature","geometry":{"type":"Point","coordinates":[6.10013,53.105031]},"properties":{"category":"parkeergarage","name":"","operator":""}}]}