{"type":"FeatureCollection","metadata":{"gemeente":"Soest","slug":"soest","by_category":{"bus_halte":113,"transformatorhuisje":7,"ov_knooppunt":6,"fietsenstalling":5,"ns_station":3,"sportveld":3,"inzamelpunt":2,"bibliotheek":2,"middelbare_school":2,"winkelcentrum":2,"gemeentehuis":1,"p_and_r":1},"total":147},"features":[{"type":"Feature","geometry":{"type":"Point","coordinates":[5.310153,52.173132]},"properties":{"category":"ns_station","name":"Soest","operator":""}},{"type":"Feature","geometry":{"type":"Point","coordinates":[5.299911,52.183857]},"properties":{"category":"ns_station","name":"Soestdijk","operator":""}},{"type":"Feature","geometry":{"type":"Point","coordinates":[5.302892,52.165199]},"properties":{"category":"ns_station","name":"Soest Zuid","operator":""}},{"type":"Feature","geometry":{"type":"Point","coordinates":[5.287998,52.117271]},"properties":{"category":"bus_halte","name":"Kampweg","operator":""}},{"type":"Feature","geometry":{"type":"Point","coordinates":[5.287965,52.117515]},"properties":{"category":"bus_halte","name":"Kampweg","operator":""}},{"type":"Feature","geometry":{"type":"Point","coordinates":[5.291512,52.117816]},"properties":{"category":"bus_halte","name":"Kamerlingh Onneslaan","operator":""}},{"type":"Feature","geometry":{"type":"Point","coordinates":[5.291833,52.117996]},"properties":{"category":"bus_halte","name":"Kamerlingh Onneslaan","operator":""}},{"type":"Feature","geometry":{"type":"Point","coordinates":[5.277288,52.120289]},"properties":{"category":"bus_halte","name":"Soesterberg-West","operator":""}},{"type":"Feature","geometry":{"type":"Point","coordinates":[5.277485,52.120264]},"properties":{"category":"bus_halte","name":"Soesterberg-West","operator":""}},{"type":"Feature","geometry":{"type":"Point","coordinates":[5.284683,52.121831]},"properties":{"category":"bus_halte","name":"'t Zwaantje","operator":""}},{"type":"Feature","geometry":{"type":"Point","coordinates":[5.284739,52.122037]},"properties":{"category":"bus_halte","name":"'t Zwaantje","operator":""}},{"type":"Feature","geometry":{"type":"Point","coordinates":[5.291154,52.121465]},"properties":{"category":"bus_halte","name":"Oude Tempellaan","operator":""}},{"type":"Feature","geometry":{"type":"Point","coordinates":[5.291036,52.121869]},"properties":{"category":"bus_halte","name":"Oude Tempellaan","operator":""}},{"type":"Feature","geometry":{"type":"Point","coordinates":[5.298052,52.124367]},"properties":{"category":"bus_halte","name":"Soesterberg Oost","operator":""}},{"type":"Feature","geometry":{"type":"Point","coordinates":[5.299841,52.125194]},"properties":{"category":"bus_halte","name":"Soesterberg Oost","operator":""}},{"type":"Feature","geometry":{"type":"Point","coordinates":[5.310549,52.128022]},"properties":{"category":"bus_halte","name":"De Stompert","operator":""}},{"type":"Feature","geometry":{"type":"Point","coordinates":[5.311994,52.128239]},"properties":{"category":"bus_halte","name":"De Stompert","operator":""}},{"type":"Feature","geometry":{"type":"Point","coordinates":[5.315906,52.129455]},"properties":{"category":"bus_halte","name":"Dumoulin Kazerne","operator":""}},{"type":"Feature","geometry":{"type":"Point","coordinates":[5.318224,52.129962]},"properties":{"category":"bus_halte","name":"Dumoulin Kazerne","operator":""}},{"type":"Feature","geometry":{"type":"Point","coordinates":[5.324709,52.131716]},"properties":{"category":"bus_halte","name":"Meijerijlaantje","operator":""}},{"type":"Feature","geometry":{"type":"Point","coordinates":[5.323278,52.131508]},"properties":{"category":"bus_halte","name":"Meijerijlaantje","operator":""}},{"type":"Feature","geometry":{"type":"Point","coordinates":[5.331732,52.133625]},"properties":{"category":"bus_halte","name":"Bethanie/Hebron","operator":""}},{"type":"Feature","geometry":{"type":"Point","coordinates":[5.331191,52.133624]},"properties":{"category":"bus_halte","name":"Bethanie/Hebron","operator":""}},{"type":"Feature","geometry":{"type":"Point","coordinates":[5.273251,52.176255]},"properties":{"category":"bus_halte","name":"Dorresteinweg","operator":""}},{"type":"Feature","geometry":{"type":"Point","coordinates":[5.272219,52.177267]},"properties":{"category":"bus_halte","name":"Dorresteinweg","operator":""}},{"type":"Feature","geometry":{"type":"Point","coordinates":[5.267545,52.180918]},"properties":{"category":"bus_halte","name":"Belvedereweg","operator":""}},{"type":"Feature","geometry":{"type":"Point","coordinates":[5.267453,52.180734]},"properties":{"category":"bus_halte","name":"Belvedereweg","operator":""}},{"type":"Feature","geometry":{"type":"Point","coordinates":[5.269088,52.183598]},"properties":{"category":"bus_halte","name":"Beckeringhstraat","operator":""}},{"type":"Feature","geometry":{"type":"Point","coordinates":[5.279152,52.173331]},"properties":{"category":"bus_halte","name":"Vrijheidsweg","operator":""}},{"type":"Feature","geometry":{"type":"Point","coordinates":[5.288073,52.167643]},"properties":{"category":"bus_halte","name":"Varenstraat","operator":""}},{"type":"Feature","geometry":{"type":"Point","coordinates":[5.288424,52.16767]},"properties":{"category":"bus_halte","name":"Varenstraat","operator":""}},{"type":"Feature","geometry":{"type":"Point","coordinates":[5.289773,52.164555]},"properties":{"category":"bus_halte","name":"Eigendomweg","operator":""}},{"type":"Feature","geometry":{"type":"Point","coordinates":[5.290042,52.16469]},"properties":{"category":"bus_halte","name":"Eigendomweg","operator":""}},{"type":"Feature","geometry":{"type":"Point","coordinates":[5.287745,52.169162]},"properties":{"category":"bus_halte","name":"Veenbesstraat","operator":""}},{"type":"Feature","geometry":{"type":"Point","coordinates":[5.287689,52.169404]},"properties":{"category":"bus_halte","name":"Veenbesstraat","operator":""}},{"type":"Feature","geometry":{"type":"Point","coordinates":[5.285391,52.171764]},"properties":{"category":"bus_halte","name":"Speenkruidstraat","operator":""}},{"type":"Feature","geometry":{"type":"Point","coordinates":[5.285872,52.171506]},"properties":{"category":"bus_halte","name":"Speenkruidstraat","operator":""}},{"type":"Feature","geometry":{"type":"Point","coordinates":[5.294433,52.170937]},"properties":{"category":"bus_halte","name":"Smitsweg","operator":""}},{"type":"Feature","geometry":{"type":"Point","coordinates":[5.294495,52.171144]},"properties":{"category":"bus_halte","name":"Smitsweg","operator":""}},{"type":"Feature","geometry":{"type":"Point","coordinates":[5.276883,52.174629]},"properties":{"category":"bus_halte","name":"Vrijheidsweg","operator":""}},{"type":"Feature","geometry":{"type":"Point","coordinates":[5.292094,52.174171]},"properties":{"category":"bus_halte","name":"Beukenlaan","operator":""}},{"type":"Feature","geometry":{"type":"Point","coordinates":[5.292223,52.175088]},"properties":{"category":"bus_halte","name":"Beukenlaan","operator":""}},{"type":"Feature","geometry":{"type":"Point","coordinates":[5.294504,52.176499]},"properties":{"category":"bus_halte","name":"Raadhuisplein","operator":""}},{"type":"Feature","geometry":{"type":"Point","coordinates":[5.295044,52.176614]},"properties":{"category":"bus_halte","name":"Raadhuisplein","operator":""}},{"type":"Feature","geometry":{"type":"Point","coordinates":[5.296366,52.168736]},"properties":{"category":"bus_halte","name":"Parklaan","operator":""}},{"type":"Feature","geometry":{"type":"Point","coordinates":[5.296419,52.168863]},"properties":{"category":"bus_halte","name":"Parklaan","operator":""}},{"type":"Feature","geometry":{"type":"Point","coordinates":[5.298487,52.178788]},"properties":{"category":"bus_halte","name":"Albert Cuyplaan","operator":""}},{"type":"Feature","geometry":{"type":"Point","coordinates":[5.298818,52.178802]},"properties":{"category":"bus_halte","name":"Albert Cuyplaan","operator":""}},{"type":"Feature","geometry":{"type":"Point","coordinates":[5.299792,52.184269]},"properties":{"category":"bus_halte","name":"Station Soestdijk","operator":""}},{"type":"Feature","geometry":{"type":"Point","coordinates":[5.302856,52.181151]},"properties":{"category":"bus_halte","name":"Kerkplein","operator":""}},{"type":"Feature","geometry":{"type":"Point","coordinates":[5.302653,52.181176]},"properties":{"category":"bus_halte","name":"Kerkplein","operator":""}},{"type":"Feature","geometry":{"type":"Point","coordinates":[5.300455,52.184078]},"properties":{"category":"bus_halte","name":"Station Soestdijk","operator":""}},{"type":"Feature","geometry":{"type":"Point","coordinates":[5.285192,52.187827]},"properties":{"category":"bus_halte","name":"Nieuwerhoekplein","operator":""}},{"type":"Feature","geometry":{"type":"Point","coordinates":[5.28566,52.187639]},"properties":{"category":"bus_halte","name":"Nieuwerhoekplein","operator":""}},{"type":"Feature","geometry":{"type":"Point","coordinates":[5.294007,52.187897]},"properties":{"category":"bus_halte","name":"Braamhage","operator":""}},{"type":"Feature","geometry":{"type":"Point","coordinates":[5.29381,52.188018]},"properties":{"category":"bus_halte","name":"Braamhage","operator":""}},{"type":"Feature","geometry":{"type":"Point","coordinates":[5.289619,52.122335]},"properties":{"category":"bus_halte","name":"Oude Tempellaan","operator":""}},{"type":"Feature","geometry":{"type":"Point","coordinates":[5.289999,52.122345]},"properties":{"category":"bus_halte","name":"Oude Tempellaan","operator":""}},{"type":"Feature","geometry":{"type":"Point","coordinates":[5.315825,52.16174]},"properties":{"category":"bus_halte","name":"Van Lenneplaan","operator":""}},{"type":"Feature","geometry":{"type":"Point","coordinates":[5.315737,52.16191]},"properties":{"category":"bus_halte","name":"Van Lenneplaan","operator":""}},{"type":"Feature","geometry":{"type":"Point","coordinates":[5.328424,52.160713]},"properties":{"category":"bus_halte","name":"De Birkt","operator":""}},{"type":"Feature","geometry":{"type":"Point","coordinates":[5.328688,52.16056]},"properties":{"category":"bus_halte","name":"De Birkt","operator":""}},{"type":"Feature","geometry":{"type":"Point","coordinates":[5.337896,52.159962]},"properties":{"category":"bus_halte","name":"Zandlaan","operator":""}},{"type":"Feature","geometry":{"type":"Point","coordinates":[5.300966,52.145914]},"properties":{"category":"bus_halte","name":"Soestduinen","operator":""}},{"type":"Feature","geometry":{"type":"Point","coordinates":[5.301212,52.145935]},"properties":{"category":"bus_halte","name":"Soestduinen","operator":""}},{"type":"Feature","geometry":{"type":"Point","coordinates":[5.307578,52.1594]},"properties":{"category":"bus_halte","name":"Heideweg","operator":""}},{"type":"Feature","geometry":{"type":"Point","coordinates":[5.307455,52.159433]},"properties":{"category":"bus_halte","name":"Heideweg","operator":""}},{"type":"Feature","geometry":{"type":"Point","coordinates":[5.283282,52.166569]},"properties":{"category":"bus_halte","name":"Choristenpad","operator":""}},{"type":"Feature","geometry":{"type":"Point","coordinates":[5.283379,52.166599]},"properties":{"category":"bus_halte","name":"Choristenpad","operator":""}},{"type":"Feature","geometry":{"type":"Point","coordinates":[5.282853,52.168618]},"properties":{"category":"bus_halte","name":"Winkelcentrum Overhees","operator":""}},{"type":"Feature","geometry":{"type":"Point","coordinates":[5.276661,52.172109]},"properties":{"category":"bus_halte","name":"Spinet","operator":""}},{"type":"Feature","geometry":{"type":"Point","coordinates":[5.276776,52.172162]},"properties":{"category":"bus_halte","name":"Spinet","operator":""}},{"type":"Feature","geometry":{"type":"Point","coordinates":[5.279725,52.170169]},"properties":{"category":"bus_halte","name":"Gemshoorn","operator":""}},{"type":"Feature","geometry":{"type":"Point","coordinates":[5.279797,52.170221]},"properties":{"category":"bus_halte","name":"Gemshoorn","operator":""}},{"type":"Feature","geometry":{"type":"Point","coordinates":[5.282369,52.1693]},"properties":{"category":"bus_halte","name":"Winkelcentrum Overhees","operator":""}},{"type":"Feature","geometry":{"type":"Point","coordinates":[5.285038,52.165609]},"properties":{"category":"bus_halte","name":"Isaacstraat","operator":""}},{"type":"Feature","geometry":{"type":"Point","coordinates":[5.286542,52.165943]},"properties":{"category":"bus_halte","name":"Isaacstraat","operator":""}},{"type":"Feature","geometry":{"type":"Point","coordinates":[5.278615,52.174321]},"properties":{"category":"bus_halte","name":"Koningsweg","operator":""}},{"type":"Feature","geometry":{"type":"Point","coordinates":[5.278982,52.174378]},"properties":{"category":"bus_halte","name":"Koningsweg","operator":""}},{"type":"Feature","geometry":{"type":"Point","coordinates":[5.280952,52.176047]},"properties":{"category":"bus_halte","name":"Jan de Rooijstraat","operator":""}},{"type":"Feature","geometry":{"type":"Point","coordinates":[5.281023,52.175914]},"properties":{"category":"bus_halte","name":"Jan de Rooijstraat","operator":""}},{"type":"Feature","geometry":{"type":"Point","coordinates":[5.283767,52.178002]},"properties":{"category":"bus_halte","name":"Nijverheidsweg","operator":""}},{"type":"Feature","geometry":{"type":"Point","coordinates":[5.283533,52.177993]},"properties":{"category":"bus_halte","name":"Nijverheidsweg","operator":""}},{"type":"Feature","geometry":{"type":"Point","coordinates":[5.30811,52.162974]},"properties":{"category":"bus_halte","name":"Winkelc. Soest-Zuid","operator":""}},{"type":"Feature","geometry":{"type":"Point","coordinates":[5.308794,52.164602]},"properties":{"category":"bus_halte","name":"Winkelc. Soest-Zuid","operator":""}},{"type":"Feature","geometry":{"type":"Point","coordinates":[5.282369,52.191618]},"properties":{"category":"bus_halte","name":"Colenso","operator":""}},{"type":"Feature","geometry":{"type":"Point","coordinates":[5.281971,52.191824]},"properties":{"category":"bus_halte","name":"Colenso","operator":""}},{"type":"Feature","geometry":{"type":"Point","coordinates":[5.306133,52.114709]},"properties":{"category":"bus_halte","name":"P+R Soesterberg","operator":""}},{"type":"Feature","geometry":{"type":"Point","coordinates":[5.278842,52.180328]},"properties":{"category":"bus_halte","name":"Laanstraat","operator":""}},{"type":"Feature","geometry":{"type":"Point","coordinates":[5.278834,52.180437]},"properties":{"category":"bus_halte","name":"Laanstraat","operator":""}},{"type":"Feature","geometry":{"type":"Point","coordinates":[5.277381,52.182605]},"properties":{"category":"bus_halte","name":"Merelweg","operator":""}},{"type":"Feature","geometry":{"type":"Point","coordinates":[5.277819,52.182899]},"properties":{"category":"bus_halte","name":"Merelweg","operator":""}},{"type":"Feature","geometry":{"type":"Point","coordinates":[5.268751,52.18339]},"properties":{"category":"bus_halte","name":"Beckeringhstraat","operator":""}},{"type":"Feature","geometry":{"type":"Point","coordinates":[5.294441,52.141179]},"properties":{"category":"bus_halte","name":"Heezerspoor","operator":""}},{"type":"Feature","geometry":{"type":"Point","coordinates":[5.294924,52.141267]},"properties":{"category":"bus_halte","name":"Heezerspoor","operator":""}},{"type":"Feature","geometry":{"type":"Point","coordinates":[5.283893,52.170527]},"properties":{"category":"bus_halte","name":"Koningsweg/Dorpsstreek","operator":""}},{"type":"Feature","geometry":{"type":"Point","coordinates":[5.283867,52.170848]},"properties":{"category":"bus_halte","name":"Koningsweg/Dorpsstreek","operator":""}},{"type":"Feature","geometry":{"type":"Point","coordinates":[5.278951,52.131882]},"properties":{"category":"bus_halte","name":"Nationaal Militair Museum","operator":""}},{"type":"Feature","geometry":{"type":"Point","coordinates":[5.30381,52.16547]},"properties":{"category":"bus_halte","name":"Station Soest-Zuid","operator":""}},{"type":"Feature","geometry":{"type":"Point","coordinates":[5.303507,52.165274]},"properties":{"category":"bus_halte","name":"Station Soest-Zuid","operator":""}},{"type":"Feature","geometry":{"type":"Point","coordinates":[5.30373,52.165435]},"properties":{"category":"bus_halte","name":"Station Soest-Zuid","operator":""}},{"type":"Feature","geometry":{"type":"Point","coordinates":[5.303844,52.165522]},"properties":{"category":"bus_halte","name":"Station Soest-Zuid","operator":""}},{"type":"Feature","geometry":{"type":"Point","coordinates":[5.303424,52.165156]},"properties":{"category":"bus_halte","name":"Station Soest-Zuid","operator":""}},{"type":"Feature","geometry":{"type":"Point","coordinates":[5.305372,52.11692]},"properties":{"category":"bus_halte","name":"P+R Soesterberg","operator":""}},{"type":"Feature","geometry":{"type":"Point","coordinates":[5.304589,52.117914]},"properties":{"category":"bus_halte","name":"P+R Soesterberg","operator":""}},{"type":"Feature","geometry":{"type":"Point","coordinates":[5.280441,52.186109]},"properties":{"category":"bus_halte","name":"Soestdijk Noord","operator":""}},{"type":"Feature","geometry":{"type":"Point","coordinates":[5.280433,52.186197]},"properties":{"category":"bus_halte","name":"Soestdijk Noord","operator":""}},{"type":"Feature","geometry":{"type":"Point","coordinates":[5.280312,52.186023]},"properties":{"category":"bus_halte","name":"Soestdijk Noord","operator":""}},{"type":"Feature","geometry":{"type":"Point","coordinates":[5.280482,52.185978]},"properties":{"category":"bus_halte","name":"Soestdijk Noord","operator":""}},{"type":"Feature","geometry":{"type":"Point","coordinates":[5.280268,52.186112]},"properties":{"category":"bus_halte","name":"Soestdijk Noord","operator":""}},{"type":"Feature","geometry":{"type":"Point","coordinates":[5.269315,52.183619]},"properties":{"category":"bus_halte","name":"Beckeringhstraat","operator":""}},{"type":"Feature","geometry":{"type":"Point","coordinates":[5.277729,52.119815]},"properties":{"category":"bus_halte","name":"Soesterberg West","operator":""}},{"type":"Feature","geometry":{"type":"Point","coordinates":[5.306427,52.17808]},"properties":{"category":"bus_halte","name":"Molenstraat","operator":""}},{"type":"Feature","geometry":{"type":"Point","coordinates":[5.3109,52.174671]},"properties":{"category":"bus_halte","name":"De Gouden Ploeg","operator":""}},{"type":"Feature","geometry":{"type":"Point","coordinates":[5.310921,52.170917]},"properties":{"category":"bus_halte","name":"Veldweg","operator":""}},{"type":"Feature","geometry":{"type":"Point","coordinates":[5.303621,52.165318]},"properties":{"category":"bus_halte","name":"Station Soest-Zuid","operator":""}},{"type":"Feature","geometry":{"type":"Point","coordinates":[5.280378,52.186068]},"properties":{"category":"ov_knooppunt","name":"Soestdijk Noord","operator":""}},{"type":"Feature","geometry":{"type":"Point","coordinates":[5.326526,52.181576]},"properties":{"category":"ov_knooppunt","name":"Fietsboot (Soest)","operator":"Eemlijn Fietsboot"}},{"type":"Feature","geometry":{"type":"Point","coordinates":[5.303619,52.165347]},"properties":{"category":"ov_knooppunt","name":"Station Soest-Zuid","operator":""}},{"type":"Feature","geometry":{"type":"Point","coordinates":[5.310153,52.173132]},"properties":{"category":"ov_knooppunt","name":"Soest","operator":""}},{"type":"Feature","geometry":{"type":"Point","coordinates":[5.299911,52.183857]},"properties":{"category":"ov_knooppunt","name":"Soestdijk","operator":""}},{"type":"Feature","geometry":{"type":"Point","coordinates":[5.302892,52.165199]},"properties":{"category":"ov_knooppunt","name":"Soest Zuid","operator":""}},{"type":"Feature","geometry":{"type":"Point","coordinates":[5.294029,52.177132]},"properties":{"category":"gemeentehuis","name":"Gemeentehuis Soest","operator":"Gemeente Soest"}},{"type":"Feature","geometry":{"type":"Point","coordinates":[5.308363,52.18215]},"properties":{"category":"inzamelpunt","name":"Afvalbrengstation Soest","operator":""}},{"type":"Feature","geometry":{"type":"Point","coordinates":[5.287822,52.124362]},"properties":{"category":"inzamelpunt","name":"","operator":""}},{"type":"Feature","geometry":{"type":"Point","coordinates":[5.282441,52.168373]},"properties":{"category":"bibliotheek","name":"Bibliotheek Soest","operator":"Bibliotheek Idea"}},{"type":"Feature","geometry":{"type":"Point","coordinates":[5.279291,52.118297]},"properties":{"category":"bibliotheek","name":"Bibliotheek Soesterberg","operator":"Bibliotheek Idea"}},{"type":"Feature","geometry":{"type":"Point","coordinates":[5.340788,52.167057]},"properties":{"category":"transformatorhuisje","name":"","operator":""}},{"type":"Feature","geometry":{"type":"Point","coordinates":[5.340639,52.167082]},"properties":{"category":"transformatorhuisje","name":"","operator":""}},{"type":"Feature","geometry":{"type":"Point","coordinates":[5.340467,52.167111]},"properties":{"category":"transformatorhuisje","name":"","operator":""}},{"type":"Feature","geometry":{"type":"Point","coordinates":[5.341133,52.167825]},"properties":{"category":"transformatorhuisje","name":"","operator":""}},{"type":"Feature","geometry":{"type":"Point","coordinates":[5.283213,52.158202]},"properties":{"category":"transformatorhuisje","name":"","operator":""}},{"type":"Feature","geometry":{"type":"Point","coordinates":[5.28315,52.158159]},"properties":{"category":"transformatorhuisje","name":"","operator":""}},{"type":"Feature","geometry":{"type":"Point","coordinates":[5.283221,52.158111]},"properties":{"category":"transformatorhuisje","name":"","operator":"Stedin"}},{"type":"Feature","geometry":{"type":"Point","coordinates":[5.284664,52.181913]},"properties":{"category":"middelbare_school","name":"De Lasenberg","operator":"'s Heeren Loo Onderwijs"}},{"type":"Feature","geometry":{"type":"Point","coordinates":[5.276829,52.161286]},"properties":{"category":"middelbare_school","name":"De Ruimte","operator":"Stichting De Ruimte Soest"}},{"type":"Feature","geometry":{"type":"Point","coordinates":[5.270331,52.162229]},"properties":{"category":"sportveld","name":"","operator":""}},{"type":"Feature","geometry":{"type":"Point","coordinates":[5.28481,52.158523]},"properties":{"category":"sportveld","name":"Sportpark Bosstraat-West","operator":""}},{"type":"Feature","geometry":{"type":"Point","coordinates":[5.3194,52.177419]},"properties":{"category":"sportveld","name":"Sportpark Zonnegloren","operator":""}},{"type":"Feature","geometry":{"type":"Point","coordinates":[5.281617,52.168942]},"properties":{"category":"winkelcentrum","name":"Winkelcentrum Overhees","operator":""}},{"type":"Feature","geometry":{"type":"Point","coordinates":[5.292156,52.171868]},"properties":{"category":"winkelcentrum","name":"Winkelcentrum Smitshof","operator":""}},{"type":"Feature","geometry":{"type":"Point","coordinates":[5.331677,52.153942]},"properties":{"category":"fietsenstalling","name":"","operator":""}},{"type":"Feature","geometry":{"type":"Point","coordinates":[5.303066,52.164978]},"properties":{"category":"fietsenstalling","name":"","operator":""}},{"type":"Feature","geometry":{"type":"Point","coordinates":[5.304084,52.16579]},"properties":{"category":"fietsenstalling","name":"","operator":""}},{"type":"Feature","geometry":{"type":"Point","coordinates":[5.310557,52.172534]},"properties":{"category":"fietsenstalling","name":"","operator":""}},{"type":"Feature","geometry":{"type":"Point","coordinates":[5.299755,52.183724]},"properties":{"category":"fietsenstalling","name":"","operator":""}},{"type":"Feature","geometry":{"type":"Point","coordinates":[5.301503,52.164788]},"properties":{"category":"p_and_r","name":"","operator":""}}]}