{"type":"FeatureCollection","metadata":{"gemeente":"Someren","slug":"someren","by_category":{"bus_halte":53,"transformatorhuisje":5,"middelbare_school":2,"fietsenstalling":2,"gemeentehuis":1,"inzamelpunt":1,"bibliotheek":1},"total":65},"features":[{"type":"Feature","geometry":{"type":"Point","coordinates":[5.705927,51.388158]},"properties":{"category":"bus_halte","name":"Speelheuvelplein","operator":""}},{"type":"Feature","geometry":{"type":"Point","coordinates":[5.681991,51.429218]},"properties":{"category":"bus_halte","name":"Steemertseweg","operator":""}},{"type":"Feature","geometry":{"type":"Point","coordinates":[5.6761,51.386821]},"properties":{"category":"bus_halte","name":"Keelven, Provincialeweg","operator":""}},{"type":"Feature","geometry":{"type":"Point","coordinates":[5.712369,51.390363]},"properties":{"category":"bus_halte","name":"Leeuwerikstraat","operator":""}},{"type":"Feature","geometry":{"type":"Point","coordinates":[5.71264,51.381429]},"properties":{"category":"bus_halte","name":"Kerkstraat","operator":""}},{"type":"Feature","geometry":{"type":"Point","coordinates":[5.729427,51.365886]},"properties":{"category":"bus_halte","name":"Braamstraat","operator":""}},{"type":"Feature","geometry":{"type":"Point","coordinates":[5.686682,51.327698]},"properties":{"category":"bus_halte","name":"Heibloemstraat","operator":""}},{"type":"Feature","geometry":{"type":"Point","coordinates":[5.718564,51.378696]},"properties":{"category":"bus_halte","name":"Keizerstraat","operator":""}},{"type":"Feature","geometry":{"type":"Point","coordinates":[5.695866,51.348472]},"properties":{"category":"bus_halte","name":"Kerk","operator":""}},{"type":"Feature","geometry":{"type":"Point","coordinates":[5.696868,51.355524]},"properties":{"category":"bus_halte","name":"Kerkendijk/Michelslaan","operator":""}},{"type":"Feature","geometry":{"type":"Point","coordinates":[5.694195,51.33811]},"properties":{"category":"bus_halte","name":"Kerkendijk/Nieuwendijk","operator":""}},{"type":"Feature","geometry":{"type":"Point","coordinates":[5.723794,51.374782]},"properties":{"category":"bus_halte","name":"Kievitstraat","operator":""}},{"type":"Feature","geometry":{"type":"Point","coordinates":[5.741973,51.352009]},"properties":{"category":"bus_halte","name":"Sluis 12","operator":""}},{"type":"Feature","geometry":{"type":"Point","coordinates":[5.709291,51.386219]},"properties":{"category":"bus_halte","name":"Tuinstraat","operator":""}},{"type":"Feature","geometry":{"type":"Point","coordinates":[5.710644,51.393073]},"properties":{"category":"bus_halte","name":"Eegelshoeve","operator":""}},{"type":"Feature","geometry":{"type":"Point","coordinates":[5.735425,51.358342]},"properties":{"category":"bus_halte","name":"Nieuwendijk","operator":""}},{"type":"Feature","geometry":{"type":"Point","coordinates":[5.745148,51.330776]},"properties":{"category":"bus_halte","name":"Sluis 13","operator":""}},{"type":"Feature","geometry":{"type":"Point","coordinates":[5.701335,51.386318]},"properties":{"category":"bus_halte","name":"Kapelletje","operator":""}},{"type":"Feature","geometry":{"type":"Point","coordinates":[5.682216,51.419113]},"properties":{"category":"bus_halte","name":"Kerk","operator":""}},{"type":"Feature","geometry":{"type":"Point","coordinates":[5.689342,51.399073]},"properties":{"category":"bus_halte","name":"Heesterdijk","operator":""}},{"type":"Feature","geometry":{"type":"Point","coordinates":[5.689084,51.399518]},"properties":{"category":"bus_halte","name":"Heesterdijk","operator":""}},{"type":"Feature","geometry":{"type":"Point","coordinates":[5.723854,51.374653]},"properties":{"category":"bus_halte","name":"Kievitstraat","operator":""}},{"type":"Feature","geometry":{"type":"Point","coordinates":[5.718597,51.378581]},"properties":{"category":"bus_halte","name":"Keizerstraat","operator":""}},{"type":"Feature","geometry":{"type":"Point","coordinates":[5.729513,51.365768]},"properties":{"category":"bus_halte","name":"Braamstraat","operator":""}},{"type":"Feature","geometry":{"type":"Point","coordinates":[5.735407,51.358225]},"properties":{"category":"bus_halte","name":"Nieuwendijk","operator":""}},{"type":"Feature","geometry":{"type":"Point","coordinates":[5.742049,51.351921]},"properties":{"category":"bus_halte","name":"Sluis 12","operator":""}},{"type":"Feature","geometry":{"type":"Point","coordinates":[5.745351,51.330724]},"properties":{"category":"bus_halte","name":"Sluis 13","operator":""}},{"type":"Feature","geometry":{"type":"Point","coordinates":[5.713607,51.386549]},"properties":{"category":"bus_halte","name":"De Meer","operator":""}},{"type":"Feature","geometry":{"type":"Point","coordinates":[5.713486,51.386905]},"properties":{"category":"bus_halte","name":"De Meer","operator":""}},{"type":"Feature","geometry":{"type":"Point","coordinates":[5.719135,51.387209]},"properties":{"category":"bus_halte","name":"Varendonck College","operator":""}},{"type":"Feature","geometry":{"type":"Point","coordinates":[5.718792,51.387403]},"properties":{"category":"bus_halte","name":"Varendonck College","operator":""}},{"type":"Feature","geometry":{"type":"Point","coordinates":[5.710655,51.393874]},"properties":{"category":"bus_halte","name":"Eegelshoeve","operator":""}},{"type":"Feature","geometry":{"type":"Point","coordinates":[5.712124,51.391001]},"properties":{"category":"bus_halte","name":"Leeuwerikstraat","operator":""}},{"type":"Feature","geometry":{"type":"Point","coordinates":[5.712768,51.381271]},"properties":{"category":"bus_halte","name":"Kerkstraat","operator":""}},{"type":"Feature","geometry":{"type":"Point","coordinates":[5.701757,51.386204]},"properties":{"category":"bus_halte","name":"Kapelletje","operator":""}},{"type":"Feature","geometry":{"type":"Point","coordinates":[5.682054,51.418901]},"properties":{"category":"bus_halte","name":"Kerk","operator":""}},{"type":"Feature","geometry":{"type":"Point","coordinates":[5.681871,51.429151]},"properties":{"category":"bus_halte","name":"Steemertseweg","operator":""}},{"type":"Feature","geometry":{"type":"Point","coordinates":[5.696728,51.355426]},"properties":{"category":"bus_halte","name":"Kerkendijk/Michelslaan","operator":""}},{"type":"Feature","geometry":{"type":"Point","coordinates":[5.686501,51.327752]},"properties":{"category":"bus_halte","name":"Heibloemstraat","operator":""}},{"type":"Feature","geometry":{"type":"Point","coordinates":[5.694047,51.337924]},"properties":{"category":"bus_halte","name":"Kerkendijk/Nieuwendijk","operator":""}},{"type":"Feature","geometry":{"type":"Point","coordinates":[5.695705,51.348271]},"properties":{"category":"bus_halte","name":"Kerk","operator":""}},{"type":"Feature","geometry":{"type":"Point","coordinates":[5.705647,51.388249]},"properties":{"category":"bus_halte","name":"Speelheuvelplein","operator":""}},{"type":"Feature","geometry":{"type":"Point","coordinates":[5.709503,51.386277]},"properties":{"category":"bus_halte","name":"Tuinstraat","operator":""}},{"type":"Feature","geometry":{"type":"Point","coordinates":[5.663479,51.385984]},"properties":{"category":"bus_halte","name":"Huize Witven/Provincialeweg","operator":""}},{"type":"Feature","geometry":{"type":"Point","coordinates":[5.676313,51.386857]},"properties":{"category":"bus_halte","name":"Keelven, Provincialeweg","operator":""}},{"type":"Feature","geometry":{"type":"Point","coordinates":[5.687711,51.388292]},"properties":{"category":"bus_halte","name":"Vaarselstraat","operator":""}},{"type":"Feature","geometry":{"type":"Point","coordinates":[5.688085,51.388213]},"properties":{"category":"bus_halte","name":"Vaarselstraat","operator":""}},{"type":"Feature","geometry":{"type":"Point","coordinates":[5.667347,51.43607]},"properties":{"category":"bus_halte","name":"Gebergte","operator":""}},{"type":"Feature","geometry":{"type":"Point","coordinates":[5.667474,51.435921]},"properties":{"category":"bus_halte","name":"Gebergte","operator":""}},{"type":"Feature","geometry":{"type":"Point","coordinates":[5.657159,51.383542]},"properties":{"category":"bus_halte","name":"Bosrandweg","operator":""}},{"type":"Feature","geometry":{"type":"Point","coordinates":[5.714229,51.381544]},"properties":{"category":"bus_halte","name":"De Ruchte","operator":""}},{"type":"Feature","geometry":{"type":"Point","coordinates":[5.714122,51.381563]},"properties":{"category":"bus_halte","name":"De Ruchte","operator":""}},{"type":"Feature","geometry":{"type":"Point","coordinates":[5.661999,51.385595]},"properties":{"category":"bus_halte","name":"Huize Witven/Provincialeweg","operator":""}},{"type":"Feature","geometry":{"type":"Point","coordinates":[5.714032,51.385695]},"properties":{"category":"gemeentehuis","name":"Gemeentehuis Someren","operator":"Gemeente Someren"}},{"type":"Feature","geometry":{"type":"Point","coordinates":[5.730562,51.389209]},"properties":{"category":"inzamelpunt","name":"Milieustraat Asten-Someren","operator":"Blink"}},{"type":"Feature","geometry":{"type":"Point","coordinates":[5.71304,51.383639]},"properties":{"category":"bibliotheek","name":"Bibliotheek Someren","operator":"Bibliotheek Helmond-Peel"}},{"type":"Feature","geometry":{"type":"Point","coordinates":[5.67568,51.3872]},"properties":{"category":"transformatorhuisje","name":"","operator":""}},{"type":"Feature","geometry":{"type":"Point","coordinates":[5.668718,51.386247]},"properties":{"category":"transformatorhuisje","name":"","operator":"Enexis"}},{"type":"Feature","geometry":{"type":"Point","coordinates":[5.674025,51.381995]},"properties":{"category":"transformatorhuisje","name":"","operator":"Enexis"}},{"type":"Feature","geometry":{"type":"Point","coordinates":[5.677198,51.385304]},"properties":{"category":"transformatorhuisje","name":"","operator":""}},{"type":"Feature","geometry":{"type":"Point","coordinates":[5.657945,51.382498]},"properties":{"category":"transformatorhuisje","name":"","operator":""}},{"type":"Feature","geometry":{"type":"Point","coordinates":[5.71581,51.386567]},"properties":{"category":"middelbare_school","name":"Varendonck College","operator":"Ons Middelbaar Onderwijs"}},{"type":"Feature","geometry":{"type":"Point","coordinates":[5.717721,51.387261]},"properties":{"category":"middelbare_school","name":"Varendonck College","operator":"Ons Middelbaar Onderwijs"}},{"type":"Feature","geometry":{"type":"Point","coordinates":[5.717412,51.38701]},"properties":{"category":"fietsenstalling","name":"","operator":""}},{"type":"Feature","geometry":{"type":"Point","coordinates":[5.717557,51.386844]},"properties":{"category":"fietsenstalling","name":"","operator":""}}]}