{"type":"FeatureCollection","metadata":{"gemeente":"Stein","slug":"stein","by_category":{"bus_halte":34,"sportveld":4,"fietsenstalling":2,"gemeentehuis":1,"bibliotheek":1,"middelbare_school":1,"winkelcentrum":1,"p_and_r":1},"total":45},"features":[{"type":"Feature","geometry":{"type":"Point","coordinates":[5.779381,50.952099]},"properties":{"category":"bus_halte","name":"Business Park Stein","operator":""}},{"type":"Feature","geometry":{"type":"Point","coordinates":[5.777598,50.953978]},"properties":{"category":"bus_halte","name":"Helmbloem","operator":""}},{"type":"Feature","geometry":{"type":"Point","coordinates":[5.770104,50.959203]},"properties":{"category":"bus_halte","name":"Steinderweg","operator":""}},{"type":"Feature","geometry":{"type":"Point","coordinates":[5.767048,50.976585]},"properties":{"category":"bus_halte","name":"Zwartdriesstraat","operator":""}},{"type":"Feature","geometry":{"type":"Point","coordinates":[5.768383,50.96793]},"properties":{"category":"bus_halte","name":"Centrum","operator":""}},{"type":"Feature","geometry":{"type":"Point","coordinates":[5.771311,50.989655]},"properties":{"category":"bus_halte","name":"Heirstraat/Mauritslaan","operator":""}},{"type":"Feature","geometry":{"type":"Point","coordinates":[5.766538,50.972654]},"properties":{"category":"bus_halte","name":"Kloesstraat","operator":""}},{"type":"Feature","geometry":{"type":"Point","coordinates":[5.778363,50.988438]},"properties":{"category":"bus_halte","name":"Mauritslaan","operator":""}},{"type":"Feature","geometry":{"type":"Point","coordinates":[5.768504,50.968719]},"properties":{"category":"bus_halte","name":"Centrum","operator":""}},{"type":"Feature","geometry":{"type":"Point","coordinates":[5.779352,50.952429]},"properties":{"category":"bus_halte","name":"Business Park Stein","operator":""}},{"type":"Feature","geometry":{"type":"Point","coordinates":[5.766953,50.973732]},"properties":{"category":"bus_halte","name":"Kloesstraat","operator":""}},{"type":"Feature","geometry":{"type":"Point","coordinates":[5.767176,50.976836]},"properties":{"category":"bus_halte","name":"Zwartdriesstraat","operator":""}},{"type":"Feature","geometry":{"type":"Point","coordinates":[5.771634,50.989778]},"properties":{"category":"bus_halte","name":"Heirstraat/Mauritslaan","operator":""}},{"type":"Feature","geometry":{"type":"Point","coordinates":[5.777644,50.954163]},"properties":{"category":"bus_halte","name":"Helmbloem","operator":""}},{"type":"Feature","geometry":{"type":"Point","coordinates":[5.77123,50.958715]},"properties":{"category":"bus_halte","name":"Steinderweg","operator":""}},{"type":"Feature","geometry":{"type":"Point","coordinates":[5.782238,50.948511]},"properties":{"category":"bus_halte","name":"Steinderweg-Zuid","operator":""}},{"type":"Feature","geometry":{"type":"Point","coordinates":[5.782373,50.948785]},"properties":{"category":"bus_halte","name":"Steinderweg-Zuid","operator":""}},{"type":"Feature","geometry":{"type":"Point","coordinates":[5.778536,50.988218]},"properties":{"category":"bus_halte","name":"Mauritslaan","operator":""}},{"type":"Feature","geometry":{"type":"Point","coordinates":[5.768234,50.991492]},"properties":{"category":"bus_halte","name":"Brug","operator":""}},{"type":"Feature","geometry":{"type":"Point","coordinates":[5.767922,50.991484]},"properties":{"category":"bus_halte","name":"Brug","operator":""}},{"type":"Feature","geometry":{"type":"Point","coordinates":[5.769215,50.994878]},"properties":{"category":"bus_halte","name":"Plakstraat","operator":""}},{"type":"Feature","geometry":{"type":"Point","coordinates":[5.768901,50.994548]},"properties":{"category":"bus_halte","name":"Plakstraat","operator":""}},{"type":"Feature","geometry":{"type":"Point","coordinates":[5.770062,50.999054]},"properties":{"category":"bus_halte","name":"Rozenhoek","operator":""}},{"type":"Feature","geometry":{"type":"Point","coordinates":[5.770028,50.99856]},"properties":{"category":"bus_halte","name":"Rozenhoek","operator":""}},{"type":"Feature","geometry":{"type":"Point","coordinates":[5.770104,51.002076]},"properties":{"category":"bus_halte","name":"Steegstraat","operator":""}},{"type":"Feature","geometry":{"type":"Point","coordinates":[5.769991,51.002355]},"properties":{"category":"bus_halte","name":"Steegstraat","operator":""}},{"type":"Feature","geometry":{"type":"Point","coordinates":[5.771526,51.00487]},"properties":{"category":"bus_halte","name":"Beatrixplein","operator":""}},{"type":"Feature","geometry":{"type":"Point","coordinates":[5.771332,51.004765]},"properties":{"category":"bus_halte","name":"Beatrixplein","operator":""}},{"type":"Feature","geometry":{"type":"Point","coordinates":[5.777419,51.003313]},"properties":{"category":"bus_halte","name":"Molenweg-Noord","operator":""}},{"type":"Feature","geometry":{"type":"Point","coordinates":[5.766173,50.991411]},"properties":{"category":"bus_halte","name":"Sint Maartenstraat","operator":""}},{"type":"Feature","geometry":{"type":"Point","coordinates":[5.775622,51.002989]},"properties":{"category":"bus_halte","name":"Molenweg Noord/Bergerweg","operator":""}},{"type":"Feature","geometry":{"type":"Point","coordinates":[5.775641,51.002843]},"properties":{"category":"bus_halte","name":"Molenweg Noord/Bergerweg","operator":""}},{"type":"Feature","geometry":{"type":"Point","coordinates":[5.772156,50.991904]},"properties":{"category":"bus_halte","name":"Marktschip","operator":""}},{"type":"Feature","geometry":{"type":"Point","coordinates":[5.772334,50.992091]},"properties":{"category":"bus_halte","name":"Marktschip","operator":""}},{"type":"Feature","geometry":{"type":"Point","coordinates":[5.777041,50.968301]},"properties":{"category":"gemeentehuis","name":"Gemeentehuis Stein","operator":"Gemeente Stein"}},{"type":"Feature","geometry":{"type":"Point","coordinates":[5.765089,50.968396]},"properties":{"category":"bibliotheek","name":"Bibliotheek Stein","operator":"Bibliotheek De Domijnen"}},{"type":"Feature","geometry":{"type":"Point","coordinates":[5.767965,50.993266]},"properties":{"category":"middelbare_school","name":"St. Jozef / IZEO Koraal","operator":"Stichting Alterius"}},{"type":"Feature","geometry":{"type":"Point","coordinates":[5.776256,50.959523]},"properties":{"category":"sportveld","name":"Sporthal Merode","operator":""}},{"type":"Feature","geometry":{"type":"Point","coordinates":[5.770044,50.943449]},"properties":{"category":"sportveld","name":"Sportpark Mergelakker","operator":""}},{"type":"Feature","geometry":{"type":"Point","coordinates":[5.780596,50.968664]},"properties":{"category":"sportveld","name":"LTV Stein","operator":""}},{"type":"Feature","geometry":{"type":"Point","coordinates":[5.776201,50.969761]},"properties":{"category":"sportveld","name":"","operator":""}},{"type":"Feature","geometry":{"type":"Point","coordinates":[5.766063,50.968528]},"properties":{"category":"winkelcentrum","name":"Winkelcentrum Stein","operator":""}},{"type":"Feature","geometry":{"type":"Point","coordinates":[5.779556,50.989418]},"properties":{"category":"fietsenstalling","name":"","operator":""}},{"type":"Feature","geometry":{"type":"Point","coordinates":[5.7853,50.947094]},"properties":{"category":"fietsenstalling","name":"","operator":""}},{"type":"Feature","geometry":{"type":"Point","coordinates":[5.786873,50.947903]},"properties":{"category":"p_and_r","name":"P+R Beek-Elsloo","operator":""}}]}