{"type":"FeatureCollection","metadata":{"gemeente":"Texel","slug":"texel","by_category":{"bus_halte":155,"transformatorhuisje":16,"supermarkt":10,"fietsenstalling":4,"ov_knooppunt":1,"gemeentehuis":1,"inzamelpunt":1,"bibliotheek":1,"middelbare_school":1,"sportveld":1},"total":191},"features":[{"type":"Feature","geometry":{"type":"Point","coordinates":[4.780644,53.004386]},"properties":{"category":"bus_halte","name":"Veerhaven","operator":""}},{"type":"Feature","geometry":{"type":"Point","coordinates":[4.794679,53.049506]},"properties":{"category":"bus_halte","name":"VVV Texel","operator":""}},{"type":"Feature","geometry":{"type":"Point","coordinates":[4.780401,53.004062]},"properties":{"category":"bus_halte","name":"Veerhaven","operator":""}},{"type":"Feature","geometry":{"type":"Point","coordinates":[4.780703,53.004402]},"properties":{"category":"bus_halte","name":"Veerhaven","operator":""}},{"type":"Feature","geometry":{"type":"Point","coordinates":[4.780759,53.004414]},"properties":{"category":"bus_halte","name":"Veerhaven","operator":""}},{"type":"Feature","geometry":{"type":"Point","coordinates":[4.780795,53.00443]},"properties":{"category":"bus_halte","name":"Veerhaven","operator":""}},{"type":"Feature","geometry":{"type":"Point","coordinates":[4.80432,53.03875]},"properties":{"category":"bus_halte","name":"Pontweg-Zuidhaffel","operator":""}},{"type":"Feature","geometry":{"type":"Point","coordinates":[4.804876,53.038408]},"properties":{"category":"bus_halte","name":"Pontweg-Zuidhaffel","operator":""}},{"type":"Feature","geometry":{"type":"Point","coordinates":[4.80051,53.02824]},"properties":{"category":"bus_halte","name":"Pontweg-Redoute","operator":""}},{"type":"Feature","geometry":{"type":"Point","coordinates":[4.80137,53.02866]},"properties":{"category":"bus_halte","name":"Pontweg-Redoute","operator":""}},{"type":"Feature","geometry":{"type":"Point","coordinates":[4.79267,53.02211]},"properties":{"category":"bus_halte","name":"Pontweg-Amaliaweg","operator":""}},{"type":"Feature","geometry":{"type":"Point","coordinates":[4.79439,53.02319]},"properties":{"category":"bus_halte","name":"Pontweg-Amaliaweg","operator":""}},{"type":"Feature","geometry":{"type":"Point","coordinates":[4.79995,53.04221]},"properties":{"category":"bus_halte","name":"Pontweg-Leemkuil","operator":""}},{"type":"Feature","geometry":{"type":"Point","coordinates":[4.80038,53.04211]},"properties":{"category":"bus_halte","name":"Pontweg-Leemkuil","operator":""}},{"type":"Feature","geometry":{"type":"Point","coordinates":[4.78647,53.055444]},"properties":{"category":"bus_halte","name":"De Zandkoog","operator":""}},{"type":"Feature","geometry":{"type":"Point","coordinates":[4.790518,53.054444]},"properties":{"category":"bus_halte","name":"Gasthuisstraat","operator":""}},{"type":"Feature","geometry":{"type":"Point","coordinates":[4.790924,53.056186]},"properties":{"category":"bus_halte","name":"Sint Jan","operator":""}},{"type":"Feature","geometry":{"type":"Point","coordinates":[4.791781,53.058499]},"properties":{"category":"bus_halte","name":"Noordwester","operator":""}},{"type":"Feature","geometry":{"type":"Point","coordinates":[4.796855,53.059241]},"properties":{"category":"bus_halte","name":"Wagemakerstraat","operator":""}},{"type":"Feature","geometry":{"type":"Point","coordinates":[4.801546,53.057234]},"properties":{"category":"bus_halte","name":"Buytengors","operator":""}},{"type":"Feature","geometry":{"type":"Point","coordinates":[4.804199,53.054983]},"properties":{"category":"bus_halte","name":"Meester Kraaistraat","operator":""}},{"type":"Feature","geometry":{"type":"Point","coordinates":[4.803993,53.05281]},"properties":{"category":"bus_halte","name":"De 99","operator":""}},{"type":"Feature","geometry":{"type":"Point","coordinates":[4.800703,53.051429]},"properties":{"category":"bus_halte","name":"OSG De Hogeberg","operator":""}},{"type":"Feature","geometry":{"type":"Point","coordinates":[4.802359,53.051358]},"properties":{"category":"bus_halte","name":"Gemeentehuis","operator":""}},{"type":"Feature","geometry":{"type":"Point","coordinates":[4.7971,53.052132]},"properties":{"category":"bus_halte","name":"Elemert","operator":""}},{"type":"Feature","geometry":{"type":"Point","coordinates":[4.794971,53.049659]},"properties":{"category":"bus_halte","name":"VVV Texel","operator":""}},{"type":"Feature","geometry":{"type":"Point","coordinates":[4.77616,53.064588]},"properties":{"category":"bus_halte","name":"Pontweg-Rozendijk","operator":""}},{"type":"Feature","geometry":{"type":"Point","coordinates":[4.771005,53.091398]},"properties":{"category":"bus_halte","name":"Pontweg-Schumakersweg","operator":""}},{"type":"Feature","geometry":{"type":"Point","coordinates":[4.773312,53.088151]},"properties":{"category":"bus_halte","name":"Pontweg-Pijpersdijk","operator":""}},{"type":"Feature","geometry":{"type":"Point","coordinates":[4.772805,53.080211]},"properties":{"category":"bus_halte","name":"Pontweg-Pelikaanweg","operator":""}},{"type":"Feature","geometry":{"type":"Point","coordinates":[4.772092,53.074846]},"properties":{"category":"bus_halte","name":"Pontweg-Californieweg","operator":""}},{"type":"Feature","geometry":{"type":"Point","coordinates":[4.772499,53.074543]},"properties":{"category":"bus_halte","name":"Pontweg-Californieweg","operator":""}},{"type":"Feature","geometry":{"type":"Point","coordinates":[4.7734,53.069179]},"properties":{"category":"bus_halte","name":"Gerritslanderdijkje","operator":""}},{"type":"Feature","geometry":{"type":"Point","coordinates":[4.773768,53.069203]},"properties":{"category":"bus_halte","name":"Gerritslanderdijkje","operator":""}},{"type":"Feature","geometry":{"type":"Point","coordinates":[4.768061,53.093411]},"properties":{"category":"bus_halte","name":"Bosch en Zee","operator":""}},{"type":"Feature","geometry":{"type":"Point","coordinates":[4.775908,53.064391]},"properties":{"category":"bus_halte","name":"Pontweg-Rozendijk","operator":""}},{"type":"Feature","geometry":{"type":"Point","coordinates":[4.748577,53.077836]},"properties":{"category":"bus_halte","name":"Ecomare","operator":""}},{"type":"Feature","geometry":{"type":"Point","coordinates":[4.75637,53.08929]},"properties":{"category":"bus_halte","name":"Maartenhuis","operator":""}},{"type":"Feature","geometry":{"type":"Point","coordinates":[4.78611,53.0555]},"properties":{"category":"bus_halte","name":"De Zandkoog","operator":""}},{"type":"Feature","geometry":{"type":"Point","coordinates":[4.75806,53.09295]},"properties":{"category":"bus_halte","name":"Epelaan","operator":""}},{"type":"Feature","geometry":{"type":"Point","coordinates":[4.759413,53.097538]},"properties":{"category":"bus_halte","name":"Brink","operator":""}},{"type":"Feature","geometry":{"type":"Point","coordinates":[4.761162,53.099807]},"properties":{"category":"bus_halte","name":"Badweg","operator":""}},{"type":"Feature","geometry":{"type":"Point","coordinates":[4.7649,53.09908]},"properties":{"category":"bus_halte","name":"Nikadel","operator":""}},{"type":"Feature","geometry":{"type":"Point","coordinates":[4.763349,53.096657]},"properties":{"category":"bus_halte","name":"Dorpsstraat","operator":""}},{"type":"Feature","geometry":{"type":"Point","coordinates":[4.758936,53.075854]},"properties":{"category":"bus_halte","name":"Californiëweg-So What","operator":""}},{"type":"Feature","geometry":{"type":"Point","coordinates":[4.75412,53.07673]},"properties":{"category":"bus_halte","name":"Californie","operator":""}},{"type":"Feature","geometry":{"type":"Point","coordinates":[4.745685,53.025128]},"properties":{"category":"bus_halte","name":"Klif","operator":""}},{"type":"Feature","geometry":{"type":"Point","coordinates":[4.753131,53.024488]},"properties":{"category":"bus_halte","name":"De Naal","operator":""}},{"type":"Feature","geometry":{"type":"Point","coordinates":[4.750539,53.024001]},"properties":{"category":"bus_halte","name":"Den Andel","operator":""}},{"type":"Feature","geometry":{"type":"Point","coordinates":[4.74073,53.02153]},"properties":{"category":"bus_halte","name":"Loodsmansduin","operator":""}},{"type":"Feature","geometry":{"type":"Point","coordinates":[4.738516,53.031195]},"properties":{"category":"bus_halte","name":"Bonte Belevenis","operator":""}},{"type":"Feature","geometry":{"type":"Point","coordinates":[4.75048,53.00555]},"properties":{"category":"bus_halte","name":"De Hors","operator":""}},{"type":"Feature","geometry":{"type":"Point","coordinates":[4.769163,53.009988]},"properties":{"category":"bus_halte","name":"Zeemansduin","operator":""}},{"type":"Feature","geometry":{"type":"Point","coordinates":[4.71116,53.02099]},"properties":{"category":"bus_halte","name":"Paal 9","operator":""}},{"type":"Feature","geometry":{"type":"Point","coordinates":[4.7549,53.03361]},"properties":{"category":"bus_halte","name":"Jonkersbergen","operator":""}},{"type":"Feature","geometry":{"type":"Point","coordinates":[4.76167,53.02674]},"properties":{"category":"bus_halte","name":"Novalishoeve","operator":""}},{"type":"Feature","geometry":{"type":"Point","coordinates":[4.763529,53.050731]},"properties":{"category":"bus_halte","name":"Driehuizen","operator":""}},{"type":"Feature","geometry":{"type":"Point","coordinates":[4.75507,53.04684]},"properties":{"category":"bus_halte","name":"Anja Hoeve","operator":""}},{"type":"Feature","geometry":{"type":"Point","coordinates":[4.747846,53.052946]},"properties":{"category":"bus_halte","name":"Bos en Duin","operator":""}},{"type":"Feature","geometry":{"type":"Point","coordinates":[4.71566,53.03858]},"properties":{"category":"bus_halte","name":"Paal 12","operator":""}},{"type":"Feature","geometry":{"type":"Point","coordinates":[4.849343,53.039469]},"properties":{"category":"bus_halte","name":"Haven","operator":""}},{"type":"Feature","geometry":{"type":"Point","coordinates":[4.84894,53.03694]},"properties":{"category":"bus_halte","name":"De Ruyterstraat","operator":""}},{"type":"Feature","geometry":{"type":"Point","coordinates":[4.848005,53.039307]},"properties":{"category":"bus_halte","name":"Museum Kaapskil","operator":""}},{"type":"Feature","geometry":{"type":"Point","coordinates":[4.847128,53.039473]},"properties":{"category":"bus_halte","name":"Heemskerckstraat","operator":""}},{"type":"Feature","geometry":{"type":"Point","coordinates":[4.842582,53.04066]},"properties":{"category":"bus_halte","name":"Puzzelweg","operator":""}},{"type":"Feature","geometry":{"type":"Point","coordinates":[4.82692,53.04501]},"properties":{"category":"bus_halte","name":"Bierbrouwerij","operator":""}},{"type":"Feature","geometry":{"type":"Point","coordinates":[4.813758,53.040182]},"properties":{"category":"bus_halte","name":"Begraafplaats Georgiers","operator":""}},{"type":"Feature","geometry":{"type":"Point","coordinates":[4.846904,53.034772]},"properties":{"category":"bus_halte","name":"'t Skiltje","operator":""}},{"type":"Feature","geometry":{"type":"Point","coordinates":[4.819492,53.030291]},"properties":{"category":"bus_halte","name":"Ceres","operator":""}},{"type":"Feature","geometry":{"type":"Point","coordinates":[4.85049,53.04401]},"properties":{"category":"bus_halte","name":"Vliegwiel","operator":""}},{"type":"Feature","geometry":{"type":"Point","coordinates":[4.840921,53.032408]},"properties":{"category":"bus_halte","name":"Bolwerk","operator":""}},{"type":"Feature","geometry":{"type":"Point","coordinates":[4.823003,53.072721]},"properties":{"category":"bus_halte","name":"Hotel De Waal","operator":""}},{"type":"Feature","geometry":{"type":"Point","coordinates":[4.825271,53.071423]},"properties":{"category":"bus_halte","name":"De Waal rotonde","operator":""}},{"type":"Feature","geometry":{"type":"Point","coordinates":[4.817349,53.057757]},"properties":{"category":"bus_halte","name":"Kadijksweg","operator":""}},{"type":"Feature","geometry":{"type":"Point","coordinates":[4.845487,53.056451]},"properties":{"category":"bus_halte","name":"Camping De Vrije Vogel","operator":""}},{"type":"Feature","geometry":{"type":"Point","coordinates":[4.855546,53.043825]},"properties":{"category":"bus_halte","name":"Jachthaven","operator":""}},{"type":"Feature","geometry":{"type":"Point","coordinates":[4.86013,53.126239]},"properties":{"category":"bus_halte","name":"De Kievit","operator":""}},{"type":"Feature","geometry":{"type":"Point","coordinates":[4.847354,53.135807]},"properties":{"category":"bus_halte","name":"Oorsprongweg","operator":""}},{"type":"Feature","geometry":{"type":"Point","coordinates":[4.863706,53.128384]},"properties":{"category":"bus_halte","name":"Midden Eierland","operator":""}},{"type":"Feature","geometry":{"type":"Point","coordinates":[4.865313,53.151865]},"properties":{"category":"bus_halte","name":"Molenbos","operator":""}},{"type":"Feature","geometry":{"type":"Point","coordinates":[4.859027,53.151606]},"properties":{"category":"bus_halte","name":"De Krim","operator":""}},{"type":"Feature","geometry":{"type":"Point","coordinates":[4.854396,53.147191]},"properties":{"category":"bus_halte","name":"Golfbaan","operator":""}},{"type":"Feature","geometry":{"type":"Point","coordinates":[4.861967,53.149152]},"properties":{"category":"bus_halte","name":"Roggeslootweg","operator":""}},{"type":"Feature","geometry":{"type":"Point","coordinates":[4.860805,53.147304]},"properties":{"category":"bus_halte","name":"Rio grande","operator":""}},{"type":"Feature","geometry":{"type":"Point","coordinates":[4.87242,53.156671]},"properties":{"category":"bus_halte","name":"Kikkertstraat","operator":""}},{"type":"Feature","geometry":{"type":"Point","coordinates":[4.868165,53.155713]},"properties":{"category":"bus_halte","name":"Eierlandse Huis","operator":""}},{"type":"Feature","geometry":{"type":"Point","coordinates":[4.869868,53.154789]},"properties":{"category":"bus_halte","name":"Molenlaan","operator":""}},{"type":"Feature","geometry":{"type":"Point","coordinates":[4.856847,53.180725]},"properties":{"category":"bus_halte","name":"Vuurtoren","operator":""}},{"type":"Feature","geometry":{"type":"Point","coordinates":[4.85939,53.177694]},"properties":{"category":"bus_halte","name":"Robbenjager","operator":""}},{"type":"Feature","geometry":{"type":"Point","coordinates":[4.868336,53.174207]},"properties":{"category":"bus_halte","name":"Paal 33","operator":""}},{"type":"Feature","geometry":{"type":"Point","coordinates":[4.82306,53.16146]},"properties":{"category":"bus_halte","name":"Paal 28","operator":""}},{"type":"Feature","geometry":{"type":"Point","coordinates":[4.843578,53.158073]},"properties":{"category":"bus_halte","name":"Landal Sluftervallei","operator":""}},{"type":"Feature","geometry":{"type":"Point","coordinates":[4.86419,53.15665]},"properties":{"category":"bus_halte","name":"Krimweg","operator":""}},{"type":"Feature","geometry":{"type":"Point","coordinates":[4.869151,53.157633]},"properties":{"category":"bus_halte","name":"Klimpstraat","operator":""}},{"type":"Feature","geometry":{"type":"Point","coordinates":[4.863299,53.161108]},"properties":{"category":"bus_halte","name":"Axel","operator":""}},{"type":"Feature","geometry":{"type":"Point","coordinates":[4.87428,53.158077]},"properties":{"category":"bus_halte","name":"Langeveldstraat","operator":""}},{"type":"Feature","geometry":{"type":"Point","coordinates":[4.817221,53.130612]},"properties":{"category":"bus_halte","name":"De Slufter","operator":""}},{"type":"Feature","geometry":{"type":"Point","coordinates":[4.81139,53.12627]},"properties":{"category":"bus_halte","name":"Zanddijk","operator":""}},{"type":"Feature","geometry":{"type":"Point","coordinates":[4.803447,53.119253]},"properties":{"category":"bus_halte","name":"De Muy","operator":""}},{"type":"Feature","geometry":{"type":"Point","coordinates":[4.819135,53.112583]},"properties":{"category":"bus_halte","name":"Zuid Eierland","operator":""}},{"type":"Feature","geometry":{"type":"Point","coordinates":[4.826976,53.118256]},"properties":{"category":"bus_halte","name":"Vliegveld","operator":""}},{"type":"Feature","geometry":{"type":"Point","coordinates":[4.830975,53.121958]},"properties":{"category":"bus_halte","name":"Hotel Texel","operator":""}},{"type":"Feature","geometry":{"type":"Point","coordinates":[4.866673,53.144571]},"properties":{"category":"bus_halte","name":"Labora","operator":""}},{"type":"Feature","geometry":{"type":"Point","coordinates":[4.76485,53.086804]},"properties":{"category":"bus_halte","name":"Kustpark","operator":""}},{"type":"Feature","geometry":{"type":"Point","coordinates":[4.764246,53.089437]},"properties":{"category":"bus_halte","name":"Bosrandweg","operator":""}},{"type":"Feature","geometry":{"type":"Point","coordinates":[4.77331,53.09776]},"properties":{"category":"bus_halte","name":"Mienterglop","operator":""}},{"type":"Feature","geometry":{"type":"Point","coordinates":[4.758521,53.101218]},"properties":{"category":"bus_halte","name":"Kogerstrand","operator":""}},{"type":"Feature","geometry":{"type":"Point","coordinates":[4.76855,53.10734]},"properties":{"category":"bus_halte","name":"Paal 21","operator":""}},{"type":"Feature","geometry":{"type":"Point","coordinates":[4.78866,53.10537]},"properties":{"category":"bus_halte","name":"Texion","operator":""}},{"type":"Feature","geometry":{"type":"Point","coordinates":[4.788626,53.079962]},"properties":{"category":"bus_halte","name":"Waalderburght","operator":""}},{"type":"Feature","geometry":{"type":"Point","coordinates":[4.768981,53.103486]},"properties":{"category":"bus_halte","name":"De Shelter","operator":""}},{"type":"Feature","geometry":{"type":"Point","coordinates":[4.804899,53.100091]},"properties":{"category":"bus_halte","name":"De Driehoek","operator":""}},{"type":"Feature","geometry":{"type":"Point","coordinates":[4.827572,53.090894]},"properties":{"category":"bus_halte","name":"Plassendaal","operator":""}},{"type":"Feature","geometry":{"type":"Point","coordinates":[4.74012,53.08074]},"properties":{"category":"bus_halte","name":"Paal 17","operator":""}},{"type":"Feature","geometry":{"type":"Point","coordinates":[4.762685,53.081349]},"properties":{"category":"bus_halte","name":"De Pelikaan","operator":""}},{"type":"Feature","geometry":{"type":"Point","coordinates":[4.725335,53.063639]},"properties":{"category":"bus_halte","name":"Paal 15","operator":""}},{"type":"Feature","geometry":{"type":"Point","coordinates":[4.73469,53.05413]},"properties":{"category":"bus_halte","name":"Turfveld","operator":""}},{"type":"Feature","geometry":{"type":"Point","coordinates":[4.762825,53.059101]},"properties":{"category":"bus_halte","name":"Catharinahoeve","operator":""}},{"type":"Feature","geometry":{"type":"Point","coordinates":[4.76541,53.06796]},"properties":{"category":"bus_halte","name":"Bonte Koe","operator":""}},{"type":"Feature","geometry":{"type":"Point","coordinates":[4.756473,53.067705]},"properties":{"category":"bus_halte","name":"De Parel","operator":""}},{"type":"Feature","geometry":{"type":"Point","coordinates":[4.759783,53.063424]},"properties":{"category":"bus_halte","name":"Grensweg","operator":""}},{"type":"Feature","geometry":{"type":"Point","coordinates":[4.745386,53.079099]},"properties":{"category":"bus_halte","name":"Ecomare (entree)","operator":""}},{"type":"Feature","geometry":{"type":"Point","coordinates":[4.779412,53.054418]},"properties":{"category":"bus_halte","name":"Akenbuurt","operator":""}},{"type":"Feature","geometry":{"type":"Point","coordinates":[4.800917,53.061485]},"properties":{"category":"bus_halte","name":"Waalderstraat","operator":""}},{"type":"Feature","geometry":{"type":"Point","coordinates":[4.797364,53.053807]},"properties":{"category":"bus_halte","name":"Groeneplaats","operator":""}},{"type":"Feature","geometry":{"type":"Point","coordinates":[4.791066,53.051663]},"properties":{"category":"bus_halte","name":"Keesomlaan","operator":""}},{"type":"Feature","geometry":{"type":"Point","coordinates":[4.794246,53.054477]},"properties":{"category":"bus_halte","name":"Verpleeghuis","operator":""}},{"type":"Feature","geometry":{"type":"Point","coordinates":[4.79314,53.055431]},"properties":{"category":"bus_halte","name":"De Gollards","operator":""}},{"type":"Feature","geometry":{"type":"Point","coordinates":[4.787348,53.055847]},"properties":{"category":"bus_halte","name":"Dokterspost","operator":""}},{"type":"Feature","geometry":{"type":"Point","coordinates":[4.804817,53.0494]},"properties":{"category":"bus_halte","name":"Zwembad Molenkoog","operator":""}},{"type":"Feature","geometry":{"type":"Point","coordinates":[4.807672,53.055018]},"properties":{"category":"bus_halte","name":"Vuurvlinder","operator":""}},{"type":"Feature","geometry":{"type":"Point","coordinates":[4.808489,53.0494]},"properties":{"category":"bus_halte","name":"Schilderend","operator":""}},{"type":"Feature","geometry":{"type":"Point","coordinates":[4.805988,53.051199]},"properties":{"category":"bus_halte","name":"Reijer Keijserstraat","operator":""}},{"type":"Feature","geometry":{"type":"Point","coordinates":[4.87438,53.08577]},"properties":{"category":"bus_halte","name":"De Bijenkorf","operator":""}},{"type":"Feature","geometry":{"type":"Point","coordinates":[4.87092,53.08632]},"properties":{"category":"bus_halte","name":"Mulderstraat","operator":""}},{"type":"Feature","geometry":{"type":"Point","coordinates":[4.862241,53.085879]},"properties":{"category":"bus_halte","name":"Harkebuurt","operator":""}},{"type":"Feature","geometry":{"type":"Point","coordinates":[4.843227,53.08012]},"properties":{"category":"bus_halte","name":"Molenbuurt","operator":""}},{"type":"Feature","geometry":{"type":"Point","coordinates":[4.871552,53.065012]},"properties":{"category":"bus_halte","name":"Dijkmanshuizen","operator":""}},{"type":"Feature","geometry":{"type":"Point","coordinates":[4.861592,53.076011]},"properties":{"category":"bus_halte","name":"Spykdorp","operator":""}},{"type":"Feature","geometry":{"type":"Point","coordinates":[4.856573,53.099247]},"properties":{"category":"bus_halte","name":"Eureka","operator":""}},{"type":"Feature","geometry":{"type":"Point","coordinates":[4.891012,53.117298]},"properties":{"category":"bus_halte","name":"Avanti","operator":""}},{"type":"Feature","geometry":{"type":"Point","coordinates":[4.89732,53.11609]},"properties":{"category":"bus_halte","name":"Prins Hendrik","operator":""}},{"type":"Feature","geometry":{"type":"Point","coordinates":[4.89233,53.09796]},"properties":{"category":"bus_halte","name":"Loswal","operator":""}},{"type":"Feature","geometry":{"type":"Point","coordinates":[4.88939,53.09609]},"properties":{"category":"bus_halte","name":"Oosterweg","operator":""}},{"type":"Feature","geometry":{"type":"Point","coordinates":[4.884584,53.093832]},"properties":{"category":"bus_halte","name":"Zwinweg","operator":""}},{"type":"Feature","geometry":{"type":"Point","coordinates":[4.882187,53.088833]},"properties":{"category":"bus_halte","name":"Zevenhuizen","operator":""}},{"type":"Feature","geometry":{"type":"Point","coordinates":[4.876769,53.083294]},"properties":{"category":"bus_halte","name":"Achtertune","operator":""}},{"type":"Feature","geometry":{"type":"Point","coordinates":[4.873447,53.089982]},"properties":{"category":"bus_halte","name":"Koningsweg","operator":""}},{"type":"Feature","geometry":{"type":"Point","coordinates":[4.820437,53.112951]},"properties":{"category":"bus_halte","name":"","operator":""}},{"type":"Feature","geometry":{"type":"Point","coordinates":[4.797229,53.052224]},"properties":{"category":"bus_halte","name":"Elemert/Centrum","operator":""}},{"type":"Feature","geometry":{"type":"Point","coordinates":[4.849082,53.036947]},"properties":{"category":"bus_halte","name":"De Ruyterstraat","operator":""}},{"type":"Feature","geometry":{"type":"Point","coordinates":[4.849097,53.039266]},"properties":{"category":"bus_halte","name":"Haven","operator":""}},{"type":"Feature","geometry":{"type":"Point","coordinates":[4.843183,53.040569]},"properties":{"category":"bus_halte","name":"Puzzelweg","operator":""}},{"type":"Feature","geometry":{"type":"Point","coordinates":[4.825532,53.07149]},"properties":{"category":"bus_halte","name":"De Waal rotonde","operator":""}},{"type":"Feature","geometry":{"type":"Point","coordinates":[4.877054,53.083127]},"properties":{"category":"bus_halte","name":"Achtertune","operator":""}},{"type":"Feature","geometry":{"type":"Point","coordinates":[4.797152,53.052232]},"properties":{"category":"ov_knooppunt","name":"Elemert","operator":""}},{"type":"Feature","geometry":{"type":"Point","coordinates":[4.802803,53.050534]},"properties":{"category":"gemeentehuis","name":"Gemeentehuis Texel","operator":"Gemeente Texel"}},{"type":"Feature","geometry":{"type":"Point","coordinates":[4.844433,53.15866]},"properties":{"category":"inzamelpunt","name":"","operator":"Landal Greenparks"}},{"type":"Feature","geometry":{"type":"Point","coordinates":[4.803153,53.055404]},"properties":{"category":"bibliotheek","name":"Bibliotheek Texel","operator":"KopGroep Bibliotheken"}},{"type":"Feature","geometry":{"type":"Point","coordinates":[4.803549,53.050922]},"properties":{"category":"transformatorhuisje","name":"","operator":""}},{"type":"Feature","geometry":{"type":"Point","coordinates":[4.80343,53.050897]},"properties":{"category":"transformatorhuisje","name":"","operator":""}},{"type":"Feature","geometry":{"type":"Point","coordinates":[4.740544,53.020499]},"properties":{"category":"transformatorhuisje","name":"","operator":""}},{"type":"Feature","geometry":{"type":"Point","coordinates":[4.833814,53.123715]},"properties":{"category":"transformatorhuisje","name":"","operator":""}},{"type":"Feature","geometry":{"type":"Point","coordinates":[4.779878,53.003564]},"properties":{"category":"transformatorhuisje","name":"GV Pontweg 1","operator":""}},{"type":"Feature","geometry":{"type":"Point","coordinates":[4.775285,53.007523]},"properties":{"category":"transformatorhuisje","name":"","operator":""}},{"type":"Feature","geometry":{"type":"Point","coordinates":[4.790991,53.061173]},"properties":{"category":"transformatorhuisje","name":"","operator":""}},{"type":"Feature","geometry":{"type":"Point","coordinates":[4.758357,53.096273]},"properties":{"category":"transformatorhuisje","name":"","operator":""}},{"type":"Feature","geometry":{"type":"Point","coordinates":[4.759736,53.097746]},"properties":{"category":"transformatorhuisje","name":"","operator":""}},{"type":"Feature","geometry":{"type":"Point","coordinates":[4.769211,53.103581]},"properties":{"category":"transformatorhuisje","name":"","operator":""}},{"type":"Feature","geometry":{"type":"Point","coordinates":[4.786976,53.077174]},"properties":{"category":"transformatorhuisje","name":"","operator":""}},{"type":"Feature","geometry":{"type":"Point","coordinates":[4.801207,53.099648]},"properties":{"category":"transformatorhuisje","name":"","operator":""}},{"type":"Feature","geometry":{"type":"Point","coordinates":[4.858897,53.145457]},"properties":{"category":"transformatorhuisje","name":"","operator":""}},{"type":"Feature","geometry":{"type":"Point","coordinates":[4.863442,53.174289]},"properties":{"category":"transformatorhuisje","name":"","operator":""}},{"type":"Feature","geometry":{"type":"Point","coordinates":[4.856497,53.180957]},"properties":{"category":"transformatorhuisje","name":"Vuurtorenweg","operator":""}},{"type":"Feature","geometry":{"type":"Point","coordinates":[4.803495,53.050898]},"properties":{"category":"transformatorhuisje","name":"50kV Texel","operator":""}},{"type":"Feature","geometry":{"type":"Point","coordinates":[4.800031,53.050793]},"properties":{"category":"middelbare_school","name":"De Hogeberg","operator":""}},{"type":"Feature","geometry":{"type":"Point","coordinates":[4.835273,53.112352]},"properties":{"category":"sportveld","name":"MAB Club Texel","operator":""}},{"type":"Feature","geometry":{"type":"Point","coordinates":[4.798517,53.055762]},"properties":{"category":"supermarkt","name":"ALDI","operator":""}},{"type":"Feature","geometry":{"type":"Point","coordinates":[4.87361,53.084447]},"properties":{"category":"supermarkt","name":"Plus Hooijschuur","operator":"Plus Hooijschuur"}},{"type":"Feature","geometry":{"type":"Point","coordinates":[4.868906,53.154438]},"properties":{"category":"supermarkt","name":"PLUS","operator":""}},{"type":"Feature","geometry":{"type":"Point","coordinates":[4.752559,53.02581]},"properties":{"category":"supermarkt","name":"SPAR Goënga","operator":""}},{"type":"Feature","geometry":{"type":"Point","coordinates":[4.847991,53.040509]},"properties":{"category":"supermarkt","name":"SPAR","operator":""}},{"type":"Feature","geometry":{"type":"Point","coordinates":[4.79533,53.055291]},"properties":{"category":"supermarkt","name":"Jumbo","operator":"Jumbo Texel"}},{"type":"Feature","geometry":{"type":"Point","coordinates":[4.796094,53.05491]},"properties":{"category":"supermarkt","name":"Ekoplaza","operator":""}},{"type":"Feature","geometry":{"type":"Point","coordinates":[4.798007,53.056524]},"properties":{"category":"supermarkt","name":"Albert Heijn","operator":""}},{"type":"Feature","geometry":{"type":"Point","coordinates":[4.764157,53.099081]},"properties":{"category":"supermarkt","name":"Lidl","operator":"Lidl Nederland GmbH"}},{"type":"Feature","geometry":{"type":"Point","coordinates":[4.764072,53.0983]},"properties":{"category":"supermarkt","name":"Jumbo","operator":"Jumbo Texel"}},{"type":"Feature","geometry":{"type":"Point","coordinates":[4.897047,53.114659]},"properties":{"category":"fietsenstalling","name":"","operator":""}},{"type":"Feature","geometry":{"type":"Point","coordinates":[4.858199,53.152]},"properties":{"category":"fietsenstalling","name":"","operator":""}},{"type":"Feature","geometry":{"type":"Point","coordinates":[4.751098,53.026288]},"properties":{"category":"fietsenstalling","name":"","operator":""}},{"type":"Feature","geometry":{"type":"Point","coordinates":[4.758877,53.073515]},"properties":{"category":"fietsenstalling","name":"","operator":""}}]}