{"type":"FeatureCollection","metadata":{"gemeente":"Tynaarlo","slug":"tynaarlo","by_category":{"bus_halte":91,"fietsenstalling":21,"supermarkt":11,"sportveld":10,"bibliotheek":4,"ziekenhuis":2,"transformatorhuisje":2,"hogeschool":2,"ov_knooppunt":1,"gemeentehuis":1,"inzamelpunt":1,"winkelcentrum":1},"total":147},"features":[{"type":"Feature","geometry":{"type":"Point","coordinates":[6.517239,53.112018]},"properties":{"category":"bus_halte","name":"Bunnerveenseweg","operator":""}},{"type":"Feature","geometry":{"type":"Point","coordinates":[6.517183,53.112274]},"properties":{"category":"bus_halte","name":"Bunnerveenseweg","operator":""}},{"type":"Feature","geometry":{"type":"Point","coordinates":[6.545259,53.04518]},"properties":{"category":"bus_halte","name":"Askampstraat","operator":""}},{"type":"Feature","geometry":{"type":"Point","coordinates":[6.545029,53.045108]},"properties":{"category":"bus_halte","name":"Askampstraat","operator":""}},{"type":"Feature","geometry":{"type":"Point","coordinates":[6.545718,53.050052]},"properties":{"category":"bus_halte","name":"Oude Norgerweg","operator":""}},{"type":"Feature","geometry":{"type":"Point","coordinates":[6.545757,53.050367]},"properties":{"category":"bus_halte","name":"Oude Norgerweg","operator":""}},{"type":"Feature","geometry":{"type":"Point","coordinates":[6.576503,53.062832]},"properties":{"category":"bus_halte","name":"De Fledders","operator":""}},{"type":"Feature","geometry":{"type":"Point","coordinates":[6.576934,53.064642]},"properties":{"category":"bus_halte","name":"De Fledders","operator":""}},{"type":"Feature","geometry":{"type":"Point","coordinates":[6.577221,53.067498]},"properties":{"category":"bus_halte","name":"Diepsloot","operator":""}},{"type":"Feature","geometry":{"type":"Point","coordinates":[6.577602,53.068358]},"properties":{"category":"bus_halte","name":"Diepsloot","operator":""}},{"type":"Feature","geometry":{"type":"Point","coordinates":[6.578261,53.074225]},"properties":{"category":"bus_halte","name":"Centrum","operator":""}},{"type":"Feature","geometry":{"type":"Point","coordinates":[6.578729,53.075031]},"properties":{"category":"bus_halte","name":"Centrum","operator":""}},{"type":"Feature","geometry":{"type":"Point","coordinates":[6.580144,53.079786]},"properties":{"category":"bus_halte","name":"Gemeentehuis","operator":""}},{"type":"Feature","geometry":{"type":"Point","coordinates":[6.57996,53.079068]},"properties":{"category":"bus_halte","name":"Gemeentehuis","operator":""}},{"type":"Feature","geometry":{"type":"Point","coordinates":[6.583516,53.084364]},"properties":{"category":"bus_halte","name":"Groningerstraat 28","operator":""}},{"type":"Feature","geometry":{"type":"Point","coordinates":[6.58345,53.084178]},"properties":{"category":"bus_halte","name":"Groningerstraat 28","operator":""}},{"type":"Feature","geometry":{"type":"Point","coordinates":[6.699759,53.074307]},"properties":{"category":"bus_halte","name":"Entinge","operator":""}},{"type":"Feature","geometry":{"type":"Point","coordinates":[6.700011,53.073917]},"properties":{"category":"bus_halte","name":"Entinge","operator":""}},{"type":"Feature","geometry":{"type":"Point","coordinates":[6.696765,53.077999]},"properties":{"category":"bus_halte","name":"De Hilde","operator":""}},{"type":"Feature","geometry":{"type":"Point","coordinates":[6.6967,53.078488]},"properties":{"category":"bus_halte","name":"De Hilde","operator":""}},{"type":"Feature","geometry":{"type":"Point","coordinates":[6.696478,53.080312]},"properties":{"category":"bus_halte","name":"Havezathelaan","operator":""}},{"type":"Feature","geometry":{"type":"Point","coordinates":[6.69665,53.081491]},"properties":{"category":"bus_halte","name":"Havezathelaan","operator":""}},{"type":"Feature","geometry":{"type":"Point","coordinates":[6.704272,53.070077]},"properties":{"category":"bus_halte","name":"Zwetdijk","operator":""}},{"type":"Feature","geometry":{"type":"Point","coordinates":[6.704714,53.069543]},"properties":{"category":"bus_halte","name":"Zwetdijk","operator":""}},{"type":"Feature","geometry":{"type":"Point","coordinates":[6.593621,53.094469]},"properties":{"category":"bus_halte","name":"Burg. Aalfsweg","operator":""}},{"type":"Feature","geometry":{"type":"Point","coordinates":[6.594638,53.095155]},"properties":{"category":"bus_halte","name":"Burg. Aalfsweg","operator":""}},{"type":"Feature","geometry":{"type":"Point","coordinates":[6.601947,53.101832]},"properties":{"category":"bus_halte","name":"Halfweg","operator":""}},{"type":"Feature","geometry":{"type":"Point","coordinates":[6.602502,53.102116]},"properties":{"category":"bus_halte","name":"Halfweg","operator":""}},{"type":"Feature","geometry":{"type":"Point","coordinates":[6.60425,53.10959]},"properties":{"category":"bus_halte","name":"Kampstukkenweg","operator":""}},{"type":"Feature","geometry":{"type":"Point","coordinates":[6.604385,53.111086]},"properties":{"category":"bus_halte","name":"Kampstukkenweg","operator":""}},{"type":"Feature","geometry":{"type":"Point","coordinates":[6.6039,53.117698]},"properties":{"category":"bus_halte","name":"Norgerweg","operator":""}},{"type":"Feature","geometry":{"type":"Point","coordinates":[6.603741,53.116561]},"properties":{"category":"bus_halte","name":"Norgerweg","operator":""}},{"type":"Feature","geometry":{"type":"Point","coordinates":[6.675687,53.111613]},"properties":{"category":"bus_halte","name":"Tolhuisweg","operator":""}},{"type":"Feature","geometry":{"type":"Point","coordinates":[6.675628,53.111819]},"properties":{"category":"bus_halte","name":"Tolhuisweg","operator":""}},{"type":"Feature","geometry":{"type":"Point","coordinates":[6.688079,53.093536]},"properties":{"category":"bus_halte","name":"Brink","operator":""}},{"type":"Feature","geometry":{"type":"Point","coordinates":[6.688208,53.093093]},"properties":{"category":"bus_halte","name":"Brink","operator":""}},{"type":"Feature","geometry":{"type":"Point","coordinates":[6.688126,53.096744]},"properties":{"category":"bus_halte","name":"Laarwoud","operator":""}},{"type":"Feature","geometry":{"type":"Point","coordinates":[6.687987,53.096794]},"properties":{"category":"bus_halte","name":"Laarwoud","operator":""}},{"type":"Feature","geometry":{"type":"Point","coordinates":[6.693217,53.087485]},"properties":{"category":"bus_halte","name":"Infanterielaan","operator":""}},{"type":"Feature","geometry":{"type":"Point","coordinates":[6.693703,53.086449]},"properties":{"category":"bus_halte","name":"Infanterielaan","operator":""}},{"type":"Feature","geometry":{"type":"Point","coordinates":[6.691213,53.090863]},"properties":{"category":"bus_halte","name":"Emmalaan","operator":""}},{"type":"Feature","geometry":{"type":"Point","coordinates":[6.691168,53.090744]},"properties":{"category":"bus_halte","name":"Emmalaan","operator":""}},{"type":"Feature","geometry":{"type":"Point","coordinates":[6.689137,53.099109]},"properties":{"category":"bus_halte","name":"Sprookjeshof","operator":""}},{"type":"Feature","geometry":{"type":"Point","coordinates":[6.68929,53.099199]},"properties":{"category":"bus_halte","name":"Sprookjeshof","operator":""}},{"type":"Feature","geometry":{"type":"Point","coordinates":[6.684861,53.104384]},"properties":{"category":"bus_halte","name":"Groningerstraat 34","operator":""}},{"type":"Feature","geometry":{"type":"Point","coordinates":[6.685212,53.103895]},"properties":{"category":"bus_halte","name":"Groningerstraat 34","operator":""}},{"type":"Feature","geometry":{"type":"Point","coordinates":[6.58693,53.129459]},"properties":{"category":"bus_halte","name":"Vliegveld Vertrekhal","operator":""}},{"type":"Feature","geometry":{"type":"Point","coordinates":[6.546322,53.17385]},"properties":{"category":"bus_halte","name":"Achterom","operator":""}},{"type":"Feature","geometry":{"type":"Point","coordinates":[6.546561,53.173364]},"properties":{"category":"bus_halte","name":"Achterom","operator":""}},{"type":"Feature","geometry":{"type":"Point","coordinates":[6.56365,53.135324]},"properties":{"category":"bus_halte","name":"Kerkhoflaan","operator":""}},{"type":"Feature","geometry":{"type":"Point","coordinates":[6.569414,53.132465]},"properties":{"category":"bus_halte","name":"Eskampen","operator":""}},{"type":"Feature","geometry":{"type":"Point","coordinates":[6.564745,53.132549]},"properties":{"category":"bus_halte","name":"Kosterijweg","operator":""}},{"type":"Feature","geometry":{"type":"Point","coordinates":[6.564494,53.132666]},"properties":{"category":"bus_halte","name":"Kosterijweg","operator":""}},{"type":"Feature","geometry":{"type":"Point","coordinates":[6.569623,53.132624]},"properties":{"category":"bus_halte","name":"Eskampenweg","operator":""}},{"type":"Feature","geometry":{"type":"Point","coordinates":[6.563722,53.135141]},"properties":{"category":"bus_halte","name":"Kerkhoflaan","operator":""}},{"type":"Feature","geometry":{"type":"Point","coordinates":[6.567011,53.147658]},"properties":{"category":"bus_halte","name":"Vennerstraat","operator":""}},{"type":"Feature","geometry":{"type":"Point","coordinates":[6.567626,53.14902]},"properties":{"category":"bus_halte","name":"Vennerstraat","operator":""}},{"type":"Feature","geometry":{"type":"Point","coordinates":[6.577847,53.134588]},"properties":{"category":"bus_halte","name":"Steenakkersweg","operator":""}},{"type":"Feature","geometry":{"type":"Point","coordinates":[6.579147,53.134514]},"properties":{"category":"bus_halte","name":"Steenakkersweg","operator":""}},{"type":"Feature","geometry":{"type":"Point","coordinates":[6.586082,53.133368]},"properties":{"category":"bus_halte","name":"Vosbergen","operator":""}},{"type":"Feature","geometry":{"type":"Point","coordinates":[6.589794,53.130598]},"properties":{"category":"bus_halte","name":"Airport","operator":""}},{"type":"Feature","geometry":{"type":"Point","coordinates":[6.590159,53.130412]},"properties":{"category":"bus_halte","name":"Airport","operator":""}},{"type":"Feature","geometry":{"type":"Point","coordinates":[6.586332,53.13321]},"properties":{"category":"bus_halte","name":"Vosbergen","operator":""}},{"type":"Feature","geometry":{"type":"Point","coordinates":[6.563748,53.157073]},"properties":{"category":"bus_halte","name":"Noordwijk","operator":""}},{"type":"Feature","geometry":{"type":"Point","coordinates":[6.564069,53.156583]},"properties":{"category":"bus_halte","name":"Noordwijk","operator":""}},{"type":"Feature","geometry":{"type":"Point","coordinates":[6.558852,53.161079]},"properties":{"category":"bus_halte","name":"Groningerweg 19","operator":""}},{"type":"Feature","geometry":{"type":"Point","coordinates":[6.559355,53.160713]},"properties":{"category":"bus_halte","name":"Groningerweg 19","operator":""}},{"type":"Feature","geometry":{"type":"Point","coordinates":[6.555293,53.165125]},"properties":{"category":"bus_halte","name":"Reigerlaan","operator":""}},{"type":"Feature","geometry":{"type":"Point","coordinates":[6.555332,53.164259]},"properties":{"category":"bus_halte","name":"Reigerlaan","operator":""}},{"type":"Feature","geometry":{"type":"Point","coordinates":[6.551795,53.169552]},"properties":{"category":"bus_halte","name":"Groningerweg 33","operator":""}},{"type":"Feature","geometry":{"type":"Point","coordinates":[6.552469,53.169194]},"properties":{"category":"bus_halte","name":"Groningerweg 33","operator":""}},{"type":"Feature","geometry":{"type":"Point","coordinates":[6.596449,53.124668]},"properties":{"category":"bus_halte","name":"Burg. J.G. Legroweg 75","operator":""}},{"type":"Feature","geometry":{"type":"Point","coordinates":[6.595611,53.1252]},"properties":{"category":"bus_halte","name":"Burg. J.G. Legroweg 75","operator":""}},{"type":"Feature","geometry":{"type":"Point","coordinates":[6.543912,53.17693]},"properties":{"category":"bus_halte","name":"Elsborgpad","operator":""}},{"type":"Feature","geometry":{"type":"Point","coordinates":[6.543968,53.176698]},"properties":{"category":"bus_halte","name":"Elsborgpad","operator":""}},{"type":"Feature","geometry":{"type":"Point","coordinates":[6.652858,53.08551]},"properties":{"category":"bus_halte","name":"P+R Westlaren","operator":""}},{"type":"Feature","geometry":{"type":"Point","coordinates":[6.654129,53.086086]},"properties":{"category":"bus_halte","name":"P+R Westlaren","operator":""}},{"type":"Feature","geometry":{"type":"Point","coordinates":[6.665815,53.089128]},"properties":{"category":"bus_halte","name":"Tienelsweg","operator":""}},{"type":"Feature","geometry":{"type":"Point","coordinates":[6.666451,53.089178]},"properties":{"category":"bus_halte","name":"Tienelsweg","operator":""}},{"type":"Feature","geometry":{"type":"Point","coordinates":[6.676926,53.091331]},"properties":{"category":"bus_halte","name":"Julianalaan","operator":""}},{"type":"Feature","geometry":{"type":"Point","coordinates":[6.676899,53.091205]},"properties":{"category":"bus_halte","name":"Julianalaan","operator":""}},{"type":"Feature","geometry":{"type":"Point","coordinates":[6.603586,53.123117]},"properties":{"category":"bus_halte","name":"Busstation","operator":""}},{"type":"Feature","geometry":{"type":"Point","coordinates":[6.603635,53.123355]},"properties":{"category":"bus_halte","name":"Busstation","operator":""}},{"type":"Feature","geometry":{"type":"Point","coordinates":[6.548052,53.096042]},"properties":{"category":"bus_halte","name":"Oosterstraat","operator":"Qbuzz"}},{"type":"Feature","geometry":{"type":"Point","coordinates":[6.548787,53.095244]},"properties":{"category":"bus_halte","name":"Oosterstraat","operator":"Qbuzz"}},{"type":"Feature","geometry":{"type":"Point","coordinates":[6.564579,53.138458]},"properties":{"category":"bus_halte","name":"Duinerlaan","operator":""}},{"type":"Feature","geometry":{"type":"Point","coordinates":[6.564519,53.138604]},"properties":{"category":"bus_halte","name":"Duinerlaan","operator":""}},{"type":"Feature","geometry":{"type":"Point","coordinates":[6.565007,53.141188]},"properties":{"category":"bus_halte","name":"Burgemeester J. Tonckensweg","operator":""}},{"type":"Feature","geometry":{"type":"Point","coordinates":[6.564906,53.141336]},"properties":{"category":"bus_halte","name":"Burgemeester J. Tonckensweg","operator":""}},{"type":"Feature","geometry":{"type":"Point","coordinates":[6.565361,53.145043]},"properties":{"category":"bus_halte","name":"Novastraat","operator":""}},{"type":"Feature","geometry":{"type":"Point","coordinates":[6.565027,53.144631]},"properties":{"category":"bus_halte","name":"Novastraat","operator":""}},{"type":"Feature","geometry":{"type":"Point","coordinates":[6.603654,53.123217]},"properties":{"category":"ov_knooppunt","name":"Busstation","operator":""}},{"type":"Feature","geometry":{"type":"Point","coordinates":[6.582997,53.079446]},"properties":{"category":"gemeentehuis","name":"Gemeentehuis Tynaarlo","operator":"Gemeente Tynaarlo"}},{"type":"Feature","geometry":{"type":"Point","coordinates":[6.632281,53.081153]},"properties":{"category":"inzamelpunt","name":"Milieustraat Tynaarlo","operator":"Gemeente Tynaarlo"}},{"type":"Feature","geometry":{"type":"Point","coordinates":[6.592878,53.11684]},"properties":{"category":"bibliotheek","name":"Bibliotheek","operator":""}},{"type":"Feature","geometry":{"type":"Point","coordinates":[6.567926,53.14262]},"properties":{"category":"bibliotheek","name":"Openbare Bibliotheek Eelde","operator":""}},{"type":"Feature","geometry":{"type":"Point","coordinates":[6.576714,53.076525]},"properties":{"category":"bibliotheek","name":"Bibliotheek Vries","operator":"Drenthe"}},{"type":"Feature","geometry":{"type":"Point","coordinates":[6.684792,53.094506]},"properties":{"category":"bibliotheek","name":"Bibliotheek Zuidlaren","operator":""}},{"type":"Feature","geometry":{"type":"Point","coordinates":[6.671895,53.087247]},"properties":{"category":"ziekenhuis","name":"Kliniek Somatische zorg en Ouderenpsychiatrie Zuidlaren","operator":"Lentis"}},{"type":"Feature","geometry":{"type":"Point","coordinates":[6.674575,53.084083]},"properties":{"category":"ziekenhuis","name":"Lentis Zuidlaren","operator":""}},{"type":"Feature","geometry":{"type":"Point","coordinates":[6.67324,53.091486]},"properties":{"category":"transformatorhuisje","name":"","operator":""}},{"type":"Feature","geometry":{"type":"Point","coordinates":[6.686018,53.094058]},"properties":{"category":"transformatorhuisje","name":"","operator":""}},{"type":"Feature","geometry":{"type":"Point","coordinates":[6.580444,53.085376]},"properties":{"category":"hogeschool","name":"Kentalis Guyotschool VSO Vries","operator":"Koninklijke Kentalis"}},{"type":"Feature","geometry":{"type":"Point","coordinates":[6.569615,53.139785]},"properties":{"category":"hogeschool","name":"TerraNext","operator":"Terra"}},{"type":"Feature","geometry":{"type":"Point","coordinates":[6.573475,53.141701]},"properties":{"category":"sportveld","name":"vv Actief Eelde","operator":""}},{"type":"Feature","geometry":{"type":"Point","coordinates":[6.70161,53.076843]},"properties":{"category":"sportveld","name":"","operator":""}},{"type":"Feature","geometry":{"type":"Point","coordinates":[6.678778,53.115004]},"properties":{"category":"sportveld","name":"","operator":""}},{"type":"Feature","geometry":{"type":"Point","coordinates":[6.680571,53.089157]},"properties":{"category":"sportveld","name":"Aqualaren","operator":""}},{"type":"Feature","geometry":{"type":"Point","coordinates":[6.750891,53.104541]},"properties":{"category":"sportveld","name":"De Zaandorre","operator":""}},{"type":"Feature","geometry":{"type":"Point","coordinates":[6.574925,53.137718]},"properties":{"category":"sportveld","name":"Sporthal Groote Veen","operator":""}},{"type":"Feature","geometry":{"type":"Point","coordinates":[6.556246,53.148263]},"properties":{"category":"sportveld","name":"","operator":""}},{"type":"Feature","geometry":{"type":"Point","coordinates":[6.617576,53.080322]},"properties":{"category":"sportveld","name":"Sportvereniging Tynaarlo","operator":""}},{"type":"Feature","geometry":{"type":"Point","coordinates":[6.665286,53.094277]},"properties":{"category":"sportveld","name":"Tennispark Zuidlaarder Tennis Club","operator":""}},{"type":"Feature","geometry":{"type":"Point","coordinates":[6.676798,53.07918]},"properties":{"category":"sportveld","name":"Sportpark De Wenakkers","operator":""}},{"type":"Feature","geometry":{"type":"Point","coordinates":[6.566045,53.146996]},"properties":{"category":"winkelcentrum","name":"","operator":""}},{"type":"Feature","geometry":{"type":"Point","coordinates":[6.565986,53.146952]},"properties":{"category":"supermarkt","name":"Albert Heijn","operator":""}},{"type":"Feature","geometry":{"type":"Point","coordinates":[6.69879,53.077603]},"properties":{"category":"supermarkt","name":"Poiesz","operator":""}},{"type":"Feature","geometry":{"type":"Point","coordinates":[6.5784,53.070622]},"properties":{"category":"supermarkt","name":"ALDI","operator":""}},{"type":"Feature","geometry":{"type":"Point","coordinates":[6.575533,53.076112]},"properties":{"category":"supermarkt","name":"PLUS Koetsier","operator":""}},{"type":"Feature","geometry":{"type":"Point","coordinates":[6.565056,53.133749]},"properties":{"category":"supermarkt","name":"Jumbo Eelde","operator":""}},{"type":"Feature","geometry":{"type":"Point","coordinates":[6.563889,53.134284]},"properties":{"category":"supermarkt","name":"Maxi Shop","operator":""}},{"type":"Feature","geometry":{"type":"Point","coordinates":[6.685346,53.093094]},"properties":{"category":"supermarkt","name":"Jumbo","operator":""}},{"type":"Feature","geometry":{"type":"Point","coordinates":[6.564436,53.134245]},"properties":{"category":"supermarkt","name":"Het Ekohuis","operator":""}},{"type":"Feature","geometry":{"type":"Point","coordinates":[6.56484,53.135264]},"properties":{"category":"supermarkt","name":"Lidl","operator":"Lidl Nederland GmbH"}},{"type":"Feature","geometry":{"type":"Point","coordinates":[6.690191,53.09298]},"properties":{"category":"supermarkt","name":"Albert Heijn","operator":""}},{"type":"Feature","geometry":{"type":"Point","coordinates":[6.540253,53.179731]},"properties":{"category":"supermarkt","name":"Albert Heijn","operator":""}},{"type":"Feature","geometry":{"type":"Point","coordinates":[6.665698,53.088857]},"properties":{"category":"fietsenstalling","name":"","operator":""}},{"type":"Feature","geometry":{"type":"Point","coordinates":[6.56025,53.161161]},"properties":{"category":"fietsenstalling","name":"","operator":""}},{"type":"Feature","geometry":{"type":"Point","coordinates":[6.577916,53.074239]},"properties":{"category":"fietsenstalling","name":"","operator":""}},{"type":"Feature","geometry":{"type":"Point","coordinates":[6.612527,53.127289]},"properties":{"category":"fietsenstalling","name":"","operator":""}},{"type":"Feature","geometry":{"type":"Point","coordinates":[6.57748,53.086307]},"properties":{"category":"fietsenstalling","name":"","operator":""}},{"type":"Feature","geometry":{"type":"Point","coordinates":[6.603428,53.123235]},"properties":{"category":"fietsenstalling","name":"","operator":""}},{"type":"Feature","geometry":{"type":"Point","coordinates":[6.594327,53.133595]},"properties":{"category":"fietsenstalling","name":"","operator":""}},{"type":"Feature","geometry":{"type":"Point","coordinates":[6.594206,53.133535]},"properties":{"category":"fietsenstalling","name":"","operator":""}},{"type":"Feature","geometry":{"type":"Point","coordinates":[6.594348,53.133503]},"properties":{"category":"fietsenstalling","name":"","operator":""}},{"type":"Feature","geometry":{"type":"Point","coordinates":[6.654617,53.086097]},"properties":{"category":"fietsenstalling","name":"","operator":""}},{"type":"Feature","geometry":{"type":"Point","coordinates":[6.654451,53.086097]},"properties":{"category":"fietsenstalling","name":"","operator":""}},{"type":"Feature","geometry":{"type":"Point","coordinates":[6.654225,53.086149]},"properties":{"category":"fietsenstalling","name":"","operator":""}},{"type":"Feature","geometry":{"type":"Point","coordinates":[6.577739,53.068344]},"properties":{"category":"fietsenstalling","name":"","operator":""}},{"type":"Feature","geometry":{"type":"Point","coordinates":[6.576954,53.074417]},"properties":{"category":"fietsenstalling","name":"","operator":""}},{"type":"Feature","geometry":{"type":"Point","coordinates":[6.580169,53.078954]},"properties":{"category":"fietsenstalling","name":"","operator":""}},{"type":"Feature","geometry":{"type":"Point","coordinates":[6.677614,53.085088]},"properties":{"category":"fietsenstalling","name":"","operator":""}},{"type":"Feature","geometry":{"type":"Point","coordinates":[6.696838,53.078208]},"properties":{"category":"fietsenstalling","name":"","operator":""}},{"type":"Feature","geometry":{"type":"Point","coordinates":[6.654241,53.08618]},"properties":{"category":"fietsenstalling","name":"","operator":""}},{"type":"Feature","geometry":{"type":"Point","coordinates":[6.654496,53.086131]},"properties":{"category":"fietsenstalling","name":"","operator":""}},{"type":"Feature","geometry":{"type":"Point","coordinates":[6.65443,53.086058]},"properties":{"category":"fietsenstalling","name":"","operator":""}},{"type":"Feature","geometry":{"type":"Point","coordinates":[6.654404,53.086147]},"properties":{"category":"fietsenstalling","name":"","operator":""}}]}