{"type":"FeatureCollection","metadata":{"gemeente":"Uitgeest","slug":"uitgeest","by_category":{"bus_halte":11,"sportveld":6,"fietsenstalling":4,"supermarkt":3,"ns_station":1,"ov_knooppunt":1,"gemeentehuis":1,"inzamelpunt":1,"bibliotheek":1,"transformatorhuisje":1,"p_and_r":1},"total":31},"features":[{"type":"Feature","geometry":{"type":"Point","coordinates":[4.70259,52.521431]},"properties":{"category":"ns_station","name":"Uitgeest","operator":""}},{"type":"Feature","geometry":{"type":"Point","coordinates":[4.705438,52.526119]},"properties":{"category":"bus_halte","name":"Veenislaan","operator":""}},{"type":"Feature","geometry":{"type":"Point","coordinates":[4.713475,52.532918]},"properties":{"category":"bus_halte","name":"Molenweg","operator":""}},{"type":"Feature","geometry":{"type":"Point","coordinates":[4.71351,52.532824]},"properties":{"category":"bus_halte","name":"Molenweg","operator":""}},{"type":"Feature","geometry":{"type":"Point","coordinates":[4.700246,52.515404]},"properties":{"category":"bus_halte","name":"Assum","operator":""}},{"type":"Feature","geometry":{"type":"Point","coordinates":[4.700469,52.515725]},"properties":{"category":"bus_halte","name":"Assum","operator":""}},{"type":"Feature","geometry":{"type":"Point","coordinates":[4.705221,52.526045]},"properties":{"category":"bus_halte","name":"Veenislaan","operator":""}},{"type":"Feature","geometry":{"type":"Point","coordinates":[4.708947,52.529871]},"properties":{"category":"bus_halte","name":"Melis Stokelaan","operator":""}},{"type":"Feature","geometry":{"type":"Point","coordinates":[4.709364,52.53049]},"properties":{"category":"bus_halte","name":"Melis Stokelaan","operator":""}},{"type":"Feature","geometry":{"type":"Point","coordinates":[4.716816,52.539926]},"properties":{"category":"bus_halte","name":"Westerwerf","operator":""}},{"type":"Feature","geometry":{"type":"Point","coordinates":[4.716501,52.539687]},"properties":{"category":"bus_halte","name":"Westerwerf","operator":""}},{"type":"Feature","geometry":{"type":"Point","coordinates":[4.702651,52.521864]},"properties":{"category":"bus_halte","name":"Station","operator":""}},{"type":"Feature","geometry":{"type":"Point","coordinates":[4.70259,52.521431]},"properties":{"category":"ov_knooppunt","name":"Uitgeest","operator":""}},{"type":"Feature","geometry":{"type":"Point","coordinates":[4.71312,52.528209]},"properties":{"category":"gemeentehuis","name":"Gemeentehuis Uitgeest","operator":"Gemeente Uitgeest"}},{"type":"Feature","geometry":{"type":"Point","coordinates":[4.716372,52.535379]},"properties":{"category":"inzamelpunt","name":"Milieustraat Uitgeest","operator":""}},{"type":"Feature","geometry":{"type":"Point","coordinates":[4.713211,52.528323]},"properties":{"category":"bibliotheek","name":"LeesLokaal","operator":"LeesLokaal"}},{"type":"Feature","geometry":{"type":"Point","coordinates":[4.714284,52.515635]},"properties":{"category":"transformatorhuisje","name":"","operator":""}},{"type":"Feature","geometry":{"type":"Point","coordinates":[4.703223,52.52324]},"properties":{"category":"sportveld","name":"","operator":""}},{"type":"Feature","geometry":{"type":"Point","coordinates":[4.707295,52.518025]},"properties":{"category":"sportveld","name":"Tennisclub Uitgeest","operator":""}},{"type":"Feature","geometry":{"type":"Point","coordinates":[4.701342,52.524146]},"properties":{"category":"sportveld","name":"","operator":""}},{"type":"Feature","geometry":{"type":"Point","coordinates":[4.700908,52.52583]},"properties":{"category":"sportveld","name":"FC Uitgeest","operator":""}},{"type":"Feature","geometry":{"type":"Point","coordinates":[4.701745,52.523975]},"properties":{"category":"sportveld","name":"Sporthal de Zien","operator":""}},{"type":"Feature","geometry":{"type":"Point","coordinates":[4.699881,52.526797]},"properties":{"category":"sportveld","name":"Sportpark de Koog","operator":""}},{"type":"Feature","geometry":{"type":"Point","coordinates":[4.710491,52.525713]},"properties":{"category":"supermarkt","name":"DekaMarkt","operator":""}},{"type":"Feature","geometry":{"type":"Point","coordinates":[4.701791,52.520952]},"properties":{"category":"supermarkt","name":"Albert Heijn","operator":""}},{"type":"Feature","geometry":{"type":"Point","coordinates":[4.708857,52.53077]},"properties":{"category":"supermarkt","name":"Jumbo","operator":""}},{"type":"Feature","geometry":{"type":"Point","coordinates":[4.702735,52.521956]},"properties":{"category":"fietsenstalling","name":"","operator":""}},{"type":"Feature","geometry":{"type":"Point","coordinates":[4.702624,52.5221]},"properties":{"category":"fietsenstalling","name":"","operator":""}},{"type":"Feature","geometry":{"type":"Point","coordinates":[4.702693,52.520593]},"properties":{"category":"fietsenstalling","name":"","operator":""}},{"type":"Feature","geometry":{"type":"Point","coordinates":[4.702319,52.520716]},"properties":{"category":"fietsenstalling","name":"","operator":""}},{"type":"Feature","geometry":{"type":"Point","coordinates":[4.701863,52.522504]},"properties":{"category":"p_and_r","name":"","operator":""}}]}