{"type":"FeatureCollection","metadata":{"gemeente":"Valkenswaard","slug":"valkenswaard","by_category":{"bus_halte":78,"winkelcentrum":3,"sportveld":2,"fietsenstalling":2,"gemeentehuis":1,"inzamelpunt":1,"bibliotheek":1,"middelbare_school":1},"total":89},"features":[{"type":"Feature","geometry":{"type":"Point","coordinates":[5.427386,51.345028]},"properties":{"category":"bus_halte","name":"Westerhovenseweg","operator":""}},{"type":"Feature","geometry":{"type":"Point","coordinates":[5.429104,51.348158]},"properties":{"category":"bus_halte","name":"Brouwerijplein","operator":""}},{"type":"Feature","geometry":{"type":"Point","coordinates":[5.444799,51.350757]},"properties":{"category":"bus_halte","name":"Minister Aalbersestraat","operator":""}},{"type":"Feature","geometry":{"type":"Point","coordinates":[5.435764,51.355362]},"properties":{"category":"bus_halte","name":"Ambrosiusdal","operator":""}},{"type":"Feature","geometry":{"type":"Point","coordinates":[5.466159,51.369647]},"properties":{"category":"bus_halte","name":"Valkenswaardseweg","operator":""}},{"type":"Feature","geometry":{"type":"Point","coordinates":[5.430184,51.356255]},"properties":{"category":"bus_halte","name":"Jorisdal","operator":""}},{"type":"Feature","geometry":{"type":"Point","coordinates":[5.427793,51.360533]},"properties":{"category":"bus_halte","name":"Koolzaadbeemd","operator":""}},{"type":"Feature","geometry":{"type":"Point","coordinates":[5.448978,51.356693]},"properties":{"category":"bus_halte","name":"Tienendreef","operator":""}},{"type":"Feature","geometry":{"type":"Point","coordinates":[5.448477,51.356315]},"properties":{"category":"bus_halte","name":"Tienendreef","operator":""}},{"type":"Feature","geometry":{"type":"Point","coordinates":[5.45535,51.349069]},"properties":{"category":"bus_halte","name":"Dommelseweg","operator":""}},{"type":"Feature","geometry":{"type":"Point","coordinates":[5.458306,51.349923]},"properties":{"category":"bus_halte","name":"Markt","operator":""}},{"type":"Feature","geometry":{"type":"Point","coordinates":[5.451729,51.352037]},"properties":{"category":"bus_halte","name":"Dijkstraat","operator":""}},{"type":"Feature","geometry":{"type":"Point","coordinates":[5.464289,51.355394]},"properties":{"category":"bus_halte","name":"Valkenierstraat","operator":""}},{"type":"Feature","geometry":{"type":"Point","coordinates":[5.464263,51.35417]},"properties":{"category":"bus_halte","name":"Valkenierstraat","operator":""}},{"type":"Feature","geometry":{"type":"Point","coordinates":[5.462951,51.361474]},"properties":{"category":"bus_halte","name":"Eindhovenseweg","operator":""}},{"type":"Feature","geometry":{"type":"Point","coordinates":[5.463701,51.362712]},"properties":{"category":"bus_halte","name":"Eindhovenseweg","operator":""}},{"type":"Feature","geometry":{"type":"Point","coordinates":[5.434898,51.349357]},"properties":{"category":"bus_halte","name":"Bergstraat","operator":""}},{"type":"Feature","geometry":{"type":"Point","coordinates":[5.435479,51.350083]},"properties":{"category":"bus_halte","name":"Bergstraat","operator":""}},{"type":"Feature","geometry":{"type":"Point","coordinates":[5.449114,51.359051]},"properties":{"category":"bus_halte","name":"Nieuw Waalreseweg","operator":""}},{"type":"Feature","geometry":{"type":"Point","coordinates":[5.448209,51.358501]},"properties":{"category":"bus_halte","name":"Nieuw Waalreseweg","operator":""}},{"type":"Feature","geometry":{"type":"Point","coordinates":[5.448339,51.360057]},"properties":{"category":"bus_halte","name":"Nieuw Waalreseweg","operator":""}},{"type":"Feature","geometry":{"type":"Point","coordinates":[5.446226,51.363353]},"properties":{"category":"bus_halte","name":"Hazelaar","operator":""}},{"type":"Feature","geometry":{"type":"Point","coordinates":[5.446097,51.364296]},"properties":{"category":"bus_halte","name":"Hazelaar","operator":""}},{"type":"Feature","geometry":{"type":"Point","coordinates":[5.453948,51.361012]},"properties":{"category":"bus_halte","name":"Geenhovensedreef","operator":""}},{"type":"Feature","geometry":{"type":"Point","coordinates":[5.46869,51.360798]},"properties":{"category":"bus_halte","name":"Merendreef","operator":""}},{"type":"Feature","geometry":{"type":"Point","coordinates":[5.466665,51.361395]},"properties":{"category":"bus_halte","name":"Merendreef","operator":""}},{"type":"Feature","geometry":{"type":"Point","coordinates":[5.471371,51.356006]},"properties":{"category":"bus_halte","name":"De Smelen","operator":""}},{"type":"Feature","geometry":{"type":"Point","coordinates":[5.438959,51.297792]},"properties":{"category":"bus_halte","name":"Bruggerdijk","operator":""}},{"type":"Feature","geometry":{"type":"Point","coordinates":[5.4527,51.296834]},"properties":{"category":"bus_halte","name":"Dorpsstraat","operator":""}},{"type":"Feature","geometry":{"type":"Point","coordinates":[5.434015,51.324178]},"properties":{"category":"bus_halte","name":"Kempervennen","operator":""}},{"type":"Feature","geometry":{"type":"Point","coordinates":[5.432158,51.300923]},"properties":{"category":"bus_halte","name":"Korteweg","operator":""}},{"type":"Feature","geometry":{"type":"Point","coordinates":[5.465904,51.300153]},"properties":{"category":"bus_halte","name":"Maastrichterweg","operator":""}},{"type":"Feature","geometry":{"type":"Point","coordinates":[5.443267,51.298293]},"properties":{"category":"bus_halte","name":"Monseigneur Kuijpersplein","operator":""}},{"type":"Feature","geometry":{"type":"Point","coordinates":[5.423356,51.308425]},"properties":{"category":"bus_halte","name":"Oude Dorpsstraat","operator":""}},{"type":"Feature","geometry":{"type":"Point","coordinates":[5.424156,51.309313]},"properties":{"category":"bus_halte","name":"Oude Dorpsstraat","operator":""}},{"type":"Feature","geometry":{"type":"Point","coordinates":[5.459336,51.298362]},"properties":{"category":"bus_halte","name":"Schafterdijk","operator":""}},{"type":"Feature","geometry":{"type":"Point","coordinates":[5.447278,51.341798]},"properties":{"category":"bus_halte","name":"Luikerweg","operator":""}},{"type":"Feature","geometry":{"type":"Point","coordinates":[5.458834,51.350227]},"properties":{"category":"bus_halte","name":"Markt","operator":""}},{"type":"Feature","geometry":{"type":"Point","coordinates":[5.438901,51.297734]},"properties":{"category":"bus_halte","name":"Bruggerdijk","operator":""}},{"type":"Feature","geometry":{"type":"Point","coordinates":[5.452973,51.296698]},"properties":{"category":"bus_halte","name":"Dorpsstraat","operator":""}},{"type":"Feature","geometry":{"type":"Point","coordinates":[5.431865,51.30109]},"properties":{"category":"bus_halte","name":"Korteweg","operator":""}},{"type":"Feature","geometry":{"type":"Point","coordinates":[5.446242,51.34118]},"properties":{"category":"bus_halte","name":"Luikerweg","operator":""}},{"type":"Feature","geometry":{"type":"Point","coordinates":[5.466201,51.300038]},"properties":{"category":"bus_halte","name":"Maastrichterweg","operator":""}},{"type":"Feature","geometry":{"type":"Point","coordinates":[5.444293,51.298502]},"properties":{"category":"bus_halte","name":"Monseigneur Kuijpersplein","operator":""}},{"type":"Feature","geometry":{"type":"Point","coordinates":[5.458094,51.297946]},"properties":{"category":"bus_halte","name":"Schafterdijk","operator":""}},{"type":"Feature","geometry":{"type":"Point","coordinates":[5.465961,51.352143]},"properties":{"category":"bus_halte","name":"Leenderweg","operator":""}},{"type":"Feature","geometry":{"type":"Point","coordinates":[5.466783,51.352128]},"properties":{"category":"bus_halte","name":"Leenderweg","operator":""}},{"type":"Feature","geometry":{"type":"Point","coordinates":[5.48707,51.353014]},"properties":{"category":"bus_halte","name":"Bedrijventerrein Schaapsloop","operator":""}},{"type":"Feature","geometry":{"type":"Point","coordinates":[5.487319,51.352913]},"properties":{"category":"bus_halte","name":"Bedrijventerrein Schaapsloop","operator":""}},{"type":"Feature","geometry":{"type":"Point","coordinates":[5.42845,51.348058]},"properties":{"category":"bus_halte","name":"Brouwerijplein","operator":""}},{"type":"Feature","geometry":{"type":"Point","coordinates":[5.427168,51.345044]},"properties":{"category":"bus_halte","name":"Westerhovenseweg","operator":""}},{"type":"Feature","geometry":{"type":"Point","coordinates":[5.444845,51.350837]},"properties":{"category":"bus_halte","name":"Minister Aalbersestraat","operator":""}},{"type":"Feature","geometry":{"type":"Point","coordinates":[5.45536,51.349224]},"properties":{"category":"bus_halte","name":"Dommelseweg","operator":""}},{"type":"Feature","geometry":{"type":"Point","coordinates":[5.43062,51.365628]},"properties":{"category":"bus_halte","name":"Damianusdreef","operator":""}},{"type":"Feature","geometry":{"type":"Point","coordinates":[5.42796,51.36038]},"properties":{"category":"bus_halte","name":"Koolzaadbeemd","operator":""}},{"type":"Feature","geometry":{"type":"Point","coordinates":[5.430451,51.355591]},"properties":{"category":"bus_halte","name":"Jorisdal","operator":""}},{"type":"Feature","geometry":{"type":"Point","coordinates":[5.436082,51.355515]},"properties":{"category":"bus_halte","name":"Ambrosiusdal","operator":""}},{"type":"Feature","geometry":{"type":"Point","coordinates":[5.452,51.352129]},"properties":{"category":"bus_halte","name":"Dijkstraat","operator":""}},{"type":"Feature","geometry":{"type":"Point","coordinates":[5.453555,51.360997]},"properties":{"category":"bus_halte","name":"Geenhovensedreef","operator":""}},{"type":"Feature","geometry":{"type":"Point","coordinates":[5.47153,51.356063]},"properties":{"category":"bus_halte","name":"De Smelen","operator":""}},{"type":"Feature","geometry":{"type":"Point","coordinates":[5.427445,51.295774]},"properties":{"category":"bus_halte","name":"Peedijk","operator":""}},{"type":"Feature","geometry":{"type":"Point","coordinates":[5.463261,51.304951]},"properties":{"category":"bus_halte","name":"Dommelvallei","operator":""}},{"type":"Feature","geometry":{"type":"Point","coordinates":[5.431797,51.361884]},"properties":{"category":"bus_halte","name":"Hoefsmidweide","operator":""}},{"type":"Feature","geometry":{"type":"Point","coordinates":[5.423188,51.332872]},"properties":{"category":"bus_halte","name":"Eurocircuit","operator":""}},{"type":"Feature","geometry":{"type":"Point","coordinates":[5.439244,51.332569]},"properties":{"category":"bus_halte","name":"Afrit N69/Malpie","operator":""}},{"type":"Feature","geometry":{"type":"Point","coordinates":[5.448078,51.339495]},"properties":{"category":"bus_halte","name":"Molenstraat","operator":""}},{"type":"Feature","geometry":{"type":"Point","coordinates":[5.460285,51.345357]},"properties":{"category":"bus_halte","name":"Wilhelminapark","operator":""}},{"type":"Feature","geometry":{"type":"Point","coordinates":[5.46954,51.343572]},"properties":{"category":"bus_halte","name":"Korte Voren","operator":""}},{"type":"Feature","geometry":{"type":"Point","coordinates":[5.454628,51.344003]},"properties":{"category":"bus_halte","name":"Hoge Akkers","operator":""}},{"type":"Feature","geometry":{"type":"Point","coordinates":[5.467581,51.339905]},"properties":{"category":"bus_halte","name":"Dragonder","operator":""}},{"type":"Feature","geometry":{"type":"Point","coordinates":[5.488263,51.347314]},"properties":{"category":"bus_halte","name":"De Vest","operator":""}},{"type":"Feature","geometry":{"type":"Point","coordinates":[5.471288,51.349988]},"properties":{"category":"bus_halte","name":"Van de Venstraat","operator":""}},{"type":"Feature","geometry":{"type":"Point","coordinates":[5.474829,51.347478]},"properties":{"category":"bus_halte","name":"John F. Kennedylaan","operator":""}},{"type":"Feature","geometry":{"type":"Point","coordinates":[5.464361,51.361966]},"properties":{"category":"bus_halte","name":"Groote Meer","operator":""}},{"type":"Feature","geometry":{"type":"Point","coordinates":[5.45729,51.346159]},"properties":{"category":"bus_halte","name":"Maastrichterweg/Antwerpsebaan","operator":""}},{"type":"Feature","geometry":{"type":"Point","coordinates":[5.45751,51.346413]},"properties":{"category":"bus_halte","name":"Maastrichterweg/Antwerpsebaan","operator":""}},{"type":"Feature","geometry":{"type":"Point","coordinates":[5.457981,51.341198]},"properties":{"category":"bus_halte","name":"Maastrichterweg/Zuidelijke Randweg","operator":""}},{"type":"Feature","geometry":{"type":"Point","coordinates":[5.458477,51.34098]},"properties":{"category":"bus_halte","name":"Maastrichterweg/Zuidelijke Randweg","operator":""}},{"type":"Feature","geometry":{"type":"Point","coordinates":[5.460795,51.349995]},"properties":{"category":"gemeentehuis","name":"Gemeentehuis Valkenswaard","operator":"Gemeente Valkenswaard"}},{"type":"Feature","geometry":{"type":"Point","coordinates":[5.489794,51.346544]},"properties":{"category":"inzamelpunt","name":"Milieustraat Valkenswaard","operator":"Cure"}},{"type":"Feature","geometry":{"type":"Point","coordinates":[5.460394,51.349759]},"properties":{"category":"bibliotheek","name":"Bibliotheek Valkenswaard","operator":"Bibliotheek De Kempen"}},{"type":"Feature","geometry":{"type":"Point","coordinates":[5.468951,51.362239]},"properties":{"category":"middelbare_school","name":"Were Di","operator":"Ons Middelbaar Onderwijs"}},{"type":"Feature","geometry":{"type":"Point","coordinates":[5.430592,51.35176]},"properties":{"category":"sportveld","name":"LTV Dommelen","operator":""}},{"type":"Feature","geometry":{"type":"Point","coordinates":[5.425938,51.335334]},"properties":{"category":"sportveld","name":"Eurocircuit | Rallycross","operator":"NRV"}},{"type":"Feature","geometry":{"type":"Point","coordinates":[5.43167,51.356044]},"properties":{"category":"winkelcentrum","name":"De Belleman","operator":""}},{"type":"Feature","geometry":{"type":"Point","coordinates":[5.462261,51.352586]},"properties":{"category":"winkelcentrum","name":"","operator":""}},{"type":"Feature","geometry":{"type":"Point","coordinates":[5.461841,51.352088]},"properties":{"category":"winkelcentrum","name":"","operator":""}},{"type":"Feature","geometry":{"type":"Point","coordinates":[5.427621,51.360768]},"properties":{"category":"fietsenstalling","name":"","operator":""}},{"type":"Feature","geometry":{"type":"Point","coordinates":[5.463762,51.362426]},"properties":{"category":"fietsenstalling","name":"","operator":""}}]}