{"type":"FeatureCollection","metadata":{"gemeente":"Venray","slug":"venray","by_category":{"bus_halte":85,"sportveld":10,"supermarkt":10,"transformatorhuisje":4,"fietsenstalling":4,"middelbare_school":2,"ns_station":1,"ov_knooppunt":1,"gemeentehuis":1,"inzamelpunt":1,"bibliotheek":1,"ziekenhuis":1,"hogeschool":1,"parkeergarage":1,"p_and_r":1},"total":124},"features":[{"type":"Feature","geometry":{"type":"Point","coordinates":[6.014255,51.526454]},"properties":{"category":"ns_station","name":"Venray","operator":""}},{"type":"Feature","geometry":{"type":"Point","coordinates":[6.024855,51.521249]},"properties":{"category":"bus_halte","name":"Witte Vennenweg","operator":""}},{"type":"Feature","geometry":{"type":"Point","coordinates":[5.985493,51.522264]},"properties":{"category":"bus_halte","name":"Oostsingel","operator":""}},{"type":"Feature","geometry":{"type":"Point","coordinates":[6.025097,51.521335]},"properties":{"category":"bus_halte","name":"Witte Vennenweg","operator":""}},{"type":"Feature","geometry":{"type":"Point","coordinates":[5.929945,51.530004]},"properties":{"category":"bus_halte","name":"Kerk","operator":""}},{"type":"Feature","geometry":{"type":"Point","coordinates":[5.978548,51.531487]},"properties":{"category":"bus_halte","name":"Akkerweg","operator":""}},{"type":"Feature","geometry":{"type":"Point","coordinates":[5.994663,51.528795]},"properties":{"category":"bus_halte","name":"Klaproos","operator":""}},{"type":"Feature","geometry":{"type":"Point","coordinates":[5.976657,51.527676]},"properties":{"category":"bus_halte","name":"Centrum","operator":""}},{"type":"Feature","geometry":{"type":"Point","coordinates":[6.035436,51.51096]},"properties":{"category":"bus_halte","name":"Pastoor Gerardsstraat","operator":""}},{"type":"Feature","geometry":{"type":"Point","coordinates":[5.958707,51.526823]},"properties":{"category":"bus_halte","name":"Ziekenhuis Viecuri","operator":""}},{"type":"Feature","geometry":{"type":"Point","coordinates":[5.981514,51.50493]},"properties":{"category":"bus_halte","name":"Veulenseweg","operator":""}},{"type":"Feature","geometry":{"type":"Point","coordinates":[5.977992,51.520362]},"properties":{"category":"bus_halte","name":"Politiebureau","operator":""}},{"type":"Feature","geometry":{"type":"Point","coordinates":[5.955501,51.48193]},"properties":{"category":"bus_halte","name":"Brugpas","operator":""}},{"type":"Feature","geometry":{"type":"Point","coordinates":[5.990522,51.523726]},"properties":{"category":"bus_halte","name":"Brukske","operator":""}},{"type":"Feature","geometry":{"type":"Point","coordinates":[5.950122,51.504367]},"properties":{"category":"bus_halte","name":"Kerk","operator":""}},{"type":"Feature","geometry":{"type":"Point","coordinates":[5.969099,51.517526]},"properties":{"category":"bus_halte","name":"Blauwververstraat","operator":""}},{"type":"Feature","geometry":{"type":"Point","coordinates":[5.96547,51.514822]},"properties":{"category":"bus_halte","name":"Weg in den Berg","operator":""}},{"type":"Feature","geometry":{"type":"Point","coordinates":[5.996636,51.524648]},"properties":{"category":"bus_halte","name":"St. Anthoniusveldweg","operator":""}},{"type":"Feature","geometry":{"type":"Point","coordinates":[6.00952,51.525181]},"properties":{"category":"bus_halte","name":"De Hulst","operator":""}},{"type":"Feature","geometry":{"type":"Point","coordinates":[5.891482,51.496911]},"properties":{"category":"bus_halte","name":"Prov. weg","operator":""}},{"type":"Feature","geometry":{"type":"Point","coordinates":[6.070344,51.532705]},"properties":{"category":"bus_halte","name":"Beemdweg","operator":""}},{"type":"Feature","geometry":{"type":"Point","coordinates":[6.03595,51.528297]},"properties":{"category":"bus_halte","name":"De Rooyse Wissel","operator":""}},{"type":"Feature","geometry":{"type":"Point","coordinates":[5.966299,51.533716]},"properties":{"category":"bus_halte","name":"Broekweg","operator":""}},{"type":"Feature","geometry":{"type":"Point","coordinates":[5.968935,51.531748]},"properties":{"category":"bus_halte","name":"Noordsingel","operator":""}},{"type":"Feature","geometry":{"type":"Point","coordinates":[6.104571,51.531641]},"properties":{"category":"bus_halte","name":"Pastoor Verheggenstraat","operator":""}},{"type":"Feature","geometry":{"type":"Point","coordinates":[6.096987,51.532829]},"properties":{"category":"bus_halte","name":"Blitterswijckseweg","operator":""}},{"type":"Feature","geometry":{"type":"Point","coordinates":[6.048654,51.549754]},"properties":{"category":"bus_halte","name":"Kerk","operator":""}},{"type":"Feature","geometry":{"type":"Point","coordinates":[6.077303,51.535281]},"properties":{"category":"bus_halte","name":"Centrum","operator":""}},{"type":"Feature","geometry":{"type":"Point","coordinates":[6.036662,51.48873]},"properties":{"category":"bus_halte","name":"Kerk","operator":""}},{"type":"Feature","geometry":{"type":"Point","coordinates":[5.998072,51.496303]},"properties":{"category":"bus_halte","name":"Overbroekseweg","operator":""}},{"type":"Feature","geometry":{"type":"Point","coordinates":[5.986221,51.528477]},"properties":{"category":"bus_halte","name":"Vincent van Gogh","operator":""}},{"type":"Feature","geometry":{"type":"Point","coordinates":[5.980788,51.529041]},"properties":{"category":"bus_halte","name":"Monsigneur Nolensstraat","operator":""}},{"type":"Feature","geometry":{"type":"Point","coordinates":[5.989088,51.501102]},"properties":{"category":"bus_halte","name":"Het Schoor","operator":""}},{"type":"Feature","geometry":{"type":"Point","coordinates":[6.018973,51.49289]},"properties":{"category":"bus_halte","name":"Horsterweg","operator":""}},{"type":"Feature","geometry":{"type":"Point","coordinates":[5.993301,51.528873]},"properties":{"category":"bus_halte","name":"Klaproos","operator":""}},{"type":"Feature","geometry":{"type":"Point","coordinates":[5.965671,51.539713]},"properties":{"category":"bus_halte","name":"Laagheidseweg","operator":""}},{"type":"Feature","geometry":{"type":"Point","coordinates":[6.003511,51.568195]},"properties":{"category":"bus_halte","name":"Kapel","operator":""}},{"type":"Feature","geometry":{"type":"Point","coordinates":[6.00472,51.56402]},"properties":{"category":"bus_halte","name":"Carmelietenstraat","operator":""}},{"type":"Feature","geometry":{"type":"Point","coordinates":[5.969574,51.548119]},"properties":{"category":"bus_halte","name":"Kapelletje","operator":""}},{"type":"Feature","geometry":{"type":"Point","coordinates":[5.979815,51.509606]},"properties":{"category":"bus_halte","name":"Kerk","operator":""}},{"type":"Feature","geometry":{"type":"Point","coordinates":[5.97995,51.510176]},"properties":{"category":"bus_halte","name":"Kerk","operator":""}},{"type":"Feature","geometry":{"type":"Point","coordinates":[5.977893,51.530785]},"properties":{"category":"bus_halte","name":"Akkerweg","operator":""}},{"type":"Feature","geometry":{"type":"Point","coordinates":[5.976968,51.527957]},"properties":{"category":"bus_halte","name":"Centrum","operator":""}},{"type":"Feature","geometry":{"type":"Point","coordinates":[5.966279,51.535119]},"properties":{"category":"bus_halte","name":"Broekweg","operator":""}},{"type":"Feature","geometry":{"type":"Point","coordinates":[5.998682,51.496366]},"properties":{"category":"bus_halte","name":"Overbroekseweg","operator":""}},{"type":"Feature","geometry":{"type":"Point","coordinates":[5.989342,51.50118]},"properties":{"category":"bus_halte","name":"Het Schoor","operator":""}},{"type":"Feature","geometry":{"type":"Point","coordinates":[5.982478,51.503968]},"properties":{"category":"bus_halte","name":"Veulenseweg","operator":""}},{"type":"Feature","geometry":{"type":"Point","coordinates":[5.977841,51.520816]},"properties":{"category":"bus_halte","name":"Politiebureau","operator":""}},{"type":"Feature","geometry":{"type":"Point","coordinates":[5.985702,51.522126]},"properties":{"category":"bus_halte","name":"Oostsingel","operator":""}},{"type":"Feature","geometry":{"type":"Point","coordinates":[5.992368,51.523868]},"properties":{"category":"bus_halte","name":"Brukske","operator":""}},{"type":"Feature","geometry":{"type":"Point","coordinates":[5.996271,51.524478]},"properties":{"category":"bus_halte","name":"St. Anthoniusveldweg","operator":""}},{"type":"Feature","geometry":{"type":"Point","coordinates":[5.9811,51.528955]},"properties":{"category":"bus_halte","name":"Monsigneur Nolensstraat","operator":""}},{"type":"Feature","geometry":{"type":"Point","coordinates":[6.009193,51.525068]},"properties":{"category":"bus_halte","name":"De Hulst","operator":""}},{"type":"Feature","geometry":{"type":"Point","coordinates":[6.033942,51.528126]},"properties":{"category":"bus_halte","name":"De Rooyse Wissel","operator":""}},{"type":"Feature","geometry":{"type":"Point","coordinates":[6.070187,51.532742]},"properties":{"category":"bus_halte","name":"Beemdweg","operator":""}},{"type":"Feature","geometry":{"type":"Point","coordinates":[6.077003,51.535379]},"properties":{"category":"bus_halte","name":"Centrum","operator":""}},{"type":"Feature","geometry":{"type":"Point","coordinates":[6.036509,51.48869]},"properties":{"category":"bus_halte","name":"Kerk","operator":""}},{"type":"Feature","geometry":{"type":"Point","coordinates":[6.017993,51.493209]},"properties":{"category":"bus_halte","name":"Horsterweg","operator":""}},{"type":"Feature","geometry":{"type":"Point","coordinates":[5.969423,51.547966]},"properties":{"category":"bus_halte","name":"Kapelletje","operator":""}},{"type":"Feature","geometry":{"type":"Point","coordinates":[5.96799,51.531603]},"properties":{"category":"bus_halte","name":"Noordsingel","operator":""}},{"type":"Feature","geometry":{"type":"Point","coordinates":[5.891317,51.497087]},"properties":{"category":"bus_halte","name":"Prov. weg","operator":""}},{"type":"Feature","geometry":{"type":"Point","coordinates":[5.988023,51.528603]},"properties":{"category":"bus_halte","name":"Vincent van Gogh","operator":""}},{"type":"Feature","geometry":{"type":"Point","coordinates":[5.967839,51.516394]},"properties":{"category":"bus_halte","name":"Blauwververstraat","operator":""}},{"type":"Feature","geometry":{"type":"Point","coordinates":[5.963607,51.514098]},"properties":{"category":"bus_halte","name":"Weg in den Berg","operator":""}},{"type":"Feature","geometry":{"type":"Point","coordinates":[5.959211,51.526717]},"properties":{"category":"bus_halte","name":"Ziekenhuis Viecuri","operator":""}},{"type":"Feature","geometry":{"type":"Point","coordinates":[6.108268,51.529778]},"properties":{"category":"bus_halte","name":"Oude Heerweg","operator":""}},{"type":"Feature","geometry":{"type":"Point","coordinates":[5.977421,51.524812]},"properties":{"category":"bus_halte","name":"Prins Bernhardstraat","operator":""}},{"type":"Feature","geometry":{"type":"Point","coordinates":[5.986759,51.537494]},"properties":{"category":"bus_halte","name":"Buitenlust","operator":""}},{"type":"Feature","geometry":{"type":"Point","coordinates":[5.986598,51.537688]},"properties":{"category":"bus_halte","name":"Buitenlust","operator":""}},{"type":"Feature","geometry":{"type":"Point","coordinates":[5.995926,51.54765]},"properties":{"category":"bus_halte","name":"Hotel Asteria","operator":""}},{"type":"Feature","geometry":{"type":"Point","coordinates":[5.995846,51.548]},"properties":{"category":"bus_halte","name":"Hotel Asteria","operator":""}},{"type":"Feature","geometry":{"type":"Point","coordinates":[6.004556,51.564515]},"properties":{"category":"bus_halte","name":"Carmelietenstraat","operator":""}},{"type":"Feature","geometry":{"type":"Point","coordinates":[6.003632,51.568311]},"properties":{"category":"bus_halte","name":"Kapel","operator":""}},{"type":"Feature","geometry":{"type":"Point","coordinates":[6.013887,51.526756]},"properties":{"category":"bus_halte","name":"Station","operator":""}},{"type":"Feature","geometry":{"type":"Point","coordinates":[6.01411,51.526458]},"properties":{"category":"bus_halte","name":"Station","operator":""}},{"type":"Feature","geometry":{"type":"Point","coordinates":[6.013925,51.526405]},"properties":{"category":"bus_halte","name":"Station","operator":""}},{"type":"Feature","geometry":{"type":"Point","coordinates":[6.013758,51.526632]},"properties":{"category":"bus_halte","name":"Station","operator":""}},{"type":"Feature","geometry":{"type":"Point","coordinates":[5.981027,51.514595]},"properties":{"category":"bus_halte","name":"Zuivelweg","operator":""}},{"type":"Feature","geometry":{"type":"Point","coordinates":[5.980873,51.514388]},"properties":{"category":"bus_halte","name":"Zuivelweg","operator":""}},{"type":"Feature","geometry":{"type":"Point","coordinates":[6.097772,51.532616]},"properties":{"category":"bus_halte","name":"Blitterswijckseweg","operator":""}},{"type":"Feature","geometry":{"type":"Point","coordinates":[5.965312,51.539718]},"properties":{"category":"bus_halte","name":"Laagheidseweg","operator":""}},{"type":"Feature","geometry":{"type":"Point","coordinates":[5.977227,51.524786]},"properties":{"category":"bus_halte","name":"Prins Bernhardstraat","operator":""}},{"type":"Feature","geometry":{"type":"Point","coordinates":[6.083242,51.536498]},"properties":{"category":"bus_halte","name":"Stayerhofweg","operator":""}},{"type":"Feature","geometry":{"type":"Point","coordinates":[6.083712,51.536437]},"properties":{"category":"bus_halte","name":"Stayerhofweg","operator":""}},{"type":"Feature","geometry":{"type":"Point","coordinates":[5.980405,51.517765]},"properties":{"category":"bus_halte","name":"Plataanstraat","operator":""}},{"type":"Feature","geometry":{"type":"Point","coordinates":[5.980332,51.517679]},"properties":{"category":"bus_halte","name":"Plataanstraat","operator":""}},{"type":"Feature","geometry":{"type":"Point","coordinates":[6.014255,51.526454]},"properties":{"category":"ov_knooppunt","name":"Venray","operator":""}},{"type":"Feature","geometry":{"type":"Point","coordinates":[5.9757,51.528847]},"properties":{"category":"gemeentehuis","name":"Gemeentehuis Venray","operator":"Gemeente Venray"}},{"type":"Feature","geometry":{"type":"Point","coordinates":[5.986763,51.551084]},"properties":{"category":"inzamelpunt","name":"Milieustation Venray","operator":""}},{"type":"Feature","geometry":{"type":"Point","coordinates":[5.973871,51.524124]},"properties":{"category":"bibliotheek","name":"Bibliotheek Venray","operator":"BiblioNu"}},{"type":"Feature","geometry":{"type":"Point","coordinates":[5.959953,51.527555]},"properties":{"category":"ziekenhuis","name":"VieCuri Medisch Centrum locatie Venray","operator":""}},{"type":"Feature","geometry":{"type":"Point","coordinates":[5.991223,51.541117]},"properties":{"category":"transformatorhuisje","name":"","operator":""}},{"type":"Feature","geometry":{"type":"Point","coordinates":[5.991536,51.541225]},"properties":{"category":"transformatorhuisje","name":"","operator":""}},{"type":"Feature","geometry":{"type":"Point","coordinates":[5.99202,51.541401]},"properties":{"category":"transformatorhuisje","name":"","operator":""}},{"type":"Feature","geometry":{"type":"Point","coordinates":[5.910121,51.467246]},"properties":{"category":"transformatorhuisje","name":"","operator":""}},{"type":"Feature","geometry":{"type":"Point","coordinates":[6.013941,51.52509]},"properties":{"category":"hogeschool","name":"Gilde Opleidingen","operator":""}},{"type":"Feature","geometry":{"type":"Point","coordinates":[5.977189,51.519342]},"properties":{"category":"middelbare_school","name":"Raayland College","operator":"Limburgs Voortgezet Onderwijs"}},{"type":"Feature","geometry":{"type":"Point","coordinates":[5.972969,51.520143]},"properties":{"category":"middelbare_school","name":"Wijnberg","operator":"Aloysius Stichting"}},{"type":"Feature","geometry":{"type":"Point","coordinates":[5.974983,51.516934]},"properties":{"category":"sportveld","name":"Sportpark De Wieën","operator":""}},{"type":"Feature","geometry":{"type":"Point","coordinates":[5.97681,51.539495]},"properties":{"category":"sportveld","name":"TC Rodhe","operator":""}},{"type":"Feature","geometry":{"type":"Point","coordinates":[5.965316,51.523315]},"properties":{"category":"sportveld","name":"De Sprank","operator":""}},{"type":"Feature","geometry":{"type":"Point","coordinates":[5.973423,51.51744]},"properties":{"category":"sportveld","name":"Atletiek Triatlon Vereniging Venray","operator":""}},{"type":"Feature","geometry":{"type":"Point","coordinates":[5.973774,51.505725]},"properties":{"category":"sportveld","name":"Het Klaverblad","operator":""}},{"type":"Feature","geometry":{"type":"Point","coordinates":[5.960775,51.521223]},"properties":{"category":"sportveld","name":"sportpark Vlakwater","operator":""}},{"type":"Feature","geometry":{"type":"Point","coordinates":[5.925853,51.532006]},"properties":{"category":"sportveld","name":"De Vloet","operator":""}},{"type":"Feature","geometry":{"type":"Point","coordinates":[5.898353,51.493412]},"properties":{"category":"sportveld","name":"De Vlies","operator":""}},{"type":"Feature","geometry":{"type":"Point","coordinates":[6.07629,51.531494]},"properties":{"category":"sportveld","name":"De Gagel","operator":""}},{"type":"Feature","geometry":{"type":"Point","coordinates":[6.074899,51.533044]},"properties":{"category":"sportveld","name":"De Meulebèèk","operator":""}},{"type":"Feature","geometry":{"type":"Point","coordinates":[6.079579,51.536662]},"properties":{"category":"supermarkt","name":"Albert Heijn Jan Linders","operator":"Jan Linders"}},{"type":"Feature","geometry":{"type":"Point","coordinates":[5.991829,51.53266]},"properties":{"category":"supermarkt","name":"PLUS Guido van Dijck","operator":"Guido van Dijck"}},{"type":"Feature","geometry":{"type":"Point","coordinates":[5.973072,51.522886]},"properties":{"category":"supermarkt","name":"Albert Heijn","operator":""}},{"type":"Feature","geometry":{"type":"Point","coordinates":[5.972861,51.526704]},"properties":{"category":"supermarkt","name":"Jumbo","operator":""}},{"type":"Feature","geometry":{"type":"Point","coordinates":[5.964243,51.51925]},"properties":{"category":"supermarkt","name":"ALDI","operator":""}},{"type":"Feature","geometry":{"type":"Point","coordinates":[5.895441,51.490512]},"properties":{"category":"supermarkt","name":"Boon's dagmarkt Van Buel","operator":""}},{"type":"Feature","geometry":{"type":"Point","coordinates":[5.979588,51.531619]},"properties":{"category":"supermarkt","name":"Albert Heijn Jan Linders","operator":"Jan Linders"}},{"type":"Feature","geometry":{"type":"Point","coordinates":[5.96484,51.51945]},"properties":{"category":"supermarkt","name":"Jumbo Winters","operator":""}},{"type":"Feature","geometry":{"type":"Point","coordinates":[5.991657,51.522779]},"properties":{"category":"supermarkt","name":"Lidl","operator":"Lidl Nederland GmbH"}},{"type":"Feature","geometry":{"type":"Point","coordinates":[5.991334,51.523197]},"properties":{"category":"supermarkt","name":"Jumbo Winters","operator":""}},{"type":"Feature","geometry":{"type":"Point","coordinates":[6.014494,51.525976]},"properties":{"category":"fietsenstalling","name":"","operator":""}},{"type":"Feature","geometry":{"type":"Point","coordinates":[6.013981,51.526775]},"properties":{"category":"fietsenstalling","name":"","operator":""}},{"type":"Feature","geometry":{"type":"Point","coordinates":[5.991952,51.539339]},"properties":{"category":"fietsenstalling","name":"","operator":"Manders Automation"}},{"type":"Feature","geometry":{"type":"Point","coordinates":[6.00438,51.523301]},"properties":{"category":"fietsenstalling","name":"","operator":""}},{"type":"Feature","geometry":{"type":"Point","coordinates":[5.976534,51.526928]},"properties":{"category":"parkeergarage","name":"","operator":""}},{"type":"Feature","geometry":{"type":"Point","coordinates":[5.852515,51.537851]},"properties":{"category":"p_and_r","name":"Lgen Bestkazerne","operator":""}}]}