{"type":"FeatureCollection","metadata":{"gemeente":"Vijfheerenlanden","slug":"vijfheerenlanden","by_category":{"bus_halte":230,"fietsenstalling":15,"bibliotheek":8,"sportveld":8,"transformatorhuisje":5,"parkeergarage":5,"ov_knooppunt":3,"gemeentehuis":3,"inzamelpunt":2,"p_and_r":2,"ns_station":1,"middelbare_school":1,"winkelcentrum":1},"total":284},"features":[{"type":"Feature","geometry":{"type":"Point","coordinates":[5.092791,51.894616]},"properties":{"category":"ns_station","name":"Leerdam","operator":""}},{"type":"Feature","geometry":{"type":"Point","coordinates":[5.15092,51.957305]},"properties":{"category":"bus_halte","name":"Graaf Huibertlaan","operator":""}},{"type":"Feature","geometry":{"type":"Point","coordinates":[5.167048,51.964112]},"properties":{"category":"bus_halte","name":"'t Lot","operator":""}},{"type":"Feature","geometry":{"type":"Point","coordinates":[5.132407,51.966985]},"properties":{"category":"bus_halte","name":"Kortenoever","operator":""}},{"type":"Feature","geometry":{"type":"Point","coordinates":[5.104946,51.985275]},"properties":{"category":"bus_halte","name":"Lange Dreef","operator":""}},{"type":"Feature","geometry":{"type":"Point","coordinates":[5.062111,51.904986]},"properties":{"category":"bus_halte","name":"Camping Recht van ter Leede","operator":""}},{"type":"Feature","geometry":{"type":"Point","coordinates":[5.126309,51.977681]},"properties":{"category":"bus_halte","name":"Nijensteinseweg","operator":""}},{"type":"Feature","geometry":{"type":"Point","coordinates":[5.168665,51.955148]},"properties":{"category":"bus_halte","name":"Diefdijk","operator":""}},{"type":"Feature","geometry":{"type":"Point","coordinates":[5.100647,51.990617]},"properties":{"category":"bus_halte","name":"Hagenweg","operator":""}},{"type":"Feature","geometry":{"type":"Point","coordinates":[5.120821,51.980731]},"properties":{"category":"bus_halte","name":"Stuwstraat","operator":""}},{"type":"Feature","geometry":{"type":"Point","coordinates":[5.014873,51.911544]},"properties":{"category":"bus_halte","name":"Weverwijk","operator":""}},{"type":"Feature","geometry":{"type":"Point","coordinates":[5.073772,51.980905]},"properties":{"category":"bus_halte","name":"Weidekamp","operator":""}},{"type":"Feature","geometry":{"type":"Point","coordinates":[5.074584,51.981596]},"properties":{"category":"bus_halte","name":"Weidekamp","operator":""}},{"type":"Feature","geometry":{"type":"Point","coordinates":[5.098148,51.97612]},"properties":{"category":"bus_halte","name":"Laanakkerweg","operator":""}},{"type":"Feature","geometry":{"type":"Point","coordinates":[5.077508,51.977491]},"properties":{"category":"bus_halte","name":"'t Zand","operator":""}},{"type":"Feature","geometry":{"type":"Point","coordinates":[5.077007,51.977966]},"properties":{"category":"bus_halte","name":"'t Zand","operator":""}},{"type":"Feature","geometry":{"type":"Point","coordinates":[5.084047,51.978416]},"properties":{"category":"bus_halte","name":"Marienhof","operator":""}},{"type":"Feature","geometry":{"type":"Point","coordinates":[5.084082,51.97817]},"properties":{"category":"bus_halte","name":"Marienhof","operator":""}},{"type":"Feature","geometry":{"type":"Point","coordinates":[5.078784,51.984538]},"properties":{"category":"bus_halte","name":"Ruinkamp","operator":""}},{"type":"Feature","geometry":{"type":"Point","coordinates":[5.078825,51.984805]},"properties":{"category":"bus_halte","name":"Ruinkamp","operator":""}},{"type":"Feature","geometry":{"type":"Point","coordinates":[5.086173,51.983953]},"properties":{"category":"bus_halte","name":"Clarrissenhof","operator":""}},{"type":"Feature","geometry":{"type":"Point","coordinates":[5.085859,51.984168]},"properties":{"category":"bus_halte","name":"Clarrissenhof","operator":""}},{"type":"Feature","geometry":{"type":"Point","coordinates":[5.086235,51.980507]},"properties":{"category":"bus_halte","name":"Augustinushof","operator":""}},{"type":"Feature","geometry":{"type":"Point","coordinates":[5.086392,51.980518]},"properties":{"category":"bus_halte","name":"Augustinushof","operator":""}},{"type":"Feature","geometry":{"type":"Point","coordinates":[5.093862,51.979354]},"properties":{"category":"bus_halte","name":"Eendrachtsweg","operator":""}},{"type":"Feature","geometry":{"type":"Point","coordinates":[5.089184,51.986486]},"properties":{"category":"bus_halte","name":"Hoeufftlaan","operator":""}},{"type":"Feature","geometry":{"type":"Point","coordinates":[5.089609,51.986769]},"properties":{"category":"bus_halte","name":"Hoeufftlaan","operator":""}},{"type":"Feature","geometry":{"type":"Point","coordinates":[5.084524,51.989069]},"properties":{"category":"bus_halte","name":"Hotel Vianen","operator":""}},{"type":"Feature","geometry":{"type":"Point","coordinates":[5.085641,51.989313]},"properties":{"category":"bus_halte","name":"Hotel Vianen","operator":""}},{"type":"Feature","geometry":{"type":"Point","coordinates":[5.090761,51.989235]},"properties":{"category":"bus_halte","name":"Prinses Julianastraat","operator":""}},{"type":"Feature","geometry":{"type":"Point","coordinates":[5.090882,51.989086]},"properties":{"category":"bus_halte","name":"Prinses Julianastraat","operator":""}},{"type":"Feature","geometry":{"type":"Point","coordinates":[5.095226,51.991315]},"properties":{"category":"bus_halte","name":"Centrum","operator":""}},{"type":"Feature","geometry":{"type":"Point","coordinates":[5.095645,51.991418]},"properties":{"category":"bus_halte","name":"Centrum","operator":""}},{"type":"Feature","geometry":{"type":"Point","coordinates":[5.098093,51.981643]},"properties":{"category":"bus_halte","name":"Sportlaan","operator":""}},{"type":"Feature","geometry":{"type":"Point","coordinates":[5.098483,51.981743]},"properties":{"category":"bus_halte","name":"Sportlaan","operator":""}},{"type":"Feature","geometry":{"type":"Point","coordinates":[5.100378,51.985207]},"properties":{"category":"bus_halte","name":"Placotiweg","operator":""}},{"type":"Feature","geometry":{"type":"Point","coordinates":[5.100781,51.985597]},"properties":{"category":"bus_halte","name":"Placotiweg","operator":""}},{"type":"Feature","geometry":{"type":"Point","coordinates":[5.101578,51.987271]},"properties":{"category":"bus_halte","name":"Stuartweg","operator":""}},{"type":"Feature","geometry":{"type":"Point","coordinates":[5.101296,51.986942]},"properties":{"category":"bus_halte","name":"Stuartweg","operator":""}},{"type":"Feature","geometry":{"type":"Point","coordinates":[5.104257,51.992996]},"properties":{"category":"bus_halte","name":"van Duvenvoordestraat","operator":""}},{"type":"Feature","geometry":{"type":"Point","coordinates":[5.098107,51.994746]},"properties":{"category":"bus_halte","name":"Verzorgingscentrum Batenstein","operator":""}},{"type":"Feature","geometry":{"type":"Point","coordinates":[5.098272,51.994981]},"properties":{"category":"bus_halte","name":"Verzorgingscentrum Batenstein","operator":""}},{"type":"Feature","geometry":{"type":"Point","coordinates":[5.10283,51.994933]},"properties":{"category":"bus_halte","name":"Brugstraat","operator":""}},{"type":"Feature","geometry":{"type":"Point","coordinates":[5.102591,51.995083]},"properties":{"category":"bus_halte","name":"Brugstraat","operator":""}},{"type":"Feature","geometry":{"type":"Point","coordinates":[5.104015,51.992685]},"properties":{"category":"bus_halte","name":"van Duvenvoordestraat","operator":""}},{"type":"Feature","geometry":{"type":"Point","coordinates":[5.085175,51.896761]},"properties":{"category":"bus_halte","name":"Ooievaarlaan","operator":"Arriva"}},{"type":"Feature","geometry":{"type":"Point","coordinates":[5.085071,51.896781]},"properties":{"category":"bus_halte","name":"Ooievaarlaan","operator":"Arriva"}},{"type":"Feature","geometry":{"type":"Point","coordinates":[5.100629,51.893164]},"properties":{"category":"bus_halte","name":"Brandweerkazerne","operator":""}},{"type":"Feature","geometry":{"type":"Point","coordinates":[5.088664,51.894088]},"properties":{"category":"bus_halte","name":"Recht van ter Leede","operator":"Arriva"}},{"type":"Feature","geometry":{"type":"Point","coordinates":[5.102325,51.892851]},"properties":{"category":"bus_halte","name":"Brandweerkazerne","operator":""}},{"type":"Feature","geometry":{"type":"Point","coordinates":[5.107404,51.891931]},"properties":{"category":"bus_halte","name":"Lingepolikliniek","operator":""}},{"type":"Feature","geometry":{"type":"Point","coordinates":[5.107313,51.892055]},"properties":{"category":"bus_halte","name":"Lingepolikliniek","operator":""}},{"type":"Feature","geometry":{"type":"Point","coordinates":[5.116067,51.978638]},"properties":{"category":"bus_halte","name":"Biezenweg","operator":""}},{"type":"Feature","geometry":{"type":"Point","coordinates":[4.995989,51.920539]},"properties":{"category":"bus_halte","name":"Gemeentehuis","operator":""}},{"type":"Feature","geometry":{"type":"Point","coordinates":[4.965808,51.954422]},"properties":{"category":"bus_halte","name":"Open Vensters","operator":""}},{"type":"Feature","geometry":{"type":"Point","coordinates":[4.965759,51.954479]},"properties":{"category":"bus_halte","name":"Open Vensters","operator":""}},{"type":"Feature","geometry":{"type":"Point","coordinates":[5.050684,51.85955]},"properties":{"category":"bus_halte","name":"Kerkstraat","operator":""}},{"type":"Feature","geometry":{"type":"Point","coordinates":[5.106697,51.986985]},"properties":{"category":"bus_halte","name":"Ingenieur D.S. Tuijnmanweg","operator":""}},{"type":"Feature","geometry":{"type":"Point","coordinates":[5.106919,51.987108]},"properties":{"category":"bus_halte","name":"Ingenieur D.S. Tuijnmanweg","operator":""}},{"type":"Feature","geometry":{"type":"Point","coordinates":[5.104825,51.985378]},"properties":{"category":"bus_halte","name":"Lange Dreef","operator":""}},{"type":"Feature","geometry":{"type":"Point","coordinates":[5.093975,51.975954]},"properties":{"category":"bus_halte","name":"Lorentzweg","operator":""}},{"type":"Feature","geometry":{"type":"Point","coordinates":[5.167081,51.964245]},"properties":{"category":"bus_halte","name":"'t Lot","operator":""}},{"type":"Feature","geometry":{"type":"Point","coordinates":[5.130182,51.971043]},"properties":{"category":"bus_halte","name":"Autenasekade","operator":""}},{"type":"Feature","geometry":{"type":"Point","coordinates":[5.130319,51.971102]},"properties":{"category":"bus_halte","name":"Autenasekade","operator":""}},{"type":"Feature","geometry":{"type":"Point","coordinates":[5.115932,51.978647]},"properties":{"category":"bus_halte","name":"Biezenweg","operator":""}},{"type":"Feature","geometry":{"type":"Point","coordinates":[5.100887,51.990696]},"properties":{"category":"bus_halte","name":"Hagenweg","operator":""}},{"type":"Feature","geometry":{"type":"Point","coordinates":[5.126298,51.977904]},"properties":{"category":"bus_halte","name":"Nijensteinseweg","operator":""}},{"type":"Feature","geometry":{"type":"Point","coordinates":[5.151243,51.957224]},"properties":{"category":"bus_halte","name":"Graaf Huibertlaan","operator":""}},{"type":"Feature","geometry":{"type":"Point","coordinates":[5.168739,51.955278]},"properties":{"category":"bus_halte","name":"Diefdijk","operator":""}},{"type":"Feature","geometry":{"type":"Point","coordinates":[5.13211,51.967535]},"properties":{"category":"bus_halte","name":"Kortenoever","operator":""}},{"type":"Feature","geometry":{"type":"Point","coordinates":[5.120778,51.980795]},"properties":{"category":"bus_halte","name":"Stuwstraat","operator":""}},{"type":"Feature","geometry":{"type":"Point","coordinates":[5.138418,51.96178]},"properties":{"category":"bus_halte","name":"Tienhovenseweg","operator":""}},{"type":"Feature","geometry":{"type":"Point","coordinates":[5.138256,51.961926]},"properties":{"category":"bus_halte","name":"Tienhovenseweg","operator":""}},{"type":"Feature","geometry":{"type":"Point","coordinates":[5.088024,51.893414]},"properties":{"category":"bus_halte","name":"Recht van ter Leede","operator":"Arriva"}},{"type":"Feature","geometry":{"type":"Point","coordinates":[5.093039,51.8944]},"properties":{"category":"bus_halte","name":"Station","operator":""}},{"type":"Feature","geometry":{"type":"Point","coordinates":[5.082797,51.990988]},"properties":{"category":"bus_halte","name":"Busstation Lekbrug (Oost)","operator":""}},{"type":"Feature","geometry":{"type":"Point","coordinates":[5.081214,51.989187]},"properties":{"category":"bus_halte","name":"Busstation Lekbrug (West)","operator":""}},{"type":"Feature","geometry":{"type":"Point","coordinates":[5.0813,51.989201]},"properties":{"category":"bus_halte","name":"Busstation Lekbrug (West)","operator":""}},{"type":"Feature","geometry":{"type":"Point","coordinates":[5.08138,51.98921]},"properties":{"category":"bus_halte","name":"Busstation Lekbrug (West)","operator":""}},{"type":"Feature","geometry":{"type":"Point","coordinates":[5.081462,51.989229]},"properties":{"category":"bus_halte","name":"Busstation Lekbrug (West)","operator":""}},{"type":"Feature","geometry":{"type":"Point","coordinates":[5.082649,51.990947]},"properties":{"category":"bus_halte","name":"Busstation Lekbrug (Oost)","operator":""}},{"type":"Feature","geometry":{"type":"Point","coordinates":[5.082725,51.990969]},"properties":{"category":"bus_halte","name":"Busstation Lekbrug (Oost)","operator":""}},{"type":"Feature","geometry":{"type":"Point","coordinates":[5.082573,51.990928]},"properties":{"category":"bus_halte","name":"Busstation Lekbrug (Oost)","operator":""}},{"type":"Feature","geometry":{"type":"Point","coordinates":[5.091884,51.899264]},"properties":{"category":"bus_halte","name":"Trefpunt","operator":""}},{"type":"Feature","geometry":{"type":"Point","coordinates":[5.085916,51.881842]},"properties":{"category":"bus_halte","name":"Glasmuseum","operator":""}},{"type":"Feature","geometry":{"type":"Point","coordinates":[5.086032,51.88182]},"properties":{"category":"bus_halte","name":"Glasmuseum","operator":""}},{"type":"Feature","geometry":{"type":"Point","coordinates":[5.050495,51.859447]},"properties":{"category":"bus_halte","name":"Kerkstraat","operator":""}},{"type":"Feature","geometry":{"type":"Point","coordinates":[4.99536,51.941777]},"properties":{"category":"bus_halte","name":"Zouwendijk 125","operator":""}},{"type":"Feature","geometry":{"type":"Point","coordinates":[4.995437,51.941797]},"properties":{"category":"bus_halte","name":"Zouwendijk 125","operator":""}},{"type":"Feature","geometry":{"type":"Point","coordinates":[4.996412,51.910712]},"properties":{"category":"bus_halte","name":"Kraneschipbrug","operator":""}},{"type":"Feature","geometry":{"type":"Point","coordinates":[4.996519,51.910703]},"properties":{"category":"bus_halte","name":"Kraneschipbrug","operator":""}},{"type":"Feature","geometry":{"type":"Point","coordinates":[5.018204,51.941752]},"properties":{"category":"bus_halte","name":"Kortlever","operator":""}},{"type":"Feature","geometry":{"type":"Point","coordinates":[5.017835,51.941389]},"properties":{"category":"bus_halte","name":"Kortlever","operator":""}},{"type":"Feature","geometry":{"type":"Point","coordinates":[5.055319,51.971826]},"properties":{"category":"bus_halte","name":"De Zoom","operator":""}},{"type":"Feature","geometry":{"type":"Point","coordinates":[5.057035,51.972566]},"properties":{"category":"bus_halte","name":"De Zoom","operator":""}},{"type":"Feature","geometry":{"type":"Point","coordinates":[4.977717,51.955961]},"properties":{"category":"bus_halte","name":"Sluis 2","operator":""}},{"type":"Feature","geometry":{"type":"Point","coordinates":[4.977792,51.956003]},"properties":{"category":"bus_halte","name":"Sluis 2","operator":""}},{"type":"Feature","geometry":{"type":"Point","coordinates":[5.007451,51.921969]},"properties":{"category":"bus_halte","name":"Meerkerksebrug","operator":""}},{"type":"Feature","geometry":{"type":"Point","coordinates":[5.007546,51.922015]},"properties":{"category":"bus_halte","name":"Meerkerksebrug","operator":""}},{"type":"Feature","geometry":{"type":"Point","coordinates":[5.014722,51.911497]},"properties":{"category":"bus_halte","name":"Weverwijk","operator":""}},{"type":"Feature","geometry":{"type":"Point","coordinates":[5.033962,51.911979]},"properties":{"category":"bus_halte","name":"Pannenkoekhuis","operator":""}},{"type":"Feature","geometry":{"type":"Point","coordinates":[5.033953,51.911914]},"properties":{"category":"bus_halte","name":"Pannenkoekhuis","operator":""}},{"type":"Feature","geometry":{"type":"Point","coordinates":[5.049742,51.908093]},"properties":{"category":"bus_halte","name":"Raadhuisplein","operator":""}},{"type":"Feature","geometry":{"type":"Point","coordinates":[5.049816,51.907943]},"properties":{"category":"bus_halte","name":"Raadhuisplein","operator":""}},{"type":"Feature","geometry":{"type":"Point","coordinates":[5.062112,51.905039]},"properties":{"category":"bus_halte","name":"Camping Recht van ter Leede","operator":""}},{"type":"Feature","geometry":{"type":"Point","coordinates":[5.096042,51.898121]},"properties":{"category":"bus_halte","name":"Molenlaan","operator":""}},{"type":"Feature","geometry":{"type":"Point","coordinates":[5.096059,51.898024]},"properties":{"category":"bus_halte","name":"Molenlaan","operator":""}},{"type":"Feature","geometry":{"type":"Point","coordinates":[5.10672,51.891087]},"properties":{"category":"bus_halte","name":"Lingestein","operator":""}},{"type":"Feature","geometry":{"type":"Point","coordinates":[5.083257,51.944257]},"properties":{"category":"bus_halte","name":"Pleinstraat","operator":""}},{"type":"Feature","geometry":{"type":"Point","coordinates":[5.083099,51.944382]},"properties":{"category":"bus_halte","name":"Pleinstraat","operator":""}},{"type":"Feature","geometry":{"type":"Point","coordinates":[5.076356,51.945659]},"properties":{"category":"bus_halte","name":"Van Zuilenstraat","operator":""}},{"type":"Feature","geometry":{"type":"Point","coordinates":[5.076235,51.945782]},"properties":{"category":"bus_halte","name":"Van Zuilenstraat","operator":""}},{"type":"Feature","geometry":{"type":"Point","coordinates":[5.051901,51.949125]},"properties":{"category":"bus_halte","name":"Zwaanskuikenbrug","operator":""}},{"type":"Feature","geometry":{"type":"Point","coordinates":[5.051897,51.949176]},"properties":{"category":"bus_halte","name":"Zwaanskuikenbrug","operator":""}},{"type":"Feature","geometry":{"type":"Point","coordinates":[5.080284,51.886797]},"properties":{"category":"bus_halte","name":"Rehoboth","operator":""}},{"type":"Feature","geometry":{"type":"Point","coordinates":[5.080398,51.886727]},"properties":{"category":"bus_halte","name":"Rehoboth","operator":""}},{"type":"Feature","geometry":{"type":"Point","coordinates":[5.079099,51.877557]},"properties":{"category":"bus_halte","name":"Driesprong","operator":""}},{"type":"Feature","geometry":{"type":"Point","coordinates":[5.07916,51.877504]},"properties":{"category":"bus_halte","name":"Driesprong","operator":""}},{"type":"Feature","geometry":{"type":"Point","coordinates":[5.118078,51.921934]},"properties":{"category":"bus_halte","name":"Dorp","operator":""}},{"type":"Feature","geometry":{"type":"Point","coordinates":[5.118246,51.921939]},"properties":{"category":"bus_halte","name":"Dorp","operator":""}},{"type":"Feature","geometry":{"type":"Point","coordinates":[4.978375,51.898542]},"properties":{"category":"bus_halte","name":"Meerkerk A27-N214","operator":""}},{"type":"Feature","geometry":{"type":"Point","coordinates":[4.979713,51.899044]},"properties":{"category":"bus_halte","name":"Meerkerk A27-N214","operator":""}},{"type":"Feature","geometry":{"type":"Point","coordinates":[4.994468,51.904157]},"properties":{"category":"bus_halte","name":"Alting","operator":""}},{"type":"Feature","geometry":{"type":"Point","coordinates":[4.994351,51.903958]},"properties":{"category":"bus_halte","name":"Alting","operator":""}},{"type":"Feature","geometry":{"type":"Point","coordinates":[4.998534,51.914715]},"properties":{"category":"bus_halte","name":"Rustoord","operator":""}},{"type":"Feature","geometry":{"type":"Point","coordinates":[4.998599,51.914535]},"properties":{"category":"bus_halte","name":"Rustoord","operator":""}},{"type":"Feature","geometry":{"type":"Point","coordinates":[4.998239,51.917577]},"properties":{"category":"bus_halte","name":"Blommendaal","operator":""}},{"type":"Feature","geometry":{"type":"Point","coordinates":[4.998482,51.918303]},"properties":{"category":"bus_halte","name":"Blommendaal","operator":""}},{"type":"Feature","geometry":{"type":"Point","coordinates":[4.99873,51.921327]},"properties":{"category":"bus_halte","name":"Tolstraat","operator":""}},{"type":"Feature","geometry":{"type":"Point","coordinates":[4.99895,51.921273]},"properties":{"category":"bus_halte","name":"Tolstraat","operator":""}},{"type":"Feature","geometry":{"type":"Point","coordinates":[5.008,51.922772]},"properties":{"category":"bus_halte","name":"Meerkerksebrug","operator":""}},{"type":"Feature","geometry":{"type":"Point","coordinates":[5.008268,51.922865]},"properties":{"category":"bus_halte","name":"Meerkerksebrug","operator":""}},{"type":"Feature","geometry":{"type":"Point","coordinates":[5.013475,51.926982]},"properties":{"category":"bus_halte","name":"Lakerveld 183","operator":""}},{"type":"Feature","geometry":{"type":"Point","coordinates":[5.013665,51.927024]},"properties":{"category":"bus_halte","name":"Lakerveld 183","operator":""}},{"type":"Feature","geometry":{"type":"Point","coordinates":[5.016621,51.933536]},"properties":{"category":"bus_halte","name":"Veldweg","operator":""}},{"type":"Feature","geometry":{"type":"Point","coordinates":[5.016532,51.933191]},"properties":{"category":"bus_halte","name":"Veldweg","operator":""}},{"type":"Feature","geometry":{"type":"Point","coordinates":[5.021945,51.947946]},"properties":{"category":"bus_halte","name":"Halfweg","operator":""}},{"type":"Feature","geometry":{"type":"Point","coordinates":[5.021835,51.94796]},"properties":{"category":"bus_halte","name":"Halfweg","operator":""}},{"type":"Feature","geometry":{"type":"Point","coordinates":[5.025594,51.951461]},"properties":{"category":"bus_halte","name":"Wegenwachtstation","operator":""}},{"type":"Feature","geometry":{"type":"Point","coordinates":[5.025509,51.951459]},"properties":{"category":"bus_halte","name":"Wegenwachtstation","operator":""}},{"type":"Feature","geometry":{"type":"Point","coordinates":[5.03348,51.95778]},"properties":{"category":"bus_halte","name":"Nieuwe Rijksweg","operator":""}},{"type":"Feature","geometry":{"type":"Point","coordinates":[5.034418,51.958467]},"properties":{"category":"bus_halte","name":"Nieuwe Rijksweg","operator":""}},{"type":"Feature","geometry":{"type":"Point","coordinates":[5.034418,51.958577]},"properties":{"category":"bus_halte","name":"Driemolensweg","operator":""}},{"type":"Feature","geometry":{"type":"Point","coordinates":[5.034422,51.95866]},"properties":{"category":"bus_halte","name":"Driemolensweg","operator":""}},{"type":"Feature","geometry":{"type":"Point","coordinates":[5.036909,51.961304]},"properties":{"category":"bus_halte","name":"De Laak","operator":""}},{"type":"Feature","geometry":{"type":"Point","coordinates":[5.036991,51.961442]},"properties":{"category":"bus_halte","name":"De Laak","operator":""}},{"type":"Feature","geometry":{"type":"Point","coordinates":[5.044346,51.965884]},"properties":{"category":"bus_halte","name":"Killesteijnstraat","operator":""}},{"type":"Feature","geometry":{"type":"Point","coordinates":[5.043708,51.965647]},"properties":{"category":"bus_halte","name":"Killesteijnstraat","operator":""}},{"type":"Feature","geometry":{"type":"Point","coordinates":[5.04145,51.964403]},"properties":{"category":"bus_halte","name":"Burgemeester Potstraat","operator":""}},{"type":"Feature","geometry":{"type":"Point","coordinates":[5.041607,51.964396]},"properties":{"category":"bus_halte","name":"Burgemeester Potstraat","operator":""}},{"type":"Feature","geometry":{"type":"Point","coordinates":[5.038333,51.963356]},"properties":{"category":"bus_halte","name":"NH Kerk","operator":""}},{"type":"Feature","geometry":{"type":"Point","coordinates":[5.038413,51.963253]},"properties":{"category":"bus_halte","name":"NH Kerk","operator":""}},{"type":"Feature","geometry":{"type":"Point","coordinates":[5.034354,51.964848]},"properties":{"category":"bus_halte","name":"Lijsterbeslaan","operator":""}},{"type":"Feature","geometry":{"type":"Point","coordinates":[5.034409,51.964908]},"properties":{"category":"bus_halte","name":"Lijsterbeslaan","operator":""}},{"type":"Feature","geometry":{"type":"Point","coordinates":[5.021475,51.965655]},"properties":{"category":"bus_halte","name":"Eendenkooi","operator":""}},{"type":"Feature","geometry":{"type":"Point","coordinates":[5.021499,51.965721]},"properties":{"category":"bus_halte","name":"Eendenkooi","operator":""}},{"type":"Feature","geometry":{"type":"Point","coordinates":[5.008121,51.973873]},"properties":{"category":"bus_halte","name":"Kersbergenveer","operator":""}},{"type":"Feature","geometry":{"type":"Point","coordinates":[5.008121,51.973932]},"properties":{"category":"bus_halte","name":"Kersbergenveer","operator":""}},{"type":"Feature","geometry":{"type":"Point","coordinates":[4.998262,51.973572]},"properties":{"category":"bus_halte","name":"Achthoven","operator":""}},{"type":"Feature","geometry":{"type":"Point","coordinates":[4.998397,51.973535]},"properties":{"category":"bus_halte","name":"Achthoven","operator":""}},{"type":"Feature","geometry":{"type":"Point","coordinates":[4.988164,51.966242]},"properties":{"category":"bus_halte","name":"'t Lam","operator":""}},{"type":"Feature","geometry":{"type":"Point","coordinates":[4.98803,51.966218]},"properties":{"category":"bus_halte","name":"'t Lam","operator":""}},{"type":"Feature","geometry":{"type":"Point","coordinates":[4.979516,51.960618]},"properties":{"category":"bus_halte","name":"Boezemweg","operator":""}},{"type":"Feature","geometry":{"type":"Point","coordinates":[4.979429,51.96067]},"properties":{"category":"bus_halte","name":"Boezemweg","operator":""}},{"type":"Feature","geometry":{"type":"Point","coordinates":[4.976142,51.957369]},"properties":{"category":"bus_halte","name":"Sluis","operator":""}},{"type":"Feature","geometry":{"type":"Point","coordinates":[4.976043,51.957337]},"properties":{"category":"bus_halte","name":"Sluis","operator":""}},{"type":"Feature","geometry":{"type":"Point","coordinates":[4.970122,51.957155]},"properties":{"category":"bus_halte","name":"Plieger","operator":""}},{"type":"Feature","geometry":{"type":"Point","coordinates":[4.970133,51.957219]},"properties":{"category":"bus_halte","name":"Plieger","operator":""}},{"type":"Feature","geometry":{"type":"Point","coordinates":[4.964329,51.957802]},"properties":{"category":"bus_halte","name":"Oudendijk","operator":""}},{"type":"Feature","geometry":{"type":"Point","coordinates":[4.964086,51.957765]},"properties":{"category":"bus_halte","name":"Oudendijk","operator":""}},{"type":"Feature","geometry":{"type":"Point","coordinates":[4.963067,51.954588]},"properties":{"category":"bus_halte","name":"Prinsengracht","operator":""}},{"type":"Feature","geometry":{"type":"Point","coordinates":[4.961254,51.956276]},"properties":{"category":"bus_halte","name":"Molenstraat","operator":""}},{"type":"Feature","geometry":{"type":"Point","coordinates":[4.96077,51.955518]},"properties":{"category":"bus_halte","name":"Hoogwaard","operator":""}},{"type":"Feature","geometry":{"type":"Point","coordinates":[4.959789,51.958677]},"properties":{"category":"bus_halte","name":"J.W. van Puttestraat","operator":""}},{"type":"Feature","geometry":{"type":"Point","coordinates":[4.959783,51.95874]},"properties":{"category":"bus_halte","name":"J.W. van Puttestraat","operator":""}},{"type":"Feature","geometry":{"type":"Point","coordinates":[4.953361,51.960936]},"properties":{"category":"bus_halte","name":"Het Huys Herlaar","operator":""}},{"type":"Feature","geometry":{"type":"Point","coordinates":[4.953434,51.960982]},"properties":{"category":"bus_halte","name":"Het Huys Herlaar","operator":""}},{"type":"Feature","geometry":{"type":"Point","coordinates":[4.94664,51.961635]},"properties":{"category":"bus_halte","name":"Burgemeester Luijendijkplein","operator":""}},{"type":"Feature","geometry":{"type":"Point","coordinates":[4.946589,51.96169]},"properties":{"category":"bus_halte","name":"Burgemeester Luijendijkplein","operator":""}},{"type":"Feature","geometry":{"type":"Point","coordinates":[4.941161,51.959395]},"properties":{"category":"bus_halte","name":"RoMacosty","operator":""}},{"type":"Feature","geometry":{"type":"Point","coordinates":[4.941157,51.959473]},"properties":{"category":"bus_halte","name":"RoMacosty","operator":""}},{"type":"Feature","geometry":{"type":"Point","coordinates":[4.935722,51.954063]},"properties":{"category":"bus_halte","name":"Bos","operator":""}},{"type":"Feature","geometry":{"type":"Point","coordinates":[4.935559,51.954034]},"properties":{"category":"bus_halte","name":"Bos","operator":""}},{"type":"Feature","geometry":{"type":"Point","coordinates":[4.931672,51.949677]},"properties":{"category":"bus_halte","name":"Langesteinseweg","operator":""}},{"type":"Feature","geometry":{"type":"Point","coordinates":[4.93155,51.949678]},"properties":{"category":"bus_halte","name":"Langesteinseweg","operator":""}},{"type":"Feature","geometry":{"type":"Point","coordinates":[4.978778,51.8983]},"properties":{"category":"bus_halte","name":"Meerkerk A27-N214","operator":""}},{"type":"Feature","geometry":{"type":"Point","coordinates":[5.093192,51.894288]},"properties":{"category":"bus_halte","name":"Station","operator":""}},{"type":"Feature","geometry":{"type":"Point","coordinates":[5.081823,51.889953]},"properties":{"category":"bus_halte","name":"Pauluskerk","operator":""}},{"type":"Feature","geometry":{"type":"Point","coordinates":[5.081702,51.889962]},"properties":{"category":"bus_halte","name":"Pauluskerk","operator":""}},{"type":"Feature","geometry":{"type":"Point","coordinates":[5.085155,51.891608]},"properties":{"category":"bus_halte","name":"Joost de Jongestraat","operator":""}},{"type":"Feature","geometry":{"type":"Point","coordinates":[5.0851,51.891665]},"properties":{"category":"bus_halte","name":"Joost de Jongestraat","operator":""}},{"type":"Feature","geometry":{"type":"Point","coordinates":[5.091836,51.896926]},"properties":{"category":"bus_halte","name":"Eiland","operator":""}},{"type":"Feature","geometry":{"type":"Point","coordinates":[5.072006,51.984155]},"properties":{"category":"bus_halte","name":"Amaliastein","operator":""}},{"type":"Feature","geometry":{"type":"Point","coordinates":[5.072784,51.984585]},"properties":{"category":"bus_halte","name":"Amaliastein","operator":""}},{"type":"Feature","geometry":{"type":"Point","coordinates":[5.069559,51.981949]},"properties":{"category":"bus_halte","name":"Vijverlust","operator":""}},{"type":"Feature","geometry":{"type":"Point","coordinates":[5.069336,51.9819]},"properties":{"category":"bus_halte","name":"Vijverlust","operator":""}},{"type":"Feature","geometry":{"type":"Point","coordinates":[5.113012,51.983804]},"properties":{"category":"bus_halte","name":"Hoefslag","operator":""}},{"type":"Feature","geometry":{"type":"Point","coordinates":[5.112326,51.983842]},"properties":{"category":"bus_halte","name":"Hoefslag","operator":""}},{"type":"Feature","geometry":{"type":"Point","coordinates":[5.143028,51.941315]},"properties":{"category":"bus_halte","name":"Zijderveld","operator":"Arriva"}},{"type":"Feature","geometry":{"type":"Point","coordinates":[5.141942,51.94064]},"properties":{"category":"bus_halte","name":"Zijderveld","operator":"Arriva"}},{"type":"Feature","geometry":{"type":"Point","coordinates":[5.083385,51.889024]},"properties":{"category":"bus_halte","name":"Owensstraat","operator":"Arriva"}},{"type":"Feature","geometry":{"type":"Point","coordinates":[5.097537,51.899179]},"properties":{"category":"bus_halte","name":"Schaikseweg/Molenlaan","operator":""}},{"type":"Feature","geometry":{"type":"Point","coordinates":[5.097702,51.899017]},"properties":{"category":"bus_halte","name":"Schaikseweg/Molenlaan","operator":""}},{"type":"Feature","geometry":{"type":"Point","coordinates":[5.125154,51.929499]},"properties":{"category":"bus_halte","name":"Kortgerecht Blauwbijl","operator":"Arriva"}},{"type":"Feature","geometry":{"type":"Point","coordinates":[5.126306,51.930419]},"properties":{"category":"bus_halte","name":"Kortgerecht Blauwbijl","operator":"Arriva"}},{"type":"Feature","geometry":{"type":"Point","coordinates":[5.086267,51.891429]},"properties":{"category":"bus_halte","name":"Burgemeester Meesplein","operator":""}},{"type":"Feature","geometry":{"type":"Point","coordinates":[5.086408,51.891392]},"properties":{"category":"bus_halte","name":"Burgemeester Meesplein","operator":""}},{"type":"Feature","geometry":{"type":"Point","coordinates":[5.079661,51.987965]},"properties":{"category":"bus_halte","name":"Het Slyk","operator":""}},{"type":"Feature","geometry":{"type":"Point","coordinates":[5.119974,51.985267]},"properties":{"category":"bus_halte","name":"Hoevesteinse Lint","operator":""}},{"type":"Feature","geometry":{"type":"Point","coordinates":[5.117826,51.987708]},"properties":{"category":"bus_halte","name":"Hagesteinsestraat","operator":""}},{"type":"Feature","geometry":{"type":"Point","coordinates":[5.104604,51.908082]},"properties":{"category":"bus_halte","name":"Schaikseweg/Hoogeind","operator":""}},{"type":"Feature","geometry":{"type":"Point","coordinates":[5.105735,51.908991]},"properties":{"category":"bus_halte","name":"Schaikseweg/Hoogeind","operator":""}},{"type":"Feature","geometry":{"type":"Point","coordinates":[5.104449,51.891737]},"properties":{"category":"bus_halte","name":"Huis ter Leede","operator":""}},{"type":"Feature","geometry":{"type":"Point","coordinates":[5.088586,51.894149]},"properties":{"category":"bus_halte","name":"Recht van ter Leede","operator":""}},{"type":"Feature","geometry":{"type":"Point","coordinates":[5.111986,51.988391]},"properties":{"category":"bus_halte","name":"Hoef en Haag Noord","operator":""}},{"type":"Feature","geometry":{"type":"Point","coordinates":[5.112274,51.988537]},"properties":{"category":"bus_halte","name":"Hoef en Haag Noord","operator":""}},{"type":"Feature","geometry":{"type":"Point","coordinates":[5.113827,51.984156]},"properties":{"category":"bus_halte","name":"Hoef en Haag Zuid","operator":""}},{"type":"Feature","geometry":{"type":"Point","coordinates":[5.114017,51.984364]},"properties":{"category":"bus_halte","name":"Hoef en Haag Zuid","operator":""}},{"type":"Feature","geometry":{"type":"Point","coordinates":[5.026222,51.901384]},"properties":{"category":"bus_halte","name":"Camping De Grienduil","operator":""}},{"type":"Feature","geometry":{"type":"Point","coordinates":[5.038588,51.890511]},"properties":{"category":"bus_halte","name":"Achterdijk","operator":""}},{"type":"Feature","geometry":{"type":"Point","coordinates":[5.051907,51.923648]},"properties":{"category":"bus_halte","name":"Middelkoop","operator":""}},{"type":"Feature","geometry":{"type":"Point","coordinates":[5.085657,51.914805]},"properties":{"category":"bus_halte","name":"Hoogeind","operator":""}},{"type":"Feature","geometry":{"type":"Point","coordinates":[5.09991,51.902018]},"properties":{"category":"bus_halte","name":"Techniekweg","operator":""}},{"type":"Feature","geometry":{"type":"Point","coordinates":[5.154566,51.963608]},"properties":{"category":"bus_halte","name":"Graaf Florisstraat","operator":""}},{"type":"Feature","geometry":{"type":"Point","coordinates":[5.109104,51.921522]},"properties":{"category":"bus_halte","name":"Overheicop","operator":""}},{"type":"Feature","geometry":{"type":"Point","coordinates":[5.127051,51.917383]},"properties":{"category":"bus_halte","name":"Diefdijk","operator":""}},{"type":"Feature","geometry":{"type":"Point","coordinates":[5.01516,51.903186]},"properties":{"category":"bus_halte","name":"Dorp","operator":""}},{"type":"Feature","geometry":{"type":"Point","coordinates":[5.015099,51.903229]},"properties":{"category":"bus_halte","name":"Dorp","operator":""}},{"type":"Feature","geometry":{"type":"Point","coordinates":[5.013248,51.901913]},"properties":{"category":"bus_halte","name":"Torenstraat","operator":""}},{"type":"Feature","geometry":{"type":"Point","coordinates":[5.013277,51.901824]},"properties":{"category":"bus_halte","name":"Torenstraat","operator":""}},{"type":"Feature","geometry":{"type":"Point","coordinates":[4.965277,51.935231]},"properties":{"category":"bus_halte","name":"Broek","operator":""}},{"type":"Feature","geometry":{"type":"Point","coordinates":[5.092791,51.894616]},"properties":{"category":"ov_knooppunt","name":"Leerdam","operator":""}},{"type":"Feature","geometry":{"type":"Point","coordinates":[5.113458,51.986849]},"properties":{"category":"ov_knooppunt","name":"","operator":""}},{"type":"Feature","geometry":{"type":"Point","coordinates":[5.113129,51.986739]},"properties":{"category":"ov_knooppunt","name":"","operator":""}},{"type":"Feature","geometry":{"type":"Point","coordinates":[5.092061,51.893756]},"properties":{"category":"gemeentehuis","name":"Stadskantoor Vijfheerenlanden - Locatie Leerdam","operator":"Gemeente Vijfheerenlanden"}},{"type":"Feature","geometry":{"type":"Point","coordinates":[4.995737,51.920479]},"properties":{"category":"gemeentehuis","name":"Gemeentehuis Vijfheerenlanden - Locatie Meerkerk","operator":"Gemeente Vijfheerenlanden"}},{"type":"Feature","geometry":{"type":"Point","coordinates":[5.092343,51.994989]},"properties":{"category":"gemeentehuis","name":"Stadhuis Vijfheerenlanden - Locatie Vianen","operator":"Gemeente Vijfheerenlanden"}},{"type":"Feature","geometry":{"type":"Point","coordinates":[5.097663,51.983638]},"properties":{"category":"inzamelpunt","name":"Milieustraat Vianen","operator":"Waardlanden"}},{"type":"Feature","geometry":{"type":"Point","coordinates":[5.105072,51.897648]},"properties":{"category":"inzamelpunt","name":"Milieustraat Leerdam","operator":"Waardlanden"}},{"type":"Feature","geometry":{"type":"Point","coordinates":[5.095316,51.994167]},"properties":{"category":"bibliotheek","name":"Bibliotheek Vianen","operator":"Bibliotheek Lek & IJssel"}},{"type":"Feature","geometry":{"type":"Point","coordinates":[5.033336,51.963568]},"properties":{"category":"bibliotheek","name":"Bibliotheekpunt Lexmond","operator":"Bibliotheek Lek & IJssel"}},{"type":"Feature","geometry":{"type":"Point","coordinates":[5.09231,51.893076]},"properties":{"category":"bibliotheek","name":"Bibliotheek Leerdam","operator":"Bibliotheek Lek & IJssel"}},{"type":"Feature","geometry":{"type":"Point","coordinates":[4.965998,51.95496]},"properties":{"category":"bibliotheek","name":"Bibliotheekpunt Ameide","operator":"Bibliotheek Lek & IJssel"}},{"type":"Feature","geometry":{"type":"Point","coordinates":[5.142762,51.941865]},"properties":{"category":"bibliotheek","name":"Bibliotheekpunt Zijderveld","operator":"Bibliotheek Lek & IJssel"}},{"type":"Feature","geometry":{"type":"Point","coordinates":[5.155079,51.963015]},"properties":{"category":"bibliotheek","name":"Bibliotheekpunt Everdingen","operator":"Bibliotheek Lek & IJssel"}},{"type":"Feature","geometry":{"type":"Point","coordinates":[5.122606,51.978745]},"properties":{"category":"bibliotheek","name":"Bibliotheekpunt Hagestein","operator":"Bibliotheek Lek & IJssel"}},{"type":"Feature","geometry":{"type":"Point","coordinates":[4.995711,51.920562]},"properties":{"category":"bibliotheek","name":"Bibliotheekpunt Meerkerk","operator":"Bibliotheek Lek & IJssel"}},{"type":"Feature","geometry":{"type":"Point","coordinates":[5.124208,51.905979]},"properties":{"category":"transformatorhuisje","name":"","operator":""}},{"type":"Feature","geometry":{"type":"Point","coordinates":[5.174664,51.962435]},"properties":{"category":"transformatorhuisje","name":"","operator":"Stedin"}},{"type":"Feature","geometry":{"type":"Point","coordinates":[5.102553,51.995662]},"properties":{"category":"transformatorhuisje","name":"","operator":"Stedin"}},{"type":"Feature","geometry":{"type":"Point","coordinates":[5.107724,51.994556]},"properties":{"category":"transformatorhuisje","name":"","operator":"Stedin"}},{"type":"Feature","geometry":{"type":"Point","coordinates":[5.094259,51.980321]},"properties":{"category":"transformatorhuisje","name":"50 kV Vianen","operator":""}},{"type":"Feature","geometry":{"type":"Point","coordinates":[5.078452,51.986888]},"properties":{"category":"middelbare_school","name":"Oosterlicht College","operator":"Brede Christelijke Scholengemeenschap Oosterlicht"}},{"type":"Feature","geometry":{"type":"Point","coordinates":[5.084798,51.977459]},"properties":{"category":"sportveld","name":"Lawn Tennis Vereniging Vianen","operator":""}},{"type":"Feature","geometry":{"type":"Point","coordinates":[5.114921,51.98277]},"properties":{"category":"sportveld","name":"Stal Bosgoed B.V.","operator":""}},{"type":"Feature","geometry":{"type":"Point","coordinates":[5.088477,51.980317]},"properties":{"category":"sportveld","name":"Sportpark Blankensteijn","operator":"Gemeente Vianen"}},{"type":"Feature","geometry":{"type":"Point","coordinates":[5.075972,51.899988]},"properties":{"category":"sportveld","name":"Glaspark","operator":""}},{"type":"Feature","geometry":{"type":"Point","coordinates":[5.076202,51.892717]},"properties":{"category":"sportveld","name":"Leerdam Sport '55","operator":""}},{"type":"Feature","geometry":{"type":"Point","coordinates":[5.086347,51.881912]},"properties":{"category":"sportveld","name":"Roeivereniging Leerdam","operator":""}},{"type":"Feature","geometry":{"type":"Point","coordinates":[5.082414,51.942578]},"properties":{"category":"sportveld","name":"Sportpark Het Plein","operator":""}},{"type":"Feature","geometry":{"type":"Point","coordinates":[5.108427,51.896168]},"properties":{"category":"sportveld","name":"Tennisclub Leerdam","operator":""}},{"type":"Feature","geometry":{"type":"Point","coordinates":[5.080694,51.890244]},"properties":{"category":"winkelcentrum","name":"Winkelcentrum Leerdam West","operator":""}},{"type":"Feature","geometry":{"type":"Point","coordinates":[5.141803,51.940517]},"properties":{"category":"fietsenstalling","name":"","operator":""}},{"type":"Feature","geometry":{"type":"Point","coordinates":[5.082732,51.986915]},"properties":{"category":"fietsenstalling","name":"Helsdingen","operator":"Gemeente Vianen"}},{"type":"Feature","geometry":{"type":"Point","coordinates":[5.083108,51.988914]},"properties":{"category":"fietsenstalling","name":"","operator":""}},{"type":"Feature","geometry":{"type":"Point","coordinates":[5.106934,51.98457]},"properties":{"category":"fietsenstalling","name":"","operator":""}},{"type":"Feature","geometry":{"type":"Point","coordinates":[5.083587,51.990877]},"properties":{"category":"fietsenstalling","name":"","operator":""}},{"type":"Feature","geometry":{"type":"Point","coordinates":[5.092991,51.894486]},"properties":{"category":"fietsenstalling","name":"","operator":""}},{"type":"Feature","geometry":{"type":"Point","coordinates":[4.979829,51.898759]},"properties":{"category":"fietsenstalling","name":"","operator":""}},{"type":"Feature","geometry":{"type":"Point","coordinates":[4.97977,51.898758]},"properties":{"category":"fietsenstalling","name":"","operator":""}},{"type":"Feature","geometry":{"type":"Point","coordinates":[4.979959,51.898763]},"properties":{"category":"fietsenstalling","name":"","operator":""}},{"type":"Feature","geometry":{"type":"Point","coordinates":[5.12628,51.930154]},"properties":{"category":"fietsenstalling","name":"","operator":""}},{"type":"Feature","geometry":{"type":"Point","coordinates":[5.126094,51.929937]},"properties":{"category":"fietsenstalling","name":"","operator":""}},{"type":"Feature","geometry":{"type":"Point","coordinates":[5.104687,51.908637]},"properties":{"category":"fietsenstalling","name":"","operator":""}},{"type":"Feature","geometry":{"type":"Point","coordinates":[5.146963,51.943152]},"properties":{"category":"fietsenstalling","name":"","operator":""}},{"type":"Feature","geometry":{"type":"Point","coordinates":[5.08315,51.990715]},"properties":{"category":"fietsenstalling","name":"","operator":""}},{"type":"Feature","geometry":{"type":"Point","coordinates":[5.083219,51.990495]},"properties":{"category":"fietsenstalling","name":"","operator":""}},{"type":"Feature","geometry":{"type":"Point","coordinates":[5.104576,51.984206]},"properties":{"category":"parkeergarage","name":"","operator":"MVGM Bedrijfshuisvesting"}},{"type":"Feature","geometry":{"type":"Point","coordinates":[5.084386,51.989646]},"properties":{"category":"parkeergarage","name":"","operator":""}},{"type":"Feature","geometry":{"type":"Point","coordinates":[5.093972,51.977646]},"properties":{"category":"parkeergarage","name":"","operator":""}},{"type":"Feature","geometry":{"type":"Point","coordinates":[5.089366,51.893477]},"properties":{"category":"parkeergarage","name":"","operator":""}},{"type":"Feature","geometry":{"type":"Point","coordinates":[5.09059,51.893507]},"properties":{"category":"parkeergarage","name":"","operator":""}},{"type":"Feature","geometry":{"type":"Point","coordinates":[5.082186,51.987406]},"properties":{"category":"p_and_r","name":"Carpoolplaats W. Parallelweg Vianen","operator":""}},{"type":"Feature","geometry":{"type":"Point","coordinates":[5.091086,51.894392]},"properties":{"category":"p_and_r","name":"","operator":"Station Leerdam"}}]}