{"type":"FeatureCollection","metadata":{"gemeente":"Voerendaal","slug":"voerendaal","by_category":{"bus_halte":36,"transformatorhuisje":5,"sportveld":4,"bibliotheek":3,"ns_station":2,"ov_knooppunt":2,"supermarkt":2,"fietsenstalling":2,"gemeentehuis":1,"p_and_r":1},"total":58},"features":[{"type":"Feature","geometry":{"type":"Point","coordinates":[5.929417,50.886841]},"properties":{"category":"ns_station","name":"Voerendaal","operator":""}},{"type":"Feature","geometry":{"type":"Point","coordinates":[5.890167,50.866262]},"properties":{"category":"ns_station","name":"Klimmen-Ransdaal","operator":""}},{"type":"Feature","geometry":{"type":"Point","coordinates":[5.942249,50.875047]},"properties":{"category":"bus_halte","name":"Heerlerweg","operator":""}},{"type":"Feature","geometry":{"type":"Point","coordinates":[5.872224,50.881532]},"properties":{"category":"bus_halte","name":"Overheek","operator":""}},{"type":"Feature","geometry":{"type":"Point","coordinates":[5.916162,50.899762]},"properties":{"category":"bus_halte","name":"Luiperbeekstraat","operator":""}},{"type":"Feature","geometry":{"type":"Point","coordinates":[5.947628,50.851979]},"properties":{"category":"bus_halte","name":"Bernardusplein","operator":""}},{"type":"Feature","geometry":{"type":"Point","coordinates":[5.930346,50.876163]},"properties":{"category":"bus_halte","name":"Kunderlinde","operator":""}},{"type":"Feature","geometry":{"type":"Point","coordinates":[5.921033,50.876354]},"properties":{"category":"bus_halte","name":"Midweg","operator":""}},{"type":"Feature","geometry":{"type":"Point","coordinates":[5.896793,50.878825]},"properties":{"category":"bus_halte","name":"Barrier","operator":""}},{"type":"Feature","geometry":{"type":"Point","coordinates":[5.887153,50.877867]},"properties":{"category":"bus_halte","name":"Putweg","operator":""}},{"type":"Feature","geometry":{"type":"Point","coordinates":[5.876984,50.878978]},"properties":{"category":"bus_halte","name":"Schutteheiweg","operator":""}},{"type":"Feature","geometry":{"type":"Point","coordinates":[5.896993,50.878659]},"properties":{"category":"bus_halte","name":"Barrier","operator":""}},{"type":"Feature","geometry":{"type":"Point","coordinates":[5.922293,50.876119]},"properties":{"category":"bus_halte","name":"Midweg","operator":""}},{"type":"Feature","geometry":{"type":"Point","coordinates":[5.931133,50.876027]},"properties":{"category":"bus_halte","name":"Kunderlinde","operator":""}},{"type":"Feature","geometry":{"type":"Point","coordinates":[5.94972,50.876986]},"properties":{"category":"bus_halte","name":"Kunderveld","operator":""}},{"type":"Feature","geometry":{"type":"Point","coordinates":[5.930602,50.884796]},"properties":{"category":"bus_halte","name":"Hoolstraat","operator":""}},{"type":"Feature","geometry":{"type":"Point","coordinates":[5.944291,50.854405]},"properties":{"category":"bus_halte","name":"Oude Schoolstraat","operator":""}},{"type":"Feature","geometry":{"type":"Point","coordinates":[5.941446,50.859163]},"properties":{"category":"bus_halte","name":"Wachelderberg","operator":""}},{"type":"Feature","geometry":{"type":"Point","coordinates":[5.933613,50.875158]},"properties":{"category":"bus_halte","name":"Kunderlinde","operator":""}},{"type":"Feature","geometry":{"type":"Point","coordinates":[5.932149,50.877761]},"properties":{"category":"bus_halte","name":"Hogeweg/Lindeweg","operator":""}},{"type":"Feature","geometry":{"type":"Point","coordinates":[5.920536,50.895593]},"properties":{"category":"bus_halte","name":"Weustenraderweg","operator":""}},{"type":"Feature","geometry":{"type":"Point","coordinates":[5.881893,50.878071]},"properties":{"category":"bus_halte","name":"Centrum","operator":""}},{"type":"Feature","geometry":{"type":"Point","coordinates":[5.927133,50.882085]},"properties":{"category":"bus_halte","name":"Looierstraat","operator":""}},{"type":"Feature","geometry":{"type":"Point","coordinates":[5.930627,50.884267]},"properties":{"category":"bus_halte","name":"Hoolstraat","operator":""}},{"type":"Feature","geometry":{"type":"Point","coordinates":[5.932324,50.877793]},"properties":{"category":"bus_halte","name":"Hogeweg/Lindeweg","operator":""}},{"type":"Feature","geometry":{"type":"Point","coordinates":[5.916073,50.900103]},"properties":{"category":"bus_halte","name":"Luiperbeekstraat","operator":""}},{"type":"Feature","geometry":{"type":"Point","coordinates":[5.920367,50.895785]},"properties":{"category":"bus_halte","name":"Weustenraderweg","operator":""}},{"type":"Feature","geometry":{"type":"Point","coordinates":[5.876814,50.87914]},"properties":{"category":"bus_halte","name":"Schutteheiweg","operator":""}},{"type":"Feature","geometry":{"type":"Point","coordinates":[5.871721,50.881926]},"properties":{"category":"bus_halte","name":"Overheek","operator":""}},{"type":"Feature","geometry":{"type":"Point","coordinates":[5.881229,50.878348]},"properties":{"category":"bus_halte","name":"Centrum","operator":""}},{"type":"Feature","geometry":{"type":"Point","coordinates":[5.886481,50.877891]},"properties":{"category":"bus_halte","name":"Putweg","operator":""}},{"type":"Feature","geometry":{"type":"Point","coordinates":[5.942037,50.875123]},"properties":{"category":"bus_halte","name":"Heerlerweg","operator":""}},{"type":"Feature","geometry":{"type":"Point","coordinates":[5.949016,50.876886]},"properties":{"category":"bus_halte","name":"Kunderveld","operator":""}},{"type":"Feature","geometry":{"type":"Point","coordinates":[5.947778,50.85201]},"properties":{"category":"bus_halte","name":"Bernardusplein","operator":""}},{"type":"Feature","geometry":{"type":"Point","coordinates":[5.944485,50.854351]},"properties":{"category":"bus_halte","name":"Oude Schoolstraat","operator":""}},{"type":"Feature","geometry":{"type":"Point","coordinates":[5.941675,50.859175]},"properties":{"category":"bus_halte","name":"Wachelderberg","operator":""}},{"type":"Feature","geometry":{"type":"Point","coordinates":[5.933554,50.874985]},"properties":{"category":"bus_halte","name":"Kunderlinde","operator":""}},{"type":"Feature","geometry":{"type":"Point","coordinates":[5.929901,50.886652]},"properties":{"category":"bus_halte","name":"Station Voerendaal","operator":""}},{"type":"Feature","geometry":{"type":"Point","coordinates":[5.929417,50.886841]},"properties":{"category":"ov_knooppunt","name":"Voerendaal","operator":""}},{"type":"Feature","geometry":{"type":"Point","coordinates":[5.890167,50.866262]},"properties":{"category":"ov_knooppunt","name":"Klimmen-Ransdaal","operator":""}},{"type":"Feature","geometry":{"type":"Point","coordinates":[5.930753,50.87884]},"properties":{"category":"gemeentehuis","name":"Gemeentehuis Voerendaal","operator":"Gemeente Voerendaal"}},{"type":"Feature","geometry":{"type":"Point","coordinates":[5.927359,50.882142]},"properties":{"category":"bibliotheek","name":"Bibliotheek Voerendaal","operator":"Bibliotheek Kerkrade e.o."}},{"type":"Feature","geometry":{"type":"Point","coordinates":[5.882293,50.876002]},"properties":{"category":"bibliotheek","name":"Uitleenpunt Klimmen","operator":"Bibliotheek Kerkrade e.o."}},{"type":"Feature","geometry":{"type":"Point","coordinates":[5.893434,50.863652]},"properties":{"category":"bibliotheek","name":"Uitleenpunt Ransdaal","operator":"Bibliotheek Kerkrade e.o."}},{"type":"Feature","geometry":{"type":"Point","coordinates":[5.886058,50.854157]},"properties":{"category":"transformatorhuisje","name":"","operator":""}},{"type":"Feature","geometry":{"type":"Point","coordinates":[5.886494,50.854194]},"properties":{"category":"transformatorhuisje","name":"","operator":""}},{"type":"Feature","geometry":{"type":"Point","coordinates":[5.885432,50.854362]},"properties":{"category":"transformatorhuisje","name":"150 kV Schoonbron","operator":""}},{"type":"Feature","geometry":{"type":"Point","coordinates":[5.9445,50.854422]},"properties":{"category":"transformatorhuisje","name":"","operator":"Enexis"}},{"type":"Feature","geometry":{"type":"Point","coordinates":[5.952238,50.85367]},"properties":{"category":"transformatorhuisje","name":"","operator":"Enexis"}},{"type":"Feature","geometry":{"type":"Point","coordinates":[5.888089,50.87421]},"properties":{"category":"sportveld","name":"","operator":""}},{"type":"Feature","geometry":{"type":"Point","coordinates":[5.933911,50.882548]},"properties":{"category":"sportveld","name":"Sportcomplex De Joffer","operator":""}},{"type":"Feature","geometry":{"type":"Point","coordinates":[5.941231,50.85266]},"properties":{"category":"sportveld","name":"Sportpark In gen Anker","operator":""}},{"type":"Feature","geometry":{"type":"Point","coordinates":[5.934128,50.882141]},"properties":{"category":"sportveld","name":"Sportcomplex De Joffer","operator":""}},{"type":"Feature","geometry":{"type":"Point","coordinates":[5.927844,50.882389]},"properties":{"category":"supermarkt","name":"ALDI","operator":"Aldi"}},{"type":"Feature","geometry":{"type":"Point","coordinates":[5.92678,50.882991]},"properties":{"category":"supermarkt","name":"PLUS Tim & Joyce Janssen","operator":""}},{"type":"Feature","geometry":{"type":"Point","coordinates":[5.890106,50.866368]},"properties":{"category":"fietsenstalling","name":"","operator":""}},{"type":"Feature","geometry":{"type":"Point","coordinates":[5.929011,50.886566]},"properties":{"category":"fietsenstalling","name":"","operator":""}},{"type":"Feature","geometry":{"type":"Point","coordinates":[5.928412,50.886314]},"properties":{"category":"p_and_r","name":"","operator":""}}]}