{"type":"FeatureCollection","metadata":{"gemeente":"Waadhoeke","slug":"waadhoeke","by_category":{"bus_halte":220,"sportveld":16,"fietsenstalling":16,"transformatorhuisje":10,"ov_knooppunt":6,"ns_station":3,"bibliotheek":3,"gemeentehuis":2,"p_and_r":1},"total":277},"features":[{"type":"Feature","geometry":{"type":"Point","coordinates":[5.549851,53.182401]},"properties":{"category":"ns_station","name":"Franeker","operator":"Arriva"}},{"type":"Feature","geometry":{"type":"Point","coordinates":[5.634768,53.177718]},"properties":{"category":"ns_station","name":"Dronryp","operator":""}},{"type":"Feature","geometry":{"type":"Point","coordinates":[5.728059,53.188758]},"properties":{"category":"ns_station","name":"Deinum","operator":""}},{"type":"Feature","geometry":{"type":"Point","coordinates":[5.703412,53.279811]},"properties":{"category":"bus_halte","name":"Hervormde Kerk","operator":""}},{"type":"Feature","geometry":{"type":"Point","coordinates":[5.699057,53.27949]},"properties":{"category":"bus_halte","name":"Attesweg","operator":""}},{"type":"Feature","geometry":{"type":"Point","coordinates":[5.711677,53.28036]},"properties":{"category":"bus_halte","name":"Vrouwenparochie","operator":""}},{"type":"Feature","geometry":{"type":"Point","coordinates":[5.549131,53.182552]},"properties":{"category":"bus_halte","name":"Station","operator":""}},{"type":"Feature","geometry":{"type":"Point","coordinates":[5.629182,53.154338]},"properties":{"category":"bus_halte","name":"Kleasterdyk","operator":""}},{"type":"Feature","geometry":{"type":"Point","coordinates":[5.546978,53.184749]},"properties":{"category":"bus_halte","name":"Zuiderkade","operator":""}},{"type":"Feature","geometry":{"type":"Point","coordinates":[5.632075,53.152793]},"properties":{"category":"bus_halte","name":"Hervormde Kerk","operator":""}},{"type":"Feature","geometry":{"type":"Point","coordinates":[5.540744,53.195371]},"properties":{"category":"bus_halte","name":"Froonacker","operator":""}},{"type":"Feature","geometry":{"type":"Point","coordinates":[5.603601,53.163878]},"properties":{"category":"bus_halte","name":"Wjelsryp","operator":""}},{"type":"Feature","geometry":{"type":"Point","coordinates":[5.634952,53.152599]},"properties":{"category":"bus_halte","name":"Tsjerkebuorren","operator":""}},{"type":"Feature","geometry":{"type":"Point","coordinates":[5.557579,53.178513]},"properties":{"category":"bus_halte","name":"Welsrijperhoek","operator":""}},{"type":"Feature","geometry":{"type":"Point","coordinates":[5.560379,53.159416]},"properties":{"category":"bus_halte","name":"Franekerweg","operator":""}},{"type":"Feature","geometry":{"type":"Point","coordinates":[5.541054,53.193032]},"properties":{"category":"bus_halte","name":"Hertog van Saxenlaan","operator":""}},{"type":"Feature","geometry":{"type":"Point","coordinates":[5.546255,53.184771]},"properties":{"category":"bus_halte","name":"Zuiderkade","operator":""}},{"type":"Feature","geometry":{"type":"Point","coordinates":[5.541025,53.194453]},"properties":{"category":"bus_halte","name":"Froonacker","operator":""}},{"type":"Feature","geometry":{"type":"Point","coordinates":[5.628908,53.154607]},"properties":{"category":"bus_halte","name":"Kleasterdyk","operator":""}},{"type":"Feature","geometry":{"type":"Point","coordinates":[5.634748,53.152704]},"properties":{"category":"bus_halte","name":"Tsjerkebuorren","operator":""}},{"type":"Feature","geometry":{"type":"Point","coordinates":[5.639685,53.151285]},"properties":{"category":"bus_halte","name":"Busstation","operator":""}},{"type":"Feature","geometry":{"type":"Point","coordinates":[5.538551,53.184995]},"properties":{"category":"bus_halte","name":"Vijverstraat","operator":""}},{"type":"Feature","geometry":{"type":"Point","coordinates":[5.538649,53.185044]},"properties":{"category":"bus_halte","name":"Vijverstraat","operator":""}},{"type":"Feature","geometry":{"type":"Point","coordinates":[5.595733,53.163551]},"properties":{"category":"bus_halte","name":"Westerein","operator":""}},{"type":"Feature","geometry":{"type":"Point","coordinates":[5.560455,53.159465]},"properties":{"category":"bus_halte","name":"Franekerweg","operator":""}},{"type":"Feature","geometry":{"type":"Point","coordinates":[5.538717,53.186505]},"properties":{"category":"bus_halte","name":"Voorstraat","operator":""}},{"type":"Feature","geometry":{"type":"Point","coordinates":[5.595708,53.163612]},"properties":{"category":"bus_halte","name":"Westerein","operator":""}},{"type":"Feature","geometry":{"type":"Point","coordinates":[5.542044,53.184774]},"properties":{"category":"bus_halte","name":"Theresia","operator":""}},{"type":"Feature","geometry":{"type":"Point","coordinates":[5.542325,53.184698]},"properties":{"category":"bus_halte","name":"Theresia","operator":""}},{"type":"Feature","geometry":{"type":"Point","coordinates":[5.602498,53.163824]},"properties":{"category":"bus_halte","name":"Wjelsryp","operator":""}},{"type":"Feature","geometry":{"type":"Point","coordinates":[5.540829,53.192964]},"properties":{"category":"bus_halte","name":"Hertog van Saxenlaan","operator":""}},{"type":"Feature","geometry":{"type":"Point","coordinates":[5.631626,53.152923]},"properties":{"category":"bus_halte","name":"Hervormde Kerk","operator":""}},{"type":"Feature","geometry":{"type":"Point","coordinates":[5.538768,53.186323]},"properties":{"category":"bus_halte","name":"Voorstraat","operator":""}},{"type":"Feature","geometry":{"type":"Point","coordinates":[5.557028,53.17804]},"properties":{"category":"bus_halte","name":"Welsrijperhoek","operator":""}},{"type":"Feature","geometry":{"type":"Point","coordinates":[5.639857,53.151174]},"properties":{"category":"bus_halte","name":"Busstation","operator":""}},{"type":"Feature","geometry":{"type":"Point","coordinates":[5.480069,53.14752]},"properties":{"category":"bus_halte","name":"Monnikenweg","operator":""}},{"type":"Feature","geometry":{"type":"Point","coordinates":[5.480229,53.147568]},"properties":{"category":"bus_halte","name":"Monnikenweg","operator":""}},{"type":"Feature","geometry":{"type":"Point","coordinates":[5.484865,53.148138]},"properties":{"category":"bus_halte","name":"Jonkerschap","operator":""}},{"type":"Feature","geometry":{"type":"Point","coordinates":[5.484919,53.148013]},"properties":{"category":"bus_halte","name":"Jonkerschap","operator":""}},{"type":"Feature","geometry":{"type":"Point","coordinates":[5.518861,53.16623]},"properties":{"category":"bus_halte","name":"Hitzum","operator":""}},{"type":"Feature","geometry":{"type":"Point","coordinates":[5.518893,53.166317]},"properties":{"category":"bus_halte","name":"Hitzum","operator":""}},{"type":"Feature","geometry":{"type":"Point","coordinates":[5.496079,53.226984]},"properties":{"category":"bus_halte","name":"Ottemaleane","operator":""}},{"type":"Feature","geometry":{"type":"Point","coordinates":[5.495308,53.226511]},"properties":{"category":"bus_halte","name":"Ottemaleane","operator":""}},{"type":"Feature","geometry":{"type":"Point","coordinates":[5.503419,53.230865]},"properties":{"category":"bus_halte","name":"Slachtedyk","operator":""}},{"type":"Feature","geometry":{"type":"Point","coordinates":[5.502678,53.230669]},"properties":{"category":"bus_halte","name":"Slachtedyk","operator":""}},{"type":"Feature","geometry":{"type":"Point","coordinates":[5.507901,53.232817]},"properties":{"category":"bus_halte","name":"Haerdawei","operator":""}},{"type":"Feature","geometry":{"type":"Point","coordinates":[5.507733,53.232607]},"properties":{"category":"bus_halte","name":"Haerdawei","operator":""}},{"type":"Feature","geometry":{"type":"Point","coordinates":[5.512418,53.234288]},"properties":{"category":"bus_halte","name":"Keatsebuorren","operator":""}},{"type":"Feature","geometry":{"type":"Point","coordinates":[5.512268,53.234372]},"properties":{"category":"bus_halte","name":"Keatsebuorren","operator":""}},{"type":"Feature","geometry":{"type":"Point","coordinates":[5.521673,53.23513]},"properties":{"category":"bus_halte","name":"Muntsewei","operator":""}},{"type":"Feature","geometry":{"type":"Point","coordinates":[5.522996,53.235208]},"properties":{"category":"bus_halte","name":"Muntsewei","operator":""}},{"type":"Feature","geometry":{"type":"Point","coordinates":[5.529015,53.236031]},"properties":{"category":"bus_halte","name":"Kapellewei","operator":""}},{"type":"Feature","geometry":{"type":"Point","coordinates":[5.529837,53.235982]},"properties":{"category":"bus_halte","name":"Kapellewei","operator":""}},{"type":"Feature","geometry":{"type":"Point","coordinates":[5.542289,53.207765]},"properties":{"category":"bus_halte","name":"Tzummarumerweg","operator":""}},{"type":"Feature","geometry":{"type":"Point","coordinates":[5.54212,53.208021]},"properties":{"category":"bus_halte","name":"Tzummarumerweg","operator":""}},{"type":"Feature","geometry":{"type":"Point","coordinates":[5.5419,53.236542]},"properties":{"category":"bus_halte","name":"Westerbuorren","operator":""}},{"type":"Feature","geometry":{"type":"Point","coordinates":[5.541896,53.236686]},"properties":{"category":"bus_halte","name":"Westerbuorren","operator":""}},{"type":"Feature","geometry":{"type":"Point","coordinates":[5.547357,53.237667]},"properties":{"category":"bus_halte","name":"Wapen van Barradeel","operator":""}},{"type":"Feature","geometry":{"type":"Point","coordinates":[5.547173,53.237708]},"properties":{"category":"bus_halte","name":"Wapen van Barradeel","operator":""}},{"type":"Feature","geometry":{"type":"Point","coordinates":[5.551899,53.238883]},"properties":{"category":"bus_halte","name":"Swaerderwei","operator":""}},{"type":"Feature","geometry":{"type":"Point","coordinates":[5.551708,53.238931]},"properties":{"category":"bus_halte","name":"Swaerderwei","operator":""}},{"type":"Feature","geometry":{"type":"Point","coordinates":[5.567088,53.243018]},"properties":{"category":"bus_halte","name":"Weg naar Firdgum","operator":""}},{"type":"Feature","geometry":{"type":"Point","coordinates":[5.568024,53.243084]},"properties":{"category":"bus_halte","name":"Weg naar Firdgum","operator":""}},{"type":"Feature","geometry":{"type":"Point","coordinates":[5.589725,53.250378]},"properties":{"category":"bus_halte","name":"Hermanahiem","operator":""}},{"type":"Feature","geometry":{"type":"Point","coordinates":[5.590236,53.250457]},"properties":{"category":"bus_halte","name":"Hermanahiem","operator":""}},{"type":"Feature","geometry":{"type":"Point","coordinates":[5.592894,53.250839]},"properties":{"category":"bus_halte","name":"Hervormde Kerk","operator":""}},{"type":"Feature","geometry":{"type":"Point","coordinates":[5.593536,53.251225]},"properties":{"category":"bus_halte","name":"Hervormde Kerk","operator":""}},{"type":"Feature","geometry":{"type":"Point","coordinates":[5.599864,53.253495]},"properties":{"category":"bus_halte","name":"Miedleane","operator":""}},{"type":"Feature","geometry":{"type":"Point","coordinates":[5.599423,53.253355]},"properties":{"category":"bus_halte","name":"Miedleane","operator":""}},{"type":"Feature","geometry":{"type":"Point","coordinates":[5.619824,53.250663]},"properties":{"category":"bus_halte","name":"Wier","operator":""}},{"type":"Feature","geometry":{"type":"Point","coordinates":[5.61962,53.250906]},"properties":{"category":"bus_halte","name":"Wier","operator":""}},{"type":"Feature","geometry":{"type":"Point","coordinates":[5.570415,53.275708]},"properties":{"category":"bus_halte","name":"Westhoek","operator":""}},{"type":"Feature","geometry":{"type":"Point","coordinates":[5.603805,53.270682]},"properties":{"category":"bus_halte","name":"Zuideinde","operator":""}},{"type":"Feature","geometry":{"type":"Point","coordinates":[5.603779,53.271432]},"properties":{"category":"bus_halte","name":"Zuideinde","operator":""}},{"type":"Feature","geometry":{"type":"Point","coordinates":[5.606112,53.272889]},"properties":{"category":"bus_halte","name":"St. Jacobiparochie","operator":""}},{"type":"Feature","geometry":{"type":"Point","coordinates":[5.606565,53.272835]},"properties":{"category":"bus_halte","name":"St. Jacobiparochie","operator":""}},{"type":"Feature","geometry":{"type":"Point","coordinates":[5.610352,53.273173]},"properties":{"category":"bus_halte","name":"Oosteinde","operator":""}},{"type":"Feature","geometry":{"type":"Point","coordinates":[5.611147,53.273156]},"properties":{"category":"bus_halte","name":"Oosteinde","operator":""}},{"type":"Feature","geometry":{"type":"Point","coordinates":[5.619548,53.273756]},"properties":{"category":"bus_halte","name":"Noordzigt","operator":""}},{"type":"Feature","geometry":{"type":"Point","coordinates":[5.619925,53.273892]},"properties":{"category":"bus_halte","name":"Noordzigt","operator":""}},{"type":"Feature","geometry":{"type":"Point","coordinates":[5.643255,53.241411]},"properties":{"category":"bus_halte","name":"Veiling","operator":""}},{"type":"Feature","geometry":{"type":"Point","coordinates":[5.644124,53.241615]},"properties":{"category":"bus_halte","name":"Veiling","operator":""}},{"type":"Feature","geometry":{"type":"Point","coordinates":[5.64945,53.243003]},"properties":{"category":"bus_halte","name":"Berlingahiem","operator":""}},{"type":"Feature","geometry":{"type":"Point","coordinates":[5.650529,53.243488]},"properties":{"category":"bus_halte","name":"Berlingahiem","operator":""}},{"type":"Feature","geometry":{"type":"Point","coordinates":[5.656343,53.243739]},"properties":{"category":"bus_halte","name":"Ing. C.M.v.d.Slikkeleane","operator":""}},{"type":"Feature","geometry":{"type":"Point","coordinates":[5.656761,53.243522]},"properties":{"category":"bus_halte","name":"Ing. C.M.v.d.Slikkeleane","operator":""}},{"type":"Feature","geometry":{"type":"Point","coordinates":[5.663424,53.246322]},"properties":{"category":"bus_halte","name":"Berltsum Provincialeweg","operator":""}},{"type":"Feature","geometry":{"type":"Point","coordinates":[5.663404,53.245265]},"properties":{"category":"bus_halte","name":"Berltsum Provincialeweg","operator":""}},{"type":"Feature","geometry":{"type":"Point","coordinates":[5.681928,53.236577]},"properties":{"category":"bus_halte","name":"Bitgum Provincialeweg","operator":""}},{"type":"Feature","geometry":{"type":"Point","coordinates":[5.681071,53.236798]},"properties":{"category":"bus_halte","name":"Bitgum Provincialeweg","operator":""}},{"type":"Feature","geometry":{"type":"Point","coordinates":[5.690458,53.237435]},"properties":{"category":"bus_halte","name":"Bitgum","operator":""}},{"type":"Feature","geometry":{"type":"Point","coordinates":[5.690654,53.237272]},"properties":{"category":"bus_halte","name":"Bitgum","operator":""}},{"type":"Feature","geometry":{"type":"Point","coordinates":[5.703672,53.235366]},"properties":{"category":"bus_halte","name":"Terhornestrjitte","operator":""}},{"type":"Feature","geometry":{"type":"Point","coordinates":[5.705323,53.235073]},"properties":{"category":"bus_halte","name":"Terhornestrjitte","operator":""}},{"type":"Feature","geometry":{"type":"Point","coordinates":[5.707871,53.234837]},"properties":{"category":"bus_halte","name":"J.H. van Aismawei","operator":""}},{"type":"Feature","geometry":{"type":"Point","coordinates":[5.707818,53.234915]},"properties":{"category":"bus_halte","name":"J.H. van Aismawei","operator":""}},{"type":"Feature","geometry":{"type":"Point","coordinates":[5.729721,53.211882]},"properties":{"category":"bus_halte","name":"Marsum","operator":""}},{"type":"Feature","geometry":{"type":"Point","coordinates":[5.729384,53.212438]},"properties":{"category":"bus_halte","name":"Marsum","operator":""}},{"type":"Feature","geometry":{"type":"Point","coordinates":[5.716641,53.225614]},"properties":{"category":"bus_halte","name":"Ingelum","operator":""}},{"type":"Feature","geometry":{"type":"Point","coordinates":[5.716517,53.225656]},"properties":{"category":"bus_halte","name":"Ingelum","operator":""}},{"type":"Feature","geometry":{"type":"Point","coordinates":[5.7287,53.220483]},"properties":{"category":"bus_halte","name":"Franjumbuorren","operator":""}},{"type":"Feature","geometry":{"type":"Point","coordinates":[5.728772,53.220571]},"properties":{"category":"bus_halte","name":"Franjumbuorren","operator":""}},{"type":"Feature","geometry":{"type":"Point","coordinates":[5.729145,53.224703]},"properties":{"category":"bus_halte","name":"Weg naar Ingelum","operator":""}},{"type":"Feature","geometry":{"type":"Point","coordinates":[5.729257,53.224739]},"properties":{"category":"bus_halte","name":"Weg naar Ingelum","operator":""}},{"type":"Feature","geometry":{"type":"Point","coordinates":[5.635357,53.274999]},"properties":{"category":"bus_halte","name":"Koudeweg","operator":""}},{"type":"Feature","geometry":{"type":"Point","coordinates":[5.634824,53.274857]},"properties":{"category":"bus_halte","name":"Koudeweg","operator":""}},{"type":"Feature","geometry":{"type":"Point","coordinates":[5.63963,53.275183]},"properties":{"category":"bus_halte","name":"AZC","operator":""}},{"type":"Feature","geometry":{"type":"Point","coordinates":[5.641114,53.275438]},"properties":{"category":"bus_halte","name":"AZC","operator":""}},{"type":"Feature","geometry":{"type":"Point","coordinates":[5.648829,53.27592]},"properties":{"category":"bus_halte","name":"Statenweg","operator":""}},{"type":"Feature","geometry":{"type":"Point","coordinates":[5.649842,53.276114]},"properties":{"category":"bus_halte","name":"Statenweg","operator":""}},{"type":"Feature","geometry":{"type":"Point","coordinates":[5.657572,53.274074]},"properties":{"category":"bus_halte","name":"Warmoesstraat","operator":""}},{"type":"Feature","geometry":{"type":"Point","coordinates":[5.657731,53.274086]},"properties":{"category":"bus_halte","name":"Warmoesstraat","operator":""}},{"type":"Feature","geometry":{"type":"Point","coordinates":[5.655645,53.276448]},"properties":{"category":"bus_halte","name":"Van Harenstraat","operator":""}},{"type":"Feature","geometry":{"type":"Point","coordinates":[5.6561,53.276339]},"properties":{"category":"bus_halte","name":"Van Harenstraat","operator":""}},{"type":"Feature","geometry":{"type":"Point","coordinates":[5.661833,53.276809]},"properties":{"category":"bus_halte","name":"Gemeentehuis","operator":""}},{"type":"Feature","geometry":{"type":"Point","coordinates":[5.661139,53.276821]},"properties":{"category":"bus_halte","name":"Gemeentehuis","operator":""}},{"type":"Feature","geometry":{"type":"Point","coordinates":[5.665781,53.27719]},"properties":{"category":"bus_halte","name":"Gereformeerde Kerk","operator":""}},{"type":"Feature","geometry":{"type":"Point","coordinates":[5.666701,53.277199]},"properties":{"category":"bus_halte","name":"Gereformeerde Kerk","operator":""}},{"type":"Feature","geometry":{"type":"Point","coordinates":[5.654052,53.294822]},"properties":{"category":"bus_halte","name":"Stadhoudersweg","operator":""}},{"type":"Feature","geometry":{"type":"Point","coordinates":[5.661796,53.295948]},"properties":{"category":"bus_halte","name":"Oosterbaan","operator":""}},{"type":"Feature","geometry":{"type":"Point","coordinates":[5.66178,53.29601]},"properties":{"category":"bus_halte","name":"Oosterbaan","operator":""}},{"type":"Feature","geometry":{"type":"Point","coordinates":[5.674582,53.277813]},"properties":{"category":"bus_halte","name":"Pruilhoek","operator":""}},{"type":"Feature","geometry":{"type":"Point","coordinates":[5.677224,53.27792]},"properties":{"category":"bus_halte","name":"Pruilhoek","operator":""}},{"type":"Feature","geometry":{"type":"Point","coordinates":[5.687334,53.278765]},"properties":{"category":"bus_halte","name":"Middelweg oost","operator":""}},{"type":"Feature","geometry":{"type":"Point","coordinates":[5.688404,53.278729]},"properties":{"category":"bus_halte","name":"Middelweg oost","operator":""}},{"type":"Feature","geometry":{"type":"Point","coordinates":[5.6977,53.279463]},"properties":{"category":"bus_halte","name":"Attesweg","operator":""}},{"type":"Feature","geometry":{"type":"Point","coordinates":[5.702859,53.279825]},"properties":{"category":"bus_halte","name":"Hervormde Kerk","operator":""}},{"type":"Feature","geometry":{"type":"Point","coordinates":[5.672577,53.296991]},"properties":{"category":"bus_halte","name":"Langhuisterweg","operator":""}},{"type":"Feature","geometry":{"type":"Point","coordinates":[5.672563,53.29706]},"properties":{"category":"bus_halte","name":"Langhuisterweg","operator":""}},{"type":"Feature","geometry":{"type":"Point","coordinates":[5.682937,53.297648]},"properties":{"category":"bus_halte","name":"Stap","operator":""}},{"type":"Feature","geometry":{"type":"Point","coordinates":[5.682954,53.297586]},"properties":{"category":"bus_halte","name":"Stap","operator":""}},{"type":"Feature","geometry":{"type":"Point","coordinates":[5.693007,53.298285]},"properties":{"category":"bus_halte","name":"Burdineweg","operator":""}},{"type":"Feature","geometry":{"type":"Point","coordinates":[5.693027,53.298197]},"properties":{"category":"bus_halte","name":"Burdineweg","operator":""}},{"type":"Feature","geometry":{"type":"Point","coordinates":[5.708109,53.299517]},"properties":{"category":"bus_halte","name":"Zittema","operator":""}},{"type":"Feature","geometry":{"type":"Point","coordinates":[5.708137,53.299457]},"properties":{"category":"bus_halte","name":"Zittema","operator":""}},{"type":"Feature","geometry":{"type":"Point","coordinates":[5.712599,53.280489]},"properties":{"category":"bus_halte","name":"Vrouwenparochie","operator":""}},{"type":"Feature","geometry":{"type":"Point","coordinates":[5.713832,53.300632]},"properties":{"category":"bus_halte","name":"Zeldenrust","operator":""}},{"type":"Feature","geometry":{"type":"Point","coordinates":[5.713866,53.300551]},"properties":{"category":"bus_halte","name":"Zeldenrust","operator":""}},{"type":"Feature","geometry":{"type":"Point","coordinates":[5.717702,53.3007]},"properties":{"category":"bus_halte","name":"De Kolk","operator":""}},{"type":"Feature","geometry":{"type":"Point","coordinates":[5.719289,53.300403]},"properties":{"category":"bus_halte","name":"De Kolk","operator":""}},{"type":"Feature","geometry":{"type":"Point","coordinates":[5.723203,53.300294]},"properties":{"category":"bus_halte","name":"Van Egmondstraat","operator":""}},{"type":"Feature","geometry":{"type":"Point","coordinates":[5.723127,53.300353]},"properties":{"category":"bus_halte","name":"Van Egmondstraat","operator":""}},{"type":"Feature","geometry":{"type":"Point","coordinates":[5.616416,53.135574]},"properties":{"category":"bus_halte","name":"Laekwerterwei","operator":""}},{"type":"Feature","geometry":{"type":"Point","coordinates":[5.618311,53.136294]},"properties":{"category":"bus_halte","name":"Laekwerterwei","operator":""}},{"type":"Feature","geometry":{"type":"Point","coordinates":[5.725761,53.178508]},"properties":{"category":"bus_halte","name":"Boksum Provincialeweg","operator":""}},{"type":"Feature","geometry":{"type":"Point","coordinates":[5.727667,53.179401]},"properties":{"category":"bus_halte","name":"Boksum Provincialeweg","operator":""}},{"type":"Feature","geometry":{"type":"Point","coordinates":[5.732586,53.179951]},"properties":{"category":"bus_halte","name":"Boksum","operator":""}},{"type":"Feature","geometry":{"type":"Point","coordinates":[5.732655,53.179812]},"properties":{"category":"bus_halte","name":"Boksum","operator":""}},{"type":"Feature","geometry":{"type":"Point","coordinates":[5.728163,53.188837]},"properties":{"category":"bus_halte","name":"Deinum","operator":""}},{"type":"Feature","geometry":{"type":"Point","coordinates":[5.66429,53.212882]},"properties":{"category":"bus_halte","name":"Dobbehof","operator":""}},{"type":"Feature","geometry":{"type":"Point","coordinates":[5.664274,53.212997]},"properties":{"category":"bus_halte","name":"Dobbehof","operator":""}},{"type":"Feature","geometry":{"type":"Point","coordinates":[5.522105,53.177241]},"properties":{"category":"bus_halte","name":"Empatec","operator":""}},{"type":"Feature","geometry":{"type":"Point","coordinates":[5.539838,53.193942]},"properties":{"category":"bus_halte","name":"Froonacker","operator":""}},{"type":"Feature","geometry":{"type":"Point","coordinates":[5.522008,53.184142]},"properties":{"category":"bus_halte","name":"Groot Lankum","operator":""}},{"type":"Feature","geometry":{"type":"Point","coordinates":[5.524664,53.184297]},"properties":{"category":"bus_halte","name":"Groot Lankum","operator":""}},{"type":"Feature","geometry":{"type":"Point","coordinates":[5.536143,53.184667]},"properties":{"category":"bus_halte","name":"Harlingerweg","operator":""}},{"type":"Feature","geometry":{"type":"Point","coordinates":[5.536027,53.184722]},"properties":{"category":"bus_halte","name":"Harlingerweg","operator":""}},{"type":"Feature","geometry":{"type":"Point","coordinates":[5.468377,53.212115]},"properties":{"category":"bus_halte","name":"Hearewei","operator":""}},{"type":"Feature","geometry":{"type":"Point","coordinates":[5.469224,53.212473]},"properties":{"category":"bus_halte","name":"Hearewei","operator":""}},{"type":"Feature","geometry":{"type":"Point","coordinates":[5.483713,53.221088]},"properties":{"category":"bus_halte","name":"Hearewei","operator":""}},{"type":"Feature","geometry":{"type":"Point","coordinates":[5.483823,53.220998]},"properties":{"category":"bus_halte","name":"Hearewei","operator":""}},{"type":"Feature","geometry":{"type":"Point","coordinates":[5.496601,53.183788]},"properties":{"category":"bus_halte","name":"Herbaijum","operator":""}},{"type":"Feature","geometry":{"type":"Point","coordinates":[5.49486,53.184324]},"properties":{"category":"bus_halte","name":"Herbaijum","operator":""}},{"type":"Feature","geometry":{"type":"Point","coordinates":[5.647576,53.200066]},"properties":{"category":"bus_halte","name":"Hoek Dronryp","operator":""}},{"type":"Feature","geometry":{"type":"Point","coordinates":[5.64784,53.199945]},"properties":{"category":"bus_halte","name":"Hoek Dronryp","operator":""}},{"type":"Feature","geometry":{"type":"Point","coordinates":[5.71579,53.209223]},"properties":{"category":"bus_halte","name":"It Aldlân","operator":""}},{"type":"Feature","geometry":{"type":"Point","coordinates":[5.715542,53.209316]},"properties":{"category":"bus_halte","name":"It Aldlân","operator":""}},{"type":"Feature","geometry":{"type":"Point","coordinates":[5.508012,53.18386]},"properties":{"category":"bus_halte","name":"Kiesterzijl","operator":""}},{"type":"Feature","geometry":{"type":"Point","coordinates":[5.506763,53.183996]},"properties":{"category":"bus_halte","name":"Kiesterzijl","operator":""}},{"type":"Feature","geometry":{"type":"Point","coordinates":[5.668299,53.213159]},"properties":{"category":"bus_halte","name":"Mieddyk","operator":""}},{"type":"Feature","geometry":{"type":"Point","coordinates":[5.669038,53.213312]},"properties":{"category":"bus_halte","name":"Mieddyk","operator":""}},{"type":"Feature","geometry":{"type":"Point","coordinates":[5.653851,53.29575]},"properties":{"category":"bus_halte","name":"Nij Altoenae","operator":""}},{"type":"Feature","geometry":{"type":"Point","coordinates":[5.660379,53.214918]},"properties":{"category":"bus_halte","name":"Orxmasingel","operator":""}},{"type":"Feature","geometry":{"type":"Point","coordinates":[5.659635,53.215154]},"properties":{"category":"bus_halte","name":"Orxmasingel","operator":""}},{"type":"Feature","geometry":{"type":"Point","coordinates":[5.681516,53.204503]},"properties":{"category":"bus_halte","name":"Rijksweg","operator":""}},{"type":"Feature","geometry":{"type":"Point","coordinates":[5.681443,53.204569]},"properties":{"category":"bus_halte","name":"Rijksweg","operator":""}},{"type":"Feature","geometry":{"type":"Point","coordinates":[5.637996,53.198595]},"properties":{"category":"bus_halte","name":"Rotonde Dronryp","operator":""}},{"type":"Feature","geometry":{"type":"Point","coordinates":[5.637603,53.198682]},"properties":{"category":"bus_halte","name":"Rotonde Dronryp","operator":""}},{"type":"Feature","geometry":{"type":"Point","coordinates":[5.584322,53.191474]},"properties":{"category":"bus_halte","name":"Rustenburg","operator":""}},{"type":"Feature","geometry":{"type":"Point","coordinates":[5.585758,53.191533]},"properties":{"category":"bus_halte","name":"Rustenburg","operator":""}},{"type":"Feature","geometry":{"type":"Point","coordinates":[5.653721,53.206786]},"properties":{"category":"bus_halte","name":"Schatzenburg","operator":""}},{"type":"Feature","geometry":{"type":"Point","coordinates":[5.65427,53.20744]},"properties":{"category":"bus_halte","name":"Schatzenburg","operator":""}},{"type":"Feature","geometry":{"type":"Point","coordinates":[5.626928,53.197131]},"properties":{"category":"bus_halte","name":"Skingen","operator":""}},{"type":"Feature","geometry":{"type":"Point","coordinates":[5.626148,53.1971]},"properties":{"category":"bus_halte","name":"Skingen","operator":""}},{"type":"Feature","geometry":{"type":"Point","coordinates":[5.531172,53.188567]},"properties":{"category":"bus_halte","name":"Thomas de Grootstraat","operator":""}},{"type":"Feature","geometry":{"type":"Point","coordinates":[5.556069,53.187502]},"properties":{"category":"bus_halte","name":"Watertoren","operator":""}},{"type":"Feature","geometry":{"type":"Point","coordinates":[5.554702,53.188566]},"properties":{"category":"bus_halte","name":"Watertoren","operator":""}},{"type":"Feature","geometry":{"type":"Point","coordinates":[5.603664,53.193968]},"properties":{"category":"bus_halte","name":"Zweins","operator":""}},{"type":"Feature","geometry":{"type":"Point","coordinates":[5.603334,53.19401]},"properties":{"category":"bus_halte","name":"Zweins","operator":""}},{"type":"Feature","geometry":{"type":"Point","coordinates":[5.560547,53.248597]},"properties":{"category":"bus_halte","name":"Firdgum","operator":""}},{"type":"Feature","geometry":{"type":"Point","coordinates":[5.589245,53.222231]},"properties":{"category":"bus_halte","name":"Ried","operator":""}},{"type":"Feature","geometry":{"type":"Point","coordinates":[5.619912,53.212749]},"properties":{"category":"bus_halte","name":"Slappeterp","operator":""}},{"type":"Feature","geometry":{"type":"Point","coordinates":[5.632978,53.165073]},"properties":{"category":"bus_halte","name":"Baijum","operator":""}},{"type":"Feature","geometry":{"type":"Point","coordinates":[5.710687,53.181085]},"properties":{"category":"bus_halte","name":"Blessum","operator":""}},{"type":"Feature","geometry":{"type":"Point","coordinates":[5.594835,53.205803]},"properties":{"category":"bus_halte","name":"Peins","operator":""}},{"type":"Feature","geometry":{"type":"Point","coordinates":[5.572331,53.197842]},"properties":{"category":"bus_halte","name":"Schalsum","operator":""}},{"type":"Feature","geometry":{"type":"Point","coordinates":[5.618167,53.202142]},"properties":{"category":"bus_halte","name":"Skingen","operator":""}},{"type":"Feature","geometry":{"type":"Point","coordinates":[5.658765,53.268253]},"properties":{"category":"bus_halte","name":"De Wissel","operator":""}},{"type":"Feature","geometry":{"type":"Point","coordinates":[5.658832,53.26877]},"properties":{"category":"bus_halte","name":"De Wissel","operator":""}},{"type":"Feature","geometry":{"type":"Point","coordinates":[5.693996,53.22992]},"properties":{"category":"bus_halte","name":"Bitgummole Provincialeweg","operator":""}},{"type":"Feature","geometry":{"type":"Point","coordinates":[5.693814,53.230296]},"properties":{"category":"bus_halte","name":"Bitgummole Provincialeweg","operator":""}},{"type":"Feature","geometry":{"type":"Point","coordinates":[5.668448,53.240324]},"properties":{"category":"bus_halte","name":"Bitgumerdyk","operator":""}},{"type":"Feature","geometry":{"type":"Point","coordinates":[5.668011,53.240314]},"properties":{"category":"bus_halte","name":"Bitgumerdyk","operator":""}},{"type":"Feature","geometry":{"type":"Point","coordinates":[5.632791,53.24211]},"properties":{"category":"bus_halte","name":"Gernierswei","operator":""}},{"type":"Feature","geometry":{"type":"Point","coordinates":[5.632941,53.242117]},"properties":{"category":"bus_halte","name":"Gernierswei","operator":""}},{"type":"Feature","geometry":{"type":"Point","coordinates":[5.71038,53.232798]},"properties":{"category":"bus_halte","name":"Ingelumerdyk","operator":""}},{"type":"Feature","geometry":{"type":"Point","coordinates":[5.710354,53.232978]},"properties":{"category":"bus_halte","name":"Ingelumerdyk","operator":""}},{"type":"Feature","geometry":{"type":"Point","coordinates":[5.606526,53.142878]},"properties":{"category":"bus_halte","name":"Spannum","operator":""}},{"type":"Feature","geometry":{"type":"Point","coordinates":[5.565252,53.21503]},"properties":{"category":"bus_halte","name":"Boer","operator":""}},{"type":"Feature","geometry":{"type":"Point","coordinates":[5.640033,53.151056]},"properties":{"category":"bus_halte","name":"Busstation","operator":""}},{"type":"Feature","geometry":{"type":"Point","coordinates":[5.606716,53.257244]},"properties":{"category":"bus_halte","name":"Mooie Paal","operator":""}},{"type":"Feature","geometry":{"type":"Point","coordinates":[5.606861,53.257207]},"properties":{"category":"bus_halte","name":"Mooie Paal","operator":""}},{"type":"Feature","geometry":{"type":"Point","coordinates":[5.606991,53.257168]},"properties":{"category":"bus_halte","name":"Mooie Paal","operator":""}},{"type":"Feature","geometry":{"type":"Point","coordinates":[5.565681,53.158747]},"properties":{"category":"bus_halte","name":"Meester Vrijburgstraat","operator":""}},{"type":"Feature","geometry":{"type":"Point","coordinates":[5.565511,53.158647]},"properties":{"category":"bus_halte","name":"Meester Vrijburgstraat","operator":""}},{"type":"Feature","geometry":{"type":"Point","coordinates":[5.542365,53.236196]},"properties":{"category":"bus_halte","name":"Westerbuorren","operator":""}},{"type":"Feature","geometry":{"type":"Point","coordinates":[5.542387,53.23602]},"properties":{"category":"bus_halte","name":"Westerbuorren","operator":""}},{"type":"Feature","geometry":{"type":"Point","coordinates":[5.474334,53.215907]},"properties":{"category":"bus_halte","name":"Provincialeweg","operator":""}},{"type":"Feature","geometry":{"type":"Point","coordinates":[5.474507,53.215908]},"properties":{"category":"bus_halte","name":"Provincialeweg","operator":""}},{"type":"Feature","geometry":{"type":"Point","coordinates":[5.731228,53.21108]},"properties":{"category":"bus_halte","name":"Buorren","operator":""}},{"type":"Feature","geometry":{"type":"Point","coordinates":[5.731085,53.211142]},"properties":{"category":"bus_halte","name":"Buorren","operator":""}},{"type":"Feature","geometry":{"type":"Point","coordinates":[5.653906,53.294877]},"properties":{"category":"bus_halte","name":"Stadhoudersweg","operator":""}},{"type":"Feature","geometry":{"type":"Point","coordinates":[5.634171,53.177886]},"properties":{"category":"bus_halte","name":"Station","operator":""}},{"type":"Feature","geometry":{"type":"Point","coordinates":[5.604612,53.183528]},"properties":{"category":"ov_knooppunt","name":"Fietspont Keimpetille","operator":""}},{"type":"Feature","geometry":{"type":"Point","coordinates":[5.601476,53.182989]},"properties":{"category":"ov_knooppunt","name":"Fietspont Keimpetille","operator":""}},{"type":"Feature","geometry":{"type":"Point","coordinates":[5.549851,53.182401]},"properties":{"category":"ov_knooppunt","name":"Franeker","operator":"Arriva"}},{"type":"Feature","geometry":{"type":"Point","coordinates":[5.634768,53.177718]},"properties":{"category":"ov_knooppunt","name":"Dronryp","operator":""}},{"type":"Feature","geometry":{"type":"Point","coordinates":[5.728059,53.188758]},"properties":{"category":"ov_knooppunt","name":"Deinum","operator":""}},{"type":"Feature","geometry":{"type":"Point","coordinates":[5.639843,53.151077]},"properties":{"category":"ov_knooppunt","name":"Busstation","operator":""}},{"type":"Feature","geometry":{"type":"Point","coordinates":[5.543389,53.1871]},"properties":{"category":"gemeentehuis","name":"Stadhuis Franeker","operator":""}},{"type":"Feature","geometry":{"type":"Point","coordinates":[5.531776,53.184809]},"properties":{"category":"gemeentehuis","name":"Gemeentehuis Waadhoeke","operator":"Gemeente Waadhoeke"}},{"type":"Feature","geometry":{"type":"Point","coordinates":[5.545658,53.186197]},"properties":{"category":"bibliotheek","name":"Bibliotheek Franeker","operator":"Bibliotheken Noord Fryslân"}},{"type":"Feature","geometry":{"type":"Point","coordinates":[5.643002,53.194026]},"properties":{"category":"bibliotheek","name":"Bibliotheek Dronryp","operator":"Bibliotheken Noord Fryslân"}},{"type":"Feature","geometry":{"type":"Point","coordinates":[5.661194,53.274925]},"properties":{"category":"bibliotheek","name":"Bibliotheek Sint-Annaparochie","operator":"Bibliotheken Noord Fryslân"}},{"type":"Feature","geometry":{"type":"Point","coordinates":[5.505982,53.182996]},"properties":{"category":"transformatorhuisje","name":"","operator":""}},{"type":"Feature","geometry":{"type":"Point","coordinates":[5.506042,53.18306]},"properties":{"category":"transformatorhuisje","name":"","operator":""}},{"type":"Feature","geometry":{"type":"Point","coordinates":[5.506102,53.183133]},"properties":{"category":"transformatorhuisje","name":"","operator":""}},{"type":"Feature","geometry":{"type":"Point","coordinates":[5.565727,53.156604]},"properties":{"category":"transformatorhuisje","name":"","operator":""}},{"type":"Feature","geometry":{"type":"Point","coordinates":[5.564873,53.158755]},"properties":{"category":"transformatorhuisje","name":"","operator":""}},{"type":"Feature","geometry":{"type":"Point","coordinates":[5.600077,53.255247]},"properties":{"category":"transformatorhuisje","name":"","operator":""}},{"type":"Feature","geometry":{"type":"Point","coordinates":[5.6,53.255289]},"properties":{"category":"transformatorhuisje","name":"","operator":""}},{"type":"Feature","geometry":{"type":"Point","coordinates":[5.532123,53.18827]},"properties":{"category":"transformatorhuisje","name":"","operator":""}},{"type":"Feature","geometry":{"type":"Point","coordinates":[5.524155,53.189043]},"properties":{"category":"transformatorhuisje","name":"","operator":""}},{"type":"Feature","geometry":{"type":"Point","coordinates":[5.537837,53.189879]},"properties":{"category":"transformatorhuisje","name":"","operator":""}},{"type":"Feature","geometry":{"type":"Point","coordinates":[5.539166,53.191265]},"properties":{"category":"sportveld","name":"","operator":""}},{"type":"Feature","geometry":{"type":"Point","coordinates":[5.653609,53.277753]},"properties":{"category":"sportveld","name":"Sportpark de Waaie","operator":""}},{"type":"Feature","geometry":{"type":"Point","coordinates":[5.629954,53.152041]},"properties":{"category":"sportveld","name":"MFC de Helling","operator":""}},{"type":"Feature","geometry":{"type":"Point","coordinates":[5.652817,53.240177]},"properties":{"category":"sportveld","name":"Sportcomplex De Koekoek","operator":""}},{"type":"Feature","geometry":{"type":"Point","coordinates":[5.695726,53.235336]},"properties":{"category":"sportveld","name":"Sportcomplex it Bosk","operator":""}},{"type":"Feature","geometry":{"type":"Point","coordinates":[5.724972,53.213252]},"properties":{"category":"sportveld","name":"Sportpark Unia","operator":""}},{"type":"Feature","geometry":{"type":"Point","coordinates":[5.656868,53.205218]},"properties":{"category":"sportveld","name":"Sportpark Schatzenburg","operator":""}},{"type":"Feature","geometry":{"type":"Point","coordinates":[5.647363,53.193535]},"properties":{"category":"sportveld","name":"Sportpark De Ring","operator":""}},{"type":"Feature","geometry":{"type":"Point","coordinates":[5.561174,53.155476]},"properties":{"category":"sportveld","name":"Lyntsjepark","operator":""}},{"type":"Feature","geometry":{"type":"Point","coordinates":[5.730017,53.191083]},"properties":{"category":"sportveld","name":"Sportcomplex De Fjouwer","operator":""}},{"type":"Feature","geometry":{"type":"Point","coordinates":[5.717418,53.233602]},"properties":{"category":"sportveld","name":"Billy de Klimmers","operator":""}},{"type":"Feature","geometry":{"type":"Point","coordinates":[5.707987,53.232606]},"properties":{"category":"sportveld","name":"IJsvereniging De Trije Doarpen","operator":""}},{"type":"Feature","geometry":{"type":"Point","coordinates":[5.643215,53.194777]},"properties":{"category":"sportveld","name":"VvV Sjirk de Wal","operator":""}},{"type":"Feature","geometry":{"type":"Point","coordinates":[5.646862,53.192135]},"properties":{"category":"sportveld","name":"","operator":""}},{"type":"Feature","geometry":{"type":"Point","coordinates":[5.636531,53.193235]},"properties":{"category":"sportveld","name":"IJsclub Dronrijp","operator":"IJsclub Dronrijp"}},{"type":"Feature","geometry":{"type":"Point","coordinates":[5.600238,53.250062]},"properties":{"category":"sportveld","name":"Sportpark De Sportfinne","operator":""}},{"type":"Feature","geometry":{"type":"Point","coordinates":[5.549607,53.182564]},"properties":{"category":"fietsenstalling","name":"","operator":""}},{"type":"Feature","geometry":{"type":"Point","coordinates":[5.634558,53.177859]},"properties":{"category":"fietsenstalling","name":"","operator":""}},{"type":"Feature","geometry":{"type":"Point","coordinates":[5.727825,53.188922]},"properties":{"category":"fietsenstalling","name":"","operator":""}},{"type":"Feature","geometry":{"type":"Point","coordinates":[5.639368,53.151419]},"properties":{"category":"fietsenstalling","name":"","operator":""}},{"type":"Feature","geometry":{"type":"Point","coordinates":[5.639431,53.151362]},"properties":{"category":"fietsenstalling","name":"","operator":""}},{"type":"Feature","geometry":{"type":"Point","coordinates":[5.606573,53.257362]},"properties":{"category":"fietsenstalling","name":"","operator":""}},{"type":"Feature","geometry":{"type":"Point","coordinates":[5.541155,53.201703]},"properties":{"category":"fietsenstalling","name":"","operator":""}},{"type":"Feature","geometry":{"type":"Point","coordinates":[5.682319,53.237008]},"properties":{"category":"fietsenstalling","name":"","operator":""}},{"type":"Feature","geometry":{"type":"Point","coordinates":[5.727232,53.178565]},"properties":{"category":"fietsenstalling","name":"","operator":""}},{"type":"Feature","geometry":{"type":"Point","coordinates":[5.722756,53.205406]},"properties":{"category":"fietsenstalling","name":"","operator":""}},{"type":"Feature","geometry":{"type":"Point","coordinates":[5.616644,53.135979]},"properties":{"category":"fietsenstalling","name":"","operator":""}},{"type":"Feature","geometry":{"type":"Point","coordinates":[5.704892,53.23561]},"properties":{"category":"fietsenstalling","name":"","operator":""}},{"type":"Feature","geometry":{"type":"Point","coordinates":[5.648419,53.199811]},"properties":{"category":"fietsenstalling","name":"","operator":""}},{"type":"Feature","geometry":{"type":"Point","coordinates":[5.523268,53.185753]},"properties":{"category":"fietsenstalling","name":"","operator":""}},{"type":"Feature","geometry":{"type":"Point","coordinates":[5.540059,53.187304]},"properties":{"category":"fietsenstalling","name":"","operator":""}},{"type":"Feature","geometry":{"type":"Point","coordinates":[5.659767,53.215081]},"properties":{"category":"fietsenstalling","name":"","operator":""}},{"type":"Feature","geometry":{"type":"Point","coordinates":[5.723185,53.205745]},"properties":{"category":"p_and_r","name":"Carpool A31 Marsum","operator":""}}]}