{"type":"FeatureCollection","metadata":{"gemeente":"Waalwijk","slug":"waalwijk","by_category":{"bus_halte":109,"supermarkt":13,"transformatorhuisje":4,"sportveld":4,"bibliotheek":3,"middelbare_school":3,"fietsenstalling":3,"parkeergarage":3,"ov_knooppunt":1,"gemeentehuis":1,"inzamelpunt":1,"ziekenhuis":1,"hogeschool":1,"winkelcentrum":1},"total":148},"features":[{"type":"Feature","geometry":{"type":"Point","coordinates":[5.051768,51.682613]},"properties":{"category":"bus_halte","name":"Floris V-laan","operator":""}},{"type":"Feature","geometry":{"type":"Point","coordinates":[5.047572,51.679915]},"properties":{"category":"bus_halte","name":"Prof. Asserweg","operator":""}},{"type":"Feature","geometry":{"type":"Point","coordinates":[5.035913,51.668117]},"properties":{"category":"bus_halte","name":"Achter de Hoven","operator":""}},{"type":"Feature","geometry":{"type":"Point","coordinates":[5.032424,51.669425]},"properties":{"category":"bus_halte","name":"Van der Duinstraat","operator":""}},{"type":"Feature","geometry":{"type":"Point","coordinates":[5.046069,51.669069]},"properties":{"category":"bus_halte","name":"Kerkstraat","operator":""}},{"type":"Feature","geometry":{"type":"Point","coordinates":[5.052937,51.671671]},"properties":{"category":"bus_halte","name":"Sprang Kruispunt","operator":""}},{"type":"Feature","geometry":{"type":"Point","coordinates":[5.053495,51.677024]},"properties":{"category":"bus_halte","name":"Tuinstraat","operator":""}},{"type":"Feature","geometry":{"type":"Point","coordinates":[5.064526,51.678529]},"properties":{"category":"bus_halte","name":"Mozartlaan","operator":""}},{"type":"Feature","geometry":{"type":"Point","coordinates":[5.063028,51.678409]},"properties":{"category":"bus_halte","name":"Mozartlaan","operator":""}},{"type":"Feature","geometry":{"type":"Point","coordinates":[5.071732,51.679311]},"properties":{"category":"bus_halte","name":"Blyde Incomstelaan","operator":""}},{"type":"Feature","geometry":{"type":"Point","coordinates":[5.080394,51.679635]},"properties":{"category":"bus_halte","name":"Groenewoudlaan","operator":""}},{"type":"Feature","geometry":{"type":"Point","coordinates":[5.056377,51.686085]},"properties":{"category":"bus_halte","name":"ETZ Waalwijk","operator":""}},{"type":"Feature","geometry":{"type":"Point","coordinates":[5.06384,51.686589]},"properties":{"category":"bus_halte","name":"Margrietstraat","operator":""}},{"type":"Feature","geometry":{"type":"Point","coordinates":[5.068101,51.681429]},"properties":{"category":"bus_halte","name":"Sint Antoniusstraat","operator":""}},{"type":"Feature","geometry":{"type":"Point","coordinates":[5.072022,51.687255]},"properties":{"category":"bus_halte","name":"Busstation Vredesplein","operator":""}},{"type":"Feature","geometry":{"type":"Point","coordinates":[5.076908,51.680088]},"properties":{"category":"bus_halte","name":"Leeuwenbekstraat","operator":""}},{"type":"Feature","geometry":{"type":"Point","coordinates":[5.076362,51.683368]},"properties":{"category":"bus_halte","name":"Burgemeester Smeelelaan","operator":""}},{"type":"Feature","geometry":{"type":"Point","coordinates":[5.075763,51.68667]},"properties":{"category":"bus_halte","name":"Putstraat","operator":""}},{"type":"Feature","geometry":{"type":"Point","coordinates":[5.077919,51.687828]},"properties":{"category":"bus_halte","name":"Oranjeplein","operator":""}},{"type":"Feature","geometry":{"type":"Point","coordinates":[5.088366,51.68439]},"properties":{"category":"bus_halte","name":"De Coubertinlaan","operator":""}},{"type":"Feature","geometry":{"type":"Point","coordinates":[5.095545,51.684264]},"properties":{"category":"bus_halte","name":"Eikendonklaan","operator":""}},{"type":"Feature","geometry":{"type":"Point","coordinates":[5.088179,51.688531]},"properties":{"category":"bus_halte","name":"RKC-stadion","operator":""}},{"type":"Feature","geometry":{"type":"Point","coordinates":[5.036749,51.66765]},"properties":{"category":"bus_halte","name":"Achter de Hoven","operator":""}},{"type":"Feature","geometry":{"type":"Point","coordinates":[5.089928,51.681316]},"properties":{"category":"bus_halte","name":"Akkerlaan","operator":""}},{"type":"Feature","geometry":{"type":"Point","coordinates":[5.090133,51.681405]},"properties":{"category":"bus_halte","name":"Akkerlaan","operator":""}},{"type":"Feature","geometry":{"type":"Point","coordinates":[5.04643,51.669104]},"properties":{"category":"bus_halte","name":"Kerkstraat","operator":""}},{"type":"Feature","geometry":{"type":"Point","coordinates":[5.052408,51.672252]},"properties":{"category":"bus_halte","name":"Sprang Kruispunt","operator":""}},{"type":"Feature","geometry":{"type":"Point","coordinates":[5.049711,51.67499]},"properties":{"category":"bus_halte","name":"Noorder Allee","operator":""}},{"type":"Feature","geometry":{"type":"Point","coordinates":[5.049412,51.675228]},"properties":{"category":"bus_halte","name":"Noorder Allee","operator":""}},{"type":"Feature","geometry":{"type":"Point","coordinates":[5.053405,51.67711]},"properties":{"category":"bus_halte","name":"Tuinstraat","operator":""}},{"type":"Feature","geometry":{"type":"Point","coordinates":[5.056542,51.685997]},"properties":{"category":"bus_halte","name":"ETZ Waalwijk","operator":""}},{"type":"Feature","geometry":{"type":"Point","coordinates":[5.032531,51.669326]},"properties":{"category":"bus_halte","name":"Van der Duinstraat","operator":""}},{"type":"Feature","geometry":{"type":"Point","coordinates":[5.063491,51.688533]},"properties":{"category":"bus_halte","name":"De Els","operator":""}},{"type":"Feature","geometry":{"type":"Point","coordinates":[5.055425,51.687573]},"properties":{"category":"bus_halte","name":"Kasteellaan","operator":""}},{"type":"Feature","geometry":{"type":"Point","coordinates":[4.958849,51.676538]},"properties":{"category":"bus_halte","name":"Carmelietenstraat","operator":""}},{"type":"Feature","geometry":{"type":"Point","coordinates":[4.946301,51.687423]},"properties":{"category":"bus_halte","name":"Kerkstraat","operator":""}},{"type":"Feature","geometry":{"type":"Point","coordinates":[5.097694,51.683869]},"properties":{"category":"bus_halte","name":"Eikendonklaan","operator":""}},{"type":"Feature","geometry":{"type":"Point","coordinates":[5.053568,51.661982]},"properties":{"category":"bus_halte","name":"Vaartstraat","operator":""}},{"type":"Feature","geometry":{"type":"Point","coordinates":[5.053744,51.662771]},"properties":{"category":"bus_halte","name":"Vaartstraat","operator":""}},{"type":"Feature","geometry":{"type":"Point","coordinates":[5.088597,51.688386]},"properties":{"category":"bus_halte","name":"RKC-stadion","operator":""}},{"type":"Feature","geometry":{"type":"Point","coordinates":[5.096814,51.690137]},"properties":{"category":"bus_halte","name":"Burg. Teijssenlaan","operator":""}},{"type":"Feature","geometry":{"type":"Point","coordinates":[5.097016,51.690265]},"properties":{"category":"bus_halte","name":"Burgemeester Teijssenlaan","operator":""}},{"type":"Feature","geometry":{"type":"Point","coordinates":[5.096772,51.693555]},"properties":{"category":"bus_halte","name":"Ds. Louwe Kooymanslaan","operator":""}},{"type":"Feature","geometry":{"type":"Point","coordinates":[5.096911,51.693733]},"properties":{"category":"bus_halte","name":"Ds. Louwe Kooymanslaan","operator":""}},{"type":"Feature","geometry":{"type":"Point","coordinates":[5.082985,51.691502]},"properties":{"category":"bus_halte","name":"Groen van Prinstererlaan","operator":""}},{"type":"Feature","geometry":{"type":"Point","coordinates":[5.083051,51.691654]},"properties":{"category":"bus_halte","name":"Groen van Prinstererlaan","operator":""}},{"type":"Feature","geometry":{"type":"Point","coordinates":[5.074963,51.69087]},"properties":{"category":"bus_halte","name":"Grotestraat","operator":""}},{"type":"Feature","geometry":{"type":"Point","coordinates":[5.075083,51.690949]},"properties":{"category":"bus_halte","name":"Grotestraat","operator":""}},{"type":"Feature","geometry":{"type":"Point","coordinates":[5.08754,51.691711]},"properties":{"category":"bus_halte","name":"Teisterbantlaan","operator":""}},{"type":"Feature","geometry":{"type":"Point","coordinates":[5.089991,51.704745]},"properties":{"category":"bus_halte","name":"'t Snoekske","operator":""}},{"type":"Feature","geometry":{"type":"Point","coordinates":[5.090146,51.704881]},"properties":{"category":"bus_halte","name":"'t Snoekske","operator":""}},{"type":"Feature","geometry":{"type":"Point","coordinates":[5.092011,51.690539]},"properties":{"category":"bus_halte","name":"Hofstad","operator":""}},{"type":"Feature","geometry":{"type":"Point","coordinates":[5.092423,51.690642]},"properties":{"category":"bus_halte","name":"Hofstad","operator":""}},{"type":"Feature","geometry":{"type":"Point","coordinates":[5.087131,51.691803]},"properties":{"category":"bus_halte","name":"Teisterbantlaan","operator":""}},{"type":"Feature","geometry":{"type":"Point","coordinates":[5.052875,51.699545]},"properties":{"category":"bus_halte","name":"Sluisweg","operator":""}},{"type":"Feature","geometry":{"type":"Point","coordinates":[5.053024,51.69979]},"properties":{"category":"bus_halte","name":"Sluisweg","operator":""}},{"type":"Feature","geometry":{"type":"Point","coordinates":[5.078125,51.687744]},"properties":{"category":"bus_halte","name":"Oranjeplein","operator":""}},{"type":"Feature","geometry":{"type":"Point","coordinates":[5.015892,51.672467]},"properties":{"category":"bus_halte","name":"Julianalaan","operator":""}},{"type":"Feature","geometry":{"type":"Point","coordinates":[4.946467,51.687338]},"properties":{"category":"bus_halte","name":"Kerkstraat","operator":""}},{"type":"Feature","geometry":{"type":"Point","coordinates":[4.992814,51.677968]},"properties":{"category":"bus_halte","name":"Korte Nieuwstraat","operator":""}},{"type":"Feature","geometry":{"type":"Point","coordinates":[4.990718,51.678458]},"properties":{"category":"bus_halte","name":"Korte Nieuwstraat","operator":""}},{"type":"Feature","geometry":{"type":"Point","coordinates":[5.076794,51.680079]},"properties":{"category":"bus_halte","name":"Leeuwenbekstraat","operator":""}},{"type":"Feature","geometry":{"type":"Point","coordinates":[5.04756,51.679777]},"properties":{"category":"bus_halte","name":"Prof. Asserweg","operator":""}},{"type":"Feature","geometry":{"type":"Point","coordinates":[5.075684,51.686406]},"properties":{"category":"bus_halte","name":"Putstraat","operator":""}},{"type":"Feature","geometry":{"type":"Point","coordinates":[5.022872,51.671056]},"properties":{"category":"bus_halte","name":"Raadhuisplein","operator":""}},{"type":"Feature","geometry":{"type":"Point","coordinates":[4.955373,51.689708]},"properties":{"category":"bus_halte","name":"'t Vaartje","operator":""}},{"type":"Feature","geometry":{"type":"Point","coordinates":[4.95516,51.68979]},"properties":{"category":"bus_halte","name":"'t Vaartje","operator":""}},{"type":"Feature","geometry":{"type":"Point","coordinates":[4.93445,51.685594]},"properties":{"category":"bus_halte","name":"Benedenkerkstraat","operator":""}},{"type":"Feature","geometry":{"type":"Point","coordinates":[4.932993,51.68604]},"properties":{"category":"bus_halte","name":"Benedenkerkstraat","operator":""}},{"type":"Feature","geometry":{"type":"Point","coordinates":[5.076251,51.683202]},"properties":{"category":"bus_halte","name":"Burgemeester Smeelelaan","operator":""}},{"type":"Feature","geometry":{"type":"Point","coordinates":[5.052192,51.68253]},"properties":{"category":"bus_halte","name":"Floris V-laan","operator":""}},{"type":"Feature","geometry":{"type":"Point","coordinates":[5.06612,51.692352]},"properties":{"category":"bus_halte","name":"Gemeentehuis","operator":""}},{"type":"Feature","geometry":{"type":"Point","coordinates":[5.081051,51.679578]},"properties":{"category":"bus_halte","name":"Groenewoudlaan","operator":""}},{"type":"Feature","geometry":{"type":"Point","coordinates":[5.002304,51.675673]},"properties":{"category":"bus_halte","name":"Heistraat","operator":""}},{"type":"Feature","geometry":{"type":"Point","coordinates":[5.002154,51.675818]},"properties":{"category":"bus_halte","name":"Heistraat","operator":""}},{"type":"Feature","geometry":{"type":"Point","coordinates":[5.015711,51.672412]},"properties":{"category":"bus_halte","name":"Julianalaan","operator":""}},{"type":"Feature","geometry":{"type":"Point","coordinates":[4.965147,51.690545]},"properties":{"category":"bus_halte","name":"Vrouwkensvaartsestraat","operator":""}},{"type":"Feature","geometry":{"type":"Point","coordinates":[4.983502,51.691824]},"properties":{"category":"bus_halte","name":"Waspiksedijk","operator":""}},{"type":"Feature","geometry":{"type":"Point","coordinates":[4.982004,51.691896]},"properties":{"category":"bus_halte","name":"Waspiksedijk","operator":""}},{"type":"Feature","geometry":{"type":"Point","coordinates":[4.984092,51.679943]},"properties":{"category":"bus_halte","name":"Wendelnesseweg","operator":""}},{"type":"Feature","geometry":{"type":"Point","coordinates":[4.983925,51.680149]},"properties":{"category":"bus_halte","name":"Wendelnesseweg","operator":""}},{"type":"Feature","geometry":{"type":"Point","coordinates":[4.965429,51.690505]},"properties":{"category":"bus_halte","name":"Vrouwkensvaartsestraat","operator":""}},{"type":"Feature","geometry":{"type":"Point","coordinates":[4.948661,51.68862]},"properties":{"category":"bus_halte","name":"Schoutstraat","operator":""}},{"type":"Feature","geometry":{"type":"Point","coordinates":[4.948709,51.688855]},"properties":{"category":"bus_halte","name":"Schoutstraat","operator":""}},{"type":"Feature","geometry":{"type":"Point","coordinates":[4.947991,51.679275]},"properties":{"category":"bus_halte","name":"Spoorstraat","operator":""}},{"type":"Feature","geometry":{"type":"Point","coordinates":[4.948152,51.679277]},"properties":{"category":"bus_halte","name":"Spoorstraat","operator":""}},{"type":"Feature","geometry":{"type":"Point","coordinates":[5.033634,51.677394]},"properties":{"category":"bus_halte","name":"Burgemeester van Casterenstraat","operator":""}},{"type":"Feature","geometry":{"type":"Point","coordinates":[5.034367,51.677568]},"properties":{"category":"bus_halte","name":"Burgemeester van Casterenstraat","operator":""}},{"type":"Feature","geometry":{"type":"Point","coordinates":[5.045003,51.674843]},"properties":{"category":"bus_halte","name":"Oprijlaan","operator":""}},{"type":"Feature","geometry":{"type":"Point","coordinates":[5.044748,51.674988]},"properties":{"category":"bus_halte","name":"Oprijlaan","operator":""}},{"type":"Feature","geometry":{"type":"Point","coordinates":[5.068225,51.681601]},"properties":{"category":"bus_halte","name":"Sint Antoniusstraat","operator":""}},{"type":"Feature","geometry":{"type":"Point","coordinates":[5.025351,51.676708]},"properties":{"category":"bus_halte","name":"Bernhardstraat","operator":""}},{"type":"Feature","geometry":{"type":"Point","coordinates":[5.025472,51.676766]},"properties":{"category":"bus_halte","name":"Bernhardstraat","operator":""}},{"type":"Feature","geometry":{"type":"Point","coordinates":[5.065396,51.692329]},"properties":{"category":"bus_halte","name":"Gemeentehuis","operator":""}},{"type":"Feature","geometry":{"type":"Point","coordinates":[5.071569,51.687224]},"properties":{"category":"bus_halte","name":"Busstation Vredesplein","operator":""}},{"type":"Feature","geometry":{"type":"Point","coordinates":[5.071891,51.687062]},"properties":{"category":"bus_halte","name":"Busstation Vredesplein","operator":""}},{"type":"Feature","geometry":{"type":"Point","coordinates":[5.071339,51.687108]},"properties":{"category":"bus_halte","name":"Busstation Vredesplein","operator":""}},{"type":"Feature","geometry":{"type":"Point","coordinates":[5.061371,51.686354]},"properties":{"category":"bus_halte","name":"Margrietstraat","operator":""}},{"type":"Feature","geometry":{"type":"Point","coordinates":[5.022979,51.670969]},"properties":{"category":"bus_halte","name":"Raadhuisplein","operator":""}},{"type":"Feature","geometry":{"type":"Point","coordinates":[5.06138,51.686343]},"properties":{"category":"bus_halte","name":"Margrietstraat","operator":""}},{"type":"Feature","geometry":{"type":"Point","coordinates":[5.078818,51.672053]},"properties":{"category":"bus_halte","name":"Galgenwiel","operator":""}},{"type":"Feature","geometry":{"type":"Point","coordinates":[4.983358,51.664437]},"properties":{"category":"bus_halte","name":"Nieuwevaart","operator":""}},{"type":"Feature","geometry":{"type":"Point","coordinates":[5.064538,51.706198]},"properties":{"category":"bus_halte","name":"Haven-Oost","operator":""}},{"type":"Feature","geometry":{"type":"Point","coordinates":[5.060221,51.681]},"properties":{"category":"bus_halte","name":"Bachlaan","operator":""}},{"type":"Feature","geometry":{"type":"Point","coordinates":[5.081419,51.69152]},"properties":{"category":"bus_halte","name":"Europaplein","operator":""}},{"type":"Feature","geometry":{"type":"Point","coordinates":[5.014193,51.686723]},"properties":{"category":"bus_halte","name":"Hogevaart","operator":""}},{"type":"Feature","geometry":{"type":"Point","coordinates":[5.040031,51.706029]},"properties":{"category":"bus_halte","name":"Pompweg","operator":""}},{"type":"Feature","geometry":{"type":"Point","coordinates":[5.040722,51.695182]},"properties":{"category":"bus_halte","name":"Spuiweg","operator":""}},{"type":"Feature","geometry":{"type":"Point","coordinates":[4.942166,51.702498]},"properties":{"category":"bus_halte","name":"Scharlo","operator":""}},{"type":"Feature","geometry":{"type":"Point","coordinates":[5.071691,51.687181]},"properties":{"category":"ov_knooppunt","name":"Vredesplein","operator":""}},{"type":"Feature","geometry":{"type":"Point","coordinates":[5.065956,51.691852]},"properties":{"category":"gemeentehuis","name":"Stadhuis Waalwijk","operator":"Gemeente Waalwijk"}},{"type":"Feature","geometry":{"type":"Point","coordinates":[5.067832,51.698124]},"properties":{"category":"inzamelpunt","name":"Milieustraat Waalwijk","operator":""}},{"type":"Feature","geometry":{"type":"Point","coordinates":[5.069358,51.689349]},"properties":{"category":"bibliotheek","name":"de Bibliotheek Waalwijk","operator":"de Bibliotheek Midden-Brabant"}},{"type":"Feature","geometry":{"type":"Point","coordinates":[5.013198,51.673569]},"properties":{"category":"bibliotheek","name":"de Bibliotheek Sprang-Capelle","operator":"de Bibliotheek Midden-Brabant"}},{"type":"Feature","geometry":{"type":"Point","coordinates":[4.947685,51.684508]},"properties":{"category":"bibliotheek","name":"de Bibliotheek Waspik","operator":"de Bibliotheek Midden-Brabant"}},{"type":"Feature","geometry":{"type":"Point","coordinates":[5.053336,51.68599]},"properties":{"category":"ziekenhuis","name":"Tweesteden Ziekenhuis Waalwijk","operator":""}},{"type":"Feature","geometry":{"type":"Point","coordinates":[5.089112,51.705268]},"properties":{"category":"transformatorhuisje","name":"","operator":""}},{"type":"Feature","geometry":{"type":"Point","coordinates":[5.08835,51.705263]},"properties":{"category":"transformatorhuisje","name":"","operator":""}},{"type":"Feature","geometry":{"type":"Point","coordinates":[5.088817,51.705139]},"properties":{"category":"transformatorhuisje","name":"","operator":""}},{"type":"Feature","geometry":{"type":"Point","coordinates":[5.088583,51.705119]},"properties":{"category":"transformatorhuisje","name":"","operator":""}},{"type":"Feature","geometry":{"type":"Point","coordinates":[5.048712,51.673997]},"properties":{"category":"hogeschool","name":"MET Praktijkonderwijs Waalwijk","operator":""}},{"type":"Feature","geometry":{"type":"Point","coordinates":[5.077818,51.685602]},"properties":{"category":"middelbare_school","name":"Walewyc Mavo","operator":"Ons Middelbaar Onderwijs"}},{"type":"Feature","geometry":{"type":"Point","coordinates":[5.078323,51.68568]},"properties":{"category":"middelbare_school","name":"Doctor Mollercollege","operator":"Ons Middelbaar Onderwijs"}},{"type":"Feature","geometry":{"type":"Point","coordinates":[5.044531,51.675629]},"properties":{"category":"middelbare_school","name":"Willem van Oranje College","operator":"Willem van Oranje Onderwijsgroep"}},{"type":"Feature","geometry":{"type":"Point","coordinates":[5.088833,51.686585]},"properties":{"category":"sportveld","name":"Mandemakers Stadion","operator":"RKC Waalwijk"}},{"type":"Feature","geometry":{"type":"Point","coordinates":[5.081872,51.685569]},"properties":{"category":"sportveld","name":"De Zeine","operator":""}},{"type":"Feature","geometry":{"type":"Point","coordinates":[4.941691,51.690239]},"properties":{"category":"sportveld","name":"T.C. Waesbeeck","operator":""}},{"type":"Feature","geometry":{"type":"Point","coordinates":[5.009075,51.67507]},"properties":{"category":"sportveld","name":"Zidewinde","operator":""}},{"type":"Feature","geometry":{"type":"Point","coordinates":[5.064513,51.689175]},"properties":{"category":"winkelcentrum","name":"De Els","operator":""}},{"type":"Feature","geometry":{"type":"Point","coordinates":[5.07839,51.682418]},"properties":{"category":"supermarkt","name":"Albert Heijn","operator":"Janssen"}},{"type":"Feature","geometry":{"type":"Point","coordinates":[5.065592,51.688239]},"properties":{"category":"supermarkt","name":"Albert Heijn","operator":""}},{"type":"Feature","geometry":{"type":"Point","coordinates":[5.024325,51.671405]},"properties":{"category":"supermarkt","name":"PLUS Frans Andriessen","operator":""}},{"type":"Feature","geometry":{"type":"Point","coordinates":[5.034479,51.668503]},"properties":{"category":"supermarkt","name":"Albert Heijn","operator":""}},{"type":"Feature","geometry":{"type":"Point","coordinates":[4.946983,51.687631]},"properties":{"category":"supermarkt","name":"ALDI","operator":""}},{"type":"Feature","geometry":{"type":"Point","coordinates":[4.943122,51.686107]},"properties":{"category":"supermarkt","name":"PLUS Picokrie","operator":""}},{"type":"Feature","geometry":{"type":"Point","coordinates":[5.058581,51.689759]},"properties":{"category":"supermarkt","name":"Polski Supermarket","operator":""}},{"type":"Feature","geometry":{"type":"Point","coordinates":[5.059483,51.676471]},"properties":{"category":"supermarkt","name":"PLUS Stephan van Engelen","operator":"Stephan van Engelen"}},{"type":"Feature","geometry":{"type":"Point","coordinates":[5.05572,51.688805]},"properties":{"category":"supermarkt","name":"Nettorama","operator":""}},{"type":"Feature","geometry":{"type":"Point","coordinates":[5.084205,51.691191]},"properties":{"category":"supermarkt","name":"Lidl","operator":"Lidl Nederland GmbH"}},{"type":"Feature","geometry":{"type":"Point","coordinates":[5.076675,51.691008]},"properties":{"category":"supermarkt","name":"Jumbo","operator":""}},{"type":"Feature","geometry":{"type":"Point","coordinates":[5.053812,51.676772]},"properties":{"category":"supermarkt","name":"Jumbo","operator":""}},{"type":"Feature","geometry":{"type":"Point","coordinates":[5.024906,51.670467]},"properties":{"category":"supermarkt","name":"VIVO Lekkernijen","operator":""}},{"type":"Feature","geometry":{"type":"Point","coordinates":[5.049166,51.67483]},"properties":{"category":"fietsenstalling","name":"","operator":""}},{"type":"Feature","geometry":{"type":"Point","coordinates":[5.048899,51.675397]},"properties":{"category":"fietsenstalling","name":"","operator":""}},{"type":"Feature","geometry":{"type":"Point","coordinates":[5.06385,51.688691]},"properties":{"category":"fietsenstalling","name":"","operator":""}},{"type":"Feature","geometry":{"type":"Point","coordinates":[5.076072,51.679022]},"properties":{"category":"parkeergarage","name":"","operator":""}},{"type":"Feature","geometry":{"type":"Point","coordinates":[5.069227,51.68581]},"properties":{"category":"parkeergarage","name":"","operator":""}},{"type":"Feature","geometry":{"type":"Point","coordinates":[5.06019,51.688885]},"properties":{"category":"parkeergarage","name":"","operator":""}}]}