{"type":"FeatureCollection","metadata":{"gemeente":"Wageningen","slug":"wageningen","by_category":{"bus_halte":54,"fietsenstalling":48,"sportveld":5,"parkeergarage":5,"transformatorhuisje":4,"universiteit":3,"ov_knooppunt":1,"gemeentehuis":1,"inzamelpunt":1,"bibliotheek":1,"hogeschool":1},"total":124},"features":[{"type":"Feature","geometry":{"type":"Point","coordinates":[5.644985,51.960768]},"properties":{"category":"bus_halte","name":"Nudenoord","operator":""}},{"type":"Feature","geometry":{"type":"Point","coordinates":[5.645431,51.960724]},"properties":{"category":"bus_halte","name":"Nudenoord","operator":""}},{"type":"Feature","geometry":{"type":"Point","coordinates":[5.659462,51.963985]},"properties":{"category":"bus_halte","name":"Hof van Gelderland","operator":""}},{"type":"Feature","geometry":{"type":"Point","coordinates":[5.672469,51.969723]},"properties":{"category":"bus_halte","name":"Arboretumlaan","operator":""}},{"type":"Feature","geometry":{"type":"Point","coordinates":[5.675095,51.969994]},"properties":{"category":"bus_halte","name":"Arboretumlaan","operator":""}},{"type":"Feature","geometry":{"type":"Point","coordinates":[5.6821,51.971249]},"properties":{"category":"bus_halte","name":"Diedenweg","operator":""}},{"type":"Feature","geometry":{"type":"Point","coordinates":[5.683167,51.971256]},"properties":{"category":"bus_halte","name":"Diedenweg","operator":""}},{"type":"Feature","geometry":{"type":"Point","coordinates":[5.695901,51.968831]},"properties":{"category":"bus_halte","name":"Wageningse Berg","operator":""}},{"type":"Feature","geometry":{"type":"Point","coordinates":[5.697135,51.968667]},"properties":{"category":"bus_halte","name":"Wageningse Berg","operator":""}},{"type":"Feature","geometry":{"type":"Point","coordinates":[5.657332,51.968079]},"properties":{"category":"bus_halte","name":"Costerweg","operator":""}},{"type":"Feature","geometry":{"type":"Point","coordinates":[5.671237,51.977161]},"properties":{"category":"bus_halte","name":"Dolderstraat","operator":""}},{"type":"Feature","geometry":{"type":"Point","coordinates":[5.671371,51.977226]},"properties":{"category":"bus_halte","name":"Dolderstraat","operator":""}},{"type":"Feature","geometry":{"type":"Point","coordinates":[5.677254,51.979483]},"properties":{"category":"bus_halte","name":"Nobelweg","operator":""}},{"type":"Feature","geometry":{"type":"Point","coordinates":[5.675248,51.981668]},"properties":{"category":"bus_halte","name":"Mansholtlaan","operator":""}},{"type":"Feature","geometry":{"type":"Point","coordinates":[5.676439,51.981578]},"properties":{"category":"bus_halte","name":"Mansholtlaan","operator":""}},{"type":"Feature","geometry":{"type":"Point","coordinates":[5.67861,51.987744]},"properties":{"category":"bus_halte","name":"Buissteeg","operator":""}},{"type":"Feature","geometry":{"type":"Point","coordinates":[5.678899,51.987965]},"properties":{"category":"bus_halte","name":"Buissteeg","operator":""}},{"type":"Feature","geometry":{"type":"Point","coordinates":[5.654591,51.970131]},"properties":{"category":"bus_halte","name":"Haagsteeg","operator":""}},{"type":"Feature","geometry":{"type":"Point","coordinates":[5.654698,51.970362]},"properties":{"category":"bus_halte","name":"Haagsteeg","operator":""}},{"type":"Feature","geometry":{"type":"Point","coordinates":[5.650416,51.975026]},"properties":{"category":"bus_halte","name":"Business- en Science Park","operator":""}},{"type":"Feature","geometry":{"type":"Point","coordinates":[5.6507,51.975209]},"properties":{"category":"bus_halte","name":"Business- en Science Park","operator":""}},{"type":"Feature","geometry":{"type":"Point","coordinates":[5.656082,51.979471]},"properties":{"category":"bus_halte","name":"Tarthorst","operator":""}},{"type":"Feature","geometry":{"type":"Point","coordinates":[5.658082,51.979855]},"properties":{"category":"bus_halte","name":"Tarthorst","operator":""}},{"type":"Feature","geometry":{"type":"Point","coordinates":[5.663963,51.980844]},"properties":{"category":"bus_halte","name":"Bornsesteeg","operator":""}},{"type":"Feature","geometry":{"type":"Point","coordinates":[5.665967,51.98051]},"properties":{"category":"bus_halte","name":"Bornsesteeg","operator":""}},{"type":"Feature","geometry":{"type":"Point","coordinates":[5.67206,51.980894]},"properties":{"category":"bus_halte","name":"Hoevestein","operator":""}},{"type":"Feature","geometry":{"type":"Point","coordinates":[5.671996,51.981062]},"properties":{"category":"bus_halte","name":"Hoevestein","operator":""}},{"type":"Feature","geometry":{"type":"Point","coordinates":[5.66884,51.988009]},"properties":{"category":"bus_halte","name":"Campus/Omnia","operator":""}},{"type":"Feature","geometry":{"type":"Point","coordinates":[5.635229,51.958859]},"properties":{"category":"bus_halte","name":"Huppelpad","operator":""}},{"type":"Feature","geometry":{"type":"Point","coordinates":[5.635943,51.958843]},"properties":{"category":"bus_halte","name":"Huppelpad","operator":""}},{"type":"Feature","geometry":{"type":"Point","coordinates":[5.649354,51.961033]},"properties":{"category":"bus_halte","name":"Westhof","operator":""}},{"type":"Feature","geometry":{"type":"Point","coordinates":[5.650834,51.961117]},"properties":{"category":"bus_halte","name":"Westhof","operator":""}},{"type":"Feature","geometry":{"type":"Point","coordinates":[5.657218,51.967254]},"properties":{"category":"bus_halte","name":"Lawickse Allee","operator":""}},{"type":"Feature","geometry":{"type":"Point","coordinates":[5.657116,51.966917]},"properties":{"category":"bus_halte","name":"Lawickse Allee","operator":""}},{"type":"Feature","geometry":{"type":"Point","coordinates":[5.655538,51.968079]},"properties":{"category":"bus_halte","name":"Costerweg","operator":""}},{"type":"Feature","geometry":{"type":"Point","coordinates":[5.677261,51.979436]},"properties":{"category":"bus_halte","name":"Nobelweg","operator":""}},{"type":"Feature","geometry":{"type":"Point","coordinates":[5.672388,51.973809]},"properties":{"category":"bus_halte","name":"Geertjesweg","operator":""}},{"type":"Feature","geometry":{"type":"Point","coordinates":[5.67251,51.973981]},"properties":{"category":"bus_halte","name":"Geertjesweg","operator":""}},{"type":"Feature","geometry":{"type":"Point","coordinates":[5.666934,51.969528]},"properties":{"category":"bus_halte","name":"Busstation","operator":""}},{"type":"Feature","geometry":{"type":"Point","coordinates":[5.666988,51.969265]},"properties":{"category":"bus_halte","name":"Busstation","operator":""}},{"type":"Feature","geometry":{"type":"Point","coordinates":[5.666967,51.969328]},"properties":{"category":"bus_halte","name":"Busstation","operator":""}},{"type":"Feature","geometry":{"type":"Point","coordinates":[5.666956,51.969392]},"properties":{"category":"bus_halte","name":"Busstation","operator":""}},{"type":"Feature","geometry":{"type":"Point","coordinates":[5.666949,51.969461]},"properties":{"category":"bus_halte","name":"Busstation","operator":""}},{"type":"Feature","geometry":{"type":"Point","coordinates":[5.663348,51.983705]},"properties":{"category":"bus_halte","name":"Campus/Forum","operator":""}},{"type":"Feature","geometry":{"type":"Point","coordinates":[5.717647,51.975604]},"properties":{"category":"bus_halte","name":"Oranje Nassau's Oord","operator":""}},{"type":"Feature","geometry":{"type":"Point","coordinates":[5.717523,51.975569]},"properties":{"category":"bus_halte","name":"Oranje Nassau's Oord","operator":""}},{"type":"Feature","geometry":{"type":"Point","coordinates":[5.655744,51.981059]},"properties":{"category":"bus_halte","name":"Mondriaanlaan","operator":""}},{"type":"Feature","geometry":{"type":"Point","coordinates":[5.655937,51.981174]},"properties":{"category":"bus_halte","name":"Mondriaanlaan","operator":""}},{"type":"Feature","geometry":{"type":"Point","coordinates":[5.659191,51.96399]},"properties":{"category":"bus_halte","name":"Hof van Gelderland","operator":""}},{"type":"Feature","geometry":{"type":"Point","coordinates":[5.673687,51.97096]},"properties":{"category":"bus_halte","name":"Arboretumlaan","operator":""}},{"type":"Feature","geometry":{"type":"Point","coordinates":[5.663619,51.983692]},"properties":{"category":"bus_halte","name":"Campus/Forum","operator":""}},{"type":"Feature","geometry":{"type":"Point","coordinates":[5.668868,51.988382]},"properties":{"category":"bus_halte","name":"Campus/Omnia","operator":""}},{"type":"Feature","geometry":{"type":"Point","coordinates":[5.651713,51.965868]},"properties":{"category":"bus_halte","name":"Troelstraweg","operator":""}},{"type":"Feature","geometry":{"type":"Point","coordinates":[5.652068,51.966405]},"properties":{"category":"bus_halte","name":"Troelstraweg","operator":""}},{"type":"Feature","geometry":{"type":"Point","coordinates":[5.667188,51.969424]},"properties":{"category":"ov_knooppunt","name":"Wageningen Busstation","operator":""}},{"type":"Feature","geometry":{"type":"Point","coordinates":[5.663326,51.964501]},"properties":{"category":"gemeentehuis","name":"Gemeentehuis Wageningen","operator":"Gemeente Wageningen"}},{"type":"Feature","geometry":{"type":"Point","coordinates":[5.647464,51.958864]},"properties":{"category":"inzamelpunt","name":"Afvalbrengstation","operator":"ACV Groep"}},{"type":"Feature","geometry":{"type":"Point","coordinates":[5.665798,51.967557]},"properties":{"category":"bibliotheek","name":"bblthk","operator":"Stichting Openbare Bibliotheek Wageningen"}},{"type":"Feature","geometry":{"type":"Point","coordinates":[5.651201,51.960346]},"properties":{"category":"transformatorhuisje","name":"","operator":""}},{"type":"Feature","geometry":{"type":"Point","coordinates":[5.651058,51.960416]},"properties":{"category":"transformatorhuisje","name":"","operator":""}},{"type":"Feature","geometry":{"type":"Point","coordinates":[5.650793,51.960014]},"properties":{"category":"transformatorhuisje","name":"50 kV Wageningen","operator":"Liander"}},{"type":"Feature","geometry":{"type":"Point","coordinates":[5.649397,51.972375]},"properties":{"category":"transformatorhuisje","name":"","operator":"Liander"}},{"type":"Feature","geometry":{"type":"Point","coordinates":[5.672492,51.986262]},"properties":{"category":"universiteit","name":"Aeres Hogeschool","operator":"Aeres"}},{"type":"Feature","geometry":{"type":"Point","coordinates":[5.662621,51.982864]},"properties":{"category":"universiteit","name":"Nexus","operator":"Wageningen University"}},{"type":"Feature","geometry":{"type":"Point","coordinates":[5.66377,51.984828]},"properties":{"category":"universiteit","name":"Wageningen University & Research","operator":"Wageningen University & Research"}},{"type":"Feature","geometry":{"type":"Point","coordinates":[5.654472,51.969282]},"properties":{"category":"hogeschool","name":"Rijn IJssel Vakschool Wageningen","operator":"ROC Rijn IJssel"}},{"type":"Feature","geometry":{"type":"Point","coordinates":[5.676391,51.98079]},"properties":{"category":"sportveld","name":"Sporthal De Vlinder","operator":"Stichting VierVlakVlinder"}},{"type":"Feature","geometry":{"type":"Point","coordinates":[5.698064,51.967348]},"properties":{"category":"sportveld","name":"Stadion de Wageningse Berg","operator":""}},{"type":"Feature","geometry":{"type":"Point","coordinates":[5.651383,51.967131]},"properties":{"category":"sportveld","name":"Het Binnenveld","operator":"KV Wageningen"}},{"type":"Feature","geometry":{"type":"Point","coordinates":[5.648746,51.986809]},"properties":{"category":"sportveld","name":"Sportpark J.D. Van Ketwich Verschuur","operator":""}},{"type":"Feature","geometry":{"type":"Point","coordinates":[5.669016,51.982368]},"properties":{"category":"sportveld","name":"Sports Centre de Bongerd","operator":"Wageningen University & Research"}},{"type":"Feature","geometry":{"type":"Point","coordinates":[5.665532,51.966786]},"properties":{"category":"fietsenstalling","name":"","operator":""}},{"type":"Feature","geometry":{"type":"Point","coordinates":[5.673199,51.973773]},"properties":{"category":"fietsenstalling","name":"","operator":""}},{"type":"Feature","geometry":{"type":"Point","coordinates":[5.645425,51.960921]},"properties":{"category":"fietsenstalling","name":"","operator":""}},{"type":"Feature","geometry":{"type":"Point","coordinates":[5.649676,51.978913]},"properties":{"category":"fietsenstalling","name":"","operator":""}},{"type":"Feature","geometry":{"type":"Point","coordinates":[5.649287,51.978801]},"properties":{"category":"fietsenstalling","name":"","operator":""}},{"type":"Feature","geometry":{"type":"Point","coordinates":[5.666614,51.969321]},"properties":{"category":"fietsenstalling","name":"","operator":""}},{"type":"Feature","geometry":{"type":"Point","coordinates":[5.681861,51.96949]},"properties":{"category":"fietsenstalling","name":"","operator":""}},{"type":"Feature","geometry":{"type":"Point","coordinates":[5.681209,51.967182]},"properties":{"category":"fietsenstalling","name":"","operator":""}},{"type":"Feature","geometry":{"type":"Point","coordinates":[5.667172,51.96963]},"properties":{"category":"fietsenstalling","name":"","operator":""}},{"type":"Feature","geometry":{"type":"Point","coordinates":[5.668218,51.96986]},"properties":{"category":"fietsenstalling","name":"","operator":""}},{"type":"Feature","geometry":{"type":"Point","coordinates":[5.65094,51.969049]},"properties":{"category":"fietsenstalling","name":"","operator":""}},{"type":"Feature","geometry":{"type":"Point","coordinates":[5.693841,51.965431]},"properties":{"category":"fietsenstalling","name":"","operator":""}},{"type":"Feature","geometry":{"type":"Point","coordinates":[5.66332,51.983696]},"properties":{"category":"fietsenstalling","name":"","operator":"Wageningen University & Research"}},{"type":"Feature","geometry":{"type":"Point","coordinates":[5.714366,51.974592]},"properties":{"category":"fietsenstalling","name":"","operator":""}},{"type":"Feature","geometry":{"type":"Point","coordinates":[5.663874,51.981847]},"properties":{"category":"fietsenstalling","name":"","operator":"Idealis"}},{"type":"Feature","geometry":{"type":"Point","coordinates":[5.665446,51.987665]},"properties":{"category":"fietsenstalling","name":"","operator":"Wageningen University & Research"}},{"type":"Feature","geometry":{"type":"Point","coordinates":[5.6573,51.98088]},"properties":{"category":"fietsenstalling","name":"","operator":""}},{"type":"Feature","geometry":{"type":"Point","coordinates":[5.660717,51.965146]},"properties":{"category":"fietsenstalling","name":"","operator":""}},{"type":"Feature","geometry":{"type":"Point","coordinates":[5.679979,51.970044]},"properties":{"category":"fietsenstalling","name":"","operator":""}},{"type":"Feature","geometry":{"type":"Point","coordinates":[5.663354,51.983783]},"properties":{"category":"fietsenstalling","name":"","operator":"Wageningen University & Research"}},{"type":"Feature","geometry":{"type":"Point","coordinates":[5.674132,51.979948]},"properties":{"category":"fietsenstalling","name":"","operator":"Wageningen University & Research"}},{"type":"Feature","geometry":{"type":"Point","coordinates":[5.660546,51.982544]},"properties":{"category":"fietsenstalling","name":"","operator":"Wageningen University & Research"}},{"type":"Feature","geometry":{"type":"Point","coordinates":[5.655977,51.981036]},"properties":{"category":"fietsenstalling","name":"","operator":"Wageningen University & Research"}},{"type":"Feature","geometry":{"type":"Point","coordinates":[5.666604,51.96965]},"properties":{"category":"fietsenstalling","name":"","operator":""}},{"type":"Feature","geometry":{"type":"Point","coordinates":[5.672673,51.981811]},"properties":{"category":"fietsenstalling","name":"","operator":""}},{"type":"Feature","geometry":{"type":"Point","coordinates":[5.652772,51.970692]},"properties":{"category":"fietsenstalling","name":"","operator":""}},{"type":"Feature","geometry":{"type":"Point","coordinates":[5.664266,51.987342]},"properties":{"category":"fietsenstalling","name":"","operator":"Wageningen University & Research"}},{"type":"Feature","geometry":{"type":"Point","coordinates":[5.671257,51.987629]},"properties":{"category":"fietsenstalling","name":"","operator":"NIOO-KNAW"}},{"type":"Feature","geometry":{"type":"Point","coordinates":[5.66172,51.982422]},"properties":{"category":"fietsenstalling","name":"","operator":"Wageningen University & Research"}},{"type":"Feature","geometry":{"type":"Point","coordinates":[5.661338,51.982627]},"properties":{"category":"fietsenstalling","name":"","operator":"Wageningen University & Research"}},{"type":"Feature","geometry":{"type":"Point","coordinates":[5.660607,51.986435]},"properties":{"category":"fietsenstalling","name":"","operator":"Wageningen University & Research"}},{"type":"Feature","geometry":{"type":"Point","coordinates":[5.660939,51.985944]},"properties":{"category":"fietsenstalling","name":"","operator":"Wageningen University & Research"}},{"type":"Feature","geometry":{"type":"Point","coordinates":[5.664197,51.969294]},"properties":{"category":"fietsenstalling","name":"","operator":""}},{"type":"Feature","geometry":{"type":"Point","coordinates":[5.661236,51.985179]},"properties":{"category":"fietsenstalling","name":"","operator":"Wageningen University & Research"}},{"type":"Feature","geometry":{"type":"Point","coordinates":[5.667626,51.98236]},"properties":{"category":"fietsenstalling","name":"","operator":"Sports Centre De Bongerd"}},{"type":"Feature","geometry":{"type":"Point","coordinates":[5.669248,51.98805]},"properties":{"category":"fietsenstalling","name":"","operator":""}},{"type":"Feature","geometry":{"type":"Point","coordinates":[5.668675,51.987618]},"properties":{"category":"fietsenstalling","name":"","operator":"Wageningen University & Research"}},{"type":"Feature","geometry":{"type":"Point","coordinates":[5.676514,51.979869]},"properties":{"category":"fietsenstalling","name":"","operator":""}},{"type":"Feature","geometry":{"type":"Point","coordinates":[5.676464,51.979767]},"properties":{"category":"fietsenstalling","name":"","operator":"Pantarijn"}},{"type":"Feature","geometry":{"type":"Point","coordinates":[5.67653,51.97977]},"properties":{"category":"fietsenstalling","name":"","operator":"Pantarijn"}},{"type":"Feature","geometry":{"type":"Point","coordinates":[5.666784,51.988034]},"properties":{"category":"fietsenstalling","name":"","operator":"Wageningen University & Research"}},{"type":"Feature","geometry":{"type":"Point","coordinates":[5.669529,51.984776]},"properties":{"category":"fietsenstalling","name":"","operator":""}},{"type":"Feature","geometry":{"type":"Point","coordinates":[5.675737,51.979948]},"properties":{"category":"fietsenstalling","name":"","operator":"Pantarijn"}},{"type":"Feature","geometry":{"type":"Point","coordinates":[5.665145,51.981816]},"properties":{"category":"fietsenstalling","name":"","operator":"Sports Centre De Bongerd"}},{"type":"Feature","geometry":{"type":"Point","coordinates":[5.645782,51.965594]},"properties":{"category":"fietsenstalling","name":"","operator":""}},{"type":"Feature","geometry":{"type":"Point","coordinates":[5.646454,51.965357]},"properties":{"category":"fietsenstalling","name":"","operator":""}},{"type":"Feature","geometry":{"type":"Point","coordinates":[5.669701,51.985954]},"properties":{"category":"fietsenstalling","name":"","operator":"Wageningen University & Research"}},{"type":"Feature","geometry":{"type":"Point","coordinates":[5.648098,51.973741]},"properties":{"category":"fietsenstalling","name":"","operator":""}},{"type":"Feature","geometry":{"type":"Point","coordinates":[5.665412,51.96622]},"properties":{"category":"parkeergarage","name":"","operator":""}},{"type":"Feature","geometry":{"type":"Point","coordinates":[5.661762,51.986293]},"properties":{"category":"parkeergarage","name":"WUR parking P1","operator":"Wageningen University & Research"}},{"type":"Feature","geometry":{"type":"Point","coordinates":[5.667772,51.984067]},"properties":{"category":"parkeergarage","name":"WUR parking P5 - Unilever / WUR / FrieslandCampina","operator":"Wageningen University & Research"}},{"type":"Feature","geometry":{"type":"Point","coordinates":[5.666449,51.983133]},"properties":{"category":"parkeergarage","name":"WUR parking P4","operator":"Wageningen University & Research"}},{"type":"Feature","geometry":{"type":"Point","coordinates":[5.664327,51.982669]},"properties":{"category":"parkeergarage","name":"","operator":""}}]}