{"type":"FeatureCollection","metadata":{"gemeente":"Weert","slug":"weert","by_category":{"bus_halte":99,"inzamelpunt":7,"transformatorhuisje":7,"sportveld":6,"parkeergarage":6,"middelbare_school":5,"bibliotheek":3,"fietsenstalling":3,"ziekenhuis":2,"ns_station":1,"ov_knooppunt":1,"gemeentehuis":1,"hogeschool":1,"winkelcentrum":1,"p_and_r":1},"total":144},"features":[{"type":"Feature","geometry":{"type":"Point","coordinates":[5.704134,51.248696]},"properties":{"category":"ns_station","name":"Weert","operator":""}},{"type":"Feature","geometry":{"type":"Point","coordinates":[5.710748,51.263766]},"properties":{"category":"bus_halte","name":"Kroonwiel","operator":""}},{"type":"Feature","geometry":{"type":"Point","coordinates":[5.652378,51.241068]},"properties":{"category":"bus_halte","name":"Wetering","operator":""}},{"type":"Feature","geometry":{"type":"Point","coordinates":[5.693105,51.247717]},"properties":{"category":"bus_halte","name":"Ringbaan West","operator":""}},{"type":"Feature","geometry":{"type":"Point","coordinates":[5.705653,51.257392]},"properties":{"category":"bus_halte","name":"Bassin","operator":""}},{"type":"Feature","geometry":{"type":"Point","coordinates":[5.715741,51.256196]},"properties":{"category":"bus_halte","name":"Graafschap Hornelaan","operator":""}},{"type":"Feature","geometry":{"type":"Point","coordinates":[5.651512,51.240306]},"properties":{"category":"bus_halte","name":"Kempenweg","operator":""}},{"type":"Feature","geometry":{"type":"Point","coordinates":[5.72422,51.261939]},"properties":{"category":"bus_halte","name":"Leuken Noord","operator":""}},{"type":"Feature","geometry":{"type":"Point","coordinates":[5.72068,51.266421]},"properties":{"category":"bus_halte","name":"Ringbaan Oost","operator":""}},{"type":"Feature","geometry":{"type":"Point","coordinates":[5.712057,51.253955]},"properties":{"category":"bus_halte","name":"St. Jans Gasthuis","operator":""}},{"type":"Feature","geometry":{"type":"Point","coordinates":[5.690851,51.260401]},"properties":{"category":"bus_halte","name":"De Burcht","operator":""}},{"type":"Feature","geometry":{"type":"Point","coordinates":[5.684875,51.260543]},"properties":{"category":"bus_halte","name":"Boshoverweg","operator":""}},{"type":"Feature","geometry":{"type":"Point","coordinates":[5.687744,51.262507]},"properties":{"category":"bus_halte","name":"Voorburcht","operator":""}},{"type":"Feature","geometry":{"type":"Point","coordinates":[5.683785,51.262719]},"properties":{"category":"bus_halte","name":"Vrakkerstraat","operator":""}},{"type":"Feature","geometry":{"type":"Point","coordinates":[5.688551,51.259671]},"properties":{"category":"bus_halte","name":"Sint Luciastraat","operator":""}},{"type":"Feature","geometry":{"type":"Point","coordinates":[5.680491,51.257948]},"properties":{"category":"bus_halte","name":"Leekushofstraat","operator":""}},{"type":"Feature","geometry":{"type":"Point","coordinates":[5.695947,51.259014]},"properties":{"category":"bus_halte","name":"Gouverneurlaan","operator":""}},{"type":"Feature","geometry":{"type":"Point","coordinates":[5.682121,51.260557]},"properties":{"category":"bus_halte","name":"Tobbersdijk","operator":""}},{"type":"Feature","geometry":{"type":"Point","coordinates":[5.684984,51.259689]},"properties":{"category":"bus_halte","name":"Sint Odastraat","operator":""}},{"type":"Feature","geometry":{"type":"Point","coordinates":[5.685478,51.263397]},"properties":{"category":"bus_halte","name":"Floralaan","operator":""}},{"type":"Feature","geometry":{"type":"Point","coordinates":[5.716969,51.243412]},"properties":{"category":"bus_halte","name":"Nassaulaan","operator":""}},{"type":"Feature","geometry":{"type":"Point","coordinates":[5.708083,51.243037]},"properties":{"category":"bus_halte","name":"Oranjeplein","operator":""}},{"type":"Feature","geometry":{"type":"Point","coordinates":[5.699789,51.259242]},"properties":{"category":"bus_halte","name":"Schoutlaan","operator":""}},{"type":"Feature","geometry":{"type":"Point","coordinates":[5.702028,51.247716]},"properties":{"category":"bus_halte","name":"Dries","operator":""}},{"type":"Feature","geometry":{"type":"Point","coordinates":[5.706814,51.24494]},"properties":{"category":"bus_halte","name":"Dillenburg","operator":""}},{"type":"Feature","geometry":{"type":"Point","coordinates":[5.707715,51.264979]},"properties":{"category":"bus_halte","name":"Molenakkerdreef","operator":""}},{"type":"Feature","geometry":{"type":"Point","coordinates":[5.733157,51.249158]},"properties":{"category":"bus_halte","name":"Nieuwendijk","operator":""}},{"type":"Feature","geometry":{"type":"Point","coordinates":[5.71594,51.259716]},"properties":{"category":"bus_halte","name":"Franciscuslaan","operator":""}},{"type":"Feature","geometry":{"type":"Point","coordinates":[5.73049,51.251974]},"properties":{"category":"bus_halte","name":"Sint Jobstraat","operator":""}},{"type":"Feature","geometry":{"type":"Point","coordinates":[5.702356,51.240081]},"properties":{"category":"bus_halte","name":"Zuiderstraat","operator":""}},{"type":"Feature","geometry":{"type":"Point","coordinates":[5.701958,51.242736]},"properties":{"category":"bus_halte","name":"Schaekenstraat","operator":""}},{"type":"Feature","geometry":{"type":"Point","coordinates":[5.705256,51.274296]},"properties":{"category":"bus_halte","name":"Aldenheerd","operator":""}},{"type":"Feature","geometry":{"type":"Point","coordinates":[5.730848,51.256451]},"properties":{"category":"bus_halte","name":"Schutterijlaan","operator":""}},{"type":"Feature","geometry":{"type":"Point","coordinates":[5.719735,51.25371]},"properties":{"category":"bus_halte","name":"Limburglaan","operator":""}},{"type":"Feature","geometry":{"type":"Point","coordinates":[5.726128,51.252321]},"properties":{"category":"bus_halte","name":"Nedermaaslaan","operator":""}},{"type":"Feature","geometry":{"type":"Point","coordinates":[5.711281,51.263819]},"properties":{"category":"bus_halte","name":"Kroonwiel","operator":""}},{"type":"Feature","geometry":{"type":"Point","coordinates":[5.730237,51.271115]},"properties":{"category":"bus_halte","name":"Marconilaan","operator":""}},{"type":"Feature","geometry":{"type":"Point","coordinates":[5.723639,51.268195]},"properties":{"category":"bus_halte","name":"Kelvinstraat","operator":""}},{"type":"Feature","geometry":{"type":"Point","coordinates":[5.772143,51.229428]},"properties":{"category":"bus_halte","name":"Kerk","operator":""}},{"type":"Feature","geometry":{"type":"Point","coordinates":[5.72601,51.257709]},"properties":{"category":"bus_halte","name":"Overweertstraat","operator":""}},{"type":"Feature","geometry":{"type":"Point","coordinates":[5.718638,51.25862]},"properties":{"category":"bus_halte","name":"Kapittelstraat","operator":""}},{"type":"Feature","geometry":{"type":"Point","coordinates":[5.722827,51.194614]},"properties":{"category":"bus_halte","name":"Julianastraat","operator":""}},{"type":"Feature","geometry":{"type":"Point","coordinates":[5.730504,51.212866]},"properties":{"category":"bus_halte","name":"Sint Barbaraplein","operator":""}},{"type":"Feature","geometry":{"type":"Point","coordinates":[5.714848,51.2477]},"properties":{"category":"bus_halte","name":"Blatenkempweg","operator":""}},{"type":"Feature","geometry":{"type":"Point","coordinates":[5.71668,51.244698]},"properties":{"category":"bus_halte","name":"Merelhof","operator":""}},{"type":"Feature","geometry":{"type":"Point","coordinates":[5.727423,51.211556]},"properties":{"category":"bus_halte","name":"Tungeler Dorpsstraat","operator":""}},{"type":"Feature","geometry":{"type":"Point","coordinates":[5.725724,51.193857]},"properties":{"category":"bus_halte","name":"Oude Trambaan","operator":""}},{"type":"Feature","geometry":{"type":"Point","coordinates":[5.732285,51.196353]},"properties":{"category":"bus_halte","name":"Molenbroek","operator":""}},{"type":"Feature","geometry":{"type":"Point","coordinates":[5.707105,51.2572]},"properties":{"category":"bus_halte","name":"Bassin","operator":""}},{"type":"Feature","geometry":{"type":"Point","coordinates":[5.705947,51.249108]},"properties":{"category":"bus_halte","name":"Station","operator":""}},{"type":"Feature","geometry":{"type":"Point","coordinates":[5.70568,51.249113]},"properties":{"category":"bus_halte","name":"Station","operator":""}},{"type":"Feature","geometry":{"type":"Point","coordinates":[5.705411,51.24912]},"properties":{"category":"bus_halte","name":"Station","operator":""}},{"type":"Feature","geometry":{"type":"Point","coordinates":[5.705163,51.249132]},"properties":{"category":"bus_halte","name":"Station","operator":""}},{"type":"Feature","geometry":{"type":"Point","coordinates":[5.720789,51.266728]},"properties":{"category":"bus_halte","name":"Ringbaan Oost","operator":""}},{"type":"Feature","geometry":{"type":"Point","coordinates":[5.713506,51.253788]},"properties":{"category":"bus_halte","name":"St. Jans Gasthuis","operator":""}},{"type":"Feature","geometry":{"type":"Point","coordinates":[5.702199,51.247608]},"properties":{"category":"bus_halte","name":"Dries","operator":""}},{"type":"Feature","geometry":{"type":"Point","coordinates":[5.70254,51.239982]},"properties":{"category":"bus_halte","name":"Zuiderstraat","operator":""}},{"type":"Feature","geometry":{"type":"Point","coordinates":[5.702086,51.24274]},"properties":{"category":"bus_halte","name":"Schaekenstraat","operator":""}},{"type":"Feature","geometry":{"type":"Point","coordinates":[5.730529,51.251902]},"properties":{"category":"bus_halte","name":"Sint Jobstraat","operator":""}},{"type":"Feature","geometry":{"type":"Point","coordinates":[5.726184,51.252215]},"properties":{"category":"bus_halte","name":"Nedermaaslaan","operator":""}},{"type":"Feature","geometry":{"type":"Point","coordinates":[5.719484,51.253672]},"properties":{"category":"bus_halte","name":"Limburglaan","operator":""}},{"type":"Feature","geometry":{"type":"Point","coordinates":[5.699687,51.259298]},"properties":{"category":"bus_halte","name":"Schoutlaan","operator":""}},{"type":"Feature","geometry":{"type":"Point","coordinates":[5.705445,51.274746]},"properties":{"category":"bus_halte","name":"Aldenheerd","operator":""}},{"type":"Feature","geometry":{"type":"Point","coordinates":[5.716334,51.259769]},"properties":{"category":"bus_halte","name":"Franciscuslaan","operator":""}},{"type":"Feature","geometry":{"type":"Point","coordinates":[5.715978,51.256401]},"properties":{"category":"bus_halte","name":"Graafschap Hornelaan","operator":""}},{"type":"Feature","geometry":{"type":"Point","coordinates":[5.707847,51.26502]},"properties":{"category":"bus_halte","name":"Molenakkerdreef","operator":""}},{"type":"Feature","geometry":{"type":"Point","coordinates":[5.717866,51.259952]},"properties":{"category":"bus_halte","name":"Vijverhof","operator":""}},{"type":"Feature","geometry":{"type":"Point","coordinates":[5.71848,51.259987]},"properties":{"category":"bus_halte","name":"Vijverhof","operator":""}},{"type":"Feature","geometry":{"type":"Point","coordinates":[5.732492,51.196335]},"properties":{"category":"bus_halte","name":"Molenbroek","operator":""}},{"type":"Feature","geometry":{"type":"Point","coordinates":[5.725464,51.19367]},"properties":{"category":"bus_halte","name":"Oude Trambaan","operator":""}},{"type":"Feature","geometry":{"type":"Point","coordinates":[5.721623,51.195887]},"properties":{"category":"bus_halte","name":"Julianastraat","operator":""}},{"type":"Feature","geometry":{"type":"Point","coordinates":[5.72736,51.211621]},"properties":{"category":"bus_halte","name":"Tungeler Dorpsstraat","operator":""}},{"type":"Feature","geometry":{"type":"Point","coordinates":[5.730436,51.212782]},"properties":{"category":"bus_halte","name":"Sint Barbaraplein","operator":""}},{"type":"Feature","geometry":{"type":"Point","coordinates":[5.716537,51.24345]},"properties":{"category":"bus_halte","name":"Nassaulaan","operator":""}},{"type":"Feature","geometry":{"type":"Point","coordinates":[5.707902,51.24315]},"properties":{"category":"bus_halte","name":"Oranjeplein","operator":""}},{"type":"Feature","geometry":{"type":"Point","coordinates":[5.70646,51.245323]},"properties":{"category":"bus_halte","name":"Dillenburg","operator":""}},{"type":"Feature","geometry":{"type":"Point","coordinates":[5.772043,51.229802]},"properties":{"category":"bus_halte","name":"Kerk","operator":""}},{"type":"Feature","geometry":{"type":"Point","coordinates":[5.721992,51.213317]},"properties":{"category":"bus_halte","name":"Provinciale weg","operator":""}},{"type":"Feature","geometry":{"type":"Point","coordinates":[5.722229,51.212983]},"properties":{"category":"bus_halte","name":"Provinciale weg","operator":""}},{"type":"Feature","geometry":{"type":"Point","coordinates":[5.716814,51.244223]},"properties":{"category":"bus_halte","name":"Merelhof","operator":""}},{"type":"Feature","geometry":{"type":"Point","coordinates":[5.714944,51.247819]},"properties":{"category":"bus_halte","name":"Blatenkempweg","operator":""}},{"type":"Feature","geometry":{"type":"Point","coordinates":[5.718677,51.258529]},"properties":{"category":"bus_halte","name":"Kapittelstraat","operator":""}},{"type":"Feature","geometry":{"type":"Point","coordinates":[5.727051,51.257916]},"properties":{"category":"bus_halte","name":"Overweertstraat","operator":""}},{"type":"Feature","geometry":{"type":"Point","coordinates":[5.723939,51.268186]},"properties":{"category":"bus_halte","name":"Kelvinstraat","operator":""}},{"type":"Feature","geometry":{"type":"Point","coordinates":[5.730203,51.271278]},"properties":{"category":"bus_halte","name":"Marconilaan","operator":""}},{"type":"Feature","geometry":{"type":"Point","coordinates":[5.693064,51.247609]},"properties":{"category":"bus_halte","name":"Ringbaan West","operator":""}},{"type":"Feature","geometry":{"type":"Point","coordinates":[5.685242,51.245552]},"properties":{"category":"bus_halte","name":"Kazernelaan","operator":""}},{"type":"Feature","geometry":{"type":"Point","coordinates":[5.685066,51.24542]},"properties":{"category":"bus_halte","name":"Kazernelaan","operator":""}},{"type":"Feature","geometry":{"type":"Point","coordinates":[5.670287,51.243879]},"properties":{"category":"bus_halte","name":"Geurtsvenweg","operator":""}},{"type":"Feature","geometry":{"type":"Point","coordinates":[5.670147,51.243746]},"properties":{"category":"bus_halte","name":"Geurtsvenweg","operator":""}},{"type":"Feature","geometry":{"type":"Point","coordinates":[5.704591,51.249286]},"properties":{"category":"bus_halte","name":"Station","operator":""}},{"type":"Feature","geometry":{"type":"Point","coordinates":[5.708181,51.251617]},"properties":{"category":"bus_halte","name":"Emmasingel","operator":""}},{"type":"Feature","geometry":{"type":"Point","coordinates":[5.709205,51.251682]},"properties":{"category":"bus_halte","name":"Emmasingel","operator":""}},{"type":"Feature","geometry":{"type":"Point","coordinates":[5.723711,51.262018]},"properties":{"category":"bus_halte","name":"Leuken Noord","operator":""}},{"type":"Feature","geometry":{"type":"Point","coordinates":[5.734791,51.253384]},"properties":{"category":"bus_halte","name":"Middelstestraat","operator":""}},{"type":"Feature","geometry":{"type":"Point","coordinates":[5.693421,51.266081]},"properties":{"category":"bus_halte","name":"WoonZorgComplex Laar","operator":""}},{"type":"Feature","geometry":{"type":"Point","coordinates":[5.706628,51.277183]},"properties":{"category":"bus_halte","name":"De Raak","operator":""}},{"type":"Feature","geometry":{"type":"Point","coordinates":[5.706443,51.272117]},"properties":{"category":"bus_halte","name":"Laarderweg","operator":""}},{"type":"Feature","geometry":{"type":"Point","coordinates":[5.69628,51.258816]},"properties":{"category":"bus_halte","name":"Gouverneurlaan","operator":""}},{"type":"Feature","geometry":{"type":"Point","coordinates":[5.680223,51.219853]},"properties":{"category":"bus_halte","name":"Kerk","operator":""}},{"type":"Feature","geometry":{"type":"Point","coordinates":[5.704134,51.248696]},"properties":{"category":"ov_knooppunt","name":"Weert","operator":""}},{"type":"Feature","geometry":{"type":"Point","coordinates":[5.703899,51.251199]},"properties":{"category":"gemeentehuis","name":"Stadhuis Weert","operator":"Gemeente Weert"}},{"type":"Feature","geometry":{"type":"Point","coordinates":[5.708527,51.243787]},"properties":{"category":"inzamelpunt","name":"","operator":""}},{"type":"Feature","geometry":{"type":"Point","coordinates":[5.738403,51.268361]},"properties":{"category":"inzamelpunt","name":"Milieustraat Weert","operator":""}},{"type":"Feature","geometry":{"type":"Point","coordinates":[5.716906,51.249832]},"properties":{"category":"inzamelpunt","name":"","operator":"Gemeente Weert"}},{"type":"Feature","geometry":{"type":"Point","coordinates":[5.707736,51.25376]},"properties":{"category":"inzamelpunt","name":"","operator":""}},{"type":"Feature","geometry":{"type":"Point","coordinates":[5.704758,51.250916]},"properties":{"category":"inzamelpunt","name":"","operator":""}},{"type":"Feature","geometry":{"type":"Point","coordinates":[5.704448,51.253769]},"properties":{"category":"inzamelpunt","name":"","operator":""}},{"type":"Feature","geometry":{"type":"Point","coordinates":[5.706186,51.256925]},"properties":{"category":"inzamelpunt","name":"","operator":""}},{"type":"Feature","geometry":{"type":"Point","coordinates":[5.704146,51.25513]},"properties":{"category":"bibliotheek","name":"Bibliotheek Weert","operator":"Bibliocenter"}},{"type":"Feature","geometry":{"type":"Point","coordinates":[5.71908,51.195867]},"properties":{"category":"bibliotheek","name":"Bibliotheek Stramproy","operator":"Bibliocenter"}},{"type":"Feature","geometry":{"type":"Point","coordinates":[5.704106,51.255056]},"properties":{"category":"bibliotheek","name":"","operator":"Bibliocenter"}},{"type":"Feature","geometry":{"type":"Point","coordinates":[5.713251,51.254646]},"properties":{"category":"ziekenhuis","name":"Sint Jans Gasthuis","operator":""}},{"type":"Feature","geometry":{"type":"Point","coordinates":[5.710275,51.254757]},"properties":{"category":"ziekenhuis","name":"Zorgcentrum Martinus","operator":"Land van Horne"}},{"type":"Feature","geometry":{"type":"Point","coordinates":[5.655998,51.247068]},"properties":{"category":"transformatorhuisje","name":"","operator":""}},{"type":"Feature","geometry":{"type":"Point","coordinates":[5.655787,51.247259]},"properties":{"category":"transformatorhuisje","name":"","operator":""}},{"type":"Feature","geometry":{"type":"Point","coordinates":[5.65558,51.247445]},"properties":{"category":"transformatorhuisje","name":"","operator":""}},{"type":"Feature","geometry":{"type":"Point","coordinates":[5.736256,51.270768]},"properties":{"category":"transformatorhuisje","name":"","operator":""}},{"type":"Feature","geometry":{"type":"Point","coordinates":[5.723978,51.193587]},"properties":{"category":"transformatorhuisje","name":"","operator":""}},{"type":"Feature","geometry":{"type":"Point","coordinates":[5.735861,51.270296]},"properties":{"category":"transformatorhuisje","name":"","operator":""}},{"type":"Feature","geometry":{"type":"Point","coordinates":[5.735984,51.270436]},"properties":{"category":"transformatorhuisje","name":"","operator":""}},{"type":"Feature","geometry":{"type":"Point","coordinates":[5.713344,51.246937]},"properties":{"category":"hogeschool","name":"Gilde opleidingen","operator":""}},{"type":"Feature","geometry":{"type":"Point","coordinates":[5.709971,51.246299]},"properties":{"category":"middelbare_school","name":"Wijnberg","operator":"Aloysius Stichting"}},{"type":"Feature","geometry":{"type":"Point","coordinates":[5.709966,51.246209]},"properties":{"category":"middelbare_school","name":"Widdonckschool","operator":"Aloysius Stichting"}},{"type":"Feature","geometry":{"type":"Point","coordinates":[5.693241,51.240898]},"properties":{"category":"middelbare_school","name":"Het College","operator":"Limburgs Voortgezet Onderwijs"}},{"type":"Feature","geometry":{"type":"Point","coordinates":[5.717172,51.256263]},"properties":{"category":"middelbare_school","name":"Philips van Horne","operator":"Limburgs Voortgezet Onderwijs"}},{"type":"Feature","geometry":{"type":"Point","coordinates":[5.725941,51.250713]},"properties":{"category":"middelbare_school","name":"Het Kwadrant","operator":"Limburgs Voortgezet Onderwijs"}},{"type":"Feature","geometry":{"type":"Point","coordinates":[5.730301,51.191903]},"properties":{"category":"sportveld","name":"Sportpark de Steinakker","operator":""}},{"type":"Feature","geometry":{"type":"Point","coordinates":[5.695373,51.241137]},"properties":{"category":"sportveld","name":"Atletiek Vereniging Weert","operator":""}},{"type":"Feature","geometry":{"type":"Point","coordinates":[5.727309,51.192019]},"properties":{"category":"sportveld","name":"Sportpark de Steinakker","operator":""}},{"type":"Feature","geometry":{"type":"Point","coordinates":[5.706437,51.249879]},"properties":{"category":"sportveld","name":"","operator":""}},{"type":"Feature","geometry":{"type":"Point","coordinates":[5.708344,51.238187]},"properties":{"category":"sportveld","name":"Manege Keent","operator":""}},{"type":"Feature","geometry":{"type":"Point","coordinates":[5.727273,51.190721]},"properties":{"category":"sportveld","name":"LTV de Grensmeppers","operator":""}},{"type":"Feature","geometry":{"type":"Point","coordinates":[5.705167,51.254432]},"properties":{"category":"winkelcentrum","name":"","operator":""}},{"type":"Feature","geometry":{"type":"Point","coordinates":[5.704414,51.249121]},"properties":{"category":"fietsenstalling","name":"","operator":""}},{"type":"Feature","geometry":{"type":"Point","coordinates":[5.706581,51.255455]},"properties":{"category":"fietsenstalling","name":"","operator":""}},{"type":"Feature","geometry":{"type":"Point","coordinates":[5.64876,51.239967]},"properties":{"category":"fietsenstalling","name":"","operator":""}},{"type":"Feature","geometry":{"type":"Point","coordinates":[5.704509,51.252714]},"properties":{"category":"parkeergarage","name":"Ursulinen","operator":""}},{"type":"Feature","geometry":{"type":"Point","coordinates":[5.703137,51.256653]},"properties":{"category":"parkeergarage","name":"Poort van Limburg","operator":""}},{"type":"Feature","geometry":{"type":"Point","coordinates":[5.705336,51.249306]},"properties":{"category":"parkeergarage","name":"Stationsplein","operator":""}},{"type":"Feature","geometry":{"type":"Point","coordinates":[5.710197,51.254695]},"properties":{"category":"parkeergarage","name":"","operator":""}},{"type":"Feature","geometry":{"type":"Point","coordinates":[5.703295,51.251131]},"properties":{"category":"parkeergarage","name":"Parkeergarage Centrum","operator":""}},{"type":"Feature","geometry":{"type":"Point","coordinates":[5.714582,51.262254]},"properties":{"category":"parkeergarage","name":"","operator":""}},{"type":"Feature","geometry":{"type":"Point","coordinates":[5.698725,51.24928]},"properties":{"category":"p_and_r","name":"P+R Parallelweg","operator":"Q-Park"}}]}