{"type":"FeatureCollection","metadata":{"gemeente":"Wierden","slug":"wierden","by_category":{"bus_halte":37,"supermarkt":8,"transformatorhuisje":6,"inzamelpunt":4,"sportveld":4,"fietsenstalling":3,"ov_knooppunt":2,"ns_station":1,"gemeentehuis":1,"bibliotheek":1,"middelbare_school":1,"p_and_r":1},"total":69},"features":[{"type":"Feature","geometry":{"type":"Point","coordinates":[6.592152,52.36154]},"properties":{"category":"ns_station","name":"Wierden","operator":""}},{"type":"Feature","geometry":{"type":"Point","coordinates":[6.534006,52.317976]},"properties":{"category":"bus_halte","name":"Klokkendijk","operator":""}},{"type":"Feature","geometry":{"type":"Point","coordinates":[6.604438,52.356481]},"properties":{"category":"bus_halte","name":"Aadorpseweg","operator":""}},{"type":"Feature","geometry":{"type":"Point","coordinates":[6.58019,52.277307]},"properties":{"category":"bus_halte","name":"Heerink","operator":""}},{"type":"Feature","geometry":{"type":"Point","coordinates":[6.601221,52.356615]},"properties":{"category":"bus_halte","name":"Akeleistraat","operator":""}},{"type":"Feature","geometry":{"type":"Point","coordinates":[6.576457,52.292566]},"properties":{"category":"bus_halte","name":"R.K. Kerk","operator":""}},{"type":"Feature","geometry":{"type":"Point","coordinates":[6.589979,52.355355]},"properties":{"category":"bus_halte","name":"Smeijerskampstraat","operator":""}},{"type":"Feature","geometry":{"type":"Point","coordinates":[6.575891,52.295289]},"properties":{"category":"bus_halte","name":"Brandput","operator":""}},{"type":"Feature","geometry":{"type":"Point","coordinates":[6.557434,52.334006]},"properties":{"category":"bus_halte","name":"Nijstad","operator":""}},{"type":"Feature","geometry":{"type":"Point","coordinates":[6.568794,52.292773]},"properties":{"category":"bus_halte","name":"Stationsweg","operator":""}},{"type":"Feature","geometry":{"type":"Point","coordinates":[6.560143,52.29408]},"properties":{"category":"bus_halte","name":"Rohaan","operator":""}},{"type":"Feature","geometry":{"type":"Point","coordinates":[6.583879,52.270893]},"properties":{"category":"bus_halte","name":"Jagersweg","operator":""}},{"type":"Feature","geometry":{"type":"Point","coordinates":[6.54525,52.325991]},"properties":{"category":"bus_halte","name":"Grimberg","operator":""}},{"type":"Feature","geometry":{"type":"Point","coordinates":[6.578172,52.28547]},"properties":{"category":"bus_halte","name":"Braamhaar","operator":""}},{"type":"Feature","geometry":{"type":"Point","coordinates":[6.605268,52.356527]},"properties":{"category":"bus_halte","name":"Aadorpseweg","operator":""}},{"type":"Feature","geometry":{"type":"Point","coordinates":[6.5802,52.277654]},"properties":{"category":"bus_halte","name":"Heerink","operator":""}},{"type":"Feature","geometry":{"type":"Point","coordinates":[6.546703,52.326785]},"properties":{"category":"bus_halte","name":"Grimberg","operator":""}},{"type":"Feature","geometry":{"type":"Point","coordinates":[6.589858,52.355341]},"properties":{"category":"bus_halte","name":"Smeijerskampstraat","operator":""}},{"type":"Feature","geometry":{"type":"Point","coordinates":[6.533406,52.317852]},"properties":{"category":"bus_halte","name":"Klokkendijk","operator":""}},{"type":"Feature","geometry":{"type":"Point","coordinates":[6.555637,52.333154]},"properties":{"category":"bus_halte","name":"Nijstad","operator":""}},{"type":"Feature","geometry":{"type":"Point","coordinates":[6.594036,52.357047]},"properties":{"category":"bus_halte","name":"N.H. Kerk","operator":""}},{"type":"Feature","geometry":{"type":"Point","coordinates":[6.601412,52.356709]},"properties":{"category":"bus_halte","name":"Akeleistraat","operator":""}},{"type":"Feature","geometry":{"type":"Point","coordinates":[6.594638,52.357022]},"properties":{"category":"bus_halte","name":"N.H. Kerk","operator":""}},{"type":"Feature","geometry":{"type":"Point","coordinates":[6.560568,52.294047]},"properties":{"category":"bus_halte","name":"Rohaan","operator":""}},{"type":"Feature","geometry":{"type":"Point","coordinates":[6.576305,52.29256]},"properties":{"category":"bus_halte","name":"R.K. Kerk","operator":""}},{"type":"Feature","geometry":{"type":"Point","coordinates":[6.583554,52.27164]},"properties":{"category":"bus_halte","name":"Jagersweg","operator":""}},{"type":"Feature","geometry":{"type":"Point","coordinates":[6.5779,52.285]},"properties":{"category":"bus_halte","name":"Braamhaar","operator":""}},{"type":"Feature","geometry":{"type":"Point","coordinates":[6.576556,52.295114]},"properties":{"category":"bus_halte","name":"Brandput","operator":""}},{"type":"Feature","geometry":{"type":"Point","coordinates":[6.570498,52.29314]},"properties":{"category":"bus_halte","name":"Stationsweg","operator":""}},{"type":"Feature","geometry":{"type":"Point","coordinates":[6.496887,52.332896]},"properties":{"category":"bus_halte","name":"Blokkendijk","operator":""}},{"type":"Feature","geometry":{"type":"Point","coordinates":[6.496989,52.331755]},"properties":{"category":"bus_halte","name":"Blokkendijk","operator":""}},{"type":"Feature","geometry":{"type":"Point","coordinates":[6.572084,52.343989]},"properties":{"category":"bus_halte","name":"Enterweg","operator":""}},{"type":"Feature","geometry":{"type":"Point","coordinates":[6.574094,52.344846]},"properties":{"category":"bus_halte","name":"Enterweg","operator":""}},{"type":"Feature","geometry":{"type":"Point","coordinates":[6.528984,52.327015]},"properties":{"category":"bus_halte","name":"Grimberghoeve","operator":""}},{"type":"Feature","geometry":{"type":"Point","coordinates":[6.520143,52.334417]},"properties":{"category":"bus_halte","name":"Notter","operator":""}},{"type":"Feature","geometry":{"type":"Point","coordinates":[6.572171,52.311393]},"properties":{"category":"bus_halte","name":"Manege 't Leijerweerd","operator":""}},{"type":"Feature","geometry":{"type":"Point","coordinates":[6.51846,52.326157]},"properties":{"category":"bus_halte","name":"Het Mölke","operator":""}},{"type":"Feature","geometry":{"type":"Point","coordinates":[6.533947,52.318437]},"properties":{"category":"bus_halte","name":"Klokkendijk","operator":""}},{"type":"Feature","geometry":{"type":"Point","coordinates":[6.528118,52.322694]},"properties":{"category":"ov_knooppunt","name":"","operator":""}},{"type":"Feature","geometry":{"type":"Point","coordinates":[6.592152,52.36154]},"properties":{"category":"ov_knooppunt","name":"Wierden","operator":""}},{"type":"Feature","geometry":{"type":"Point","coordinates":[6.59284,52.355671]},"properties":{"category":"gemeentehuis","name":"Gemeentehuis Wierden","operator":"Gemeente Wierden"}},{"type":"Feature","geometry":{"type":"Point","coordinates":[6.518336,52.326268]},"properties":{"category":"inzamelpunt","name":"","operator":""}},{"type":"Feature","geometry":{"type":"Point","coordinates":[6.576887,52.284812]},"properties":{"category":"inzamelpunt","name":"Oudpapier locatie Enter","operator":""}},{"type":"Feature","geometry":{"type":"Point","coordinates":[6.589732,52.362379]},"properties":{"category":"inzamelpunt","name":"Oudpapier locatie Wierden","operator":""}},{"type":"Feature","geometry":{"type":"Point","coordinates":[6.572704,52.317846]},"properties":{"category":"inzamelpunt","name":"","operator":"Gemeente Wierden"}},{"type":"Feature","geometry":{"type":"Point","coordinates":[6.579155,52.295653]},"properties":{"category":"bibliotheek","name":"Bibliotheek Enter","operator":""}},{"type":"Feature","geometry":{"type":"Point","coordinates":[6.507832,52.328843]},"properties":{"category":"transformatorhuisje","name":"Morsweg 1a 651060","operator":""}},{"type":"Feature","geometry":{"type":"Point","coordinates":[6.529227,52.338664]},"properties":{"category":"transformatorhuisje","name":"","operator":""}},{"type":"Feature","geometry":{"type":"Point","coordinates":[6.52199,52.343029]},"properties":{"category":"transformatorhuisje","name":"","operator":""}},{"type":"Feature","geometry":{"type":"Point","coordinates":[6.540985,52.335054]},"properties":{"category":"transformatorhuisje","name":"","operator":""}},{"type":"Feature","geometry":{"type":"Point","coordinates":[6.538686,52.329]},"properties":{"category":"transformatorhuisje","name":"","operator":""}},{"type":"Feature","geometry":{"type":"Point","coordinates":[6.595354,52.279494]},"properties":{"category":"transformatorhuisje","name":"","operator":""}},{"type":"Feature","geometry":{"type":"Point","coordinates":[6.583595,52.353025]},"properties":{"category":"middelbare_school","name":"De Passie","operator":"De Passiescholen"}},{"type":"Feature","geometry":{"type":"Point","coordinates":[6.598857,52.363774]},"properties":{"category":"sportveld","name":"De Stouwe indoor tennis & padel","operator":""}},{"type":"Feature","geometry":{"type":"Point","coordinates":[6.571597,52.287815]},"properties":{"category":"sportveld","name":"De Krompatte","operator":""}},{"type":"Feature","geometry":{"type":"Point","coordinates":[6.588019,52.372108]},"properties":{"category":"sportveld","name":"'t Lageveld","operator":""}},{"type":"Feature","geometry":{"type":"Point","coordinates":[6.582932,52.296658]},"properties":{"category":"sportveld","name":"De Werf","operator":""}},{"type":"Feature","geometry":{"type":"Point","coordinates":[6.588959,52.358447]},"properties":{"category":"supermarkt","name":"ALDI","operator":""}},{"type":"Feature","geometry":{"type":"Point","coordinates":[6.586568,52.359407]},"properties":{"category":"supermarkt","name":"Lidl","operator":"Lidl Nederland GmbH"}},{"type":"Feature","geometry":{"type":"Point","coordinates":[6.594966,52.359859]},"properties":{"category":"supermarkt","name":"Jumbo","operator":"Jumbo Supermarkten"}},{"type":"Feature","geometry":{"type":"Point","coordinates":[6.596423,52.361176]},"properties":{"category":"supermarkt","name":"Albert Heijn","operator":""}},{"type":"Feature","geometry":{"type":"Point","coordinates":[6.578136,52.297684]},"properties":{"category":"supermarkt","name":"PLUS","operator":""}},{"type":"Feature","geometry":{"type":"Point","coordinates":[6.57758,52.292551]},"properties":{"category":"supermarkt","name":"Albert Heijn","operator":"Albert Heijn"}},{"type":"Feature","geometry":{"type":"Point","coordinates":[6.576084,52.292494]},"properties":{"category":"supermarkt","name":"ALDI","operator":""}},{"type":"Feature","geometry":{"type":"Point","coordinates":[6.578045,52.365768]},"properties":{"category":"supermarkt","name":"PLUS","operator":""}},{"type":"Feature","geometry":{"type":"Point","coordinates":[6.607285,52.354051]},"properties":{"category":"fietsenstalling","name":"","operator":""}},{"type":"Feature","geometry":{"type":"Point","coordinates":[6.586737,52.353652]},"properties":{"category":"fietsenstalling","name":"","operator":""}},{"type":"Feature","geometry":{"type":"Point","coordinates":[6.591734,52.361323]},"properties":{"category":"fietsenstalling","name":"","operator":""}},{"type":"Feature","geometry":{"type":"Point","coordinates":[6.58994,52.361224]},"properties":{"category":"p_and_r","name":"P+R station Wierden","operator":""}}]}