{"type":"FeatureCollection","metadata":{"gemeente":"Woerden","slug":"woerden","by_category":{"bus_halte":172,"fietsenstalling":11,"parkeergarage":8,"sportveld":5,"bibliotheek":4,"ov_knooppunt":2,"hogeschool":2,"p_and_r":2,"ns_station":1,"gemeentehuis":1,"inzamelpunt":1,"ziekenhuis":1,"transformatorhuisje":1,"universiteit":1,"winkelcentrum":1},"total":213},"features":[{"type":"Feature","geometry":{"type":"Point","coordinates":[4.892487,52.085088]},"properties":{"category":"ns_station","name":"Woerden","operator":""}},{"type":"Feature","geometry":{"type":"Point","coordinates":[4.896225,52.088735]},"properties":{"category":"bus_halte","name":"Hertenkamp","operator":""}},{"type":"Feature","geometry":{"type":"Point","coordinates":[4.896837,52.088633]},"properties":{"category":"bus_halte","name":"Hertenkamp","operator":""}},{"type":"Feature","geometry":{"type":"Point","coordinates":[4.923285,52.103403]},"properties":{"category":"bus_halte","name":"Ir. Enschedeweg","operator":""}},{"type":"Feature","geometry":{"type":"Point","coordinates":[4.865665,52.073151]},"properties":{"category":"bus_halte","name":"Waardsedijk","operator":""}},{"type":"Feature","geometry":{"type":"Point","coordinates":[4.865055,52.072901]},"properties":{"category":"bus_halte","name":"Waardsedijk","operator":""}},{"type":"Feature","geometry":{"type":"Point","coordinates":[4.868617,52.073938]},"properties":{"category":"bus_halte","name":"Polderbaan","operator":""}},{"type":"Feature","geometry":{"type":"Point","coordinates":[4.869577,52.07408]},"properties":{"category":"bus_halte","name":"Polderbaan","operator":""}},{"type":"Feature","geometry":{"type":"Point","coordinates":[4.858489,52.075729]},"properties":{"category":"bus_halte","name":"Akeleiweide","operator":""}},{"type":"Feature","geometry":{"type":"Point","coordinates":[4.858388,52.075673]},"properties":{"category":"bus_halte","name":"Akeleiweide","operator":""}},{"type":"Feature","geometry":{"type":"Point","coordinates":[4.861207,52.077383]},"properties":{"category":"bus_halte","name":"Molenvlietbrink","operator":""}},{"type":"Feature","geometry":{"type":"Point","coordinates":[4.861393,52.077465]},"properties":{"category":"bus_halte","name":"Molenvlietbrink","operator":""}},{"type":"Feature","geometry":{"type":"Point","coordinates":[4.861243,52.080223]},"properties":{"category":"bus_halte","name":"Akkerwindeveld","operator":""}},{"type":"Feature","geometry":{"type":"Point","coordinates":[4.861256,52.080521]},"properties":{"category":"bus_halte","name":"Akkerwindeveld","operator":""}},{"type":"Feature","geometry":{"type":"Point","coordinates":[4.859959,52.082151]},"properties":{"category":"bus_halte","name":"Wederikveld","operator":""}},{"type":"Feature","geometry":{"type":"Point","coordinates":[4.859696,52.081594]},"properties":{"category":"bus_halte","name":"Wederikveld","operator":""}},{"type":"Feature","geometry":{"type":"Point","coordinates":[4.863437,52.082268]},"properties":{"category":"bus_halte","name":"Kuipersweg","operator":""}},{"type":"Feature","geometry":{"type":"Point","coordinates":[4.862434,52.082431]},"properties":{"category":"bus_halte","name":"Kuipersweg","operator":""}},{"type":"Feature","geometry":{"type":"Point","coordinates":[4.867538,52.081798]},"properties":{"category":"bus_halte","name":"Molenvlietbaan","operator":""}},{"type":"Feature","geometry":{"type":"Point","coordinates":[4.867615,52.08195]},"properties":{"category":"bus_halte","name":"Molenvlietbaan","operator":""}},{"type":"Feature","geometry":{"type":"Point","coordinates":[4.87406,52.076324]},"properties":{"category":"bus_halte","name":"Stromenlaan","operator":""}},{"type":"Feature","geometry":{"type":"Point","coordinates":[4.873911,52.076356]},"properties":{"category":"bus_halte","name":"Stromenlaan","operator":""}},{"type":"Feature","geometry":{"type":"Point","coordinates":[4.871752,52.084445]},"properties":{"category":"bus_halte","name":"Lindenlaan","operator":""}},{"type":"Feature","geometry":{"type":"Point","coordinates":[4.872329,52.084764]},"properties":{"category":"bus_halte","name":"Lindenlaan","operator":""}},{"type":"Feature","geometry":{"type":"Point","coordinates":[4.872534,52.087306]},"properties":{"category":"bus_halte","name":"Jozef Israëlslaan","operator":""}},{"type":"Feature","geometry":{"type":"Point","coordinates":[4.872837,52.087127]},"properties":{"category":"bus_halte","name":"Jozef Israëlslaan","operator":""}},{"type":"Feature","geometry":{"type":"Point","coordinates":[4.874015,52.088699]},"properties":{"category":"bus_halte","name":"Nicolaas Maesstraat","operator":""}},{"type":"Feature","geometry":{"type":"Point","coordinates":[4.875554,52.088965]},"properties":{"category":"bus_halte","name":"Nicolaas Maesstraat","operator":""}},{"type":"Feature","geometry":{"type":"Point","coordinates":[4.887281,52.075899]},"properties":{"category":"bus_halte","name":"Vijzelmolenlaan","operator":""}},{"type":"Feature","geometry":{"type":"Point","coordinates":[4.887468,52.075665]},"properties":{"category":"bus_halte","name":"Vijzelmolenlaan","operator":""}},{"type":"Feature","geometry":{"type":"Point","coordinates":[4.884044,52.084176]},"properties":{"category":"bus_halte","name":"Oranjestraat","operator":""}},{"type":"Feature","geometry":{"type":"Point","coordinates":[4.887744,52.085476]},"properties":{"category":"bus_halte","name":"Rijnstraat","operator":""}},{"type":"Feature","geometry":{"type":"Point","coordinates":[4.891631,52.0761]},"properties":{"category":"bus_halte","name":"Wipmolenlaan","operator":""}},{"type":"Feature","geometry":{"type":"Point","coordinates":[4.891572,52.076389]},"properties":{"category":"bus_halte","name":"Wipmolenlaan","operator":""}},{"type":"Feature","geometry":{"type":"Point","coordinates":[4.889373,52.078902]},"properties":{"category":"bus_halte","name":"Stadhuis","operator":""}},{"type":"Feature","geometry":{"type":"Point","coordinates":[4.889191,52.079233]},"properties":{"category":"bus_halte","name":"Stadhuis","operator":""}},{"type":"Feature","geometry":{"type":"Point","coordinates":[4.882093,52.087789]},"properties":{"category":"bus_halte","name":"Westdam","operator":""}},{"type":"Feature","geometry":{"type":"Point","coordinates":[4.882479,52.087639]},"properties":{"category":"bus_halte","name":"Westdam","operator":""}},{"type":"Feature","geometry":{"type":"Point","coordinates":[4.879967,52.089124]},"properties":{"category":"bus_halte","name":"Ridderstraat","operator":""}},{"type":"Feature","geometry":{"type":"Point","coordinates":[4.879663,52.089275]},"properties":{"category":"bus_halte","name":"Ridderstraat","operator":""}},{"type":"Feature","geometry":{"type":"Point","coordinates":[4.909247,52.084128]},"properties":{"category":"bus_halte","name":"Oeralstraat","operator":""}},{"type":"Feature","geometry":{"type":"Point","coordinates":[4.909914,52.088601]},"properties":{"category":"bus_halte","name":"Minkema College","operator":""}},{"type":"Feature","geometry":{"type":"Point","coordinates":[4.902039,52.075642]},"properties":{"category":"bus_halte","name":"Viaduct","operator":""}},{"type":"Feature","geometry":{"type":"Point","coordinates":[4.892231,52.088098]},"properties":{"category":"bus_halte","name":"Oudelandseweg","operator":""}},{"type":"Feature","geometry":{"type":"Point","coordinates":[4.891759,52.087892]},"properties":{"category":"bus_halte","name":"Oudelandseweg","operator":""}},{"type":"Feature","geometry":{"type":"Point","coordinates":[4.893072,52.095998]},"properties":{"category":"bus_halte","name":"De Kruipin","operator":""}},{"type":"Feature","geometry":{"type":"Point","coordinates":[4.893922,52.096116]},"properties":{"category":"bus_halte","name":"De Kruipin","operator":""}},{"type":"Feature","geometry":{"type":"Point","coordinates":[4.905629,52.095363]},"properties":{"category":"bus_halte","name":"Fagellaan","operator":""}},{"type":"Feature","geometry":{"type":"Point","coordinates":[4.905755,52.095613]},"properties":{"category":"bus_halte","name":"Fagellaan","operator":""}},{"type":"Feature","geometry":{"type":"Point","coordinates":[4.894504,52.102234]},"properties":{"category":"bus_halte","name":"Sluis","operator":""}},{"type":"Feature","geometry":{"type":"Point","coordinates":[4.894416,52.102019]},"properties":{"category":"bus_halte","name":"Sluis","operator":""}},{"type":"Feature","geometry":{"type":"Point","coordinates":[4.897849,52.110667]},"properties":{"category":"bus_halte","name":"Lindenlaan","operator":""}},{"type":"Feature","geometry":{"type":"Point","coordinates":[4.898147,52.111056]},"properties":{"category":"bus_halte","name":"Lindenlaan","operator":""}},{"type":"Feature","geometry":{"type":"Point","coordinates":[4.917397,52.101221]},"properties":{"category":"bus_halte","name":"Woudenberg","operator":""}},{"type":"Feature","geometry":{"type":"Point","coordinates":[4.917672,52.101687]},"properties":{"category":"bus_halte","name":"Woudenberg","operator":""}},{"type":"Feature","geometry":{"type":"Point","coordinates":[4.913116,52.129935]},"properties":{"category":"bus_halte","name":"Teckopseweg","operator":""}},{"type":"Feature","geometry":{"type":"Point","coordinates":[4.912286,52.130493]},"properties":{"category":"bus_halte","name":"Oortjespad","operator":""}},{"type":"Feature","geometry":{"type":"Point","coordinates":[4.912453,52.130418]},"properties":{"category":"bus_halte","name":"Oortjespad","operator":""}},{"type":"Feature","geometry":{"type":"Point","coordinates":[4.920659,52.132714]},"properties":{"category":"bus_halte","name":"De Winter","operator":""}},{"type":"Feature","geometry":{"type":"Point","coordinates":[4.95445,52.090977]},"properties":{"category":"bus_halte","name":"Noordergaard","operator":""}},{"type":"Feature","geometry":{"type":"Point","coordinates":[4.95448,52.091088]},"properties":{"category":"bus_halte","name":"Noordergaard","operator":""}},{"type":"Feature","geometry":{"type":"Point","coordinates":[4.944962,52.095712]},"properties":{"category":"bus_halte","name":"Bedrijfsweg","operator":""}},{"type":"Feature","geometry":{"type":"Point","coordinates":[4.945114,52.09586]},"properties":{"category":"bus_halte","name":"Bedrijfsweg","operator":""}},{"type":"Feature","geometry":{"type":"Point","coordinates":[4.949894,52.093085]},"properties":{"category":"bus_halte","name":"Spruit en Bosch","operator":""}},{"type":"Feature","geometry":{"type":"Point","coordinates":[4.948991,52.093174]},"properties":{"category":"bus_halte","name":"Spruit en Bosch","operator":""}},{"type":"Feature","geometry":{"type":"Point","coordinates":[4.963924,52.088896]},"properties":{"category":"bus_halte","name":"Eikenlaan","operator":""}},{"type":"Feature","geometry":{"type":"Point","coordinates":[4.960918,52.090926]},"properties":{"category":"bus_halte","name":"Huize Gaza","operator":""}},{"type":"Feature","geometry":{"type":"Point","coordinates":[4.960895,52.090989]},"properties":{"category":"bus_halte","name":"Huize Gaza","operator":""}},{"type":"Feature","geometry":{"type":"Point","coordinates":[4.963938,52.089286]},"properties":{"category":"bus_halte","name":"Eikenlaan","operator":""}},{"type":"Feature","geometry":{"type":"Point","coordinates":[4.963262,52.090663]},"properties":{"category":"bus_halte","name":"Kalverstraat","operator":""}},{"type":"Feature","geometry":{"type":"Point","coordinates":[4.963581,52.090886]},"properties":{"category":"bus_halte","name":"Kalverstraat","operator":""}},{"type":"Feature","geometry":{"type":"Point","coordinates":[4.92233,52.103351]},"properties":{"category":"bus_halte","name":"Ir. Enschedeweg","operator":""}},{"type":"Feature","geometry":{"type":"Point","coordinates":[4.932374,52.105247]},"properties":{"category":"bus_halte","name":"Houtdijk","operator":""}},{"type":"Feature","geometry":{"type":"Point","coordinates":[4.931788,52.105258]},"properties":{"category":"bus_halte","name":"Houtdijk","operator":""}},{"type":"Feature","geometry":{"type":"Point","coordinates":[4.941293,52.099975]},"properties":{"category":"bus_halte","name":"Putkop","operator":""}},{"type":"Feature","geometry":{"type":"Point","coordinates":[4.941245,52.099888]},"properties":{"category":"bus_halte","name":"Putkop","operator":""}},{"type":"Feature","geometry":{"type":"Point","coordinates":[4.938946,52.103273]},"properties":{"category":"bus_halte","name":"Gerverscop","operator":""}},{"type":"Feature","geometry":{"type":"Point","coordinates":[4.93854,52.103669]},"properties":{"category":"bus_halte","name":"Gerverscop","operator":""}},{"type":"Feature","geometry":{"type":"Point","coordinates":[4.967313,52.088723]},"properties":{"category":"bus_halte","name":"Kastanjelaan","operator":""}},{"type":"Feature","geometry":{"type":"Point","coordinates":[4.96794,52.088853]},"properties":{"category":"bus_halte","name":"Kastanjelaan","operator":""}},{"type":"Feature","geometry":{"type":"Point","coordinates":[4.973963,52.088501]},"properties":{"category":"bus_halte","name":"Mariënberg","operator":""}},{"type":"Feature","geometry":{"type":"Point","coordinates":[4.97433,52.088338]},"properties":{"category":"bus_halte","name":"Mariënberg","operator":""}},{"type":"Feature","geometry":{"type":"Point","coordinates":[4.97966,52.088214]},"properties":{"category":"bus_halte","name":"Knorrenburg","operator":""}},{"type":"Feature","geometry":{"type":"Point","coordinates":[4.980284,52.088176]},"properties":{"category":"bus_halte","name":"Knorrenburg","operator":""}},{"type":"Feature","geometry":{"type":"Point","coordinates":[4.984882,52.089053]},"properties":{"category":"bus_halte","name":"Utrechtsestraatweg 16","operator":""}},{"type":"Feature","geometry":{"type":"Point","coordinates":[4.984952,52.08897]},"properties":{"category":"bus_halte","name":"Utrechtsestraatweg 16","operator":""}},{"type":"Feature","geometry":{"type":"Point","coordinates":[4.990688,52.09069]},"properties":{"category":"bus_halte","name":"Heldam","operator":""}},{"type":"Feature","geometry":{"type":"Point","coordinates":[4.989766,52.090483]},"properties":{"category":"bus_halte","name":"Heldam","operator":""}},{"type":"Feature","geometry":{"type":"Point","coordinates":[5.003568,52.088535]},"properties":{"category":"bus_halte","name":"Alpha Omega","operator":""}},{"type":"Feature","geometry":{"type":"Point","coordinates":[5.003391,52.088654]},"properties":{"category":"bus_halte","name":"Alpha Omega","operator":""}},{"type":"Feature","geometry":{"type":"Point","coordinates":[4.927943,52.135416]},"properties":{"category":"bus_halte","name":"Jacobushoeve","operator":""}},{"type":"Feature","geometry":{"type":"Point","coordinates":[4.934882,52.138002]},"properties":{"category":"bus_halte","name":"Hollandse Kade","operator":""}},{"type":"Feature","geometry":{"type":"Point","coordinates":[4.855199,52.127994]},"properties":{"category":"bus_halte","name":"Milandweg 67","operator":""}},{"type":"Feature","geometry":{"type":"Point","coordinates":[4.842012,52.118662]},"properties":{"category":"bus_halte","name":"Branderpad","operator":""}},{"type":"Feature","geometry":{"type":"Point","coordinates":[4.861903,52.136924]},"properties":{"category":"bus_halte","name":"Oude Meye","operator":""}},{"type":"Feature","geometry":{"type":"Point","coordinates":[4.84188,52.118752]},"properties":{"category":"bus_halte","name":"Branderpad","operator":""}},{"type":"Feature","geometry":{"type":"Point","coordinates":[4.861803,52.137118]},"properties":{"category":"bus_halte","name":"Oude Meye","operator":""}},{"type":"Feature","geometry":{"type":"Point","coordinates":[4.869183,52.087437]},"properties":{"category":"bus_halte","name":"Gebroeders Marisstraat","operator":""}},{"type":"Feature","geometry":{"type":"Point","coordinates":[4.855651,52.128309]},"properties":{"category":"bus_halte","name":"Milandweg 67","operator":""}},{"type":"Feature","geometry":{"type":"Point","coordinates":[4.862902,52.086488]},"properties":{"category":"bus_halte","name":"Blokhuisbrug","operator":""}},{"type":"Feature","geometry":{"type":"Point","coordinates":[4.861423,52.089575]},"properties":{"category":"bus_halte","name":"Zegveldse Uitweg","operator":""}},{"type":"Feature","geometry":{"type":"Point","coordinates":[4.904565,52.090365]},"properties":{"category":"bus_halte","name":"Aalberselanen","operator":""}},{"type":"Feature","geometry":{"type":"Point","coordinates":[4.904237,52.090381]},"properties":{"category":"bus_halte","name":"Aalberselanen","operator":""}},{"type":"Feature","geometry":{"type":"Point","coordinates":[4.893305,52.079859]},"properties":{"category":"bus_halte","name":"Sint Antonius Ziekenhuis","operator":""}},{"type":"Feature","geometry":{"type":"Point","coordinates":[4.893139,52.080388]},"properties":{"category":"bus_halte","name":"Sint Antonius Ziekenhuis","operator":""}},{"type":"Feature","geometry":{"type":"Point","coordinates":[4.887055,52.090418]},"properties":{"category":"bus_halte","name":"Kalsbeek College","operator":""}},{"type":"Feature","geometry":{"type":"Point","coordinates":[4.892873,52.084178]},"properties":{"category":"bus_halte","name":"Station Zuidzijde","operator":""}},{"type":"Feature","geometry":{"type":"Point","coordinates":[4.830378,52.077452]},"properties":{"category":"bus_halte","name":"van Duijn","operator":"Qbuzz"}},{"type":"Feature","geometry":{"type":"Point","coordinates":[4.89263,52.084272]},"properties":{"category":"bus_halte","name":"Station Zuidzijde","operator":""}},{"type":"Feature","geometry":{"type":"Point","coordinates":[4.901696,52.074267]},"properties":{"category":"bus_halte","name":"Viaduct","operator":""}},{"type":"Feature","geometry":{"type":"Point","coordinates":[4.913709,52.089927]},"properties":{"category":"bus_halte","name":"Veluwemeer","operator":""}},{"type":"Feature","geometry":{"type":"Point","coordinates":[4.913848,52.089813]},"properties":{"category":"bus_halte","name":"Veluwemeer","operator":""}},{"type":"Feature","geometry":{"type":"Point","coordinates":[4.909728,52.088668]},"properties":{"category":"bus_halte","name":"Minkema College","operator":""}},{"type":"Feature","geometry":{"type":"Point","coordinates":[4.892659,52.085585]},"properties":{"category":"bus_halte","name":"Station","operator":""}},{"type":"Feature","geometry":{"type":"Point","coordinates":[4.892498,52.085543]},"properties":{"category":"bus_halte","name":"Station","operator":""}},{"type":"Feature","geometry":{"type":"Point","coordinates":[4.892582,52.085561]},"properties":{"category":"bus_halte","name":"Station","operator":""}},{"type":"Feature","geometry":{"type":"Point","coordinates":[4.883036,52.087225]},"properties":{"category":"bus_halte","name":"Westdam","operator":""}},{"type":"Feature","geometry":{"type":"Point","coordinates":[4.892869,52.114323]},"properties":{"category":"bus_halte","name":"Overzicht","operator":""}},{"type":"Feature","geometry":{"type":"Point","coordinates":[4.892555,52.113962]},"properties":{"category":"bus_halte","name":"Overzicht","operator":""}},{"type":"Feature","geometry":{"type":"Point","coordinates":[4.893934,52.125347]},"properties":{"category":"bus_halte","name":"Van Teylingenweg","operator":""}},{"type":"Feature","geometry":{"type":"Point","coordinates":[4.894001,52.125365]},"properties":{"category":"bus_halte","name":"Van Teylingenweg","operator":""}},{"type":"Feature","geometry":{"type":"Point","coordinates":[4.906823,52.129222]},"properties":{"category":"bus_halte","name":"Kameryck","operator":""}},{"type":"Feature","geometry":{"type":"Point","coordinates":[4.913298,52.129917]},"properties":{"category":"bus_halte","name":"Teckopseweg","operator":""}},{"type":"Feature","geometry":{"type":"Point","coordinates":[4.887788,52.086298]},"properties":{"category":"bus_halte","name":"Plantsoen","operator":""}},{"type":"Feature","geometry":{"type":"Point","coordinates":[4.911655,52.094365]},"properties":{"category":"bus_halte","name":"Breeveld","operator":""}},{"type":"Feature","geometry":{"type":"Point","coordinates":[4.911746,52.093998]},"properties":{"category":"bus_halte","name":"Breeveld","operator":""}},{"type":"Feature","geometry":{"type":"Point","coordinates":[4.893896,52.090482]},"properties":{"category":"bus_halte","name":"Bethlehemkerk","operator":""}},{"type":"Feature","geometry":{"type":"Point","coordinates":[4.893759,52.090302]},"properties":{"category":"bus_halte","name":"Bethlehemkerk","operator":""}},{"type":"Feature","geometry":{"type":"Point","coordinates":[4.913456,52.078224]},"properties":{"category":"bus_halte","name":"Oostzee","operator":""}},{"type":"Feature","geometry":{"type":"Point","coordinates":[4.909078,52.076707]},"properties":{"category":"bus_halte","name":"Finse golf","operator":""}},{"type":"Feature","geometry":{"type":"Point","coordinates":[4.906007,52.075606]},"properties":{"category":"bus_halte","name":"Golf van Biskaje","operator":""}},{"type":"Feature","geometry":{"type":"Point","coordinates":[4.90302,52.077775]},"properties":{"category":"bus_halte","name":"Schillingdreef","operator":""}},{"type":"Feature","geometry":{"type":"Point","coordinates":[4.906649,52.08008]},"properties":{"category":"bus_halte","name":"Snellerpad","operator":""}},{"type":"Feature","geometry":{"type":"Point","coordinates":[4.90517,52.081871]},"properties":{"category":"bus_halte","name":"Bergstraat","operator":""}},{"type":"Feature","geometry":{"type":"Point","coordinates":[4.899516,52.082583]},"properties":{"category":"bus_halte","name":"Amsterdamlaan","operator":""}},{"type":"Feature","geometry":{"type":"Point","coordinates":[4.903888,52.083828]},"properties":{"category":"bus_halte","name":"Harzstraat","operator":""}},{"type":"Feature","geometry":{"type":"Point","coordinates":[4.911235,52.084978]},"properties":{"category":"bus_halte","name":"Beyenlaan","operator":""}},{"type":"Feature","geometry":{"type":"Point","coordinates":[4.91646,52.086971]},"properties":{"category":"bus_halte","name":"Kikkerbrug","operator":""}},{"type":"Feature","geometry":{"type":"Point","coordinates":[4.877286,52.091468]},"properties":{"category":"bus_halte","name":"Hans Memlingstraat","operator":""}},{"type":"Feature","geometry":{"type":"Point","coordinates":[4.883755,52.091219]},"properties":{"category":"bus_halte","name":"Kievitstraat","operator":""}},{"type":"Feature","geometry":{"type":"Point","coordinates":[4.870277,52.090847]},"properties":{"category":"bus_halte","name":"Ferdinand Bolstraat","operator":""}},{"type":"Feature","geometry":{"type":"Point","coordinates":[4.864494,52.089343]},"properties":{"category":"bus_halte","name":"Floris Versterstraat","operator":""}},{"type":"Feature","geometry":{"type":"Point","coordinates":[4.85714,52.080711]},"properties":{"category":"bus_halte","name":"Stuurboordlaan","operator":""}},{"type":"Feature","geometry":{"type":"Point","coordinates":[4.876746,52.081967]},"properties":{"category":"bus_halte","name":"Boerendijk","operator":""}},{"type":"Feature","geometry":{"type":"Point","coordinates":[4.86746,52.087245]},"properties":{"category":"bus_halte","name":"Gebroeders Marisstraat","operator":""}},{"type":"Feature","geometry":{"type":"Point","coordinates":[4.862795,52.086613]},"properties":{"category":"bus_halte","name":"Blokhuisbrug","operator":""}},{"type":"Feature","geometry":{"type":"Point","coordinates":[4.861544,52.089601]},"properties":{"category":"bus_halte","name":"Zegveldse Uitweg","operator":""}},{"type":"Feature","geometry":{"type":"Point","coordinates":[4.858458,52.09893]},"properties":{"category":"bus_halte","name":"Hoofdweg 189","operator":""}},{"type":"Feature","geometry":{"type":"Point","coordinates":[4.858548,52.098978]},"properties":{"category":"bus_halte","name":"Hoofdweg 189","operator":""}},{"type":"Feature","geometry":{"type":"Point","coordinates":[4.85482,52.101747]},"properties":{"category":"bus_halte","name":"Hoofdweg 181","operator":""}},{"type":"Feature","geometry":{"type":"Point","coordinates":[4.85492,52.10179]},"properties":{"category":"bus_halte","name":"Hoofdweg 181","operator":""}},{"type":"Feature","geometry":{"type":"Point","coordinates":[4.849111,52.106184]},"properties":{"category":"bus_halte","name":"Hoofdweg 161","operator":""}},{"type":"Feature","geometry":{"type":"Point","coordinates":[4.84915,52.106257]},"properties":{"category":"bus_halte","name":"Hoofdweg 161","operator":""}},{"type":"Feature","geometry":{"type":"Point","coordinates":[4.845337,52.109207]},"properties":{"category":"bus_halte","name":"Hoofdweg 143","operator":""}},{"type":"Feature","geometry":{"type":"Point","coordinates":[4.845253,52.10917]},"properties":{"category":"bus_halte","name":"Hoofdweg 143","operator":""}},{"type":"Feature","geometry":{"type":"Point","coordinates":[4.841894,52.112042]},"properties":{"category":"bus_halte","name":"N.H. Kerk","operator":""}},{"type":"Feature","geometry":{"type":"Point","coordinates":[4.841934,52.11188]},"properties":{"category":"bus_halte","name":"N.H. Kerk","operator":""}},{"type":"Feature","geometry":{"type":"Point","coordinates":[4.837449,52.115087]},"properties":{"category":"bus_halte","name":"Hoek","operator":""}},{"type":"Feature","geometry":{"type":"Point","coordinates":[4.837369,52.115015]},"properties":{"category":"bus_halte","name":"Hoek","operator":""}},{"type":"Feature","geometry":{"type":"Point","coordinates":[4.807998,52.128506]},"properties":{"category":"bus_halte","name":"Middenweg","operator":""}},{"type":"Feature","geometry":{"type":"Point","coordinates":[4.80791,52.128532]},"properties":{"category":"bus_halte","name":"Middenweg","operator":""}},{"type":"Feature","geometry":{"type":"Point","coordinates":[4.891602,52.080782]},"properties":{"category":"bus_halte","name":"Ziekenhuis","operator":""}},{"type":"Feature","geometry":{"type":"Point","coordinates":[4.891947,52.080802]},"properties":{"category":"bus_halte","name":"Ziekenhuis","operator":""}},{"type":"Feature","geometry":{"type":"Point","coordinates":[4.934956,52.13793]},"properties":{"category":"bus_halte","name":"Hollandse Kade","operator":""}},{"type":"Feature","geometry":{"type":"Point","coordinates":[4.928073,52.135377]},"properties":{"category":"bus_halte","name":"Jacobushoeve","operator":""}},{"type":"Feature","geometry":{"type":"Point","coordinates":[4.920696,52.132652]},"properties":{"category":"bus_halte","name":"De Winter","operator":""}},{"type":"Feature","geometry":{"type":"Point","coordinates":[4.892728,52.112043]},"properties":{"category":"bus_halte","name":"Centrum","operator":""}},{"type":"Feature","geometry":{"type":"Point","coordinates":[4.892576,52.112026]},"properties":{"category":"bus_halte","name":"Centrum","operator":""}},{"type":"Feature","geometry":{"type":"Point","coordinates":[4.830385,52.077548]},"properties":{"category":"bus_halte","name":"van Duijn","operator":"Qbuzz"}},{"type":"Feature","geometry":{"type":"Point","coordinates":[4.854308,52.086597]},"properties":{"category":"bus_halte","name":"In het Bos","operator":""}},{"type":"Feature","geometry":{"type":"Point","coordinates":[4.854294,52.086534]},"properties":{"category":"bus_halte","name":"In het Bos","operator":""}},{"type":"Feature","geometry":{"type":"Point","coordinates":[4.857044,52.08619]},"properties":{"category":"bus_halte","name":"Gildenweg","operator":""}},{"type":"Feature","geometry":{"type":"Point","coordinates":[4.857109,52.086431]},"properties":{"category":"bus_halte","name":"Gildenweg","operator":""}},{"type":"Feature","geometry":{"type":"Point","coordinates":[4.892487,52.085088]},"properties":{"category":"ov_knooppunt","name":"Woerden","operator":""}},{"type":"Feature","geometry":{"type":"Point","coordinates":[4.892566,52.085597]},"properties":{"category":"ov_knooppunt","name":"Station","operator":""}},{"type":"Feature","geometry":{"type":"Point","coordinates":[4.888615,52.079098]},"properties":{"category":"gemeentehuis","name":"Gemeentehuis Woerden","operator":"Gemeente Woerden"}},{"type":"Feature","geometry":{"type":"Point","coordinates":[4.865723,52.083151]},"properties":{"category":"inzamelpunt","name":"Milieustraat Gemeente Woerden","operator":""}},{"type":"Feature","geometry":{"type":"Point","coordinates":[4.883265,52.086639]},"properties":{"category":"bibliotheek","name":"de Bibliotheek Woerden","operator":"Bibliotheek Het Groene Hart"}},{"type":"Feature","geometry":{"type":"Point","coordinates":[4.959078,52.091456]},"properties":{"category":"bibliotheek","name":"de Bibliotheek Harmelen","operator":"Bibliotheek Het Groene Hart"}},{"type":"Feature","geometry":{"type":"Point","coordinates":[4.893171,52.114596]},"properties":{"category":"bibliotheek","name":"de Bibliotheek Kamerik","operator":"Bibliotheek Het Groene Hart"}},{"type":"Feature","geometry":{"type":"Point","coordinates":[4.836733,52.115732]},"properties":{"category":"bibliotheek","name":"de Bibliotheek Zegveld","operator":"Bibliotheek Het Groene Hart"}},{"type":"Feature","geometry":{"type":"Point","coordinates":[4.891235,52.079555]},"properties":{"category":"ziekenhuis","name":"Sint Antonius Woerden","operator":""}},{"type":"Feature","geometry":{"type":"Point","coordinates":[4.837615,52.140522]},"properties":{"category":"transformatorhuisje","name":"","operator":""}},{"type":"Feature","geometry":{"type":"Point","coordinates":[4.886391,52.084899]},"properties":{"category":"universiteit","name":"Volksuniversiteit Het Groene Hart","operator":""}},{"type":"Feature","geometry":{"type":"Point","coordinates":[4.896778,52.084567]},"properties":{"category":"hogeschool","name":"Minkema College","operator":""}},{"type":"Feature","geometry":{"type":"Point","coordinates":[4.894568,52.079751]},"properties":{"category":"hogeschool","name":"mboRijnland","operator":"mboRijnland"}},{"type":"Feature","geometry":{"type":"Point","coordinates":[4.973493,52.095312]},"properties":{"category":"sportveld","name":"Sportpark Bijleveld","operator":""}},{"type":"Feature","geometry":{"type":"Point","coordinates":[4.962255,52.083757]},"properties":{"category":"sportveld","name":"","operator":""}},{"type":"Feature","geometry":{"type":"Point","coordinates":[4.871398,52.073908]},"properties":{"category":"sportveld","name":"Sportpark Cromwijck","operator":""}},{"type":"Feature","geometry":{"type":"Point","coordinates":[4.917752,52.080468]},"properties":{"category":"sportveld","name":"","operator":""}},{"type":"Feature","geometry":{"type":"Point","coordinates":[4.851051,52.086182]},"properties":{"category":"sportveld","name":"","operator":""}},{"type":"Feature","geometry":{"type":"Point","coordinates":[4.904904,52.077504]},"properties":{"category":"winkelcentrum","name":"Woonboulevard Woerden","operator":""}},{"type":"Feature","geometry":{"type":"Point","coordinates":[4.894976,52.075836]},"properties":{"category":"fietsenstalling","name":"","operator":""}},{"type":"Feature","geometry":{"type":"Point","coordinates":[4.897907,52.077854]},"properties":{"category":"fietsenstalling","name":"Zwerfkei","operator":"Zwerfkei"}},{"type":"Feature","geometry":{"type":"Point","coordinates":[4.979596,52.08272]},"properties":{"category":"fietsenstalling","name":"","operator":""}},{"type":"Feature","geometry":{"type":"Point","coordinates":[4.893141,52.085342]},"properties":{"category":"fietsenstalling","name":"","operator":""}},{"type":"Feature","geometry":{"type":"Point","coordinates":[4.902508,52.075078]},"properties":{"category":"fietsenstalling","name":"","operator":""}},{"type":"Feature","geometry":{"type":"Point","coordinates":[4.8883,52.07845]},"properties":{"category":"fietsenstalling","name":"","operator":""}},{"type":"Feature","geometry":{"type":"Point","coordinates":[4.888384,52.082235]},"properties":{"category":"fietsenstalling","name":"","operator":""}},{"type":"Feature","geometry":{"type":"Point","coordinates":[4.888322,52.082197]},"properties":{"category":"fietsenstalling","name":"","operator":""}},{"type":"Feature","geometry":{"type":"Point","coordinates":[4.88772,52.077866]},"properties":{"category":"fietsenstalling","name":"","operator":""}},{"type":"Feature","geometry":{"type":"Point","coordinates":[4.887617,52.077988]},"properties":{"category":"fietsenstalling","name":"","operator":""}},{"type":"Feature","geometry":{"type":"Point","coordinates":[4.889825,52.081516]},"properties":{"category":"fietsenstalling","name":"","operator":""}},{"type":"Feature","geometry":{"type":"Point","coordinates":[4.881768,52.086063]},"properties":{"category":"parkeergarage","name":"Parkeergarage Castellum","operator":""}},{"type":"Feature","geometry":{"type":"Point","coordinates":[4.889552,52.085394]},"properties":{"category":"parkeergarage","name":"","operator":""}},{"type":"Feature","geometry":{"type":"Point","coordinates":[4.872378,52.08542]},"properties":{"category":"parkeergarage","name":"","operator":""}},{"type":"Feature","geometry":{"type":"Point","coordinates":[4.882899,52.085486]},"properties":{"category":"parkeergarage","name":"Parkeergarage Castellum","operator":""}},{"type":"Feature","geometry":{"type":"Point","coordinates":[4.890422,52.081902]},"properties":{"category":"parkeergarage","name":"Parkeergarage De Houttuin","operator":""}},{"type":"Feature","geometry":{"type":"Point","coordinates":[4.886723,52.083285]},"properties":{"category":"parkeergarage","name":"","operator":""}},{"type":"Feature","geometry":{"type":"Point","coordinates":[4.890525,52.081925]},"properties":{"category":"parkeergarage","name":"","operator":""}},{"type":"Feature","geometry":{"type":"Point","coordinates":[4.913798,52.086824]},"properties":{"category":"parkeergarage","name":"","operator":""}},{"type":"Feature","geometry":{"type":"Point","coordinates":[4.892449,52.085313]},"properties":{"category":"p_and_r","name":"Station Woerden","operator":""}},{"type":"Feature","geometry":{"type":"Point","coordinates":[4.893727,52.085886]},"properties":{"category":"p_and_r","name":"P+R terrein Spoorlaan","operator":"Q-Park"}}]}