{"type":"FeatureCollection","metadata":{"gemeente":"Woudenberg","slug":"woudenberg","by_category":{"bus_halte":18,"gemeentehuis":1,"bibliotheek":1,"sportveld":1},"total":21},"features":[{"type":"Feature","geometry":{"type":"Point","coordinates":[5.414528,52.083035]},"properties":{"category":"bus_halte","name":"De Poort","operator":""}},{"type":"Feature","geometry":{"type":"Point","coordinates":[5.414877,52.083318]},"properties":{"category":"bus_halte","name":"De Poort","operator":""}},{"type":"Feature","geometry":{"type":"Point","coordinates":[5.416996,52.088333]},"properties":{"category":"bus_halte","name":"Geerestein","operator":""}},{"type":"Feature","geometry":{"type":"Point","coordinates":[5.417603,52.089169]},"properties":{"category":"bus_halte","name":"Geerestein","operator":""}},{"type":"Feature","geometry":{"type":"Point","coordinates":[5.436885,52.078562]},"properties":{"category":"bus_halte","name":"Zegheweg","operator":""}},{"type":"Feature","geometry":{"type":"Point","coordinates":[5.435944,52.078247]},"properties":{"category":"bus_halte","name":"Zegheweg","operator":""}},{"type":"Feature","geometry":{"type":"Point","coordinates":[5.417589,52.09898]},"properties":{"category":"bus_halte","name":"De Boom","operator":""}},{"type":"Feature","geometry":{"type":"Point","coordinates":[5.4188,52.098385]},"properties":{"category":"bus_halte","name":"De Boom","operator":""}},{"type":"Feature","geometry":{"type":"Point","coordinates":[5.449169,52.080231]},"properties":{"category":"bus_halte","name":"Spoorlaan","operator":""}},{"type":"Feature","geometry":{"type":"Point","coordinates":[5.450189,52.080356]},"properties":{"category":"bus_halte","name":"Spoorlaan","operator":""}},{"type":"Feature","geometry":{"type":"Point","coordinates":[5.456228,52.081538]},"properties":{"category":"bus_halte","name":"Pothbrug","operator":""}},{"type":"Feature","geometry":{"type":"Point","coordinates":[5.457397,52.081607]},"properties":{"category":"bus_halte","name":"Pothbrug","operator":""}},{"type":"Feature","geometry":{"type":"Point","coordinates":[5.409592,52.069342]},"properties":{"category":"bus_halte","name":"Griftdijk","operator":""}},{"type":"Feature","geometry":{"type":"Point","coordinates":[5.384549,52.083405]},"properties":{"category":"bus_halte","name":"De Heygraeff","operator":""}},{"type":"Feature","geometry":{"type":"Point","coordinates":[5.412664,52.078991]},"properties":{"category":"bus_halte","name":"Laanzicht","operator":""}},{"type":"Feature","geometry":{"type":"Point","coordinates":[5.412934,52.078934]},"properties":{"category":"bus_halte","name":"Laanzicht","operator":""}},{"type":"Feature","geometry":{"type":"Point","coordinates":[5.383739,52.083192]},"properties":{"category":"bus_halte","name":"De Heygraeff","operator":""}},{"type":"Feature","geometry":{"type":"Point","coordinates":[5.425979,52.076415]},"properties":{"category":"bus_halte","name":"Europaweg","operator":""}},{"type":"Feature","geometry":{"type":"Point","coordinates":[5.414797,52.08133]},"properties":{"category":"gemeentehuis","name":"Gemeentehuis Woudenberg","operator":"Gemeente Woudenberg"}},{"type":"Feature","geometry":{"type":"Point","coordinates":[5.417576,52.081738]},"properties":{"category":"bibliotheek","name":"de Bibliotheek Woudenberg","operator":"Bibliotheek Eemland"}},{"type":"Feature","geometry":{"type":"Point","coordinates":[5.405378,52.087547]},"properties":{"category":"sportveld","name":"Sportpark De Grift","operator":""}}]}