{"type":"FeatureCollection","metadata":{"gemeente":"Zaltbommel","slug":"zaltbommel","by_category":{"bus_halte":133,"transformatorhuisje":24,"sportveld":7,"bibliotheek":4,"fietsenstalling":3,"ov_knooppunt":2,"gemeentehuis":2,"inzamelpunt":2,"ns_station":1,"middelbare_school":1,"winkelcentrum":1,"parkeergarage":1,"p_and_r":1},"total":182},"features":[{"type":"Feature","geometry":{"type":"Point","coordinates":[5.263382,51.807803]},"properties":{"category":"ns_station","name":"Zaltbommel","operator":""}},{"type":"Feature","geometry":{"type":"Point","coordinates":[5.23353,51.800865]},"properties":{"category":"bus_halte","name":"Plaatsmajoor","operator":""}},{"type":"Feature","geometry":{"type":"Point","coordinates":[5.232317,51.803516]},"properties":{"category":"bus_halte","name":"Cambium College","operator":""}},{"type":"Feature","geometry":{"type":"Point","coordinates":[5.238839,51.808292]},"properties":{"category":"bus_halte","name":"Kloosterwiel","operator":""}},{"type":"Feature","geometry":{"type":"Point","coordinates":[5.239599,51.808353]},"properties":{"category":"bus_halte","name":"Kloosterwiel","operator":""}},{"type":"Feature","geometry":{"type":"Point","coordinates":[5.245043,51.812863]},"properties":{"category":"bus_halte","name":"Karstraat","operator":""}},{"type":"Feature","geometry":{"type":"Point","coordinates":[5.245256,51.812851]},"properties":{"category":"bus_halte","name":"Karstraat","operator":""}},{"type":"Feature","geometry":{"type":"Point","coordinates":[5.262908,51.807823]},"properties":{"category":"bus_halte","name":"Station","operator":""}},{"type":"Feature","geometry":{"type":"Point","coordinates":[5.097837,51.819837]},"properties":{"category":"bus_halte","name":"Marktplein","operator":""}},{"type":"Feature","geometry":{"type":"Point","coordinates":[5.122528,51.80586]},"properties":{"category":"bus_halte","name":"Meidijk","operator":""}},{"type":"Feature","geometry":{"type":"Point","coordinates":[5.126142,51.807377]},"properties":{"category":"bus_halte","name":"Kweldijk","operator":""}},{"type":"Feature","geometry":{"type":"Point","coordinates":[5.1957,51.800256]},"properties":{"category":"bus_halte","name":"Ridderstraat","operator":""}},{"type":"Feature","geometry":{"type":"Point","coordinates":[5.227096,51.80107]},"properties":{"category":"bus_halte","name":"Leutsestraat","operator":""}},{"type":"Feature","geometry":{"type":"Point","coordinates":[5.233346,51.800841]},"properties":{"category":"bus_halte","name":"Plaatsmajoor","operator":""}},{"type":"Feature","geometry":{"type":"Point","coordinates":[5.232426,51.803548]},"properties":{"category":"bus_halte","name":"Cambium College","operator":""}},{"type":"Feature","geometry":{"type":"Point","coordinates":[5.25111,51.810583]},"properties":{"category":"bus_halte","name":"De Poorterij","operator":""}},{"type":"Feature","geometry":{"type":"Point","coordinates":[5.255432,51.808447]},"properties":{"category":"bus_halte","name":"Hugo de Grootstraat","operator":""}},{"type":"Feature","geometry":{"type":"Point","coordinates":[5.246231,51.807725]},"properties":{"category":"bus_halte","name":"Hoogaarsstraat","operator":""}},{"type":"Feature","geometry":{"type":"Point","coordinates":[5.24588,51.807824]},"properties":{"category":"bus_halte","name":"Hoogaarsstraat","operator":""}},{"type":"Feature","geometry":{"type":"Point","coordinates":[5.094535,51.819749]},"properties":{"category":"bus_halte","name":"Flegelstraat","operator":""}},{"type":"Feature","geometry":{"type":"Point","coordinates":[5.094112,51.819776]},"properties":{"category":"bus_halte","name":"Flegelstraat","operator":""}},{"type":"Feature","geometry":{"type":"Point","coordinates":[5.092318,51.818135]},"properties":{"category":"bus_halte","name":"Jonker Aartendam","operator":""}},{"type":"Feature","geometry":{"type":"Point","coordinates":[5.092238,51.8182]},"properties":{"category":"bus_halte","name":"Jonker Aartendam","operator":""}},{"type":"Feature","geometry":{"type":"Point","coordinates":[5.090591,51.813993]},"properties":{"category":"bus_halte","name":"Weitjesweg","operator":""}},{"type":"Feature","geometry":{"type":"Point","coordinates":[5.09078,51.814]},"properties":{"category":"bus_halte","name":"Weitjesweg","operator":""}},{"type":"Feature","geometry":{"type":"Point","coordinates":[5.135548,51.807116]},"properties":{"category":"bus_halte","name":"Centrum","operator":""}},{"type":"Feature","geometry":{"type":"Point","coordinates":[5.135368,51.807184]},"properties":{"category":"bus_halte","name":"Centrum","operator":""}},{"type":"Feature","geometry":{"type":"Point","coordinates":[5.255217,51.80878]},"properties":{"category":"bus_halte","name":"Hugo de Grootstraat","operator":""}},{"type":"Feature","geometry":{"type":"Point","coordinates":[5.201799,51.801028]},"properties":{"category":"bus_halte","name":"Ridderhof","operator":""}},{"type":"Feature","geometry":{"type":"Point","coordinates":[5.201899,51.801088]},"properties":{"category":"bus_halte","name":"Ridderhof","operator":""}},{"type":"Feature","geometry":{"type":"Point","coordinates":[5.227055,51.801185]},"properties":{"category":"bus_halte","name":"Leutsestraat","operator":""}},{"type":"Feature","geometry":{"type":"Point","coordinates":[5.098146,51.819806]},"properties":{"category":"bus_halte","name":"Marktplein","operator":""}},{"type":"Feature","geometry":{"type":"Point","coordinates":[5.251593,51.809441]},"properties":{"category":"bus_halte","name":"Marten van Rossemsingel","operator":""}},{"type":"Feature","geometry":{"type":"Point","coordinates":[5.251844,51.809931]},"properties":{"category":"bus_halte","name":"Marten van Rossemsingel","operator":""}},{"type":"Feature","geometry":{"type":"Point","coordinates":[5.122451,51.805885]},"properties":{"category":"bus_halte","name":"Meidijk","operator":""}},{"type":"Feature","geometry":{"type":"Point","coordinates":[5.11372,51.808669]},"properties":{"category":"bus_halte","name":"Molenkampseweg","operator":""}},{"type":"Feature","geometry":{"type":"Point","coordinates":[5.113509,51.808667]},"properties":{"category":"bus_halte","name":"Molenkampseweg","operator":""}},{"type":"Feature","geometry":{"type":"Point","coordinates":[5.126004,51.807336]},"properties":{"category":"bus_halte","name":"Kweldijk","operator":""}},{"type":"Feature","geometry":{"type":"Point","coordinates":[5.208014,51.799657]},"properties":{"category":"bus_halte","name":"Prins Willem Alexanderstraat","operator":""}},{"type":"Feature","geometry":{"type":"Point","coordinates":[5.20821,51.799704]},"properties":{"category":"bus_halte","name":"Prins Willem Alexanderstraat","operator":""}},{"type":"Feature","geometry":{"type":"Point","coordinates":[5.195626,51.800327]},"properties":{"category":"bus_halte","name":"Ridderstraat","operator":""}},{"type":"Feature","geometry":{"type":"Point","coordinates":[5.239227,51.785661]},"properties":{"category":"bus_halte","name":"Dwarsstraat","operator":""}},{"type":"Feature","geometry":{"type":"Point","coordinates":[5.239332,51.785646]},"properties":{"category":"bus_halte","name":"Dwarsstraat","operator":""}},{"type":"Feature","geometry":{"type":"Point","coordinates":[5.256277,51.799499]},"properties":{"category":"bus_halte","name":"Gemeentekantoor","operator":""}},{"type":"Feature","geometry":{"type":"Point","coordinates":[5.256123,51.799411]},"properties":{"category":"bus_halte","name":"Gemeentekantoor","operator":""}},{"type":"Feature","geometry":{"type":"Point","coordinates":[5.239327,51.789099]},"properties":{"category":"bus_halte","name":"Groenestraat","operator":""}},{"type":"Feature","geometry":{"type":"Point","coordinates":[5.23944,51.789126]},"properties":{"category":"bus_halte","name":"Groenestraat","operator":""}},{"type":"Feature","geometry":{"type":"Point","coordinates":[5.249082,51.794323]},"properties":{"category":"bus_halte","name":"N322/Carpoolplaats","operator":""}},{"type":"Feature","geometry":{"type":"Point","coordinates":[5.249356,51.79434]},"properties":{"category":"bus_halte","name":"N322/Carpoolplaats","operator":""}},{"type":"Feature","geometry":{"type":"Point","coordinates":[5.254721,51.796629]},"properties":{"category":"bus_halte","name":"Hotel Zaltbommel","operator":""}},{"type":"Feature","geometry":{"type":"Point","coordinates":[5.254875,51.796607]},"properties":{"category":"bus_halte","name":"Hotel Zaltbommel","operator":""}},{"type":"Feature","geometry":{"type":"Point","coordinates":[5.142601,51.744632]},"properties":{"category":"bus_halte","name":"Nederhemert-Zuid","operator":""}},{"type":"Feature","geometry":{"type":"Point","coordinates":[5.142439,51.744689]},"properties":{"category":"bus_halte","name":"Nederhemert-Zuid","operator":""}},{"type":"Feature","geometry":{"type":"Point","coordinates":[5.242798,51.801808]},"properties":{"category":"bus_halte","name":"Politiebureau","operator":""}},{"type":"Feature","geometry":{"type":"Point","coordinates":[5.241271,51.802398]},"properties":{"category":"bus_halte","name":"Wielkamp","operator":""}},{"type":"Feature","geometry":{"type":"Point","coordinates":[5.256401,51.804853]},"properties":{"category":"bus_halte","name":"Oude Bosscheweg","operator":""}},{"type":"Feature","geometry":{"type":"Point","coordinates":[5.256245,51.805132]},"properties":{"category":"bus_halte","name":"Oude Bosscheweg","operator":""}},{"type":"Feature","geometry":{"type":"Point","coordinates":[5.251091,51.80199]},"properties":{"category":"bus_halte","name":"Fiep Westendorplaan","operator":""}},{"type":"Feature","geometry":{"type":"Point","coordinates":[5.250814,51.810861]},"properties":{"category":"bus_halte","name":"De Poorterij","operator":""}},{"type":"Feature","geometry":{"type":"Point","coordinates":[5.251854,51.795758]},"properties":{"category":"bus_halte","name":"Wichard van Pontlaan","operator":""}},{"type":"Feature","geometry":{"type":"Point","coordinates":[5.251763,51.795897]},"properties":{"category":"bus_halte","name":"Wichard van Pontlaan","operator":""}},{"type":"Feature","geometry":{"type":"Point","coordinates":[5.258995,51.797967]},"properties":{"category":"bus_halte","name":"Van Voordenpark","operator":""}},{"type":"Feature","geometry":{"type":"Point","coordinates":[5.274786,51.798385]},"properties":{"category":"bus_halte","name":"Bommelsekade","operator":""}},{"type":"Feature","geometry":{"type":"Point","coordinates":[5.27485,51.798565]},"properties":{"category":"bus_halte","name":"Bommelsekade","operator":""}},{"type":"Feature","geometry":{"type":"Point","coordinates":[5.274593,51.801226]},"properties":{"category":"bus_halte","name":"Valeton","operator":""}},{"type":"Feature","geometry":{"type":"Point","coordinates":[5.274823,51.801345]},"properties":{"category":"bus_halte","name":"Valeton","operator":""}},{"type":"Feature","geometry":{"type":"Point","coordinates":[5.17248,51.762651]},"properties":{"category":"bus_halte","name":"Kapelstraat","operator":""}},{"type":"Feature","geometry":{"type":"Point","coordinates":[5.126155,51.783043]},"properties":{"category":"bus_halte","name":"Kerkstraat","operator":""}},{"type":"Feature","geometry":{"type":"Point","coordinates":[5.125979,51.783136]},"properties":{"category":"bus_halte","name":"Kerkstraat","operator":""}},{"type":"Feature","geometry":{"type":"Point","coordinates":[5.077792,51.788884]},"properties":{"category":"bus_halte","name":"Maarten van Rossumweg","operator":""}},{"type":"Feature","geometry":{"type":"Point","coordinates":[5.077696,51.788961]},"properties":{"category":"bus_halte","name":"Maarten van Rossumweg","operator":""}},{"type":"Feature","geometry":{"type":"Point","coordinates":[5.143223,51.771987]},"properties":{"category":"bus_halte","name":"Maas Waalweg","operator":""}},{"type":"Feature","geometry":{"type":"Point","coordinates":[5.143314,51.772061]},"properties":{"category":"bus_halte","name":"Maas Waalweg","operator":""}},{"type":"Feature","geometry":{"type":"Point","coordinates":[5.153087,51.762003]},"properties":{"category":"bus_halte","name":"Molenstraat","operator":""}},{"type":"Feature","geometry":{"type":"Point","coordinates":[5.215022,51.775357]},"properties":{"category":"bus_halte","name":"Molenveldweg","operator":""}},{"type":"Feature","geometry":{"type":"Point","coordinates":[5.251229,51.791654]},"properties":{"category":"bus_halte","name":"Peperstraat","operator":""}},{"type":"Feature","geometry":{"type":"Point","coordinates":[5.251162,51.791729]},"properties":{"category":"bus_halte","name":"Peperstraat","operator":""}},{"type":"Feature","geometry":{"type":"Point","coordinates":[5.241316,51.806205]},"properties":{"category":"bus_halte","name":"Peerboltestraat","operator":""}},{"type":"Feature","geometry":{"type":"Point","coordinates":[5.103443,51.792079]},"properties":{"category":"bus_halte","name":"Vleugeldijk","operator":""}},{"type":"Feature","geometry":{"type":"Point","coordinates":[5.103716,51.792247]},"properties":{"category":"bus_halte","name":"Vleugeldijk","operator":""}},{"type":"Feature","geometry":{"type":"Point","coordinates":[5.129385,51.781647]},"properties":{"category":"bus_halte","name":"Zonnepad","operator":""}},{"type":"Feature","geometry":{"type":"Point","coordinates":[5.129584,51.781652]},"properties":{"category":"bus_halte","name":"Zonnepad","operator":""}},{"type":"Feature","geometry":{"type":"Point","coordinates":[5.220979,51.775652]},"properties":{"category":"bus_halte","name":"Aalderwijksestraat","operator":""}},{"type":"Feature","geometry":{"type":"Point","coordinates":[5.220942,51.7757]},"properties":{"category":"bus_halte","name":"Aalderwijksestraat","operator":""}},{"type":"Feature","geometry":{"type":"Point","coordinates":[5.119387,51.794476]},"properties":{"category":"bus_halte","name":"Capreton","operator":""}},{"type":"Feature","geometry":{"type":"Point","coordinates":[5.119487,51.79453]},"properties":{"category":"bus_halte","name":"Capreton","operator":""}},{"type":"Feature","geometry":{"type":"Point","coordinates":[5.135053,51.775526]},"properties":{"category":"bus_halte","name":"De Rietschoof","operator":""}},{"type":"Feature","geometry":{"type":"Point","coordinates":[5.135091,51.775583]},"properties":{"category":"bus_halte","name":"De Rietschoof","operator":""}},{"type":"Feature","geometry":{"type":"Point","coordinates":[5.187784,51.770135]},"properties":{"category":"bus_halte","name":"Delwijnsestraat","operator":""}},{"type":"Feature","geometry":{"type":"Point","coordinates":[5.187787,51.770312]},"properties":{"category":"bus_halte","name":"Delwijnsestraat","operator":""}},{"type":"Feature","geometry":{"type":"Point","coordinates":[5.080206,51.785843]},"properties":{"category":"bus_halte","name":"Dorpsweg","operator":""}},{"type":"Feature","geometry":{"type":"Point","coordinates":[5.080335,51.785792]},"properties":{"category":"bus_halte","name":"Dorpsweg","operator":""}},{"type":"Feature","geometry":{"type":"Point","coordinates":[5.153029,51.761924]},"properties":{"category":"bus_halte","name":"Molenstraat","operator":""}},{"type":"Feature","geometry":{"type":"Point","coordinates":[5.121579,51.783991]},"properties":{"category":"bus_halte","name":"Maasdijk","operator":""}},{"type":"Feature","geometry":{"type":"Point","coordinates":[5.121689,51.783996]},"properties":{"category":"bus_halte","name":"Maasdijk","operator":""}},{"type":"Feature","geometry":{"type":"Point","coordinates":[5.090046,51.789347]},"properties":{"category":"bus_halte","name":"Maasdijk","operator":""}},{"type":"Feature","geometry":{"type":"Point","coordinates":[5.090115,51.789311]},"properties":{"category":"bus_halte","name":"Maasdijk","operator":""}},{"type":"Feature","geometry":{"type":"Point","coordinates":[5.11484,51.798409]},"properties":{"category":"bus_halte","name":"Leendertdijk","operator":""}},{"type":"Feature","geometry":{"type":"Point","coordinates":[5.114744,51.798492]},"properties":{"category":"bus_halte","name":"Leendertdijk","operator":""}},{"type":"Feature","geometry":{"type":"Point","coordinates":[5.160931,51.76351]},"properties":{"category":"bus_halte","name":"Nieuwstraat","operator":""}},{"type":"Feature","geometry":{"type":"Point","coordinates":[5.160648,51.763518]},"properties":{"category":"bus_halte","name":"Nieuwstraat","operator":""}},{"type":"Feature","geometry":{"type":"Point","coordinates":[5.215032,51.775287]},"properties":{"category":"bus_halte","name":"Molenveldweg","operator":""}},{"type":"Feature","geometry":{"type":"Point","coordinates":[5.131834,51.783693]},"properties":{"category":"bus_halte","name":"E.P. van Ooijenstraat","operator":""}},{"type":"Feature","geometry":{"type":"Point","coordinates":[5.131835,51.783769]},"properties":{"category":"bus_halte","name":"E.P. van Ooijenstraat","operator":""}},{"type":"Feature","geometry":{"type":"Point","coordinates":[5.130858,51.779108]},"properties":{"category":"bus_halte","name":"Goudenregenlaan","operator":""}},{"type":"Feature","geometry":{"type":"Point","coordinates":[5.130934,51.779165]},"properties":{"category":"bus_halte","name":"Goudenregenlaan","operator":""}},{"type":"Feature","geometry":{"type":"Point","coordinates":[5.137418,51.773807]},"properties":{"category":"bus_halte","name":"Hambloksestraat","operator":""}},{"type":"Feature","geometry":{"type":"Point","coordinates":[5.137493,51.773857]},"properties":{"category":"bus_halte","name":"Hambloksestraat","operator":""}},{"type":"Feature","geometry":{"type":"Point","coordinates":[5.168068,51.765315]},"properties":{"category":"bus_halte","name":"Hofstraat","operator":""}},{"type":"Feature","geometry":{"type":"Point","coordinates":[5.167991,51.765376]},"properties":{"category":"bus_halte","name":"Hofstraat","operator":""}},{"type":"Feature","geometry":{"type":"Point","coordinates":[5.172445,51.762575]},"properties":{"category":"bus_halte","name":"Kapelstraat","operator":""}},{"type":"Feature","geometry":{"type":"Point","coordinates":[5.178823,51.803505]},"properties":{"category":"bus_halte","name":"Nieuwaal","operator":""}},{"type":"Feature","geometry":{"type":"Point","coordinates":[5.207859,51.797129]},"properties":{"category":"bus_halte","name":"Middelkampseweg","operator":""}},{"type":"Feature","geometry":{"type":"Point","coordinates":[5.168939,51.768712]},"properties":{"category":"bus_halte","name":"Nederhemertsekade","operator":""}},{"type":"Feature","geometry":{"type":"Point","coordinates":[5.14132,51.80612]},"properties":{"category":"bus_halte","name":"Harenstraat","operator":""}},{"type":"Feature","geometry":{"type":"Point","coordinates":[5.178744,51.803557]},"properties":{"category":"bus_halte","name":"Nieuwaal","operator":""}},{"type":"Feature","geometry":{"type":"Point","coordinates":[5.168962,51.768598]},"properties":{"category":"bus_halte","name":"Nederhemertsekade","operator":""}},{"type":"Feature","geometry":{"type":"Point","coordinates":[5.141339,51.806194]},"properties":{"category":"bus_halte","name":"Harenstraat","operator":""}},{"type":"Feature","geometry":{"type":"Point","coordinates":[5.21384,51.774623]},"properties":{"category":"bus_halte","name":"Molenveldweg","operator":""}},{"type":"Feature","geometry":{"type":"Point","coordinates":[5.115553,51.798094]},"properties":{"category":"bus_halte","name":"Leendertdijk","operator":""}},{"type":"Feature","geometry":{"type":"Point","coordinates":[5.11545,51.798124]},"properties":{"category":"bus_halte","name":"Leendertdijk","operator":""}},{"type":"Feature","geometry":{"type":"Point","coordinates":[5.262957,51.80804]},"properties":{"category":"bus_halte","name":"Station","operator":""}},{"type":"Feature","geometry":{"type":"Point","coordinates":[5.135156,51.805179]},"properties":{"category":"bus_halte","name":"Maas-Waalweg","operator":""}},{"type":"Feature","geometry":{"type":"Point","coordinates":[5.135156,51.805242]},"properties":{"category":"bus_halte","name":"Maas-Waalweg","operator":""}},{"type":"Feature","geometry":{"type":"Point","coordinates":[5.241248,51.802475]},"properties":{"category":"bus_halte","name":"Wielkamp","operator":""}},{"type":"Feature","geometry":{"type":"Point","coordinates":[5.13253,51.784104]},"properties":{"category":"bus_halte","name":"E.P. van Ooijenstraat","operator":""}},{"type":"Feature","geometry":{"type":"Point","coordinates":[5.132339,51.784094]},"properties":{"category":"bus_halte","name":"E.P. van Ooijenstraat","operator":""}},{"type":"Feature","geometry":{"type":"Point","coordinates":[5.091608,51.813694]},"properties":{"category":"bus_halte","name":"Weitjesweg","operator":""}},{"type":"Feature","geometry":{"type":"Point","coordinates":[5.091601,51.813789]},"properties":{"category":"bus_halte","name":"Weitjesweg","operator":""}},{"type":"Feature","geometry":{"type":"Point","coordinates":[5.262925,51.80775]},"properties":{"category":"bus_halte","name":"Station","operator":""}},{"type":"Feature","geometry":{"type":"Point","coordinates":[5.247572,51.800802]},"properties":{"category":"bus_halte","name":"Wichard van Pontlaan","operator":""}},{"type":"Feature","geometry":{"type":"Point","coordinates":[5.048515,51.801261]},"properties":{"category":"bus_halte","name":"Bezoekerscentrum Munnikenland","operator":""}},{"type":"Feature","geometry":{"type":"Point","coordinates":[5.085116,51.806142]},"properties":{"category":"bus_halte","name":"Langekamp","operator":""}},{"type":"Feature","geometry":{"type":"Point","coordinates":[5.026374,51.815037]},"properties":{"category":"bus_halte","name":"Slot Loevestein","operator":""}},{"type":"Feature","geometry":{"type":"Point","coordinates":[5.263382,51.807803]},"properties":{"category":"ov_knooppunt","name":"Zaltbommel","operator":""}},{"type":"Feature","geometry":{"type":"Point","coordinates":[5.159251,51.759153]},"properties":{"category":"ov_knooppunt","name":"Het Veer Nederhemert","operator":""}},{"type":"Feature","geometry":{"type":"Point","coordinates":[5.257047,51.799365]},"properties":{"category":"gemeentehuis","name":"Gemeentekantoor Zaltbommel","operator":"Gemeente Zaltbommel"}},{"type":"Feature","geometry":{"type":"Point","coordinates":[5.24697,51.813691]},"properties":{"category":"gemeentehuis","name":"Zaltbommel","operator":""}},{"type":"Feature","geometry":{"type":"Point","coordinates":[5.267488,51.812848]},"properties":{"category":"inzamelpunt","name":"depot groenafval","operator":""}},{"type":"Feature","geometry":{"type":"Point","coordinates":[5.267541,51.813247]},"properties":{"category":"inzamelpunt","name":"milieustraat Avri","operator":""}},{"type":"Feature","geometry":{"type":"Point","coordinates":[5.232125,51.803458]},"properties":{"category":"bibliotheek","name":"Bibliotheek Zaltbommel","operator":"Bibliotheek Rivierenland"}},{"type":"Feature","geometry":{"type":"Point","coordinates":[5.09277,51.814104]},"properties":{"category":"bibliotheek","name":"Bibliotheekpunt Brakel","operator":"Bibliotheek Rivierenland"}},{"type":"Feature","geometry":{"type":"Point","coordinates":[5.125951,51.78425]},"properties":{"category":"bibliotheek","name":"Bibliotheek Aalst","operator":"Bibliotheek Rivierenland"}},{"type":"Feature","geometry":{"type":"Point","coordinates":[5.166867,51.763628]},"properties":{"category":"bibliotheek","name":"Bibliotheekpunt Nederhemert","operator":"Bibliotheek Rivierenland"}},{"type":"Feature","geometry":{"type":"Point","coordinates":[5.278614,51.800372]},"properties":{"category":"transformatorhuisje","name":"","operator":""}},{"type":"Feature","geometry":{"type":"Point","coordinates":[5.278878,51.800621]},"properties":{"category":"transformatorhuisje","name":"","operator":""}},{"type":"Feature","geometry":{"type":"Point","coordinates":[5.277671,51.801046]},"properties":{"category":"transformatorhuisje","name":"","operator":""}},{"type":"Feature","geometry":{"type":"Point","coordinates":[5.152822,51.754102]},"properties":{"category":"transformatorhuisje","name":"","operator":"Liander"}},{"type":"Feature","geometry":{"type":"Point","coordinates":[5.169075,51.781796]},"properties":{"category":"transformatorhuisje","name":"","operator":"Liander"}},{"type":"Feature","geometry":{"type":"Point","coordinates":[5.164549,51.80039]},"properties":{"category":"transformatorhuisje","name":"","operator":"Liander"}},{"type":"Feature","geometry":{"type":"Point","coordinates":[5.277392,51.800801]},"properties":{"category":"transformatorhuisje","name":"","operator":""}},{"type":"Feature","geometry":{"type":"Point","coordinates":[5.262266,51.815826]},"properties":{"category":"transformatorhuisje","name":"","operator":""}},{"type":"Feature","geometry":{"type":"Point","coordinates":[5.262257,51.815888]},"properties":{"category":"transformatorhuisje","name":"","operator":""}},{"type":"Feature","geometry":{"type":"Point","coordinates":[5.132465,51.801931]},"properties":{"category":"transformatorhuisje","name":"","operator":""}},{"type":"Feature","geometry":{"type":"Point","coordinates":[5.132385,51.801926]},"properties":{"category":"transformatorhuisje","name":"","operator":""}},{"type":"Feature","geometry":{"type":"Point","coordinates":[5.132306,51.801921]},"properties":{"category":"transformatorhuisje","name":"","operator":""}},{"type":"Feature","geometry":{"type":"Point","coordinates":[5.131246,51.801718]},"properties":{"category":"transformatorhuisje","name":"","operator":""}},{"type":"Feature","geometry":{"type":"Point","coordinates":[5.131462,51.801739]},"properties":{"category":"transformatorhuisje","name":"","operator":""}},{"type":"Feature","geometry":{"type":"Point","coordinates":[5.278429,51.800205]},"properties":{"category":"transformatorhuisje","name":"","operator":""}},{"type":"Feature","geometry":{"type":"Point","coordinates":[5.080218,51.789869]},"properties":{"category":"transformatorhuisje","name":"","operator":""}},{"type":"Feature","geometry":{"type":"Point","coordinates":[5.080245,51.789932]},"properties":{"category":"transformatorhuisje","name":"","operator":""}},{"type":"Feature","geometry":{"type":"Point","coordinates":[5.080272,51.789999]},"properties":{"category":"transformatorhuisje","name":"","operator":""}},{"type":"Feature","geometry":{"type":"Point","coordinates":[5.173654,51.798426]},"properties":{"category":"transformatorhuisje","name":"","operator":""}},{"type":"Feature","geometry":{"type":"Point","coordinates":[5.173758,51.798399]},"properties":{"category":"transformatorhuisje","name":"","operator":""}},{"type":"Feature","geometry":{"type":"Point","coordinates":[5.173858,51.798375]},"properties":{"category":"transformatorhuisje","name":"","operator":""}},{"type":"Feature","geometry":{"type":"Point","coordinates":[5.174256,51.798203]},"properties":{"category":"transformatorhuisje","name":"","operator":""}},{"type":"Feature","geometry":{"type":"Point","coordinates":[5.181259,51.768005]},"properties":{"category":"transformatorhuisje","name":"","operator":"Liander"}},{"type":"Feature","geometry":{"type":"Point","coordinates":[5.169363,51.763228]},"properties":{"category":"transformatorhuisje","name":"","operator":""}},{"type":"Feature","geometry":{"type":"Point","coordinates":[5.231526,51.803749]},"properties":{"category":"middelbare_school","name":"Cambium","operator":""}},{"type":"Feature","geometry":{"type":"Point","coordinates":[5.244271,51.80902]},"properties":{"category":"sportveld","name":"Zaltbommelse Tennis Vereniging","operator":""}},{"type":"Feature","geometry":{"type":"Point","coordinates":[5.219483,51.777981]},"properties":{"category":"sportveld","name":"Sportpark de Drie Morgen","operator":""}},{"type":"Feature","geometry":{"type":"Point","coordinates":[5.11775,51.780644]},"properties":{"category":"sportveld","name":"Roda Boys","operator":""}},{"type":"Feature","geometry":{"type":"Point","coordinates":[5.238684,51.797755]},"properties":{"category":"sportveld","name":"Sportcomplex De Watertoren","operator":""}},{"type":"Feature","geometry":{"type":"Point","coordinates":[5.083893,51.806099]},"properties":{"category":"sportveld","name":"Tennis&Padel Vereniging De Molenwiek","operator":""}},{"type":"Feature","geometry":{"type":"Point","coordinates":[5.199038,51.797052]},"properties":{"category":"sportveld","name":"Sportpark Maartens Hof","operator":""}},{"type":"Feature","geometry":{"type":"Point","coordinates":[5.125907,51.784447]},"properties":{"category":"sportveld","name":"Sporthal De Maayenbogerd","operator":""}},{"type":"Feature","geometry":{"type":"Point","coordinates":[5.251461,51.80284]},"properties":{"category":"winkelcentrum","name":"winkelcentrum Portage","operator":""}},{"type":"Feature","geometry":{"type":"Point","coordinates":[5.25931,51.794408]},"properties":{"category":"fietsenstalling","name":"","operator":""}},{"type":"Feature","geometry":{"type":"Point","coordinates":[5.262654,51.803928]},"properties":{"category":"fietsenstalling","name":"","operator":""}},{"type":"Feature","geometry":{"type":"Point","coordinates":[5.262813,51.808728]},"properties":{"category":"fietsenstalling","name":"","operator":""}},{"type":"Feature","geometry":{"type":"Point","coordinates":[5.262407,51.803671]},"properties":{"category":"parkeergarage","name":"","operator":""}},{"type":"Feature","geometry":{"type":"Point","coordinates":[5.256225,51.80498]},"properties":{"category":"p_and_r","name":"","operator":""}}]}