{"type":"FeatureCollection","metadata":{"gemeente":"Zoetermeer","slug":"zoetermeer","by_category":{"bus_halte":145,"tram_halte":36,"supermarkt":30,"transformatorhuisje":24,"sportveld":22,"ov_knooppunt":21,"fietsenstalling":18,"parkeergarage":15,"middelbare_school":9,"hogeschool":4,"winkelcentrum":4,"p_and_r":4,"bibliotheek":3,"ns_station":2,"gemeentehuis":1,"ziekenhuis":1},"total":339},"features":[{"type":"Feature","geometry":{"type":"Point","coordinates":[4.493434,52.046346]},"properties":{"category":"ns_station","name":"Zoetermeer Oost","operator":""}},{"type":"Feature","geometry":{"type":"Point","coordinates":[4.476916,52.047556]},"properties":{"category":"ns_station","name":"Zoetermeer","operator":""}},{"type":"Feature","geometry":{"type":"Point","coordinates":[4.483495,52.060631]},"properties":{"category":"tram_halte","name":"Centrum-West","operator":""}},{"type":"Feature","geometry":{"type":"Point","coordinates":[4.493146,52.061122]},"properties":{"category":"tram_halte","name":"Stadhuis","operator":""}},{"type":"Feature","geometry":{"type":"Point","coordinates":[4.471204,52.062933]},"properties":{"category":"tram_halte","name":"Voorweg Hoog","operator":""}},{"type":"Feature","geometry":{"type":"Point","coordinates":[4.515302,52.063064]},"properties":{"category":"tram_halte","name":"Seghwaert","operator":""}},{"type":"Feature","geometry":{"type":"Point","coordinates":[4.49489,52.071931]},"properties":{"category":"tram_halte","name":"De Leyens","operator":""}},{"type":"Feature","geometry":{"type":"Point","coordinates":[4.506419,52.059701]},"properties":{"category":"tram_halte","name":"Palenstein","operator":""}},{"type":"Feature","geometry":{"type":"Point","coordinates":[4.509585,52.069]},"properties":{"category":"tram_halte","name":"Leidsewallen","operator":""}},{"type":"Feature","geometry":{"type":"Point","coordinates":[4.537861,52.053735]},"properties":{"category":"tram_halte","name":"Javalaan","operator":""}},{"type":"Feature","geometry":{"type":"Point","coordinates":[4.48345,52.060524]},"properties":{"category":"tram_halte","name":"Centrum-West","operator":""}},{"type":"Feature","geometry":{"type":"Point","coordinates":[4.487058,52.050817]},"properties":{"category":"tram_halte","name":"Delftsewallen","operator":""}},{"type":"Feature","geometry":{"type":"Point","coordinates":[4.4773,52.048469]},"properties":{"category":"tram_halte","name":"Driemanspolder","operator":""}},{"type":"Feature","geometry":{"type":"Point","coordinates":[4.46989,52.055433]},"properties":{"category":"tram_halte","name":"Meerzicht","operator":""}},{"type":"Feature","geometry":{"type":"Point","coordinates":[4.534613,52.065287]},"properties":{"category":"tram_halte","name":"Willem Dreeslaan","operator":""}},{"type":"Feature","geometry":{"type":"Point","coordinates":[4.542685,52.060333]},"properties":{"category":"tram_halte","name":"Oosterheem","operator":""}},{"type":"Feature","geometry":{"type":"Point","coordinates":[4.470564,52.062755]},"properties":{"category":"tram_halte","name":"Voorweg Laag","operator":""}},{"type":"Feature","geometry":{"type":"Point","coordinates":[4.470578,52.062784]},"properties":{"category":"tram_halte","name":"Voorweg Laag","operator":""}},{"type":"Feature","geometry":{"type":"Point","coordinates":[4.47115,52.062939]},"properties":{"category":"tram_halte","name":"Voorweg Hoog","operator":""}},{"type":"Feature","geometry":{"type":"Point","coordinates":[4.483503,52.060666]},"properties":{"category":"tram_halte","name":"Centrum-West","operator":""}},{"type":"Feature","geometry":{"type":"Point","coordinates":[4.493172,52.061087]},"properties":{"category":"tram_halte","name":"Stadhuis","operator":""}},{"type":"Feature","geometry":{"type":"Point","coordinates":[4.492161,52.054413]},"properties":{"category":"tram_halte","name":"Dorp","operator":""}},{"type":"Feature","geometry":{"type":"Point","coordinates":[4.492113,52.054436]},"properties":{"category":"tram_halte","name":"Dorp","operator":""}},{"type":"Feature","geometry":{"type":"Point","coordinates":[4.487019,52.050837]},"properties":{"category":"tram_halte","name":"Delftsewallen","operator":""}},{"type":"Feature","geometry":{"type":"Point","coordinates":[4.477295,52.048434]},"properties":{"category":"tram_halte","name":"Driemanspolder","operator":""}},{"type":"Feature","geometry":{"type":"Point","coordinates":[4.469949,52.055425]},"properties":{"category":"tram_halte","name":"Meerzicht","operator":""}},{"type":"Feature","geometry":{"type":"Point","coordinates":[4.478686,52.066743]},"properties":{"category":"tram_halte","name":"Buytenwegh","operator":""}},{"type":"Feature","geometry":{"type":"Point","coordinates":[4.478659,52.06678]},"properties":{"category":"tram_halte","name":"Buytenwegh","operator":""}},{"type":"Feature","geometry":{"type":"Point","coordinates":[4.494911,52.071962]},"properties":{"category":"tram_halte","name":"De Leyens","operator":""}},{"type":"Feature","geometry":{"type":"Point","coordinates":[4.50959,52.069024]},"properties":{"category":"tram_halte","name":"Leidsewallen","operator":""}},{"type":"Feature","geometry":{"type":"Point","coordinates":[4.515344,52.063039]},"properties":{"category":"tram_halte","name":"Seghwaert","operator":""}},{"type":"Feature","geometry":{"type":"Point","coordinates":[4.50642,52.059665]},"properties":{"category":"tram_halte","name":"Palenstein","operator":""}},{"type":"Feature","geometry":{"type":"Point","coordinates":[4.534575,52.065261]},"properties":{"category":"tram_halte","name":"Willem Dreeslaan","operator":""}},{"type":"Feature","geometry":{"type":"Point","coordinates":[4.542624,52.060328]},"properties":{"category":"tram_halte","name":"Oosterheem","operator":""}},{"type":"Feature","geometry":{"type":"Point","coordinates":[4.53781,52.053753]},"properties":{"category":"tram_halte","name":"Javalaan","operator":""}},{"type":"Feature","geometry":{"type":"Point","coordinates":[4.518892,52.041376]},"properties":{"category":"tram_halte","name":"Lansingerland-Zoetermeer","operator":""}},{"type":"Feature","geometry":{"type":"Point","coordinates":[4.529158,52.047116]},"properties":{"category":"tram_halte","name":"Van Tuyllpark","operator":""}},{"type":"Feature","geometry":{"type":"Point","coordinates":[4.528669,52.046945]},"properties":{"category":"tram_halte","name":"Van Tuyllpark","operator":""}},{"type":"Feature","geometry":{"type":"Point","coordinates":[4.485181,52.068393]},"properties":{"category":"bus_halte","name":"Binnenpark","operator":""}},{"type":"Feature","geometry":{"type":"Point","coordinates":[4.480586,52.071051]},"properties":{"category":"bus_halte","name":"Meerpolder","operator":""}},{"type":"Feature","geometry":{"type":"Point","coordinates":[4.484671,52.069135]},"properties":{"category":"bus_halte","name":"Binnenpark","operator":""}},{"type":"Feature","geometry":{"type":"Point","coordinates":[4.480475,52.071338]},"properties":{"category":"bus_halte","name":"Meerpolder","operator":""}},{"type":"Feature","geometry":{"type":"Point","coordinates":[4.505152,52.061738]},"properties":{"category":"bus_halte","name":"Vaartdreef","operator":""}},{"type":"Feature","geometry":{"type":"Point","coordinates":[4.530812,52.067286]},"properties":{"category":"bus_halte","name":"Benthuizenstraat","operator":""}},{"type":"Feature","geometry":{"type":"Point","coordinates":[4.530536,52.067578]},"properties":{"category":"bus_halte","name":"Benthuizenstraat","operator":""}},{"type":"Feature","geometry":{"type":"Point","coordinates":[4.533241,52.072858]},"properties":{"category":"bus_halte","name":"Zegwaartseweg","operator":""}},{"type":"Feature","geometry":{"type":"Point","coordinates":[4.513288,52.057265]},"properties":{"category":"bus_halte","name":"Pruimengaarde","operator":""}},{"type":"Feature","geometry":{"type":"Point","coordinates":[4.505062,52.061384]},"properties":{"category":"bus_halte","name":"Vaartdreef","operator":""}},{"type":"Feature","geometry":{"type":"Point","coordinates":[4.533012,52.072537]},"properties":{"category":"bus_halte","name":"Zegwaartseweg","operator":""}},{"type":"Feature","geometry":{"type":"Point","coordinates":[4.513304,52.057625]},"properties":{"category":"bus_halte","name":"Pruimengaarde","operator":""}},{"type":"Feature","geometry":{"type":"Point","coordinates":[4.491117,52.063328]},"properties":{"category":"bus_halte","name":"Zwaardslootseweg","operator":""}},{"type":"Feature","geometry":{"type":"Point","coordinates":[4.490777,52.063536]},"properties":{"category":"bus_halte","name":"Zwaardslootseweg","operator":""}},{"type":"Feature","geometry":{"type":"Point","coordinates":[4.47039,52.042638]},"properties":{"category":"bus_halte","name":"Acaciazoom","operator":""}},{"type":"Feature","geometry":{"type":"Point","coordinates":[4.471009,52.042717]},"properties":{"category":"bus_halte","name":"Acaciazoom","operator":""}},{"type":"Feature","geometry":{"type":"Point","coordinates":[4.521837,52.069644]},"properties":{"category":"bus_halte","name":"Alkmenehof","operator":""}},{"type":"Feature","geometry":{"type":"Point","coordinates":[4.495474,52.06251]},"properties":{"category":"bus_halte","name":"Oostwaarts","operator":""}},{"type":"Feature","geometry":{"type":"Point","coordinates":[4.528291,52.071922]},"properties":{"category":"bus_halte","name":"Pelschans","operator":""}},{"type":"Feature","geometry":{"type":"Point","coordinates":[4.520138,52.071428]},"properties":{"category":"bus_halte","name":"Lommerbaan","operator":""}},{"type":"Feature","geometry":{"type":"Point","coordinates":[4.482841,52.060988]},"properties":{"category":"bus_halte","name":"Centrum West","operator":""}},{"type":"Feature","geometry":{"type":"Point","coordinates":[4.48286,52.06104]},"properties":{"category":"bus_halte","name":"Centrum West","operator":""}},{"type":"Feature","geometry":{"type":"Point","coordinates":[4.482877,52.061094]},"properties":{"category":"bus_halte","name":"Centrum West","operator":""}},{"type":"Feature","geometry":{"type":"Point","coordinates":[4.482905,52.061147]},"properties":{"category":"bus_halte","name":"Centrum West","operator":""}},{"type":"Feature","geometry":{"type":"Point","coordinates":[4.482928,52.061198]},"properties":{"category":"bus_halte","name":"Centrum West","operator":""}},{"type":"Feature","geometry":{"type":"Point","coordinates":[4.482957,52.061248]},"properties":{"category":"bus_halte","name":"Centrum West","operator":""}},{"type":"Feature","geometry":{"type":"Point","coordinates":[4.482978,52.061301]},"properties":{"category":"bus_halte","name":"Centrum West","operator":""}},{"type":"Feature","geometry":{"type":"Point","coordinates":[4.482991,52.061354]},"properties":{"category":"bus_halte","name":"Centrum West","operator":""}},{"type":"Feature","geometry":{"type":"Point","coordinates":[4.498453,52.064672]},"properties":{"category":"bus_halte","name":"Saloméschouw","operator":""}},{"type":"Feature","geometry":{"type":"Point","coordinates":[4.49664,52.064974]},"properties":{"category":"bus_halte","name":"Saloméschouw","operator":""}},{"type":"Feature","geometry":{"type":"Point","coordinates":[4.506694,52.033679]},"properties":{"category":"bus_halte","name":"Radonstraat","operator":""}},{"type":"Feature","geometry":{"type":"Point","coordinates":[4.506843,52.03367]},"properties":{"category":"bus_halte","name":"Radonstraat","operator":""}},{"type":"Feature","geometry":{"type":"Point","coordinates":[4.480941,52.058685]},"properties":{"category":"bus_halte","name":"Fonteinbos","operator":""}},{"type":"Feature","geometry":{"type":"Point","coordinates":[4.480158,52.058369]},"properties":{"category":"bus_halte","name":"Fonteinbos","operator":""}},{"type":"Feature","geometry":{"type":"Point","coordinates":[4.479262,52.055157]},"properties":{"category":"bus_halte","name":"Meerzichtlaan","operator":""}},{"type":"Feature","geometry":{"type":"Point","coordinates":[4.478567,52.054942]},"properties":{"category":"bus_halte","name":"Meerzichtlaan","operator":""}},{"type":"Feature","geometry":{"type":"Point","coordinates":[4.451908,52.06318]},"properties":{"category":"bus_halte","name":"Westerpark","operator":""}},{"type":"Feature","geometry":{"type":"Point","coordinates":[4.451735,52.063272]},"properties":{"category":"bus_halte","name":"Westerpark","operator":""}},{"type":"Feature","geometry":{"type":"Point","coordinates":[4.479546,52.039945]},"properties":{"category":"bus_halte","name":"Beryl","operator":""}},{"type":"Feature","geometry":{"type":"Point","coordinates":[4.479431,52.039825]},"properties":{"category":"bus_halte","name":"Beryl","operator":""}},{"type":"Feature","geometry":{"type":"Point","coordinates":[4.458571,52.064639]},"properties":{"category":"bus_halte","name":"Buytenparklaan","operator":""}},{"type":"Feature","geometry":{"type":"Point","coordinates":[4.460478,52.064878]},"properties":{"category":"bus_halte","name":"Buytenparklaan","operator":""}},{"type":"Feature","geometry":{"type":"Point","coordinates":[4.49725,52.057446]},"properties":{"category":"bus_halte","name":"CKC / Dorpsstraat","operator":""}},{"type":"Feature","geometry":{"type":"Point","coordinates":[4.482825,52.060933]},"properties":{"category":"bus_halte","name":"Centrum West","operator":""}},{"type":"Feature","geometry":{"type":"Point","coordinates":[4.49027,52.064948]},"properties":{"category":"bus_halte","name":"Woonhart","operator":""}},{"type":"Feature","geometry":{"type":"Point","coordinates":[4.489836,52.064839]},"properties":{"category":"bus_halte","name":"Woonhart","operator":""}},{"type":"Feature","geometry":{"type":"Point","coordinates":[4.474066,52.03885]},"properties":{"category":"bus_halte","name":"Driesprong","operator":""}},{"type":"Feature","geometry":{"type":"Point","coordinates":[4.473502,52.038615]},"properties":{"category":"bus_halte","name":"Driesprong","operator":""}},{"type":"Feature","geometry":{"type":"Point","coordinates":[4.47399,52.042082]},"properties":{"category":"bus_halte","name":"Nathaliegang","operator":""}},{"type":"Feature","geometry":{"type":"Point","coordinates":[4.474162,52.04227]},"properties":{"category":"bus_halte","name":"Nathaliegang","operator":""}},{"type":"Feature","geometry":{"type":"Point","coordinates":[4.466081,52.046652]},"properties":{"category":"bus_halte","name":"Ogeahout","operator":""}},{"type":"Feature","geometry":{"type":"Point","coordinates":[4.466316,52.046788]},"properties":{"category":"bus_halte","name":"Ogeahout","operator":""}},{"type":"Feature","geometry":{"type":"Point","coordinates":[4.461662,52.045471]},"properties":{"category":"bus_halte","name":"Elzehout","operator":""}},{"type":"Feature","geometry":{"type":"Point","coordinates":[4.461868,52.045299]},"properties":{"category":"bus_halte","name":"Elzehout","operator":""}},{"type":"Feature","geometry":{"type":"Point","coordinates":[4.464162,52.041553]},"properties":{"category":"bus_halte","name":"Florazoom","operator":""}},{"type":"Feature","geometry":{"type":"Point","coordinates":[4.464085,52.041479]},"properties":{"category":"bus_halte","name":"Florazoom","operator":""}},{"type":"Feature","geometry":{"type":"Point","coordinates":[4.472247,52.046816]},"properties":{"category":"bus_halte","name":"Houtsingel","operator":""}},{"type":"Feature","geometry":{"type":"Point","coordinates":[4.47179,52.046841]},"properties":{"category":"bus_halte","name":"Houtsingel","operator":""}},{"type":"Feature","geometry":{"type":"Point","coordinates":[4.477246,52.047055]},"properties":{"category":"bus_halte","name":"Station","operator":""}},{"type":"Feature","geometry":{"type":"Point","coordinates":[4.477644,52.04695]},"properties":{"category":"bus_halte","name":"Station","operator":""}},{"type":"Feature","geometry":{"type":"Point","coordinates":[4.47819,52.047704]},"properties":{"category":"bus_halte","name":"Mandelabrug/A12/Station","operator":""}},{"type":"Feature","geometry":{"type":"Point","coordinates":[4.477069,52.048312]},"properties":{"category":"bus_halte","name":"Mandelabrug/A12/Station","operator":""}},{"type":"Feature","geometry":{"type":"Point","coordinates":[4.476957,52.05053]},"properties":{"category":"bus_halte","name":"Viaduct Afrikaweg","operator":""}},{"type":"Feature","geometry":{"type":"Point","coordinates":[4.476249,52.050249]},"properties":{"category":"bus_halte","name":"Viaduct Afrikaweg","operator":""}},{"type":"Feature","geometry":{"type":"Point","coordinates":[4.47828,52.042588]},"properties":{"category":"bus_halte","name":"Winkelcentrum Rokkeveen","operator":""}},{"type":"Feature","geometry":{"type":"Point","coordinates":[4.478151,52.042273]},"properties":{"category":"bus_halte","name":"Winkelcentrum Rokkeveen","operator":""}},{"type":"Feature","geometry":{"type":"Point","coordinates":[4.481168,52.037229]},"properties":{"category":"bus_halte","name":"Robijn","operator":""}},{"type":"Feature","geometry":{"type":"Point","coordinates":[4.481731,52.037122]},"properties":{"category":"bus_halte","name":"Robijn","operator":""}},{"type":"Feature","geometry":{"type":"Point","coordinates":[4.484758,52.038005]},"properties":{"category":"bus_halte","name":"Sportcentrum De Veur","operator":""}},{"type":"Feature","geometry":{"type":"Point","coordinates":[4.485163,52.038118]},"properties":{"category":"bus_halte","name":"Sportcentrum De Veur","operator":""}},{"type":"Feature","geometry":{"type":"Point","coordinates":[4.489965,52.036107]},"properties":{"category":"bus_halte","name":"Groen-blauwlaan","operator":""}},{"type":"Feature","geometry":{"type":"Point","coordinates":[4.490418,52.039283]},"properties":{"category":"bus_halte","name":"Regenboogsingel","operator":""}},{"type":"Feature","geometry":{"type":"Point","coordinates":[4.493603,52.038646]},"properties":{"category":"bus_halte","name":"Winkelcentrum De Vlieger","operator":""}},{"type":"Feature","geometry":{"type":"Point","coordinates":[4.494066,52.038879]},"properties":{"category":"bus_halte","name":"Winkelcentrum De Vlieger","operator":""}},{"type":"Feature","geometry":{"type":"Point","coordinates":[4.496485,52.040821]},"properties":{"category":"bus_halte","name":"Electrablauw","operator":""}},{"type":"Feature","geometry":{"type":"Point","coordinates":[4.497361,52.041353]},"properties":{"category":"bus_halte","name":"Electrablauw","operator":""}},{"type":"Feature","geometry":{"type":"Point","coordinates":[4.497141,52.042793]},"properties":{"category":"bus_halte","name":"Kleurlaan","operator":""}},{"type":"Feature","geometry":{"type":"Point","coordinates":[4.496857,52.043127]},"properties":{"category":"bus_halte","name":"Kleurlaan","operator":"EBS"}},{"type":"Feature","geometry":{"type":"Point","coordinates":[4.49121,52.046372]},"properties":{"category":"bus_halte","name":"Station Oost","operator":""}},{"type":"Feature","geometry":{"type":"Point","coordinates":[4.49132,52.046065]},"properties":{"category":"bus_halte","name":"Station Oost","operator":""}},{"type":"Feature","geometry":{"type":"Point","coordinates":[4.50066,52.044484]},"properties":{"category":"bus_halte","name":"Rokkeveenseweg Zuid","operator":""}},{"type":"Feature","geometry":{"type":"Point","coordinates":[4.49964,52.044701]},"properties":{"category":"bus_halte","name":"Rokkeveenseweg Zuid","operator":""}},{"type":"Feature","geometry":{"type":"Point","coordinates":[4.502554,52.043893]},"properties":{"category":"bus_halte","name":"Bastionhotel","operator":""}},{"type":"Feature","geometry":{"type":"Point","coordinates":[4.502554,52.044061]},"properties":{"category":"bus_halte","name":"Bastionhotel","operator":""}},{"type":"Feature","geometry":{"type":"Point","coordinates":[4.482297,52.06119]},"properties":{"category":"bus_halte","name":"Centrum West","operator":""}},{"type":"Feature","geometry":{"type":"Point","coordinates":[4.501046,52.069756]},"properties":{"category":"bus_halte","name":"HagaZiekenhuis Zoetermeer","operator":""}},{"type":"Feature","geometry":{"type":"Point","coordinates":[4.492605,52.062501]},"properties":{"category":"bus_halte","name":"Theaterplein","operator":""}},{"type":"Feature","geometry":{"type":"Point","coordinates":[4.49303,52.062436]},"properties":{"category":"bus_halte","name":"Theaterplein","operator":""}},{"type":"Feature","geometry":{"type":"Point","coordinates":[4.510549,52.056996]},"properties":{"category":"bus_halte","name":"Van Aalstlaan","operator":""}},{"type":"Feature","geometry":{"type":"Point","coordinates":[4.523706,52.056234]},"properties":{"category":"bus_halte","name":"Franklinstraat","operator":""}},{"type":"Feature","geometry":{"type":"Point","coordinates":[4.523418,52.056424]},"properties":{"category":"bus_halte","name":"Franklinstraat","operator":""}},{"type":"Feature","geometry":{"type":"Point","coordinates":[4.528654,52.060772]},"properties":{"category":"bus_halte","name":"Stephensonstraat","operator":""}},{"type":"Feature","geometry":{"type":"Point","coordinates":[4.529178,52.06078]},"properties":{"category":"bus_halte","name":"Stephensonstraat","operator":""}},{"type":"Feature","geometry":{"type":"Point","coordinates":[4.531324,52.062869]},"properties":{"category":"bus_halte","name":"Gouderakstraat","operator":""}},{"type":"Feature","geometry":{"type":"Point","coordinates":[4.532329,52.063372]},"properties":{"category":"bus_halte","name":"Gouderakstraat","operator":""}},{"type":"Feature","geometry":{"type":"Point","coordinates":[4.533978,52.06538]},"properties":{"category":"bus_halte","name":"Willem Dreeslaan","operator":""}},{"type":"Feature","geometry":{"type":"Point","coordinates":[4.534232,52.065486]},"properties":{"category":"bus_halte","name":"Willem Dreeslaan","operator":""}},{"type":"Feature","geometry":{"type":"Point","coordinates":[4.504955,52.073475]},"properties":{"category":"bus_halte","name":"Surfpad","operator":""}},{"type":"Feature","geometry":{"type":"Point","coordinates":[4.505321,52.073607]},"properties":{"category":"bus_halte","name":"Surfpad","operator":""}},{"type":"Feature","geometry":{"type":"Point","coordinates":[4.508874,52.078788]},"properties":{"category":"bus_halte","name":"Redelaan","operator":""}},{"type":"Feature","geometry":{"type":"Point","coordinates":[4.50838,52.078246]},"properties":{"category":"bus_halte","name":"Redelaan","operator":""}},{"type":"Feature","geometry":{"type":"Point","coordinates":[4.51364,52.077355]},"properties":{"category":"bus_halte","name":"Planbaan","operator":""}},{"type":"Feature","geometry":{"type":"Point","coordinates":[4.51442,52.075667]},"properties":{"category":"bus_halte","name":"Kahnlijn","operator":""}},{"type":"Feature","geometry":{"type":"Point","coordinates":[4.521016,52.075868]},"properties":{"category":"bus_halte","name":"Winkelcentrum Noordhove","operator":""}},{"type":"Feature","geometry":{"type":"Point","coordinates":[4.529233,52.075683]},"properties":{"category":"bus_halte","name":"Dijkmanschans","operator":""}},{"type":"Feature","geometry":{"type":"Point","coordinates":[4.524053,52.07868]},"properties":{"category":"bus_halte","name":"De Louvrierruimte","operator":""}},{"type":"Feature","geometry":{"type":"Point","coordinates":[4.515023,52.078404]},"properties":{"category":"bus_halte","name":"Brinkmanplan","operator":""}},{"type":"Feature","geometry":{"type":"Point","coordinates":[4.470903,52.062856]},"properties":{"category":"bus_halte","name":"Voorweg Laag","operator":""}},{"type":"Feature","geometry":{"type":"Point","coordinates":[4.508437,52.043275]},"properties":{"category":"bus_halte","name":"Zilverstraat","operator":""}},{"type":"Feature","geometry":{"type":"Point","coordinates":[4.510451,52.042889]},"properties":{"category":"bus_halte","name":"Zilverstraat","operator":""}},{"type":"Feature","geometry":{"type":"Point","coordinates":[4.486799,52.061576]},"properties":{"category":"bus_halte","name":"Stadshart/Burg. Wegstapelplein","operator":""}},{"type":"Feature","geometry":{"type":"Point","coordinates":[4.48623,52.06992]},"properties":{"category":"bus_halte","name":"Buytenhaghe","operator":""}},{"type":"Feature","geometry":{"type":"Point","coordinates":[4.49365,52.071077]},"properties":{"category":"bus_halte","name":"WC De Leyens","operator":""}},{"type":"Feature","geometry":{"type":"Point","coordinates":[4.49336,52.071081]},"properties":{"category":"bus_halte","name":"WC De Leyens","operator":""}},{"type":"Feature","geometry":{"type":"Point","coordinates":[4.495991,52.072132]},"properties":{"category":"bus_halte","name":"Gondelkade","operator":""}},{"type":"Feature","geometry":{"type":"Point","coordinates":[4.495878,52.071927]},"properties":{"category":"bus_halte","name":"Gondelkade","operator":""}},{"type":"Feature","geometry":{"type":"Point","coordinates":[4.501639,52.073032]},"properties":{"category":"bus_halte","name":"Fregatwerf","operator":""}},{"type":"Feature","geometry":{"type":"Point","coordinates":[4.498319,52.067699]},"properties":{"category":"bus_halte","name":"Vivaldi","operator":""}},{"type":"Feature","geometry":{"type":"Point","coordinates":[4.499674,52.068984]},"properties":{"category":"bus_halte","name":"HagaZiekenhuis Zoetermeer","operator":""}},{"type":"Feature","geometry":{"type":"Point","coordinates":[4.515553,52.075212]},"properties":{"category":"bus_halte","name":"Rogerslijn","operator":""}},{"type":"Feature","geometry":{"type":"Point","coordinates":[4.484273,52.057492]},"properties":{"category":"bus_halte","name":"Van Leeuwenhoeklaan","operator":""}},{"type":"Feature","geometry":{"type":"Point","coordinates":[4.485591,52.053013]},"properties":{"category":"bus_halte","name":"WC Vijverhoek","operator":""}},{"type":"Feature","geometry":{"type":"Point","coordinates":[4.491217,52.057182]},"properties":{"category":"bus_halte","name":"Bijdorplaan","operator":""}},{"type":"Feature","geometry":{"type":"Point","coordinates":[4.493904,52.054537]},"properties":{"category":"bus_halte","name":"Morgenster","operator":""}},{"type":"Feature","geometry":{"type":"Point","coordinates":[4.509051,52.057706]},"properties":{"category":"bus_halte","name":"Winkelcentrum Schepenenveld","operator":""}},{"type":"Feature","geometry":{"type":"Point","coordinates":[4.525065,52.060646]},"properties":{"category":"bus_halte","name":"Pelgrimshoeve","operator":""}},{"type":"Feature","geometry":{"type":"Point","coordinates":[4.514064,52.06393]},"properties":{"category":"bus_halte","name":"Petuniatuin","operator":""}},{"type":"Feature","geometry":{"type":"Point","coordinates":[4.475149,52.054345]},"properties":{"category":"bus_halte","name":"Binnenwater","operator":""}},{"type":"Feature","geometry":{"type":"Point","coordinates":[4.471646,52.056435]},"properties":{"category":"bus_halte","name":"Albrandswaard","operator":""}},{"type":"Feature","geometry":{"type":"Point","coordinates":[4.468324,52.056545]},"properties":{"category":"bus_halte","name":"Winkelcentrum Meerzicht","operator":""}},{"type":"Feature","geometry":{"type":"Point","coordinates":[4.479838,52.05938]},"properties":{"category":"bus_halte","name":"Haagsebos","operator":""}},{"type":"Feature","geometry":{"type":"Point","coordinates":[4.494447,52.041485]},"properties":{"category":"bus_halte","name":"Donkergroen","operator":""}},{"type":"Feature","geometry":{"type":"Point","coordinates":[4.479037,52.039322]},"properties":{"category":"bus_halte","name":"Camee","operator":""}},{"type":"Feature","geometry":{"type":"Point","coordinates":[4.494941,52.055136]},"properties":{"category":"bus_halte","name":"Morgenster/Julianalaan","operator":""}},{"type":"Feature","geometry":{"type":"Point","coordinates":[4.494859,52.055537]},"properties":{"category":"bus_halte","name":"Morgenster / Delftse Wallen","operator":""}},{"type":"Feature","geometry":{"type":"Point","coordinates":[4.492467,52.052396]},"properties":{"category":"bus_halte","name":"Paltelaan","operator":""}},{"type":"Feature","geometry":{"type":"Point","coordinates":[4.492256,52.052378]},"properties":{"category":"bus_halte","name":"Paltelaan","operator":""}},{"type":"Feature","geometry":{"type":"Point","coordinates":[4.505899,52.089622]},"properties":{"category":"bus_halte","name":"Horeca Noord Aa","operator":""}},{"type":"Feature","geometry":{"type":"Point","coordinates":[4.518301,52.056213]},"properties":{"category":"bus_halte","name":"Kringloopwarenhuis Het Goed","operator":""}},{"type":"Feature","geometry":{"type":"Point","coordinates":[4.5156,52.046831]},"properties":{"category":"bus_halte","name":"Werner von Siemensstraat","operator":""}},{"type":"Feature","geometry":{"type":"Point","coordinates":[4.515561,52.046985]},"properties":{"category":"bus_halte","name":"Werner von Siemensstraat","operator":""}},{"type":"Feature","geometry":{"type":"Point","coordinates":[4.483041,52.057721]},"properties":{"category":"bus_halte","name":"Van Leeuwenhoeklaan","operator":""}},{"type":"Feature","geometry":{"type":"Point","coordinates":[4.492343,52.060555]},"properties":{"category":"bus_halte","name":"Stadhuis","operator":""}},{"type":"Feature","geometry":{"type":"Point","coordinates":[4.517558,52.052219]},"properties":{"category":"bus_halte","name":"Silverdome","operator":""}},{"type":"Feature","geometry":{"type":"Point","coordinates":[4.477782,52.046623]},"properties":{"category":"bus_halte","name":"Station","operator":""}},{"type":"Feature","geometry":{"type":"Point","coordinates":[4.477298,52.048452]},"properties":{"category":"ov_knooppunt","name":"Driemanspolder","operator":"HTM"}},{"type":"Feature","geometry":{"type":"Point","coordinates":[4.478669,52.066762]},"properties":{"category":"ov_knooppunt","name":"Buytenwegh","operator":"HTM"}},{"type":"Feature","geometry":{"type":"Point","coordinates":[4.534597,52.065277]},"properties":{"category":"ov_knooppunt","name":"Willem Dreeslaan","operator":"HTM"}},{"type":"Feature","geometry":{"type":"Point","coordinates":[4.470573,52.06277]},"properties":{"category":"ov_knooppunt","name":"Voorweg Laag","operator":"HTM"}},{"type":"Feature","geometry":{"type":"Point","coordinates":[4.471178,52.062936]},"properties":{"category":"ov_knooppunt","name":"Voorweg Hoog","operator":"HTM"}},{"type":"Feature","geometry":{"type":"Point","coordinates":[4.483497,52.060649]},"properties":{"category":"ov_knooppunt","name":"Centrum-West","operator":"HTM"}},{"type":"Feature","geometry":{"type":"Point","coordinates":[4.492141,52.054422]},"properties":{"category":"ov_knooppunt","name":"Dorp","operator":"HTM"}},{"type":"Feature","geometry":{"type":"Point","coordinates":[4.48704,52.050827]},"properties":{"category":"ov_knooppunt","name":"Delftsewallen","operator":"HTM"}},{"type":"Feature","geometry":{"type":"Point","coordinates":[4.469917,52.055428]},"properties":{"category":"ov_knooppunt","name":"Meerzicht","operator":"HTM"}},{"type":"Feature","geometry":{"type":"Point","coordinates":[4.494901,52.071945]},"properties":{"category":"ov_knooppunt","name":"De Leyens","operator":"HTM"}},{"type":"Feature","geometry":{"type":"Point","coordinates":[4.509588,52.069013]},"properties":{"category":"ov_knooppunt","name":"Leidsewallen","operator":"HTM"}},{"type":"Feature","geometry":{"type":"Point","coordinates":[4.515322,52.063052]},"properties":{"category":"ov_knooppunt","name":"Seghwaert","operator":"HTM"}},{"type":"Feature","geometry":{"type":"Point","coordinates":[4.506419,52.059685]},"properties":{"category":"ov_knooppunt","name":"Palenstein","operator":"HTM"}},{"type":"Feature","geometry":{"type":"Point","coordinates":[4.542655,52.060331]},"properties":{"category":"ov_knooppunt","name":"Oosterheem","operator":"HTM"}},{"type":"Feature","geometry":{"type":"Point","coordinates":[4.53783,52.053738]},"properties":{"category":"ov_knooppunt","name":"Javalaan","operator":"HTM"}},{"type":"Feature","geometry":{"type":"Point","coordinates":[4.493434,52.046346]},"properties":{"category":"ov_knooppunt","name":"Zoetermeer Oost","operator":""}},{"type":"Feature","geometry":{"type":"Point","coordinates":[4.476916,52.047556]},"properties":{"category":"ov_knooppunt","name":"Zoetermeer","operator":""}},{"type":"Feature","geometry":{"type":"Point","coordinates":[4.528984,52.047064]},"properties":{"category":"ov_knooppunt","name":"Van Tuyllpark","operator":""}},{"type":"Feature","geometry":{"type":"Point","coordinates":[4.493116,52.061088]},"properties":{"category":"ov_knooppunt","name":"Stadhuis","operator":"HTM"}},{"type":"Feature","geometry":{"type":"Point","coordinates":[4.519192,52.041517]},"properties":{"category":"ov_knooppunt","name":"Lansingerland-Zoetermeer","operator":""}},{"type":"Feature","geometry":{"type":"Point","coordinates":[4.482789,52.061177]},"properties":{"category":"ov_knooppunt","name":"Centrum West","operator":""}},{"type":"Feature","geometry":{"type":"Point","coordinates":[4.493208,52.060793]},"properties":{"category":"gemeentehuis","name":"Stadhuis Zoetermeer","operator":"Gemeente Zoetermeer"}},{"type":"Feature","geometry":{"type":"Point","coordinates":[4.47716,52.042438]},"properties":{"category":"bibliotheek","name":"Wijkbibliotheek Rokkeveen","operator":"Bibliotheek Zoetermeer"}},{"type":"Feature","geometry":{"type":"Point","coordinates":[4.541347,52.060711]},"properties":{"category":"bibliotheek","name":"Wijkbibliotheek Oosterheem","operator":"Bibliotheek Zoetermeer"}},{"type":"Feature","geometry":{"type":"Point","coordinates":[4.493038,52.060776]},"properties":{"category":"bibliotheek","name":"Forum Zoetermeer","operator":"Bibliotheek Zoetermeer"}},{"type":"Feature","geometry":{"type":"Point","coordinates":[4.499596,52.068889]},"properties":{"category":"ziekenhuis","name":"HagaZiekenhuis Zoetermeer","operator":""}},{"type":"Feature","geometry":{"type":"Point","coordinates":[4.518928,52.043017]},"properties":{"category":"transformatorhuisje","name":"","operator":""}},{"type":"Feature","geometry":{"type":"Point","coordinates":[4.518731,52.043119]},"properties":{"category":"transformatorhuisje","name":"","operator":""}},{"type":"Feature","geometry":{"type":"Point","coordinates":[4.518527,52.043224]},"properties":{"category":"transformatorhuisje","name":"","operator":""}},{"type":"Feature","geometry":{"type":"Point","coordinates":[4.517776,52.043181]},"properties":{"category":"transformatorhuisje","name":"","operator":""}},{"type":"Feature","geometry":{"type":"Point","coordinates":[4.490981,52.045579]},"properties":{"category":"transformatorhuisje","name":"","operator":"Stedin"}},{"type":"Feature","geometry":{"type":"Point","coordinates":[4.491057,52.045633]},"properties":{"category":"transformatorhuisje","name":"","operator":"Stedin"}},{"type":"Feature","geometry":{"type":"Point","coordinates":[4.491128,52.04569]},"properties":{"category":"transformatorhuisje","name":"","operator":"Stedin"}},{"type":"Feature","geometry":{"type":"Point","coordinates":[4.502453,52.053163]},"properties":{"category":"transformatorhuisje","name":"","operator":"Stedin"}},{"type":"Feature","geometry":{"type":"Point","coordinates":[4.505745,52.05001]},"properties":{"category":"transformatorhuisje","name":"","operator":""}},{"type":"Feature","geometry":{"type":"Point","coordinates":[4.51989,52.075733]},"properties":{"category":"transformatorhuisje","name":"","operator":""}},{"type":"Feature","geometry":{"type":"Point","coordinates":[4.52829,52.065294]},"properties":{"category":"transformatorhuisje","name":"","operator":""}},{"type":"Feature","geometry":{"type":"Point","coordinates":[4.535944,52.065402]},"properties":{"category":"transformatorhuisje","name":"","operator":""}},{"type":"Feature","geometry":{"type":"Point","coordinates":[4.521697,52.043313]},"properties":{"category":"transformatorhuisje","name":"MS-65-65.6179","operator":"Stedin"}},{"type":"Feature","geometry":{"type":"Point","coordinates":[4.499446,52.054615]},"properties":{"category":"transformatorhuisje","name":"102","operator":"Stedin"}},{"type":"Feature","geometry":{"type":"Point","coordinates":[4.49114,52.045568]},"properties":{"category":"transformatorhuisje","name":"25 kV Zoetermeer 1","operator":"Stedin"}},{"type":"Feature","geometry":{"type":"Point","coordinates":[4.491492,52.045821]},"properties":{"category":"transformatorhuisje","name":"25 kV Zoetermeer 10","operator":"Stedin"}},{"type":"Feature","geometry":{"type":"Point","coordinates":[4.502514,52.053185]},"properties":{"category":"transformatorhuisje","name":"25 kV Zoetermeer 2 (Schoolstraat)","operator":"Stedin"}},{"type":"Feature","geometry":{"type":"Point","coordinates":[4.501791,52.039996]},"properties":{"category":"transformatorhuisje","name":"25 kV Zoetermeer 16 (Koraalrood)","operator":"Stedin"}},{"type":"Feature","geometry":{"type":"Point","coordinates":[4.466736,52.047256]},"properties":{"category":"transformatorhuisje","name":"25 kV Zoetermeer 17 (Houtsingel)","operator":"Stedin"}},{"type":"Feature","geometry":{"type":"Point","coordinates":[4.478978,52.056832]},"properties":{"category":"transformatorhuisje","name":"25 kV Zoetermeer 4 (Meerzicht)","operator":"Stedin"}},{"type":"Feature","geometry":{"type":"Point","coordinates":[4.455191,52.062872]},"properties":{"category":"transformatorhuisje","name":"25 kV Zoetermeer 12 (Voorweg)","operator":"Stedin"}},{"type":"Feature","geometry":{"type":"Point","coordinates":[4.437071,52.051885]},"properties":{"category":"transformatorhuisje","name":"","operator":""}},{"type":"Feature","geometry":{"type":"Point","coordinates":[4.436012,52.051731]},"properties":{"category":"transformatorhuisje","name":"","operator":""}},{"type":"Feature","geometry":{"type":"Point","coordinates":[4.483576,52.06285]},"properties":{"category":"transformatorhuisje","name":"MS-63-16147","operator":"Stedin Netbeheer B.V."}},{"type":"Feature","geometry":{"type":"Point","coordinates":[4.459621,52.068112]},"properties":{"category":"hogeschool","name":"mboRijnland","operator":"mboRijnland"}},{"type":"Feature","geometry":{"type":"Point","coordinates":[4.502176,52.060756]},"properties":{"category":"hogeschool","name":"mboRijnland","operator":"mboRijnland"}},{"type":"Feature","geometry":{"type":"Point","coordinates":[4.465403,52.061731]},"properties":{"category":"hogeschool","name":"Kentalis Onderwijs Zoetermeer","operator":"Koninklijke Kentalis"}},{"type":"Feature","geometry":{"type":"Point","coordinates":[4.478661,52.05188]},"properties":{"category":"hogeschool","name":"mboRijnland","operator":"mboRijnland"}},{"type":"Feature","geometry":{"type":"Point","coordinates":[4.488802,52.071275]},"properties":{"category":"middelbare_school","name":"De Keerkring","operator":"Resonans"}},{"type":"Feature","geometry":{"type":"Point","coordinates":[4.50427,52.060378]},"properties":{"category":"middelbare_school","name":"Erasmus College","operator":""}},{"type":"Feature","geometry":{"type":"Point","coordinates":[4.500791,52.061446]},"properties":{"category":"middelbare_school","name":"MOTION Beweeg College","operator":"Lucas Onderwijs"}},{"type":"Feature","geometry":{"type":"Point","coordinates":[4.494026,52.044963]},"properties":{"category":"middelbare_school","name":"Picasso Lyceum","operator":"Lucas Onderwijs"}},{"type":"Feature","geometry":{"type":"Point","coordinates":[4.492913,52.053658]},"properties":{"category":"middelbare_school","name":"Praktijkcollege Zoetermeer","operator":"Lucas Onderwijs"}},{"type":"Feature","geometry":{"type":"Point","coordinates":[4.486001,52.053714]},"properties":{"category":"middelbare_school","name":"Oranje Nassau College","operator":"Unicoz"}},{"type":"Feature","geometry":{"type":"Point","coordinates":[4.51287,52.065849]},"properties":{"category":"middelbare_school","name":"Oranje Nassau College","operator":"Unicoz"}},{"type":"Feature","geometry":{"type":"Point","coordinates":[4.46752,52.05787]},"properties":{"category":"middelbare_school","name":"Pleysier College Zoetermeer","operator":"Pleysier College"}},{"type":"Feature","geometry":{"type":"Point","coordinates":[4.501696,52.070838]},"properties":{"category":"middelbare_school","name":"Alfrink College","operator":""}},{"type":"Feature","geometry":{"type":"Point","coordinates":[4.49045,52.034127]},"properties":{"category":"sportveld","name":"Dekker","operator":""}},{"type":"Feature","geometry":{"type":"Point","coordinates":[4.491147,52.033078]},"properties":{"category":"sportveld","name":"FC Zoetermeer","operator":""}},{"type":"Feature","geometry":{"type":"Point","coordinates":[4.457792,52.070937]},"properties":{"category":"sportveld","name":"SnowWorld Zoetermeer","operator":"SnowWorld"}},{"type":"Feature","geometry":{"type":"Point","coordinates":[4.483701,52.038351]},"properties":{"category":"sportveld","name":"De Veur","operator":""}},{"type":"Feature","geometry":{"type":"Point","coordinates":[4.511487,52.063044]},"properties":{"category":"sportveld","name":"Doing","operator":""}},{"type":"Feature","geometry":{"type":"Point","coordinates":[4.493626,52.039055]},"properties":{"category":"sportveld","name":"","operator":""}},{"type":"Feature","geometry":{"type":"Point","coordinates":[4.521223,52.075527]},"properties":{"category":"sportveld","name":"","operator":""}},{"type":"Feature","geometry":{"type":"Point","coordinates":[4.540304,52.05837]},"properties":{"category":"sportveld","name":"Sporthal Oosterpoort","operator":""}},{"type":"Feature","geometry":{"type":"Point","coordinates":[4.473619,52.054644]},"properties":{"category":"sportveld","name":"","operator":""}},{"type":"Feature","geometry":{"type":"Point","coordinates":[4.447182,52.052267]},"properties":{"category":"sportveld","name":"sv DWO","operator":""}},{"type":"Feature","geometry":{"type":"Point","coordinates":[4.471664,52.055037]},"properties":{"category":"sportveld","name":"Denkers","operator":""}},{"type":"Feature","geometry":{"type":"Point","coordinates":[4.507618,52.079257]},"properties":{"category":"sportveld","name":"Road Runners Zoetermeer","operator":""}},{"type":"Feature","geometry":{"type":"Point","coordinates":[4.478089,52.063782]},"properties":{"category":"sportveld","name":"Sporthal Den Brabanderhove","operator":""}},{"type":"Feature","geometry":{"type":"Point","coordinates":[4.498366,52.065209]},"properties":{"category":"sportveld","name":"De Leyens Fitness & Racketclub","operator":""}},{"type":"Feature","geometry":{"type":"Point","coordinates":[4.505188,52.080047]},"properties":{"category":"sportveld","name":"The Dutch Dragons","operator":""}},{"type":"Feature","geometry":{"type":"Point","coordinates":[4.485053,52.065142]},"properties":{"category":"sportveld","name":"","operator":""}},{"type":"Feature","geometry":{"type":"Point","coordinates":[4.48801,52.059883]},"properties":{"category":"sportveld","name":"Biljart en snookercentrum Zoetermeer","operator":""}},{"type":"Feature","geometry":{"type":"Point","coordinates":[4.480472,52.051715]},"properties":{"category":"sportveld","name":"Move4life","operator":""}},{"type":"Feature","geometry":{"type":"Point","coordinates":[4.502822,52.052331]},"properties":{"category":"sportveld","name":"Yotosama","operator":""}},{"type":"Feature","geometry":{"type":"Point","coordinates":[4.459817,52.068119]},"properties":{"category":"sportveld","name":"Adventure Valley","operator":""}},{"type":"Feature","geometry":{"type":"Point","coordinates":[4.524245,52.046213]},"properties":{"category":"sportveld","name":"Tennis- en Padelvereniging Seghwaert","operator":""}},{"type":"Feature","geometry":{"type":"Point","coordinates":[4.513051,52.087949]},"properties":{"category":"sportveld","name":"","operator":""}},{"type":"Feature","geometry":{"type":"Point","coordinates":[4.488858,52.061437]},"properties":{"category":"winkelcentrum","name":"Winkelcentrum Stadshart","operator":""}},{"type":"Feature","geometry":{"type":"Point","coordinates":[4.469078,52.055989]},"properties":{"category":"winkelcentrum","name":"Winkelcentrum Meerzicht","operator":""}},{"type":"Feature","geometry":{"type":"Point","coordinates":[4.477102,52.043401]},"properties":{"category":"winkelcentrum","name":"Winkelcentrum Rokkeveen","operator":""}},{"type":"Feature","geometry":{"type":"Point","coordinates":[4.492181,52.064396]},"properties":{"category":"winkelcentrum","name":"Woonhart","operator":""}},{"type":"Feature","geometry":{"type":"Point","coordinates":[4.494433,52.071207]},"properties":{"category":"supermarkt","name":"Albert Heijn","operator":""}},{"type":"Feature","geometry":{"type":"Point","coordinates":[4.4687,52.0556]},"properties":{"category":"supermarkt","name":"Jumbo","operator":""}},{"type":"Feature","geometry":{"type":"Point","coordinates":[4.48662,52.061043]},"properties":{"category":"supermarkt","name":"Albert Heijn XL","operator":""}},{"type":"Feature","geometry":{"type":"Point","coordinates":[4.515308,52.063476]},"properties":{"category":"supermarkt","name":"Albert Heijn","operator":""}},{"type":"Feature","geometry":{"type":"Point","coordinates":[4.498032,52.056015]},"properties":{"category":"supermarkt","name":"Hoogvliet","operator":""}},{"type":"Feature","geometry":{"type":"Point","coordinates":[4.540436,52.060119]},"properties":{"category":"supermarkt","name":"Hoogvliet","operator":""}},{"type":"Feature","geometry":{"type":"Point","coordinates":[4.520097,52.075492]},"properties":{"category":"supermarkt","name":"Albert Heijn","operator":""}},{"type":"Feature","geometry":{"type":"Point","coordinates":[4.54111,52.059325]},"properties":{"category":"supermarkt","name":"Jumbo","operator":""}},{"type":"Feature","geometry":{"type":"Point","coordinates":[4.540686,52.060834]},"properties":{"category":"supermarkt","name":"ALDI","operator":""}},{"type":"Feature","geometry":{"type":"Point","coordinates":[4.514575,52.063958]},"properties":{"category":"supermarkt","name":"Lidl","operator":"Lidl Nederland GmbH"}},{"type":"Feature","geometry":{"type":"Point","coordinates":[4.494595,52.039918]},"properties":{"category":"supermarkt","name":"Jumbo Mike Bogaard","operator":""}},{"type":"Feature","geometry":{"type":"Point","coordinates":[4.476658,52.043648]},"properties":{"category":"supermarkt","name":"Albert Heijn","operator":""}},{"type":"Feature","geometry":{"type":"Point","coordinates":[4.515139,52.063967]},"properties":{"category":"supermarkt","name":"Adam Markt","operator":""}},{"type":"Feature","geometry":{"type":"Point","coordinates":[4.510175,52.069415]},"properties":{"category":"supermarkt","name":"Jumbo","operator":""}},{"type":"Feature","geometry":{"type":"Point","coordinates":[4.494271,52.071896]},"properties":{"category":"supermarkt","name":"Supermarkt & Slijterij De Leyens","operator":""}},{"type":"Feature","geometry":{"type":"Point","coordinates":[4.49508,52.071981]},"properties":{"category":"supermarkt","name":"Lidl","operator":"Lidl Nederland GmbH"}},{"type":"Feature","geometry":{"type":"Point","coordinates":[4.478461,52.066279]},"properties":{"category":"supermarkt","name":"Mori Supermarkt & Slagerij","operator":""}},{"type":"Feature","geometry":{"type":"Point","coordinates":[4.478519,52.066125]},"properties":{"category":"supermarkt","name":"Lidl","operator":"Lidl Nederland GmbH"}},{"type":"Feature","geometry":{"type":"Point","coordinates":[4.500425,52.053977]},"properties":{"category":"supermarkt","name":"Biowinkel","operator":""}},{"type":"Feature","geometry":{"type":"Point","coordinates":[4.484663,52.053165]},"properties":{"category":"supermarkt","name":"Hoogvliet","operator":""}},{"type":"Feature","geometry":{"type":"Point","coordinates":[4.496996,52.056427]},"properties":{"category":"supermarkt","name":"Roni Markt","operator":""}},{"type":"Feature","geometry":{"type":"Point","coordinates":[4.468838,52.056648]},"properties":{"category":"supermarkt","name":"Albert Heijn","operator":""}},{"type":"Feature","geometry":{"type":"Point","coordinates":[4.478532,52.066652]},"properties":{"category":"supermarkt","name":"Jumbo","operator":""}},{"type":"Feature","geometry":{"type":"Point","coordinates":[4.477566,52.043147]},"properties":{"category":"supermarkt","name":"Jumbo","operator":""}},{"type":"Feature","geometry":{"type":"Point","coordinates":[4.495026,52.062166]},"properties":{"category":"supermarkt","name":"Hoogvliet","operator":""}},{"type":"Feature","geometry":{"type":"Point","coordinates":[4.477743,52.067275]},"properties":{"category":"supermarkt","name":"Al Basma Supermarkt","operator":""}},{"type":"Feature","geometry":{"type":"Point","coordinates":[4.508144,52.057597]},"properties":{"category":"supermarkt","name":"ALDI","operator":""}},{"type":"Feature","geometry":{"type":"Point","coordinates":[4.507742,52.057596]},"properties":{"category":"supermarkt","name":"Dirk","operator":""}},{"type":"Feature","geometry":{"type":"Point","coordinates":[4.468668,52.055835]},"properties":{"category":"supermarkt","name":"Alsabiel Supermarkt","operator":""}},{"type":"Feature","geometry":{"type":"Point","coordinates":[4.492806,52.061818]},"properties":{"category":"supermarkt","name":"Dirk","operator":""}},{"type":"Feature","geometry":{"type":"Point","coordinates":[4.488068,52.060591]},"properties":{"category":"fietsenstalling","name":"","operator":""}},{"type":"Feature","geometry":{"type":"Point","coordinates":[4.490773,52.062956]},"properties":{"category":"fietsenstalling","name":"Z Stal","operator":""}},{"type":"Feature","geometry":{"type":"Point","coordinates":[4.470684,52.062577]},"properties":{"category":"fietsenstalling","name":"","operator":""}},{"type":"Feature","geometry":{"type":"Point","coordinates":[4.477394,52.046795]},"properties":{"category":"fietsenstalling","name":"","operator":"Z-stal"}},{"type":"Feature","geometry":{"type":"Point","coordinates":[4.491894,52.046647]},"properties":{"category":"fietsenstalling","name":"","operator":""}},{"type":"Feature","geometry":{"type":"Point","coordinates":[4.483646,52.060927]},"properties":{"category":"fietsenstalling","name":"Z-stal","operator":"Z-stal"}},{"type":"Feature","geometry":{"type":"Point","coordinates":[4.47679,52.048634]},"properties":{"category":"fietsenstalling","name":"","operator":"Z-stal"}},{"type":"Feature","geometry":{"type":"Point","coordinates":[4.491973,52.046334]},"properties":{"category":"fietsenstalling","name":"","operator":""}},{"type":"Feature","geometry":{"type":"Point","coordinates":[4.490482,52.045895]},"properties":{"category":"fietsenstalling","name":"","operator":""}},{"type":"Feature","geometry":{"type":"Point","coordinates":[4.489804,52.064904]},"properties":{"category":"fietsenstalling","name":"","operator":""}},{"type":"Feature","geometry":{"type":"Point","coordinates":[4.4779,52.048509]},"properties":{"category":"fietsenstalling","name":"","operator":""}},{"type":"Feature","geometry":{"type":"Point","coordinates":[4.47808,52.048499]},"properties":{"category":"fietsenstalling","name":"","operator":"NS"}},{"type":"Feature","geometry":{"type":"Point","coordinates":[4.486856,52.051025]},"properties":{"category":"fietsenstalling","name":"","operator":""}},{"type":"Feature","geometry":{"type":"Point","coordinates":[4.486916,52.051025]},"properties":{"category":"fietsenstalling","name":"","operator":"NS"}},{"type":"Feature","geometry":{"type":"Point","coordinates":[4.544378,52.049954]},"properties":{"category":"fietsenstalling","name":"","operator":""}},{"type":"Feature","geometry":{"type":"Point","coordinates":[4.467531,52.047339]},"properties":{"category":"fietsenstalling","name":"","operator":""}},{"type":"Feature","geometry":{"type":"Point","coordinates":[4.510148,52.068859]},"properties":{"category":"fietsenstalling","name":"","operator":""}},{"type":"Feature","geometry":{"type":"Point","coordinates":[4.484765,52.068521]},"properties":{"category":"fietsenstalling","name":"","operator":""}},{"type":"Feature","geometry":{"type":"Point","coordinates":[4.49437,52.062654]},"properties":{"category":"parkeergarage","name":"Stadshart P9 Duitslandlaan","operator":""}},{"type":"Feature","geometry":{"type":"Point","coordinates":[4.491401,52.062412]},"properties":{"category":"parkeergarage","name":"Stadshart P4 Luxemburglaan","operator":""}},{"type":"Feature","geometry":{"type":"Point","coordinates":[4.488332,52.062268]},"properties":{"category":"parkeergarage","name":"Stadshart P1 Belgiëlaan","operator":""}},{"type":"Feature","geometry":{"type":"Point","coordinates":[4.487558,52.06087]},"properties":{"category":"parkeergarage","name":"Stadshart P2 Bovenlangs","operator":""}},{"type":"Feature","geometry":{"type":"Point","coordinates":[4.491349,52.060934]},"properties":{"category":"parkeergarage","name":"Stadshart P5 Amsterdamstraat","operator":""}},{"type":"Feature","geometry":{"type":"Point","coordinates":[4.483758,52.061265]},"properties":{"category":"parkeergarage","name":"Stadshart P8 Nederlandlaan","operator":""}},{"type":"Feature","geometry":{"type":"Point","coordinates":[4.487481,52.060722]},"properties":{"category":"parkeergarage","name":"Stadshart P2 Onderlangs","operator":""}},{"type":"Feature","geometry":{"type":"Point","coordinates":[4.541146,52.059093]},"properties":{"category":"parkeergarage","name":"","operator":""}},{"type":"Feature","geometry":{"type":"Point","coordinates":[4.495316,52.061841]},"properties":{"category":"parkeergarage","name":"Cadenza/Hoogvliet","operator":"Interparking"}},{"type":"Feature","geometry":{"type":"Point","coordinates":[4.468971,52.057223]},"properties":{"category":"parkeergarage","name":"","operator":""}},{"type":"Feature","geometry":{"type":"Point","coordinates":[4.499187,52.057972]},"properties":{"category":"parkeergarage","name":"","operator":""}},{"type":"Feature","geometry":{"type":"Point","coordinates":[4.492719,52.073907]},"properties":{"category":"parkeergarage","name":"","operator":""}},{"type":"Feature","geometry":{"type":"Point","coordinates":[4.497919,52.057432]},"properties":{"category":"parkeergarage","name":"","operator":"CKC"}},{"type":"Feature","geometry":{"type":"Point","coordinates":[4.49952,52.067309]},"properties":{"category":"parkeergarage","name":"Parkeergarage Langeland","operator":""}},{"type":"Feature","geometry":{"type":"Point","coordinates":[4.497836,52.057375]},"properties":{"category":"parkeergarage","name":"","operator":""}},{"type":"Feature","geometry":{"type":"Point","coordinates":[4.494957,52.046446]},"properties":{"category":"p_and_r","name":"","operator":""}},{"type":"Feature","geometry":{"type":"Point","coordinates":[4.490719,52.045116]},"properties":{"category":"p_and_r","name":"","operator":""}},{"type":"Feature","geometry":{"type":"Point","coordinates":[4.475264,52.049169]},"properties":{"category":"p_and_r","name":"Parkeerplaats Station Driemanspolder","operator":""}},{"type":"Feature","geometry":{"type":"Point","coordinates":[4.470739,52.062973]},"properties":{"category":"p_and_r","name":"","operator":""}}]}