{"type":"FeatureCollection","metadata":{"gemeente":"Zundert","slug":"zundert","by_category":{"bus_halte":34,"bibliotheek":4,"sportveld":2,"gemeentehuis":1,"middelbare_school":1},"total":42},"features":[{"type":"Feature","geometry":{"type":"Point","coordinates":[4.64516,51.456053]},"properties":{"category":"bus_halte","name":"Oude Baan","operator":""}},{"type":"Feature","geometry":{"type":"Point","coordinates":[4.647021,51.465989]},"properties":{"category":"bus_halte","name":"Achtmaalseweg","operator":""}},{"type":"Feature","geometry":{"type":"Point","coordinates":[4.650712,51.464636]},"properties":{"category":"bus_halte","name":"Leeuwerikstraat","operator":""}},{"type":"Feature","geometry":{"type":"Point","coordinates":[4.649378,51.467724]},"properties":{"category":"bus_halte","name":"Zwarte Berk","operator":""}},{"type":"Feature","geometry":{"type":"Point","coordinates":[4.652533,51.469308]},"properties":{"category":"bus_halte","name":"Berkenlaan","operator":""}},{"type":"Feature","geometry":{"type":"Point","coordinates":[4.671593,51.479155]},"properties":{"category":"bus_halte","name":"Akkermolenweg","operator":""}},{"type":"Feature","geometry":{"type":"Point","coordinates":[4.679162,51.489876]},"properties":{"category":"bus_halte","name":"Stuivezand","operator":""}},{"type":"Feature","geometry":{"type":"Point","coordinates":[4.686215,51.499649]},"properties":{"category":"bus_halte","name":"Oude Postbaan","operator":""}},{"type":"Feature","geometry":{"type":"Point","coordinates":[4.69131,51.506018]},"properties":{"category":"bus_halte","name":"Beemdstraat","operator":""}},{"type":"Feature","geometry":{"type":"Point","coordinates":[4.695213,51.51544]},"properties":{"category":"bus_halte","name":"Koningin Julianastraat","operator":""}},{"type":"Feature","geometry":{"type":"Point","coordinates":[4.69956,51.518273]},"properties":{"category":"bus_halte","name":"Gommersstraat","operator":""}},{"type":"Feature","geometry":{"type":"Point","coordinates":[4.707844,51.52573]},"properties":{"category":"bus_halte","name":"Baantjespad","operator":""}},{"type":"Feature","geometry":{"type":"Point","coordinates":[4.718575,51.538962]},"properties":{"category":"bus_halte","name":"Krabbenbossen","operator":""}},{"type":"Feature","geometry":{"type":"Point","coordinates":[4.656971,51.467956]},"properties":{"category":"bus_halte","name":"Oranjeplein","operator":""}},{"type":"Feature","geometry":{"type":"Point","coordinates":[4.656924,51.468208]},"properties":{"category":"bus_halte","name":"Oranjeplein","operator":""}},{"type":"Feature","geometry":{"type":"Point","coordinates":[4.678789,51.489013]},"properties":{"category":"bus_halte","name":"Stuivezand","operator":""}},{"type":"Feature","geometry":{"type":"Point","coordinates":[4.673503,51.481736]},"properties":{"category":"bus_halte","name":"Akkermolenweg","operator":""}},{"type":"Feature","geometry":{"type":"Point","coordinates":[4.707917,51.526096]},"properties":{"category":"bus_halte","name":"Baantjespad","operator":""}},{"type":"Feature","geometry":{"type":"Point","coordinates":[4.694938,51.514887]},"properties":{"category":"bus_halte","name":"Koningin Julianastraat","operator":""}},{"type":"Feature","geometry":{"type":"Point","coordinates":[4.717299,51.537666]},"properties":{"category":"bus_halte","name":"Krabbenbossen","operator":""}},{"type":"Feature","geometry":{"type":"Point","coordinates":[4.650786,51.464481]},"properties":{"category":"bus_halte","name":"Leeuwerikstraat","operator":""}},{"type":"Feature","geometry":{"type":"Point","coordinates":[4.667536,51.470923]},"properties":{"category":"bus_halte","name":"Burgemeester Manderslaan","operator":""}},{"type":"Feature","geometry":{"type":"Point","coordinates":[4.667611,51.470884]},"properties":{"category":"bus_halte","name":"Burgemeester Manderslaan","operator":""}},{"type":"Feature","geometry":{"type":"Point","coordinates":[4.66743,51.47465]},"properties":{"category":"bus_halte","name":"Willem Passtoorsstraat","operator":""}},{"type":"Feature","geometry":{"type":"Point","coordinates":[4.667438,51.474793]},"properties":{"category":"bus_halte","name":"Willem Passtoorsstraat","operator":""}},{"type":"Feature","geometry":{"type":"Point","coordinates":[4.656741,51.479349]},"properties":{"category":"bus_halte","name":"Jan Koekenplein","operator":""}},{"type":"Feature","geometry":{"type":"Point","coordinates":[4.58446,51.453768]},"properties":{"category":"bus_halte","name":"Pastoor de Bakkerstraat","operator":""}},{"type":"Feature","geometry":{"type":"Point","coordinates":[4.693704,51.524102]},"properties":{"category":"bus_halte","name":"Waterman","operator":""}},{"type":"Feature","geometry":{"type":"Point","coordinates":[4.698756,51.517936]},"properties":{"category":"bus_halte","name":"Gommersstraat","operator":""}},{"type":"Feature","geometry":{"type":"Point","coordinates":[4.667557,51.472908]},"properties":{"category":"bus_halte","name":"Meirseweg","operator":""}},{"type":"Feature","geometry":{"type":"Point","coordinates":[4.667253,51.473032]},"properties":{"category":"bus_halte","name":"Meirseweg","operator":""}},{"type":"Feature","geometry":{"type":"Point","coordinates":[4.659562,51.475103]},"properties":{"category":"bus_halte","name":"Veldstraat","operator":""}},{"type":"Feature","geometry":{"type":"Point","coordinates":[4.659305,51.475023]},"properties":{"category":"bus_halte","name":"Veldstraat","operator":""}},{"type":"Feature","geometry":{"type":"Point","coordinates":[4.625454,51.428997]},"properties":{"category":"bus_halte","name":"Wernhoutsburg","operator":""}},{"type":"Feature","geometry":{"type":"Point","coordinates":[4.664275,51.473025]},"properties":{"category":"gemeentehuis","name":"Gemeentehuis Zundert","operator":"Gemeente Zundert"}},{"type":"Feature","geometry":{"type":"Point","coordinates":[4.698634,51.514541]},"properties":{"category":"bibliotheek","name":"Bibliotheek Rijsbergen","operator":"Bibliotheek West-Brabant"}},{"type":"Feature","geometry":{"type":"Point","coordinates":[4.66472,51.46965]},"properties":{"category":"bibliotheek","name":"Haal- en Brengpunt Zundert - De Willaert","operator":"Bibliotheek West-Brabant"}},{"type":"Feature","geometry":{"type":"Point","coordinates":[4.699715,51.51877]},"properties":{"category":"bibliotheek","name":"Haal- en Brengpunt Rijsbergen","operator":"Bibliotheek West-Brabant"}},{"type":"Feature","geometry":{"type":"Point","coordinates":[4.664421,51.472963]},"properties":{"category":"bibliotheek","name":"Haal- en Brengpunt Zundert - Gemeentehuis","operator":"Bibliotheek West-Brabant"}},{"type":"Feature","geometry":{"type":"Point","coordinates":[4.665709,51.476927]},"properties":{"category":"middelbare_school","name":"Mencia Sandrode","operator":"Libréon"}},{"type":"Feature","geometry":{"type":"Point","coordinates":[4.663924,51.464822]},"properties":{"category":"sportveld","name":"de Wildert","operator":"Optisport"}},{"type":"Feature","geometry":{"type":"Point","coordinates":[4.690678,51.521088]},"properties":{"category":"sportveld","name":"","operator":""}}]}