{"type":"FeatureCollection","metadata":{"gemeente":"Beekdaelen","slug":"beekdaelen","generated_at":"2026-10-05T08:45:06.822902Z","total_points":58,"providers":["Amazon","DHL","DPD","PostNL","VintedGo","GLS","ViaTim","FedEx","InPost"],"bounds":[5.82374291,50.889922,5.980816,50.981177807964634]},"features":[{"type":"Feature","geometry":{"type":"Point","coordinates":[5.8579133,50.8901334]},"properties":{"type":"pakketpunt","locatieNaam":"DHL - Pakketautomaat AH Hulsberg","straatNaam":"Europaplein 1","straatNr":"","vervoerder":"Amazon","puntType":"3p","bezettingsgraad":50,"latitude":50.8901334,"longitude":5.8579133,"canPickup":true,"canDropoff":false,"openingstijden":null}},{"type":"Feature","geometry":{"type":"Point","coordinates":[5.971416991221331,50.97501554028165]},"properties":{"type":"pakketpunt","locatieNaam":"DHL - DeBuren Locker 24-7 Lukoil Schinv","straatNaam":"Echterbaan 1","straatNr":"","vervoerder":"Amazon","puntType":"3p","bezettingsgraad":50,"latitude":50.97501554028165,"longitude":5.971416991221331,"canPickup":true,"canDropoff":false,"openingstijden":null}},{"type":"Feature","geometry":{"type":"Point","coordinates":[5.881541342925342,50.929119309834405]},"properties":{"type":"pakketpunt","locatieNaam":"DHL - DeBuren Locker 24-7  Lukoil Nuth","straatNaam":"Daelderweg 12-A","straatNr":"","vervoerder":"Amazon","puntType":"3p","bezettingsgraad":50,"latitude":50.929119309834405,"longitude":5.881541342925342,"canPickup":true,"canDropoff":false,"openingstijden":null}},{"type":"Feature","geometry":{"type":"Point","coordinates":[5.87384,50.91165]},"properties":{"type":"pakketpunt","locatieNaam":"DHL - DeBuren Locker 24-7 TinQ Nuth","straatNaam":"Valkenburgerweg 81","straatNr":"","vervoerder":"Amazon","puntType":"3p","bezettingsgraad":50,"latitude":50.91165,"longitude":5.87384,"canPickup":true,"canDropoff":false,"openingstijden":null}},{"type":"Feature","geometry":{"type":"Point","coordinates":[5.8579133,50.8901334]},"properties":{"type":"pakketpunt","locatieNaam":"Pakketautomaat AH Hulsberg","straatNaam":"Europaplein","straatNr":"1","vervoerder":"DHL","puntType":"packStation","bezettingsgraad":50,"latitude":50.8901334,"longitude":5.8579133,"canPickup":true,"canDropoff":true,"openingstijden":{"ma":"00:00 - 23:59","di":"00:00 - 23:59","wo":"00:00 - 23:59","do":"00:00 - 23:59","vr":"00:00 - 23:59","za":"00:00 - 23:59","zo":"00:00 - 23:59"}}},{"type":"Feature","geometry":{"type":"Point","coordinates":[5.87384,50.91165]},"properties":{"type":"pakketpunt","locatieNaam":"DeBuren Locker 24-7 TinQ Nuth","straatNaam":"Valkenburgerweg","straatNr":"81","vervoerder":"DHL","puntType":"packStation","bezettingsgraad":50,"latitude":50.91165,"longitude":5.87384,"canPickup":true,"canDropoff":true,"openingstijden":{"ma":"00:00 - 23:59","di":"00:00 - 23:59","wo":"00:00 - 23:59","do":"00:00 - 23:59","vr":"00:00 - 23:59","za":"00:00 - 23:59","zo":"00:00 - 23:59"}}},{"type":"Feature","geometry":{"type":"Point","coordinates":[5.8849697,50.9180793]},"properties":{"type":"pakketpunt","locatieNaam":"Drukkerij Nuth","straatNaam":"Stationstraat","straatNr":"264-A","vervoerder":"DHL","puntType":"parcelShop","bezettingsgraad":50,"latitude":50.9180793,"longitude":5.8849697,"canPickup":true,"canDropoff":true,"openingstijden":{"ma":"09:00 - 17:00","di":"09:00 - 17:00","wo":"09:00 - 17:00","do":"09:00 - 17:30","vr":"09:00 - 17:00","za":"gesloten","zo":"gesloten"}}},{"type":"Feature","geometry":{"type":"Point","coordinates":[5.881541342925342,50.929119309834405]},"properties":{"type":"pakketpunt","locatieNaam":"DeBuren Locker 24-7  Lukoil Nuth","straatNaam":"Daelderweg","straatNr":"12-A","vervoerder":"DHL","puntType":"packStation","bezettingsgraad":50,"latitude":50.929119309834405,"longitude":5.881541342925342,"canPickup":true,"canDropoff":true,"openingstijden":{"ma":"00:00 - 23:59","di":"00:00 - 23:59","wo":"00:00 - 23:59","do":"00:00 - 23:59","vr":"00:00 - 23:59","za":"00:00 - 23:59","zo":"00:00 - 23:59"}}},{"type":"Feature","geometry":{"type":"Point","coordinates":[5.923785209655762,50.9414176940918]},"properties":{"type":"pakketpunt","locatieNaam":"Luno Baby & Kids","straatNaam":"hoofdstraat","straatNr":"16","vervoerder":"DHL","puntType":"parcelShop","bezettingsgraad":50,"latitude":50.9414176940918,"longitude":5.923785209655762,"canPickup":true,"canDropoff":true,"openingstijden":{"ma":"gesloten","di":"10:00 - 17:30","wo":"10:00 - 17:30","do":"10:00 - 17:30","vr":"10:00 - 17:30","za":"10:00 - 16:00","zo":"gesloten"}}},{"type":"Feature","geometry":{"type":"Point","coordinates":[5.971416991221331,50.97501554028165]},"properties":{"type":"pakketpunt","locatieNaam":"DeBuren Locker 24-7 Lukoil Schinv","straatNaam":"Echterbaan","straatNr":"1","vervoerder":"DHL","puntType":"packStation","bezettingsgraad":50,"latitude":50.97501554028165,"longitude":5.971416991221331,"canPickup":true,"canDropoff":true,"openingstijden":{"ma":"00:00 - 23:59","di":"00:00 - 23:59","wo":"00:00 - 23:59","do":"00:00 - 23:59","vr":"00:00 - 23:59","za":"00:00 - 23:59","zo":"00:00 - 23:59"}}},{"type":"Feature","geometry":{"type":"Point","coordinates":[5.9087688,50.9498497]},"properties":{"type":"pakketpunt","locatieNaam":"Douf","straatNaam":"DORPSTRAAT","straatNr":"100","vervoerder":"DPD","puntType":"pickup_point","bezettingsgraad":50,"latitude":50.9498497,"longitude":5.9087688,"canPickup":true,"canDropoff":true,"openingstijden":{"ma":"gesloten","di":"11:00 - 17:00","wo":"11:00 - 17:00","do":"11:00 - 17:00","vr":"11:00 - 17:00","za":"10:00 - 16:00","zo":"gesloten"}}},{"type":"Feature","geometry":{"type":"Point","coordinates":[5.87384,50.91165]},"properties":{"type":"pakketpunt","locatieNaam":"Pakketautomaat TinQ Valkenburgerweg","straatNaam":"VALKENBURGERWEG","straatNr":"81","vervoerder":"DPD","puntType":"dpd_box","bezettingsgraad":50,"latitude":50.91165,"longitude":5.87384,"canPickup":true,"canDropoff":true,"openingstijden":{"ma":"00:00 - 23:59","di":"00:00 - 23:59","wo":"00:00 - 23:59","do":"00:00 - 23:59","vr":"00:00 - 23:59","za":"00:00 - 23:59","zo":"00:00 - 23:59"}}},{"type":"Feature","geometry":{"type":"Point","coordinates":[5.88174,50.92573]},"properties":{"type":"pakketpunt","locatieNaam":"Pakketautomaat Lukoil Daelderweg","straatNaam":"DAELDERWEG","straatNr":"12A","vervoerder":"DPD","puntType":"dpd_box","bezettingsgraad":50,"latitude":50.92573,"longitude":5.88174,"canPickup":true,"canDropoff":true,"openingstijden":{"ma":"00:01 - 23:59","di":"00:01 - 23:59","wo":"00:01 - 23:59","do":"00:01 - 23:59","vr":"00:01 - 23:59","za":"00:01 - 23:59","zo":"00:01 - 23:59"}}},{"type":"Feature","geometry":{"type":"Point","coordinates":[5.97104,50.97445]},"properties":{"type":"pakketpunt","locatieNaam":"Pakketautomaat Lukoil Echterbaan","straatNaam":"ECHTERBAAN","straatNr":"1","vervoerder":"DPD","puntType":"dpd_box","bezettingsgraad":50,"latitude":50.97445,"longitude":5.97104,"canPickup":true,"canDropoff":true,"openingstijden":{"ma":"00:01 - 23:59","di":"00:01 - 23:59","wo":"00:01 - 23:59","do":"00:01 - 23:59","vr":"00:01 - 23:59","za":"00:01 - 23:59","zo":"00:01 - 23:59"}}},{"type":"Feature","geometry":{"type":"Point","coordinates":[5.9027699852946,50.9297839911495]},"properties":{"type":"pakketpunt","locatieNaam":"Pakket- en briefautomaat","straatNaam":"Vaesrade","straatNr":"58PBA","vervoerder":"PostNL","puntType":"automaat","bezettingsgraad":50,"latitude":50.9297839911495,"longitude":5.9027699852946,"canPickup":true,"canDropoff":true,"openingstijden":"00:00 - 23:59"}},{"type":"Feature","geometry":{"type":"Point","coordinates":[5.92401761386781,50.9405550321521]},"properties":{"type":"pakketpunt","locatieNaam":"Pakket- en briefautomaat","straatNaam":"De Root","straatNr":"3PBA","vervoerder":"PostNL","puntType":"automaat","bezettingsgraad":50,"latitude":50.9405550321521,"longitude":5.92401761386781,"canPickup":true,"canDropoff":true,"openingstijden":"00:00 - 23:59"}},{"type":"Feature","geometry":{"type":"Point","coordinates":[5.90772780745549,50.9494296092373]},"properties":{"type":"pakketpunt","locatieNaam":"Pakketautomaat","straatNaam":"Markt","straatNr":"20PBA","vervoerder":"PostNL","puntType":"automaat","bezettingsgraad":50,"latitude":50.9494296092373,"longitude":5.90772780745549,"canPickup":true,"canDropoff":true,"openingstijden":"08:00 - 20:00"}},{"type":"Feature","geometry":{"type":"Point","coordinates":[5.88630187429292,50.9432496900779]},"properties":{"type":"pakketpunt","locatieNaam":"Pakket- en briefautomaat","straatNaam":"Scalaplein","straatNr":"1PBA","vervoerder":"PostNL","puntType":"automaat","bezettingsgraad":50,"latitude":50.9432496900779,"longitude":5.88630187429292,"canPickup":true,"canDropoff":true,"openingstijden":"00:00 - 23:59"}},{"type":"Feature","geometry":{"type":"Point","coordinates":[5.87951127082631,50.9241952773177]},"properties":{"type":"pakketpunt","locatieNaam":"Pakketautomaat","straatNaam":"Thermiekstraat","straatNr":"12PBA","vervoerder":"PostNL","puntType":"automaat","bezettingsgraad":50,"latitude":50.9241952773177,"longitude":5.87951127082631,"canPickup":true,"canDropoff":true,"openingstijden":"00:00 - 23:59"}},{"type":"Feature","geometry":{"type":"Point","coordinates":[5.874755676,50.93851679]},"properties":{"type":"pakketpunt","locatieNaam":"Pakket- en Briefautomaat","straatNaam":"Nagelbeek","straatNr":"3PBA","vervoerder":"PostNL","puntType":"automaat","bezettingsgraad":50,"latitude":50.93851679,"longitude":5.874755676,"canPickup":true,"canDropoff":true,"openingstijden":"00:00 - 23:59"}},{"type":"Feature","geometry":{"type":"Point","coordinates":[5.88481420560072,50.91728904163418]},"properties":{"type":"pakketpunt","locatieNaam":"Pakketautomaat","straatNaam":"Markt","straatNr":"21PBA","vervoerder":"PostNL","puntType":"automaat","bezettingsgraad":50,"latitude":50.91728904163418,"longitude":5.88481420560072,"canPickup":true,"canDropoff":true,"openingstijden":"00:00 - 23:59"}},{"type":"Feature","geometry":{"type":"Point","coordinates":[5.93454260700763,50.9546993135789]},"properties":{"type":"pakketpunt","locatieNaam":"Pakket- en briefautomaat","straatNaam":"Douve","straatNr":"4PBA","vervoerder":"PostNL","puntType":"automaat","bezettingsgraad":50,"latitude":50.9546993135789,"longitude":5.93454260700763,"canPickup":true,"canDropoff":true,"openingstijden":"00:00 - 23:59"}},{"type":"Feature","geometry":{"type":"Point","coordinates":[5.930368269,50.95915952]},"properties":{"type":"pakketpunt","locatieNaam":"Aveve Tuin Dier Merkelbeek","straatNaam":"Belenweg","straatNr":"29","vervoerder":"PostNL","puntType":"servicepunt","bezettingsgraad":50,"latitude":50.95915952,"longitude":5.930368269,"canPickup":true,"canDropoff":true,"openingstijden":"09:00 - 18:00 (Na 18:00 open; Zaterdag open)"}},{"type":"Feature","geometry":{"type":"Point","coordinates":[5.901545498,50.96418113]},"properties":{"type":"pakketpunt","locatieNaam":"Pakket- en briefautomaat","straatNaam":"Provincialeweg noord","straatNr":"82PBA","vervoerder":"PostNL","puntType":"automaat","bezettingsgraad":50,"latitude":50.96418113,"longitude":5.901545498,"canPickup":true,"canDropoff":true,"openingstijden":"00:00 - 23:59"}},{"type":"Feature","geometry":{"type":"Point","coordinates":[5.87066545563489,50.955505034917]},"properties":{"type":"pakketpunt","locatieNaam":"Pakket- en briefautomaat","straatNaam":"Pastoor Albertsstraat","straatNr":"10PBA","vervoerder":"PostNL","puntType":"automaat","bezettingsgraad":50,"latitude":50.955505034917,"longitude":5.87066545563489,"canPickup":true,"canDropoff":true,"openingstijden":"00:00 - 23:59"}},{"type":"Feature","geometry":{"type":"Point","coordinates":[5.94043587249265,50.9690716280467]},"properties":{"type":"pakketpunt","locatieNaam":"Pakket- en briefautomaat","straatNaam":"Dorpsstraat","straatNr":"145PBA","vervoerder":"PostNL","puntType":"automaat","bezettingsgraad":50,"latitude":50.9690716280467,"longitude":5.94043587249265,"canPickup":true,"canDropoff":true,"openingstijden":"00:00 - 23:59"}},{"type":"Feature","geometry":{"type":"Point","coordinates":[5.84869676338465,50.9531766726843]},"properties":{"type":"pakketpunt","locatieNaam":"Pakketautomaat","straatNaam":"Rector Simonsstraat","straatNr":"1PBA","vervoerder":"PostNL","puntType":"automaat","bezettingsgraad":50,"latitude":50.9531766726843,"longitude":5.84869676338465,"canPickup":true,"canDropoff":true,"openingstijden":"00:00 - 23:59"}},{"type":"Feature","geometry":{"type":"Point","coordinates":[5.94164891702013,50.9811739673885]},"properties":{"type":"pakketpunt","locatieNaam":"Pakket- en briefautomaat","straatNaam":"Gaatstraat","straatNr":"1PBA","vervoerder":"PostNL","puntType":"automaat","bezettingsgraad":50,"latitude":50.9811739673885,"longitude":5.94164891702013,"canPickup":true,"canDropoff":true,"openingstijden":"00:00 - 23:59"}},{"type":"Feature","geometry":{"type":"Point","coordinates":[5.98081583466788,50.9684671733389]},"properties":{"type":"pakketpunt","locatieNaam":"Pakket- en briefautomaat","straatNaam":"A ge Water","straatNr":"3PBA","vervoerder":"PostNL","puntType":"automaat","bezettingsgraad":50,"latitude":50.9684671733389,"longitude":5.98081583466788,"canPickup":true,"canDropoff":true,"openingstijden":"00:00 - 23:59"}},{"type":"Feature","geometry":{"type":"Point","coordinates":[5.857329,50.889922]},"properties":{"type":"pakketpunt","locatieNaam":"Pakket- en briefautomaat","straatNaam":"Kloosterlaan","straatNr":"13PBA","vervoerder":"PostNL","puntType":"automaat","bezettingsgraad":50,"latitude":50.889922,"longitude":5.857329,"canPickup":true,"canDropoff":true,"openingstijden":"00:00 - 23:59"}},{"type":"Feature","geometry":{"type":"Point","coordinates":[5.823757213,50.90427493]},"properties":{"type":"pakketpunt","locatieNaam":"Plus Kaumanns Schimmert","straatNaam":"Weidestraat","straatNr":"3","vervoerder":"PostNL","puntType":"servicepunt","bezettingsgraad":50,"latitude":50.90427493,"longitude":5.823757213,"canPickup":true,"canDropoff":true,"openingstijden":"08:00 - 20:00 (Na 18:00 open; Zaterdag open; Zondag open)"}},{"type":"Feature","geometry":{"type":"Point","coordinates":[5.82374291283653,50.9042659933053]},"properties":{"type":"pakketpunt","locatieNaam":"Pakket- en briefautomaat","straatNaam":"Weidestraat","straatNr":"3PBA","vervoerder":"PostNL","puntType":"automaat","bezettingsgraad":50,"latitude":50.9042659933053,"longitude":5.82374291283653,"canPickup":true,"canDropoff":true,"openingstijden":"00:00 - 23:59"}},{"type":"Feature","geometry":{"type":"Point","coordinates":[5.8831057,50.9240671]},"properties":{"type":"pakketpunt","locatieNaam":"Wolfs Verlichting Bv","straatNaam":"Daelderweg 31","straatNr":"","vervoerder":"VintedGo","puntType":"locker","bezettingsgraad":50,"latitude":50.9240671,"longitude":5.8831057,"canPickup":true,"canDropoff":true,"openingstijden":null}},{"type":"Feature","geometry":{"type":"Point","coordinates":[5.82374291,50.9042659]},"properties":{"type":"pakketpunt","locatieNaam":"Pakketautomaat","straatNaam":"Weidestraat","straatNr":"3","vervoerder":"GLS","puntType":"locker","bezettingsgraad":50,"latitude":50.9042659,"longitude":5.82374291,"canPickup":true,"canDropoff":true,"openingstijden":{"ma":"00:00 - 23:59","di":"00:00 - 23:59","wo":"00:00 - 23:59","do":"00:00 - 23:59","vr":"00:00 - 23:59","za":"00:00 - 23:59","zo":"00:00 - 23:59"}}},{"type":"Feature","geometry":{"type":"Point","coordinates":[5.857329,50.889922]},"properties":{"type":"pakketpunt","locatieNaam":"Pakketautomaat","straatNaam":"Kloosterlaan","straatNr":"13","vervoerder":"GLS","puntType":"locker","bezettingsgraad":50,"latitude":50.889922,"longitude":5.857329,"canPickup":true,"canDropoff":true,"openingstijden":{"ma":"00:00 - 23:59","di":"00:00 - 23:59","wo":"00:00 - 23:59","do":"00:00 - 23:59","vr":"00:00 - 23:59","za":"00:00 - 23:59","zo":"00:00 - 23:59"}}},{"type":"Feature","geometry":{"type":"Point","coordinates":[5.8848142,50.917289]},"properties":{"type":"pakketpunt","locatieNaam":"Pakketautomaat","straatNaam":"Markt","straatNr":"21","vervoerder":"GLS","puntType":"locker","bezettingsgraad":50,"latitude":50.917289,"longitude":5.8848142,"canPickup":true,"canDropoff":true,"openingstijden":{"ma":"00:00 - 23:59","di":"00:00 - 23:59","wo":"00:00 - 23:59","do":"00:00 - 23:59","vr":"00:00 - 23:59","za":"00:00 - 23:59","zo":"00:00 - 23:59"}}},{"type":"Feature","geometry":{"type":"Point","coordinates":[5.87951127,50.9241952]},"properties":{"type":"pakketpunt","locatieNaam":"Pakketautomaat","straatNaam":"Thermiekstraat","straatNr":"12","vervoerder":"GLS","puntType":"locker","bezettingsgraad":50,"latitude":50.9241952,"longitude":5.87951127,"canPickup":true,"canDropoff":true,"openingstijden":{"ma":"00:00 - 23:59","di":"00:00 - 23:59","wo":"00:00 - 23:59","do":"00:00 - 23:59","vr":"00:00 - 23:59","za":"00:00 - 23:59","zo":"00:00 - 23:59"}}},{"type":"Feature","geometry":{"type":"Point","coordinates":[5.84869676,50.9531766]},"properties":{"type":"pakketpunt","locatieNaam":"Pakketautomaat","straatNaam":"Rector Simonsstraat","straatNr":"1","vervoerder":"GLS","puntType":"locker","bezettingsgraad":50,"latitude":50.9531766,"longitude":5.84869676,"canPickup":true,"canDropoff":true,"openingstijden":{"ma":"00:00 - 23:59","di":"00:00 - 23:59","wo":"00:00 - 23:59","do":"00:00 - 23:59","vr":"00:00 - 23:59","za":"00:00 - 23:59","zo":"00:00 - 23:59"}}},{"type":"Feature","geometry":{"type":"Point","coordinates":[5.87475567,50.9385167]},"properties":{"type":"pakketpunt","locatieNaam":"Pakketautomaat","straatNaam":"Nagelbeek","straatNr":"3","vervoerder":"GLS","puntType":"locker","bezettingsgraad":50,"latitude":50.9385167,"longitude":5.87475567,"canPickup":true,"canDropoff":true,"openingstijden":{"ma":"00:00 - 23:59","di":"00:00 - 23:59","wo":"00:00 - 23:59","do":"00:00 - 23:59","vr":"00:00 - 23:59","za":"00:00 - 23:59","zo":"00:00 - 23:59"}}},{"type":"Feature","geometry":{"type":"Point","coordinates":[5.85279897,50.89453056]},"properties":{"type":"pakketpunt","locatieNaam":"ViaTim en Arbels","straatNaam":"Aalbekerweg","straatNr":"41","vervoerder":"ViaTim","puntType":"servicepunt","bezettingsgraad":50,"latitude":50.89453056,"longitude":5.85279897,"canPickup":true,"canDropoff":true,"openingstijden":{"ma":"10:00 - 15:00","di":"10:00 - 15:00","wo":"10:00 - 15:00","do":"gesloten","vr":"gesloten","za":"gesloten","zo":"gesloten"}}},{"type":"Feature","geometry":{"type":"Point","coordinates":[5.848692297238718,50.95317799999998]},"properties":{"type":"pakketpunt","locatieNaam":"FedEx Ship&Get","straatNaam":"Rector Simonsstraat 1 PBA","straatNr":"","vervoerder":"FedEx","puntType":"servicepunt","bezettingsgraad":50,"latitude":50.95317799999998,"longitude":5.848692297238718,"canPickup":true,"canDropoff":true,"openingstijden":{"ma":"00:00 - 23:59","di":"00:00 - 23:59","wo":"00:00 - 23:59","do":"00:00 - 23:59","vr":"00:00 - 23:59","za":"00:00 - 23:59","zo":"00:00 - 23:59"}}},{"type":"Feature","geometry":{"type":"Point","coordinates":[5.823921526790934,50.90436851956025]},"properties":{"type":"pakketpunt","locatieNaam":"FedEx Ship&Get","straatNaam":"Weidestraat 3 PBA","straatNr":"","vervoerder":"FedEx","puntType":"servicepunt","bezettingsgraad":50,"latitude":50.90436851956025,"longitude":5.823921526790934,"canPickup":true,"canDropoff":true,"openingstijden":{"ma":"00:00 - 23:59","di":"00:00 - 23:59","wo":"00:00 - 23:59","do":"00:00 - 23:59","vr":"00:00 - 23:59","za":"00:00 - 23:59","zo":"00:00 - 23:59"}}},{"type":"Feature","geometry":{"type":"Point","coordinates":[5.870705330956607,50.95546551872619]},"properties":{"type":"pakketpunt","locatieNaam":"FedEx Ship&Get","straatNaam":"Pastoor Albertsstraat 10 PBA","straatNr":"","vervoerder":"FedEx","puntType":"servicepunt","bezettingsgraad":50,"latitude":50.95546551872619,"longitude":5.870705330956607,"canPickup":true,"canDropoff":true,"openingstijden":{"ma":"00:00 - 23:59","di":"00:00 - 23:59","wo":"00:00 - 23:59","do":"00:00 - 23:59","vr":"00:00 - 23:59","za":"00:00 - 23:59","zo":"00:00 - 23:59"}}},{"type":"Feature","geometry":{"type":"Point","coordinates":[5.874842947369938,50.938339693378516]},"properties":{"type":"pakketpunt","locatieNaam":"FedEx Ship&Get","straatNaam":"Nagelbeek 3 PBA","straatNr":"","vervoerder":"FedEx","puntType":"servicepunt","bezettingsgraad":50,"latitude":50.938339693378516,"longitude":5.874842947369938,"canPickup":true,"canDropoff":true,"openingstijden":{"ma":"00:00 - 23:59","di":"00:00 - 23:59","wo":"00:00 - 23:59","do":"00:00 - 23:59","vr":"00:00 - 23:59","za":"00:00 - 23:59","zo":"00:00 - 23:59"}}},{"type":"Feature","geometry":{"type":"Point","coordinates":[5.8866462749943915,50.943323048762174]},"properties":{"type":"pakketpunt","locatieNaam":"FedEx Ship&Get","straatNaam":"Scalaplein 1 PBA","straatNr":"","vervoerder":"FedEx","puntType":"servicepunt","bezettingsgraad":50,"latitude":50.943323048762174,"longitude":5.8866462749943915,"canPickup":true,"canDropoff":true,"openingstijden":{"ma":"00:00 - 23:59","di":"00:00 - 23:59","wo":"00:00 - 23:59","do":"00:00 - 23:59","vr":"00:00 - 23:59","za":"00:00 - 23:59","zo":"00:00 - 23:59"}}},{"type":"Feature","geometry":{"type":"Point","coordinates":[5.879511,50.924195]},"properties":{"type":"pakketpunt","locatieNaam":"FedEx Ship&Get","straatNaam":"Thermiekstraat 12 PBA","straatNr":"","vervoerder":"FedEx","puntType":"servicepunt","bezettingsgraad":50,"latitude":50.924195,"longitude":5.879511,"canPickup":true,"canDropoff":true,"openingstijden":{"ma":"00:00 - 23:59","di":"00:00 - 23:59","wo":"00:00 - 23:59","do":"00:00 - 23:59","vr":"00:00 - 23:59","za":"00:00 - 23:59","zo":"00:00 - 23:59"}}},{"type":"Feature","geometry":{"type":"Point","coordinates":[5.904234475747447,50.96240685724524]},"properties":{"type":"pakketpunt","locatieNaam":"FedEx Ship&Get","straatNaam":"Provincialeweg noord 82 PBA","straatNr":"","vervoerder":"FedEx","puntType":"servicepunt","bezettingsgraad":50,"latitude":50.96240685724524,"longitude":5.904234475747447,"canPickup":true,"canDropoff":true,"openingstijden":{"ma":"00:00 - 23:59","di":"00:00 - 23:59","wo":"00:00 - 23:59","do":"00:00 - 23:59","vr":"00:00 - 23:59","za":"00:00 - 23:59","zo":"00:00 - 23:59"}}},{"type":"Feature","geometry":{"type":"Point","coordinates":[5.857632417321312,50.89020455012557]},"properties":{"type":"pakketpunt","locatieNaam":"FedEx Ship&Get","straatNaam":"Kloosterlaan 13 PBA","straatNr":"","vervoerder":"FedEx","puntType":"servicepunt","bezettingsgraad":50,"latitude":50.89020455012557,"longitude":5.857632417321312,"canPickup":true,"canDropoff":true,"openingstijden":{"ma":"00:00 - 23:59","di":"00:00 - 23:59","wo":"00:00 - 23:59","do":"00:00 - 23:59","vr":"00:00 - 23:59","za":"00:00 - 23:59","zo":"00:00 - 23:59"}}},{"type":"Feature","geometry":{"type":"Point","coordinates":[5.884445062436963,50.91739807503894]},"properties":{"type":"pakketpunt","locatieNaam":"FedEx Ship&Get","straatNaam":"Markt 21 PBA","straatNr":"","vervoerder":"FedEx","puntType":"servicepunt","bezettingsgraad":50,"latitude":50.91739807503894,"longitude":5.884445062436963,"canPickup":true,"canDropoff":true,"openingstijden":{"ma":"00:00 - 23:59","di":"00:00 - 23:59","wo":"00:00 - 23:59","do":"00:00 - 23:59","vr":"00:00 - 23:59","za":"00:00 - 23:59","zo":"00:00 - 23:59"}}},{"type":"Feature","geometry":{"type":"Point","coordinates":[5.907768552436541,50.949356540581334]},"properties":{"type":"pakketpunt","locatieNaam":"FedEx Ship&Get","straatNaam":"Markt 20 PBA","straatNr":"","vervoerder":"FedEx","puntType":"servicepunt","bezettingsgraad":50,"latitude":50.949356540581334,"longitude":5.907768552436541,"canPickup":true,"canDropoff":true,"openingstijden":{"ma":"08:00 - 20:00","di":"08:00 - 20:00","wo":"08:00 - 20:00","do":"08:00 - 21:00","vr":"08:00 - 21:00","za":"08:00 - 20:00","zo":"10:00 - 18:00"}}},{"type":"Feature","geometry":{"type":"Point","coordinates":[5.902717988877488,50.929755612125234]},"properties":{"type":"pakketpunt","locatieNaam":"FedEx Ship&Get","straatNaam":"Vaesrade 58 PBA","straatNr":"","vervoerder":"FedEx","puntType":"servicepunt","bezettingsgraad":50,"latitude":50.929755612125234,"longitude":5.902717988877488,"canPickup":true,"canDropoff":true,"openingstijden":{"ma":"00:00 - 23:59","di":"00:00 - 23:59","wo":"00:00 - 23:59","do":"00:00 - 23:59","vr":"00:00 - 23:59","za":"00:00 - 23:59","zo":"00:00 - 23:59"}}},{"type":"Feature","geometry":{"type":"Point","coordinates":[5.903370886508168,50.9303755905006]},"properties":{"type":"pakketpunt","locatieNaam":"FedEx Ship&Get","straatNaam":"Vaesrade 71","straatNr":"","vervoerder":"FedEx","puntType":"servicepunt","bezettingsgraad":50,"latitude":50.9303755905006,"longitude":5.903370886508168,"canPickup":true,"canDropoff":true,"openingstijden":{"ma":"gesloten","di":"gesloten","wo":"gesloten","do":"gesloten","vr":"gesloten","za":"gesloten","zo":"gesloten"}}},{"type":"Feature","geometry":{"type":"Point","coordinates":[5.941650554172244,50.981177807964634]},"properties":{"type":"pakketpunt","locatieNaam":"FedEx Ship&Get","straatNaam":"Gaatstraat 1 PBA","straatNr":"","vervoerder":"FedEx","puntType":"servicepunt","bezettingsgraad":50,"latitude":50.981177807964634,"longitude":5.941650554172244,"canPickup":true,"canDropoff":true,"openingstijden":{"ma":"00:00 - 23:59","di":"00:00 - 23:59","wo":"00:00 - 23:59","do":"00:00 - 23:59","vr":"00:00 - 23:59","za":"00:00 - 23:59","zo":"00:00 - 23:59"}}},{"type":"Feature","geometry":{"type":"Point","coordinates":[5.940539526379558,50.969105375507766]},"properties":{"type":"pakketpunt","locatieNaam":"FedEx Ship&Get","straatNaam":"Dorpsstraat 145 PBA","straatNr":"","vervoerder":"FedEx","puntType":"servicepunt","bezettingsgraad":50,"latitude":50.969105375507766,"longitude":5.940539526379558,"canPickup":true,"canDropoff":true,"openingstijden":{"ma":"00:00 - 23:59","di":"00:00 - 23:59","wo":"00:00 - 23:59","do":"00:00 - 23:59","vr":"00:00 - 23:59","za":"00:00 - 23:59","zo":"00:00 - 23:59"}}},{"type":"Feature","geometry":{"type":"Point","coordinates":[5.924018,50.940555]},"properties":{"type":"pakketpunt","locatieNaam":"FedEx Ship&Get","straatNaam":"De Root 3 PBA","straatNr":"","vervoerder":"FedEx","puntType":"servicepunt","bezettingsgraad":50,"latitude":50.940555,"longitude":5.924018,"canPickup":true,"canDropoff":true,"openingstijden":{"ma":"00:00 - 23:59","di":"00:00 - 23:59","wo":"00:00 - 23:59","do":"00:00 - 23:59","vr":"00:00 - 23:59","za":"00:00 - 23:59","zo":"00:00 - 23:59"}}},{"type":"Feature","geometry":{"type":"Point","coordinates":[5.934593609384393,50.95469156212847]},"properties":{"type":"pakketpunt","locatieNaam":"FedEx Ship&Get","straatNaam":"Douve 4 PBA","straatNr":"","vervoerder":"FedEx","puntType":"servicepunt","bezettingsgraad":50,"latitude":50.95469156212847,"longitude":5.934593609384393,"canPickup":true,"canDropoff":true,"openingstijden":{"ma":"00:00 - 23:59","di":"00:00 - 23:59","wo":"00:00 - 23:59","do":"00:00 - 23:59","vr":"00:00 - 23:59","za":"00:00 - 23:59","zo":"00:00 - 23:59"}}},{"type":"Feature","geometry":{"type":"Point","coordinates":[5.980816,50.968467]},"properties":{"type":"pakketpunt","locatieNaam":"FedEx Ship&Get","straatNaam":"A ge Water 3 PBA","straatNr":"","vervoerder":"FedEx","puntType":"servicepunt","bezettingsgraad":50,"latitude":50.968467,"longitude":5.980816,"canPickup":true,"canDropoff":true,"openingstijden":{"ma":"00:00 - 23:59","di":"00:00 - 23:59","wo":"00:00 - 23:59","do":"00:00 - 23:59","vr":"00:00 - 23:59","za":"00:00 - 23:59","zo":"00:00 - 23:59"}}},{"type":"Feature","geometry":{"type":"Point","coordinates":[5.87954,50.92422]},"properties":{"type":"pakketpunt","locatieNaam":"","straatNaam":"Thermiekstraat","straatNr":"12","vervoerder":"InPost","puntType":"automaat","bezettingsgraad":50,"latitude":50.92422,"longitude":5.87954,"canPickup":true,"canDropoff":true,"openingstijden":"24/7"}},{"type":"Feature","geometry":{"type":"Polygon","coordinates":[[[5.796563,50.897697],[5.79882,50.897987],[5.800201,50.898144],[5.80052,50.898181],[5.800566,50.898091],[5.800612,50.897999],[5.800983,50.897267],[5.801032,50.897166],[5.801334,50.896595],[5.801488,50.896307],[5.801574,50.89638],[5.801748,50.896516],[5.802239,50.896875],[5.802453,50.897046],[5.802746,50.89731],[5.803001,50.897559],[5.803204,50.897749],[5.803424,50.897963],[5.803481,50.898037],[5.80348,50.898111],[5.803436,50.898188],[5.803177,50.898408],[5.803019,50.89855],[5.802888,50.898685],[5.802785,50.898821],[5.802725,50.898938],[5.802673,50.899092],[5.802617,50.899344],[5.802559,50.899568],[5.80252,50.899675],[5.802488,50.899758],[5.802437,50.899862],[5.802119,50.900508],[5.802079,50.900576],[5.802038,50.900627],[5.801972,50.900676],[5.80185,50.900744],[5.801713,50.900804],[5.801565,50.900859],[5.80144,50.900896],[5.801235,50.90094],[5.801033,50.900971],[5.800883,50.900985],[5.800645,50.900995],[5.80039,50.900996],[5.800377,50.900988],[5.799943,50.900986],[5.799322,50.901003],[5.79913,50.901008],[5.798817,50.901015],[5.798755,50.901012],[5.798692,50.901015],[5.798667,50.901015],[5.798688,50.901059],[5.798712,50.90111],[5.798754,50.90112],[5.798872,50.90116],[5.799016,50.901215],[5.799419,50.90138],[5.799633,50.901468],[5.800409,50.901786],[5.800604,50.901871],[5.801032,50.902077],[5.801173,50.902139],[5.801323,50.902192],[5.801556,50.902254],[5.801688,50.902285],[5.801692,50.902281],[5.801695,50.902277],[5.802227,50.902396],[5.802223,50.902399],[5.802257,50.902412],[5.799128,50.904946],[5.797867,50.906184],[5.797267,50.90679],[5.796557,50.907479],[5.797351,50.907807],[5.797291,50.907858],[5.79763,50.907929],[5.798002,50.908017],[5.798209,50.908068],[5.7993,50.90835],[5.799946,50.908505],[5.800684,50.908682],[5.800805,50.908707],[5.800981,50.90875],[5.801003,50.908755],[5.800838,50.909219],[5.800532,50.910049],[5.800454,50.910241],[5.800429,50.910374],[5.800469,50.910948],[5.800534,50.911447],[5.800591,50.91197],[5.800855,50.912416],[5.800928,50.912576],[5.800996,50.912572],[5.801073,50.912571],[5.801127,50.912573],[5.8012,50.91258],[5.801273,50.912587],[5.801337,50.912595],[5.801406,50.912606],[5.801453,50.912619],[5.801483,50.912632],[5.802003,50.913162],[5.802117,50.913314],[5.802152,50.91337],[5.802229,50.913501],[5.802299,50.913623],[5.802329,50.91367],[5.802393,50.913795],[5.802221,50.913891],[5.801962,50.914012],[5.801715,50.91413],[5.801787,50.914138],[5.801822,50.914143],[5.801868,50.914148],[5.802152,50.914182],[5.802573,50.914232],[5.802593,50.914234],[5.803153,50.9143],[5.803704,50.914366],[5.803736,50.914369],[5.803806,50.914378],[5.803826,50.91438],[5.804228,50.914428],[5.804528,50.914463],[5.804539,50.914464],[5.80454,50.914484],[5.804604,50.914472],[5.804621,50.914474],[5.804867,50.914503],[5.804872,50.914504],[5.805207,50.914543],[5.805502,50.914578],[5.806007,50.914638],[5.806423,50.914687],[5.806921,50.914746],[5.806925,50.914747],[5.807286,50.914789],[5.80755,50.914821],[5.807555,50.914821],[5.807722,50.914841],[5.807728,50.914842],[5.808432,50.914925],[5.808435,50.914926],[5.809453,50.915046],[5.810534,50.915174],[5.810705,50.915194],[5.810715,50.915195],[5.811935,50.91534],[5.811946,50.915341],[5.812663,50.915426],[5.812678,50.915427],[5.812688,50.915429],[5.812708,50.915431],[5.812724,50.915433],[5.813234,50.91549],[5.813265,50.915493],[5.813779,50.915551],[5.813801,50.915553],[5.813826,50.915556],[5.814199,50.915597],[5.814531,50.915635],[5.814565,50.915638],[5.815618,50.915756],[5.816023,50.915802],[5.816031,50.915802],[5.817231,50.915936],[5.817245,50.915938],[5.817247,50.915938],[5.817787,50.915998],[5.817796,50.915999],[5.818904,50.916123],[5.81893,50.916126],[5.818942,50.916127],[5.818945,50.916128],[5.818993,50.916089],[5.819085,50.916015],[5.819172,50.915933],[5.819223,50.915876],[5.819275,50.915808],[5.819307,50.915739],[5.819311,50.91573],[5.819315,50.91572],[5.819779,50.915776],[5.819805,50.915779],[5.820176,50.915823],[5.820197,50.915826],[5.821188,50.915944],[5.82121,50.915946],[5.822252,50.916071],[5.822279,50.916074],[5.824729,50.916366],[5.824742,50.916368],[5.824852,50.916381],[5.825225,50.916425],[5.825522,50.916461],[5.825538,50.916463],[5.825621,50.916472],[5.827022,50.91664],[5.827035,50.916641],[5.827171,50.916657],[5.827193,50.91666],[5.827213,50.916662],[5.827221,50.916663],[5.827248,50.916667],[5.828011,50.916758],[5.828168,50.916776],[5.828227,50.916783],[5.828759,50.916847],[5.828822,50.916854],[5.828878,50.916861],[5.828893,50.916863],[5.829663,50.916955],[5.829685,50.916957],[5.830586,50.917065],[5.830838,50.917094],[5.831125,50.917129],[5.831136,50.91713],[5.831557,50.91718],[5.831916,50.917384],[5.831849,50.917585],[5.831846,50.917595],[5.831578,50.918396],[5.831532,50.918535],[5.831531,50.918538],[5.831523,50.918563],[5.831466,50.918733],[5.831455,50.918766],[5.831453,50.918773],[5.831368,50.919025],[5.831282,50.919285],[5.831246,50.919392],[5.831995,50.919643],[5.832078,50.919547],[5.833409,50.919939],[5.833439,50.920107],[5.833457,50.920208],[5.833545,50.920142],[5.833886,50.92003],[5.834078,50.920013],[5.834266,50.920003],[5.834665,50.919984],[5.835339,50.919972],[5.835357,50.91997],[5.835604,50.919943],[5.835598,50.919925],[5.835649,50.919938],[5.838346,50.919786],[5.838736,50.919761],[5.83935,50.919723],[5.840316,50.919663],[5.840657,50.919645],[5.84116,50.919618],[5.841257,50.919613],[5.841262,50.919619],[5.841498,50.919607],[5.841426,50.919683],[5.841424,50.919685],[5.841418,50.919691],[5.841391,50.91972],[5.841561,50.919826],[5.841858,50.920016],[5.842045,50.920135],[5.842155,50.920206],[5.842364,50.920343],[5.842461,50.920404],[5.842589,50.920479],[5.842655,50.920519],[5.842751,50.920591],[5.842789,50.920625],[5.842834,50.920667],[5.842896,50.920729],[5.84296,50.920811],[5.842987,50.920847],[5.843126,50.921031],[5.843206,50.921134],[5.843227,50.921157],[5.843315,50.921261],[5.843567,50.921552],[5.843629,50.921624],[5.843885,50.92192],[5.844256,50.922347],[5.844264,50.922357],[5.844526,50.922658],[5.84479,50.922966],[5.845066,50.923284],[5.845172,50.923404],[5.845387,50.923651],[5.845501,50.923785],[5.84562,50.923928],[5.84572,50.924062],[5.845737,50.924086],[5.845769,50.924134],[5.845736,50.924154],[5.845798,50.924222],[5.84585,50.92428],[5.845912,50.92434],[5.84598,50.924402],[5.846109,50.924507],[5.846296,50.924661],[5.846385,50.924741],[5.846484,50.924858],[5.846563,50.924932],[5.846721,50.925068],[5.846771,50.925142],[5.84688,50.92529],[5.846969,50.925413],[5.847078,50.925542],[5.847236,50.925775],[5.847232,50.925777],[5.847201,50.925878],[5.847267,50.925925],[5.847522,50.926121],[5.847735,50.926259],[5.847753,50.926269],[5.848202,50.926484],[5.848527,50.926638],[5.849229,50.927071],[5.849231,50.927072],[5.84924,50.927082],[5.84925,50.927094],[5.84937,50.927094],[5.849397,50.927094],[5.849696,50.927172],[5.849891,50.927229],[5.850093,50.927291],[5.849889,50.927517],[5.850034,50.927685],[5.850537,50.92823],[5.850764,50.928495],[5.850994,50.928814],[5.851398,50.929329],[5.851414,50.929355],[5.851451,50.929411],[5.851472,50.92943],[5.851486,50.929449],[5.851521,50.929486],[5.851525,50.929496],[5.851616,50.929611],[5.851727,50.929749],[5.851747,50.929776],[5.851882,50.929941],[5.85193,50.930002],[5.85204,50.93017],[5.852058,50.930197],[5.85207,50.930227],[5.852082,50.9303],[5.852112,50.930425],[5.852125,50.930506],[5.852144,50.930585],[5.852174,50.930746],[5.852207,50.930834],[5.852256,50.930936],[5.852405,50.931131],[5.852471,50.931191],[5.852506,50.931226],[5.85263,50.931375],[5.852656,50.931399],[5.852893,50.931654],[5.852898,50.931658],[5.852927,50.931681],[5.852939,50.931695],[5.852952,50.931718],[5.853159,50.931947],[5.853191,50.931979],[5.853286,50.932158],[5.853359,50.932302],[5.853433,50.932428],[5.853508,50.932567],[5.853549,50.932644],[5.853594,50.932739],[5.853688,50.932908],[5.853782,50.933075],[5.853852,50.933227],[5.854002,50.933521],[5.854176,50.933884],[5.854303,50.93412],[5.85441,50.934282],[5.85449,50.934392],[5.854711,50.934665],[5.854749,50.934712],[5.854793,50.934766],[5.854851,50.934827],[5.854896,50.934899],[5.854914,50.934938],[5.854991,50.935058],[5.855036,50.935158],[5.855081,50.935218],[5.855119,50.935299],[5.855168,50.935398],[5.85528,50.935583],[5.855487,50.935957],[5.855518,50.936007],[5.855583,50.936134],[5.855587,50.936183],[5.855613,50.936266],[5.855626,50.936347],[5.855586,50.936421],[5.855466,50.936667],[5.855442,50.936694],[5.855401,50.936802],[5.855386,50.936918],[5.855374,50.936972],[5.855372,50.936987],[5.855358,50.937019],[5.855395,50.937087],[5.855423,50.937174],[5.855462,50.937306],[5.855488,50.937383],[5.855504,50.937443],[5.855523,50.937491],[5.855853,50.938465],[5.855892,50.938556],[5.855925,50.938674],[5.855874,50.938855],[5.855703,50.939067],[5.85571,50.939082],[5.855698,50.9391],[5.855694,50.939136],[5.855726,50.939195],[5.855759,50.939246],[5.855811,50.939312],[5.855842,50.939345],[5.855874,50.93937],[5.855946,50.939422],[5.856005,50.939462],[5.856049,50.939487],[5.85609,50.939501],[5.856121,50.939733],[5.856154,50.939978],[5.856192,50.940362],[5.856207,50.940579],[5.856206,50.94062],[5.856202,50.940651],[5.856189,50.940683],[5.856175,50.940704],[5.856152,50.940722],[5.856052,50.940786],[5.856049,50.940788],[5.856017,50.940808],[5.85599,50.940821],[5.855985,50.940832],[5.855986,50.940892],[5.85598,50.940911],[5.855974,50.940913],[5.856019,50.941388],[5.856078,50.941616],[5.856108,50.941978],[5.856131,50.942037],[5.856133,50.942044],[5.856154,50.942105],[5.856167,50.942146],[5.856235,50.942349],[5.856241,50.942366],[5.856257,50.942413],[5.85633,50.942631],[5.856398,50.942944],[5.85643,50.943159],[5.856473,50.943252],[5.856479,50.943279],[5.856488,50.943318],[5.85651,50.943346],[5.856532,50.943362],[5.856535,50.943383],[5.856592,50.943406],[5.856621,50.943419],[5.856649,50.943438],[5.856675,50.943451],[5.8567,50.943473],[5.856705,50.943479],[5.856712,50.943487],[5.856722,50.943541],[5.856727,50.943621],[5.856761,50.943678],[5.856814,50.943745],[5.85683,50.943778],[5.856845,50.943809],[5.856864,50.943882],[5.85693,50.944001],[5.856729,50.944241],[5.856555,50.94445],[5.856553,50.944453],[5.856459,50.94455],[5.856389,50.944654],[5.85638,50.944667],[5.856367,50.944688],[5.856203,50.944874],[5.855857,50.945268],[5.855751,50.945389],[5.855713,50.94544],[5.855564,50.945618],[5.855567,50.945633],[5.855423,50.945775],[5.855352,50.945838],[5.85531,50.945874],[5.855247,50.945922],[5.855137,50.945995],[5.855046,50.946039],[5.854959,50.946076],[5.854888,50.946104],[5.854788,50.946141],[5.854705,50.946172],[5.854594,50.946214],[5.854542,50.946234],[5.854483,50.946254],[5.854423,50.946271],[5.854373,50.946292],[5.854352,50.946278],[5.8543,50.946298],[5.854313,50.946316],[5.854072,50.946402],[5.854027,50.946418],[5.85396,50.946441],[5.853838,50.94648],[5.85381,50.946484],[5.853727,50.946498],[5.853603,50.946507],[5.853402,50.946495],[5.853257,50.946481],[5.853255,50.946481],[5.853086,50.946447],[5.852826,50.946382],[5.852156,50.946135],[5.852138,50.946129],[5.851702,50.945996],[5.851111,50.945807],[5.850793,50.945704],[5.850484,50.945605],[5.850332,50.945561],[5.850202,50.945514],[5.850091,50.945452],[5.849994,50.945385],[5.849906,50.945313],[5.849824,50.945235],[5.84977,50.945177],[5.849711,50.945109],[5.849685,50.94505],[5.849672,50.945027],[5.849635,50.944947],[5.849582,50.944852],[5.849535,50.944794],[5.849427,50.944721],[5.849387,50.944694],[5.84935,50.944674],[5.849278,50.944657],[5.849137,50.944641],[5.848986,50.94464],[5.84892,50.944642],[5.848827,50.944646],[5.848661,50.944665],[5.848558,50.944689],[5.848461,50.944711],[5.84834,50.944749],[5.8482,50.944795],[5.847965,50.944873],[5.847756,50.944945],[5.847561,50.945015],[5.847274,50.945124],[5.846676,50.94537],[5.846248,50.945581],[5.846222,50.945594],[5.846111,50.945655],[5.845567,50.945963],[5.845217,50.946167],[5.845032,50.946267],[5.844581,50.946512],[5.844345,50.946659],[5.844066,50.94687],[5.843573,50.947271],[5.842718,50.947946],[5.84259,50.948023],[5.842463,50.948099],[5.842416,50.948115],[5.842341,50.948128],[5.842275,50.948134],[5.84226,50.948135],[5.842139,50.948138],[5.8421,50.948127],[5.842001,50.948101],[5.841943,50.948093],[5.841919,50.94809],[5.841905,50.948088],[5.841836,50.948189],[5.841924,50.948211],[5.841736,50.948299],[5.841728,50.948304],[5.841715,50.94831],[5.841672,50.948373],[5.841571,50.948575],[5.841436,50.948711],[5.841376,50.94876],[5.841303,50.94882],[5.841293,50.948812],[5.841151,50.948918],[5.841109,50.9489],[5.841066,50.948931],[5.841136,50.948975],[5.84102,50.949061],[5.840794,50.949205],[5.840738,50.949245],[5.840477,50.949434],[5.840464,50.949444],[5.840392,50.949501],[5.84031,50.949595],[5.840216,50.9498],[5.840209,50.949824],[5.840094,50.950158],[5.840001,50.950177],[5.839995,50.950177],[5.839892,50.950191],[5.839993,50.950345],[5.840046,50.950442],[5.840105,50.950762],[5.840135,50.951058],[5.840155,50.951649],[5.840158,50.952071],[5.840161,50.952389],[5.840145,50.9525],[5.840127,50.952573],[5.840038,50.952792],[5.839808,50.953319],[5.839575,50.953879],[5.839561,50.95395],[5.839561,50.95402],[5.839571,50.954085],[5.839599,50.954184],[5.839634,50.954251],[5.839679,50.95432],[5.839722,50.954388],[5.839777,50.954456],[5.840051,50.954712],[5.840074,50.954744],[5.840142,50.954873],[5.840283,50.954978],[5.839885,50.956216],[5.839823,50.956527],[5.839815,50.956567],[5.839783,50.956717],[5.83978,50.956918],[5.839818,50.957058],[5.839864,50.957163],[5.840129,50.95776],[5.840317,50.958188],[5.840598,50.958787],[5.840609,50.958811],[5.840652,50.958911],[5.84077,50.959175],[5.840882,50.959351],[5.840936,50.959419],[5.841093,50.959592],[5.841266,50.95976],[5.841588,50.960088],[5.841695,50.960165],[5.841815,50.960228],[5.841954,50.960296],[5.842267,50.960445],[5.842302,50.960467],[5.842368,50.960512],[5.842467,50.960588],[5.842523,50.960641],[5.842567,50.960695],[5.842608,50.960753],[5.84262,50.96078],[5.842665,50.960883],[5.842666,50.960886],[5.842734,50.961042],[5.84288,50.96139],[5.843075,50.961875],[5.843108,50.961961],[5.843116,50.961985],[5.843124,50.962011],[5.843127,50.962022],[5.843131,50.962053],[5.84314,50.962102],[5.843145,50.962141],[5.843152,50.962219],[5.843167,50.962404],[5.843198,50.962745],[5.843246,50.963295],[5.843266,50.963517],[5.843424,50.963508],[5.843962,50.963477],[5.844106,50.963594],[5.844177,50.963634],[5.844266,50.963673],[5.844442,50.963742],[5.844651,50.963816],[5.844678,50.963791],[5.844694,50.963795],[5.844946,50.963869],[5.84519,50.96394],[5.845472,50.964022],[5.845509,50.964033],[5.845575,50.964053],[5.845721,50.964095],[5.845794,50.964116],[5.845841,50.96413],[5.845871,50.964147],[5.846032,50.964232],[5.846195,50.964319],[5.846283,50.964367],[5.846314,50.964384],[5.84642,50.96443],[5.846441,50.964438],[5.84697,50.9647],[5.84724,50.964851],[5.847395,50.964938],[5.847396,50.964939],[5.847416,50.964955],[5.847491,50.964996],[5.84756,50.965033],[5.847706,50.965114],[5.847831,50.965183],[5.847931,50.965238],[5.848052,50.965305],[5.848153,50.965356],[5.848265,50.965414],[5.84828,50.965421],[5.848469,50.965535],[5.848486,50.965545],[5.848637,50.965623],[5.848662,50.965636],[5.84875,50.965678],[5.848767,50.965686],[5.848827,50.965714],[5.849015,50.965797],[5.849176,50.965865],[5.849283,50.965923],[5.84946,50.966023],[5.849538,50.966063],[5.849656,50.966122],[5.849673,50.966133],[5.849749,50.966178],[5.849861,50.96625],[5.84993,50.966295],[5.850058,50.966383],[5.850071,50.966392],[5.850191,50.966488],[5.850212,50.966505],[5.850229,50.96652],[5.850281,50.966569],[5.850294,50.966581],[5.850352,50.966636],[5.850535,50.966808],[5.850576,50.966847],[5.850719,50.966999],[5.850826,50.967114],[5.850837,50.967126],[5.850978,50.967278],[5.850983,50.967285],[5.851124,50.96741],[5.851217,50.967491],[5.851397,50.967601],[5.85148,50.967647],[5.851501,50.967659],[5.851675,50.967752],[5.851682,50.967756],[5.851709,50.96777],[5.852043,50.967954],[5.85206,50.967963],[5.852185,50.968027],[5.852595,50.967752],[5.853169,50.967368],[5.854449,50.966802],[5.854495,50.966793],[5.854529,50.966785],[5.854554,50.966772],[5.855079,50.966497],[5.85541,50.966268],[5.855535,50.966145],[5.855701,50.965982],[5.855828,50.965857],[5.856077,50.965522],[5.856116,50.965437],[5.856309,50.965023],[5.856399,50.964755],[5.856942,50.965153],[5.858323,50.966164],[5.858873,50.966567],[5.860446,50.965324],[5.86154,50.966071],[5.861573,50.966094],[5.861604,50.966119],[5.861709,50.96621],[5.861835,50.966146],[5.862574,50.965744],[5.86384,50.965055],[5.865844,50.963962],[5.866425,50.964259],[5.866588,50.964341],[5.866889,50.964494],[5.86737,50.964739],[5.867551,50.964831],[5.867621,50.964871],[5.867691,50.964912],[5.867851,50.965016],[5.86788,50.965038],[5.867904,50.965062],[5.868357,50.9656],[5.868587,50.965872],[5.868936,50.966287],[5.869034,50.966403],[5.869178,50.966567],[5.869652,50.966155],[5.869727,50.966073],[5.869811,50.965997],[5.870004,50.965848],[5.870133,50.965728],[5.870197,50.965677],[5.870368,50.965517],[5.870433,50.965465],[5.870489,50.965387],[5.870505,50.965368],[5.87054,50.965345],[5.870562,50.965294],[5.870787,50.965076],[5.870798,50.965047],[5.87083,50.965012],[5.870846,50.964963],[5.870865,50.964949],[5.870883,50.964927],[5.870897,50.964875],[5.870921,50.96487],[5.870921,50.964858],[5.870945,50.964816],[5.87098,50.964684],[5.871039,50.964569],[5.871063,50.964525],[5.87109,50.964485],[5.871158,50.964343],[5.871163,50.964324],[5.871168,50.964312],[5.871171,50.964305],[5.871212,50.964203],[5.871215,50.964198],[5.87122,50.964195],[5.872895,50.963175],[5.873424,50.962852],[5.873452,50.962835],[5.873503,50.962804],[5.87353,50.962815],[5.873825,50.962958],[5.873935,50.963011],[5.874194,50.963136],[5.874249,50.963169],[5.874275,50.963184],[5.875145,50.963871],[5.875299,50.963993],[5.875437,50.964078],[5.87553,50.96413],[5.876071,50.964391],[5.876178,50.964443],[5.876188,50.964452],[5.876317,50.964511],[5.876675,50.964687],[5.876769,50.964732],[5.876804,50.964754],[5.876848,50.964783],[5.876979,50.964566],[5.877151,50.964313],[5.877347,50.964112],[5.877534,50.963982],[5.877859,50.963802],[5.878155,50.963998],[5.878453,50.964188],[5.878623,50.964296],[5.878849,50.964189],[5.879027,50.964326],[5.879463,50.96466],[5.880135,50.965179],[5.880807,50.965744],[5.881029,50.965934],[5.881478,50.966321],[5.881485,50.966326],[5.881578,50.966285],[5.881599,50.966284],[5.881655,50.9663],[5.881686,50.966228],[5.881714,50.966276],[5.881757,50.966308],[5.881844,50.966347],[5.882061,50.966439],[5.882963,50.966816],[5.883243,50.966933],[5.883922,50.967218],[5.884044,50.96727],[5.884566,50.967489],[5.884674,50.967534],[5.884878,50.967618],[5.885095,50.967708],[5.88518,50.967758],[5.885261,50.967823],[5.885266,50.967828],[5.885312,50.967874],[5.885327,50.967896],[5.885354,50.967941],[5.885383,50.968018],[5.885389,50.968088],[5.885373,50.968171],[5.885267,50.968436],[5.885266,50.968438],[5.885447,50.968439],[5.886132,50.968444],[5.886692,50.968448],[5.887284,50.969014],[5.887468,50.969183],[5.887943,50.96962],[5.888519,50.97014],[5.888715,50.970315],[5.888884,50.970465],[5.888928,50.970501],[5.888966,50.970532],[5.889007,50.970602],[5.889087,50.970702],[5.889364,50.971055],[5.889482,50.971017],[5.889526,50.971003],[5.890598,50.971586],[5.890639,50.971609],[5.890826,50.971713],[5.890848,50.971725],[5.890572,50.971899],[5.890315,50.972059],[5.89028,50.972089],[5.890248,50.972117],[5.890373,50.97209],[5.890598,50.972549],[5.890862,50.973102],[5.890537,50.973162],[5.890792,50.973642],[5.891009,50.974038],[5.891017,50.974053],[5.891037,50.974094],[5.891278,50.974104],[5.891596,50.974118],[5.891898,50.974213],[5.892671,50.974451],[5.893025,50.974524],[5.893861,50.974694],[5.894449,50.974814],[5.894487,50.974822],[5.894535,50.974831],[5.894744,50.97486],[5.894909,50.974883],[5.895353,50.974941],[5.895346,50.974932],[5.89535,50.974932],[5.897023,50.974869],[5.897086,50.974865],[5.897863,50.974836],[5.899736,50.974765],[5.900462,50.974738],[5.901465,50.974669],[5.902429,50.974582],[5.903556,50.974567],[5.904695,50.974553],[5.904828,50.974565],[5.905601,50.97472],[5.907334,50.975153],[5.907386,50.975166],[5.908008,50.975353],[5.909235,50.975731],[5.909306,50.975753],[5.909577,50.975826],[5.911729,50.97641],[5.913132,50.97694],[5.914248,50.977361],[5.914717,50.977545],[5.915136,50.977673],[5.91559,50.977825],[5.916017,50.97791],[5.917173,50.978083],[5.917882,50.97791],[5.91789,50.977908],[5.918554,50.977747],[5.918664,50.977791],[5.91937,50.978077],[5.919452,50.97811],[5.919564,50.978156],[5.919656,50.978193],[5.922887,50.979503],[5.922896,50.979506],[5.922993,50.979546],[5.925331,50.980921],[5.925349,50.980931],[5.925671,50.981121],[5.927651,50.982285],[5.928321,50.982615],[5.928437,50.982672],[5.930262,50.98357],[5.930857,50.983863],[5.931032,50.983949],[5.931203,50.984033],[5.931547,50.984202],[5.933632,50.985228],[5.93383,50.985325],[5.933886,50.985353],[5.934074,50.985374],[5.935705,50.985557],[5.941337,50.986201],[5.941728,50.986246],[5.941904,50.986266],[5.942247,50.986305],[5.942377,50.98632],[5.942383,50.986321],[5.942606,50.986346],[5.946717,50.986816],[5.947273,50.98688],[5.949117,50.987091],[5.949766,50.987165],[5.950134,50.987207],[5.950549,50.987306],[5.95079,50.987364],[5.950925,50.987397],[5.951735,50.987591],[5.952956,50.987883],[5.953407,50.987991],[5.955185,50.988417],[5.955737,50.987564],[5.95615,50.986925],[5.95657,50.986277],[5.956841,50.985858],[5.956956,50.985681],[5.957226,50.985262],[5.957392,50.985005],[5.958465,50.984436],[5.96088,50.983156],[5.96083,50.983102],[5.960828,50.9831],[5.960786,50.983056],[5.961101,50.982936],[5.961394,50.982794],[5.965011,50.980939],[5.965111,50.980873],[5.965132,50.98086],[5.965241,50.980773],[5.965282,50.980728],[5.965328,50.980678],[5.965392,50.980597],[5.965426,50.980554],[5.965453,50.980517],[5.965598,50.98033],[5.965714,50.980204],[5.965845,50.980083],[5.965992,50.97997],[5.966153,50.979866],[5.966326,50.979769],[5.96651,50.979682],[5.966707,50.979603],[5.966911,50.979535],[5.967127,50.979479],[5.967346,50.979431],[5.967576,50.979396],[5.967811,50.979381],[5.968046,50.97938],[5.96828,50.979394],[5.968509,50.979427],[5.968731,50.97947],[5.969911,50.979711],[5.970005,50.97973],[5.970099,50.979749],[5.970309,50.979791],[5.971007,50.979933],[5.971534,50.980041],[5.971541,50.980042],[5.971875,50.980109],[5.972053,50.980146],[5.972387,50.980213],[5.973591,50.980458],[5.973937,50.980553],[5.974268,50.980669],[5.974301,50.980683],[5.975348,50.981118],[5.975439,50.981155],[5.975682,50.981256],[5.975958,50.981381],[5.975977,50.98139],[5.976129,50.981465],[5.976227,50.981512],[5.976499,50.981636],[5.977001,50.981845],[5.977097,50.981884],[5.97719,50.981923],[5.978328,50.982397],[5.979575,50.982916],[5.979855,50.982987],[5.981357,50.983217],[5.981584,50.983223],[5.981817,50.983192],[5.982042,50.983143],[5.982243,50.983068],[5.983875,50.982282],[5.984222,50.982115],[5.984233,50.982115],[5.984467,50.982122],[5.98466,50.982131],[5.985276,50.982152],[5.986316,50.982188],[5.988809,50.982272],[5.989402,50.982291],[5.992644,50.982416],[5.992667,50.982416],[5.998579,50.982635],[5.999523,50.98267],[6.003889,50.982836],[6.008236,50.983019],[6.008464,50.983029],[6.013771,50.983251],[6.017364,50.983402],[6.017226,50.983678],[6.017664,50.983724],[6.017726,50.983731],[6.018466,50.983808],[6.018701,50.983818],[6.019659,50.983741],[6.020276,50.983691],[6.0212,50.983594],[6.022434,50.983369],[6.022838,50.98328],[6.022931,50.98327],[6.025665,50.983204],[6.025692,50.983204],[6.026512,50.983272],[6.026531,50.983198],[6.026549,50.983127],[6.026508,50.983072],[6.026644,50.982577],[6.026736,50.982181],[6.026791,50.981675],[6.026822,50.981648],[6.026895,50.981641],[6.026802,50.981309],[6.026378,50.980565],[6.026289,50.980408],[6.025709,50.979391],[6.024787,50.977776],[6.023734,50.975927],[6.02363,50.975746],[6.022855,50.974387],[6.022645,50.974021],[6.022081,50.972794],[6.021985,50.972587],[6.021393,50.971446],[6.021163,50.971003],[6.019455,50.968949],[6.018789,50.967948],[6.018246,50.966968],[6.018151,50.966796],[6.017308,50.965274],[6.015945,50.963466],[6.015321,50.962538],[6.015288,50.96249],[6.015267,50.962458],[6.015207,50.962364],[6.014065,50.961274],[6.013229,50.960634],[6.013001,50.960398],[6.011894,50.960239],[6.011271,50.960133],[6.010687,50.960032],[6.009875,50.959786],[6.009081,50.959485],[6.007737,50.95882],[6.00664,50.958056],[6.006624,50.958042],[6.006054,50.957535],[6.005923,50.95755],[6.003464,50.957787],[6.003459,50.957783],[6.002401,50.957881],[6.001718,50.957892],[6.000793,50.957889],[6.000127,50.957865],[6.000043,50.95784],[5.999894,50.957797],[5.99925,50.957829],[5.999242,50.957775],[5.999193,50.957787],[5.998817,50.957877],[5.99847,50.957934],[5.99752,50.95809],[5.996249,50.958299],[5.995634,50.958375],[5.994986,50.958455],[5.99396,50.958651],[5.993408,50.958757],[5.993382,50.958763],[5.991737,50.958998],[5.991163,50.95908],[5.990974,50.959107],[5.990795,50.959133],[5.990605,50.95916],[5.990422,50.959186],[5.990185,50.95922],[5.990057,50.959238],[5.989832,50.959271],[5.989686,50.959291],[5.989592,50.959305],[5.989172,50.959365],[5.989108,50.959374],[5.988898,50.959405],[5.988581,50.959451],[5.988405,50.959477],[5.986504,50.959752],[5.985948,50.959833],[5.9859,50.95984],[5.984988,50.959972],[5.983834,50.96014],[5.983666,50.960164],[5.98355,50.960181],[5.980124,50.96068],[5.979645,50.960496],[5.979182,50.960319],[5.979058,50.960272],[5.978877,50.960203],[5.978039,50.959882],[5.977942,50.959954],[5.977895,50.959989],[5.977423,50.959738],[5.977094,50.959579],[5.976856,50.959333],[5.976218,50.959106],[5.975992,50.958999],[5.975716,50.958853],[5.975447,50.958711],[5.975385,50.958686],[5.975233,50.958632],[5.975099,50.958574],[5.975094,50.958572],[5.975018,50.958537],[5.974771,50.958418],[5.974729,50.958394],[5.974655,50.958384],[5.974401,50.958358],[5.974109,50.958336],[5.974023,50.958341],[5.973957,50.959375],[5.973234,50.959331],[5.973185,50.959328],[5.97308,50.959322],[5.972301,50.959275],[5.970757,50.960112],[5.970621,50.960186],[5.96985,50.960611],[5.969216,50.960962],[5.969148,50.961],[5.969084,50.961036],[5.969357,50.961224],[5.969465,50.96131],[5.969662,50.961544],[5.970154,50.961929],[5.970204,50.961957],[5.97068,50.962142],[5.970572,50.96219],[5.96999,50.962502],[5.969886,50.962519],[5.969882,50.962519],[5.969804,50.96253],[5.969128,50.962511],[5.96856,50.962495],[5.965862,50.962418],[5.965815,50.962252],[5.965675,50.961732],[5.965521,50.961161],[5.965474,50.961075],[5.965457,50.96105],[5.965357,50.960925],[5.965207,50.960772],[5.965136,50.960707],[5.964981,50.960569],[5.964838,50.960443],[5.964672,50.960299],[5.964584,50.960216],[5.964477,50.960121],[5.964395,50.960048],[5.964281,50.959954],[5.962917,50.958869],[5.962755,50.95874],[5.962654,50.958677],[5.962472,50.958581],[5.961825,50.958273],[5.959909,50.957358],[5.959441,50.957123],[5.959432,50.95709],[5.959185,50.95696],[5.959146,50.956962],[5.959117,50.956964],[5.959045,50.95691],[5.958869,50.956851],[5.958694,50.956785],[5.958419,50.956689],[5.958405,50.956677],[5.958388,50.956674],[5.958156,50.956479],[5.958138,50.956463],[5.957905,50.956219],[5.957846,50.956177],[5.95775,50.956087],[5.957707,50.956046],[5.95768,50.95602],[5.957639,50.955981],[5.957617,50.95596],[5.957589,50.955934],[5.957521,50.955882],[5.957429,50.955817],[5.957306,50.955742],[5.957154,50.955659],[5.95686,50.955509],[5.956464,50.955314],[5.956383,50.955274],[5.956174,50.955173],[5.956161,50.955166],[5.955851,50.955005],[5.955698,50.954922],[5.955687,50.954916],[5.955637,50.954884],[5.955293,50.954681],[5.955251,50.954656],[5.955223,50.954629],[5.955005,50.954486],[5.954933,50.954444],[5.954725,50.954313],[5.954493,50.954172],[5.954201,50.953995],[5.953962,50.953844],[5.953917,50.953817],[5.953731,50.953707],[5.953665,50.953663],[5.953432,50.953507],[5.953424,50.953501],[5.953232,50.953363],[5.952989,50.953184],[5.952966,50.953167],[5.952765,50.953015],[5.952762,50.953006],[5.952681,50.952946],[5.952499,50.952785],[5.952673,50.95247],[5.952625,50.952459],[5.952488,50.952423],[5.952376,50.952392],[5.95217,50.952342],[5.952081,50.95232],[5.951809,50.952243],[5.950521,50.951879],[5.949641,50.951631],[5.949539,50.951604],[5.949434,50.951579],[5.949294,50.951557],[5.949321,50.951553],[5.949337,50.951548],[5.949484,50.951375],[5.949528,50.951302],[5.949578,50.951238],[5.949598,50.951207],[5.949608,50.951174],[5.949599,50.951138],[5.949573,50.951115],[5.949537,50.951103],[5.949014,50.950949],[5.948922,50.950921],[5.948869,50.950901],[5.948558,50.950812],[5.948279,50.950746],[5.9481,50.950695],[5.94805,50.95068],[5.947907,50.950637],[5.94772,50.95058],[5.94752,50.950518],[5.947347,50.950462],[5.946988,50.950348],[5.946948,50.950336],[5.946835,50.950301],[5.946696,50.950257],[5.946559,50.950215],[5.946456,50.950183],[5.946353,50.950151],[5.946253,50.95012],[5.946192,50.950101],[5.946114,50.950077],[5.945556,50.949892],[5.945349,50.949805],[5.945056,50.949691],[5.945008,50.949674],[5.944904,50.949634],[5.944295,50.94937],[5.9438,50.949155],[5.943255,50.94933],[5.943096,50.949375],[5.942643,50.949506],[5.942633,50.949491],[5.942552,50.949378],[5.942448,50.949232],[5.942417,50.949189],[5.942292,50.949014],[5.941971,50.9486],[5.941707,50.948357],[5.941598,50.948279],[5.941358,50.948135],[5.941268,50.948098],[5.940635,50.947813],[5.939772,50.947601],[5.93816,50.94707],[5.938128,50.947102],[5.937798,50.946986],[5.936771,50.946661],[5.936696,50.946637],[5.936694,50.946637],[5.936586,50.946602],[5.936436,50.946545],[5.93622,50.946442],[5.936029,50.946325],[5.935694,50.946018],[5.934821,50.945125],[5.93475,50.94502],[5.934657,50.944921],[5.934633,50.944896],[5.932953,50.943135],[5.932039,50.942187],[5.931592,50.941724],[5.931425,50.941569],[5.931401,50.941557],[5.931885,50.941091],[5.931899,50.941077],[5.932342,50.94065],[5.93249,50.940474],[5.93252,50.940437],[5.933409,50.939363],[5.933726,50.93898],[5.93386,50.938801],[5.933839,50.938766],[5.934416,50.938636],[5.933917,50.938467],[5.933172,50.938189],[5.932697,50.938017],[5.932099,50.937836],[5.931348,50.937607],[5.931169,50.937543],[5.930711,50.937387],[5.930092,50.937177],[5.929696,50.937039],[5.929221,50.936817],[5.928704,50.936693],[5.928702,50.936693],[5.928622,50.936666],[5.92847,50.936612],[5.92813,50.936507],[5.927652,50.936347],[5.927417,50.93627],[5.927391,50.936262],[5.926997,50.936132],[5.926666,50.936025],[5.926305,50.935908],[5.9263,50.935906],[5.926256,50.93589],[5.926225,50.935878],[5.925137,50.935475],[5.924698,50.935316],[5.924367,50.935194],[5.923822,50.935],[5.922939,50.93456],[5.922675,50.934432],[5.921486,50.933931],[5.921482,50.933929],[5.921232,50.933876],[5.920994,50.933762],[5.920677,50.933609],[5.920138,50.933348],[5.919868,50.933321],[5.919585,50.933291],[5.919523,50.933285],[5.919371,50.933269],[5.91921,50.933253],[5.918962,50.933227],[5.91895,50.933226],[5.918934,50.933224],[5.918934,50.933224],[5.919223,50.932882],[5.919223,50.932881],[5.919953,50.932017],[5.919954,50.932015],[5.92021,50.931712],[5.919952,50.931601],[5.91994,50.931596],[5.919826,50.931547],[5.919816,50.931542],[5.919631,50.931461],[5.919625,50.931458],[5.919615,50.931453],[5.91952,50.931405],[5.919512,50.931401],[5.91937,50.93133],[5.919359,50.931325],[5.91914,50.931215],[5.918945,50.931121],[5.918527,50.930909],[5.918186,50.930758],[5.917348,50.930406],[5.917104,50.930312],[5.91675,50.930169],[5.91626,50.929921],[5.915547,50.929525],[5.915234,50.929372],[5.914904,50.929198],[5.914853,50.929173],[5.914841,50.929167],[5.914832,50.929162],[5.91472,50.929113],[5.914709,50.929109],[5.914494,50.928954],[5.914342,50.92884],[5.914336,50.928836],[5.914329,50.928831],[5.914067,50.92864],[5.913864,50.928488],[5.913526,50.928259],[5.913374,50.928168],[5.913147,50.928052],[5.913212,50.928003],[5.913265,50.927962],[5.913257,50.927957],[5.913132,50.927894],[5.912925,50.927807],[5.912781,50.927747],[5.912501,50.927652],[5.912298,50.927589],[5.912296,50.927588],[5.912206,50.927562],[5.912203,50.927561],[5.912119,50.927536],[5.912116,50.927536],[5.911927,50.92748],[5.911558,50.927372],[5.91149,50.927352],[5.911422,50.927332],[5.91141,50.927328],[5.911408,50.927328],[5.911404,50.927327],[5.911334,50.927301],[5.911177,50.927241],[5.911069,50.927206],[5.910898,50.927152],[5.910731,50.927101],[5.910661,50.927079],[5.910488,50.927039],[5.910376,50.927013],[5.910329,50.927004],[5.910219,50.926986],[5.910104,50.926978],[5.910058,50.926974],[5.909935,50.926971],[5.909847,50.926973],[5.909765,50.926975],[5.909591,50.926997],[5.909292,50.927049],[5.909099,50.92708],[5.909026,50.92709],[5.908926,50.927099],[5.908839,50.927106],[5.908691,50.927108],[5.90862,50.927108],[5.908455,50.927126],[5.908348,50.927138],[5.908098,50.927127],[5.907872,50.927116],[5.907836,50.927114],[5.907615,50.927121],[5.907364,50.927128],[5.907157,50.927135],[5.906955,50.927164],[5.906929,50.927167],[5.906782,50.927211],[5.906583,50.927269],[5.906377,50.927321],[5.906311,50.927339],[5.906157,50.927388],[5.906085,50.927411],[5.90593,50.927465],[5.905818,50.927502],[5.905653,50.927531],[5.905514,50.927555],[5.905368,50.927558],[5.905274,50.927553],[5.905126,50.927418],[5.905063,50.927314],[5.905048,50.927288],[5.904946,50.92708],[5.904855,50.926971],[5.904847,50.926964],[5.904707,50.926848],[5.90461,50.926767],[5.904555,50.926721],[5.904441,50.926626],[5.904433,50.926619],[5.90429,50.926522],[5.90414,50.926416],[5.904101,50.926389],[5.904051,50.926361],[5.903985,50.926316],[5.903954,50.926294],[5.903952,50.926292],[5.903879,50.926202],[5.903842,50.926157],[5.903808,50.926116],[5.903528,50.925947],[5.903408,50.925875],[5.90339,50.925854],[5.903363,50.92582],[5.903282,50.925723],[5.90328,50.92572],[5.903257,50.925706],[5.903185,50.925659],[5.903154,50.925623],[5.902978,50.925424],[5.90295,50.925392],[5.902865,50.925299],[5.901695,50.925121],[5.901484,50.925109],[5.901141,50.925087],[5.901132,50.925061],[5.900867,50.924331],[5.900777,50.924037],[5.900751,50.92396],[5.900724,50.923802],[5.900699,50.923697],[5.900601,50.923424],[5.900651,50.923195],[5.900676,50.923198],[5.900674,50.923159],[5.900675,50.923119],[5.900679,50.923098],[5.900709,50.923023],[5.900746,50.922983],[5.900349,50.923021],[5.900372,50.923004],[5.900155,50.923025],[5.90015,50.923025],[5.899643,50.923082],[5.899631,50.923083],[5.899184,50.923133],[5.898807,50.923176],[5.89869,50.923189],[5.898428,50.923219],[5.898309,50.923232],[5.898379,50.923293],[5.898225,50.923309],[5.897965,50.92308],[5.897674,50.922819],[5.897553,50.922684],[5.897377,50.922475],[5.897187,50.922238],[5.896961,50.921969],[5.896761,50.921719],[5.89647,50.921354],[5.896373,50.921229],[5.895865,50.920571],[5.895723,50.920391],[5.895617,50.920266],[5.895506,50.920135],[5.895456,50.920038],[5.895426,50.919946],[5.89541,50.919844],[5.895409,50.919723],[5.895418,50.919644],[5.895445,50.919561],[5.89554,50.919307],[5.8956,50.919286],[5.895758,50.918968],[5.895951,50.918796],[5.896012,50.918756],[5.896144,50.918674],[5.896345,50.918558],[5.896484,50.918494],[5.8965,50.918458],[5.897106,50.918231],[5.897193,50.918192],[5.897506,50.918016],[5.897966,50.91775],[5.898843,50.917259],[5.899379,50.916928],[5.899491,50.916868],[5.899586,50.916824],[5.899808,50.916768],[5.900036,50.916726],[5.900125,50.916714],[5.900227,50.916705],[5.900334,50.916704],[5.900396,50.916705],[5.90052,50.916716],[5.900691,50.91674],[5.900698,50.916737],[5.900699,50.916738],[5.900733,50.916745],[5.90078,50.916756],[5.900822,50.916765],[5.900871,50.916778],[5.900921,50.916792],[5.900963,50.916804],[5.901008,50.916817],[5.90104,50.916827],[5.901078,50.91684],[5.901108,50.916852],[5.901119,50.916856],[5.901157,50.916865],[5.901192,50.916888],[5.901227,50.9169],[5.90134,50.916937],[5.901497,50.916984],[5.901704,50.917055],[5.901842,50.917099],[5.901874,50.917092],[5.901941,50.917136],[5.902086,50.91718],[5.902267,50.917219],[5.902423,50.917239],[5.902467,50.917244],[5.902494,50.917247],[5.90252,50.917248],[5.902544,50.917249],[5.902571,50.91725],[5.90262,50.917252],[5.902671,50.917255],[5.902724,50.917258],[5.902815,50.917262],[5.902943,50.917269],[5.90306,50.917274],[5.903235,50.917284],[5.90341,50.917292],[5.903551,50.9173],[5.903651,50.917305],[5.90372,50.91731],[5.903747,50.917311],[5.903771,50.917312],[5.903796,50.917312],[5.903823,50.917311],[5.903849,50.91731],[5.903879,50.917309],[5.903905,50.917307],[5.903931,50.917305],[5.903957,50.917302],[5.903982,50.9173],[5.904027,50.917293],[5.904071,50.917288],[5.904104,50.917284],[5.90414,50.917278],[5.90417,50.917272],[5.904209,50.917265],[5.904248,50.917257],[5.904282,50.917249],[5.904314,50.917242],[5.904349,50.917232],[5.90438,50.917224],[5.904403,50.917217],[5.904436,50.917205],[5.904462,50.917196],[5.90449,50.917185],[5.904518,50.917173],[5.904544,50.917162],[5.904575,50.917148],[5.904617,50.917128],[5.904653,50.917112],[5.904696,50.917093],[5.904738,50.917074],[5.90478,50.917055],[5.904808,50.917041],[5.904834,50.917028],[5.904878,50.917006],[5.904933,50.916979],[5.90497,50.916963],[5.904995,50.916951],[5.90507,50.916918],[5.905162,50.916878],[5.905235,50.916846],[5.905307,50.916814],[5.90537,50.916787],[5.905395,50.916776],[5.905472,50.916741],[5.905538,50.916712],[5.905633,50.916671],[5.905715,50.916634],[5.905802,50.916596],[5.905888,50.916558],[5.905965,50.916524],[5.90602,50.9165],[5.90602,50.9165],[5.906067,50.916479],[5.906135,50.916449],[5.906216,50.916414],[5.906325,50.916367],[5.90639,50.916339],[5.906291,50.916316],[5.906449,50.916241],[5.906552,50.916266],[5.906562,50.91626],[5.906594,50.916239],[5.906623,50.916223],[5.906645,50.916211],[5.906658,50.916203],[5.906668,50.916197],[5.906669,50.916197],[5.906682,50.916191],[5.906698,50.916183],[5.906717,50.916175],[5.906732,50.916168],[5.906775,50.916151],[5.90679,50.916145],[5.906806,50.91614],[5.906821,50.916134],[5.906837,50.916127],[5.906854,50.91612],[5.906868,50.916115],[5.90689,50.916106],[5.906929,50.916088],[5.906969,50.916071],[5.906988,50.916062],[5.907013,50.916051],[5.907037,50.91604],[5.907079,50.91602],[5.907141,50.91599],[5.907194,50.915966],[5.907213,50.915957],[5.907265,50.915933],[5.907336,50.915901],[5.907426,50.915859],[5.907484,50.915832],[5.907543,50.915805],[5.907617,50.915772],[5.907691,50.915738],[5.907771,50.915701],[5.907851,50.915666],[5.907899,50.915643],[5.907935,50.915627],[5.90796,50.915616],[5.907978,50.915607],[5.908001,50.915596],[5.908021,50.915585],[5.908061,50.915563],[5.908114,50.915534],[5.908183,50.915497],[5.908233,50.91547],[5.908249,50.915459],[5.908171,50.91544],[5.908094,50.915421],[5.908019,50.915402],[5.907819,50.915353],[5.907758,50.915328],[5.907704,50.915287],[5.907672,50.915242],[5.907666,50.915212],[5.907654,50.915177],[5.907635,50.915149],[5.907436,50.914946],[5.90743,50.91494],[5.907419,50.914937],[5.907221,50.914887],[5.906611,50.914694],[5.905902,50.914466],[5.905816,50.914446],[5.905758,50.914438],[5.905663,50.914429],[5.905581,50.914431],[5.905471,50.914443],[5.905277,50.914499],[5.905204,50.914514],[5.905196,50.914541],[5.905188,50.914565],[5.90488,50.914465],[5.904713,50.91429],[5.904682,50.914257],[5.904664,50.914237],[5.904848,50.914173],[5.904824,50.914146],[5.904207,50.913448],[5.904397,50.913381],[5.904767,50.913277],[5.904979,50.913223],[5.905855,50.912998],[5.905907,50.912985],[5.905958,50.912967],[5.906029,50.912946],[5.906103,50.91292],[5.906169,50.912892],[5.906225,50.912865],[5.906841,50.912699],[5.906842,50.912699],[5.908018,50.912382],[5.908046,50.912375],[5.90808,50.912365],[5.90811,50.912357],[5.909817,50.911876],[5.910001,50.911822],[5.910419,50.911695],[5.910564,50.911653],[5.911054,50.911508],[5.911943,50.91124],[5.91266,50.91102],[5.91266,50.91102],[5.912982,50.910936],[5.913365,50.910819],[5.913385,50.910813],[5.914357,50.910534],[5.914981,50.910363],[5.915155,50.910305],[5.91529,50.910263],[5.91534,50.910245],[5.915606,50.910141],[5.915939,50.910091],[5.916305,50.909965],[5.916327,50.909948],[5.91638,50.909908],[5.916433,50.909868],[5.916438,50.909864],[5.916629,50.909718],[5.916713,50.909652],[5.916835,50.909556],[5.916909,50.909498],[5.916921,50.909488],[5.916995,50.909431],[5.91712,50.909333],[5.917232,50.909337],[5.917297,50.909339],[5.917592,50.909223],[5.918725,50.908715],[5.919264,50.908439],[5.920286,50.907845],[5.920434,50.907736],[5.920965,50.907346],[5.921609,50.906835],[5.921613,50.906833],[5.921648,50.906807],[5.921662,50.906796],[5.922057,50.906502],[5.922237,50.906354],[5.922483,50.906157],[5.922956,50.90585],[5.923517,50.90557],[5.923484,50.905405],[5.923418,50.905422],[5.923366,50.905429],[5.923225,50.90544],[5.923078,50.905455],[5.922911,50.905478],[5.922717,50.905509],[5.922556,50.905543],[5.92239,50.905585],[5.922056,50.905681],[5.921884,50.905733],[5.921866,50.90571],[5.921765,50.905571],[5.921759,50.905563],[5.923721,50.904965],[5.923605,50.904691],[5.923429,50.904526],[5.923343,50.904446],[5.923405,50.904406],[5.923155,50.904246],[5.923017,50.904176],[5.922577,50.903982],[5.922089,50.903785],[5.922016,50.903756],[5.921392,50.903504],[5.92094,50.903345],[5.920795,50.903272],[5.920695,50.903203],[5.920609,50.903121],[5.920543,50.903064],[5.919841,50.903078],[5.919551,50.903086],[5.919309,50.903104],[5.919138,50.903125],[5.919049,50.903146],[5.918994,50.903174],[5.918835,50.903193],[5.918716,50.903258],[5.918604,50.903327],[5.918495,50.903402],[5.918407,50.903462],[5.918138,50.903672],[5.918001,50.90378],[5.917839,50.903924],[5.917783,50.903983],[5.917731,50.904044],[5.91768,50.904119],[5.917657,50.904177],[5.917635,50.904235],[5.917598,50.904399],[5.917445,50.904342],[5.917401,50.904325],[5.916397,50.903942],[5.916366,50.904131],[5.914614,50.903303],[5.914457,50.903228],[5.913594,50.90282],[5.913546,50.902798],[5.913543,50.902796],[5.913478,50.902766],[5.913393,50.902725],[5.9134,50.902721],[5.913699,50.902494],[5.914375,50.901979],[5.914707,50.901722],[5.913216,50.901038],[5.913155,50.901009],[5.912391,50.900652],[5.911817,50.900383],[5.911622,50.900291],[5.91089,50.899949],[5.910019,50.899536],[5.909405,50.89925],[5.909252,50.899179],[5.908777,50.89895],[5.908226,50.898684],[5.907659,50.898416],[5.907133,50.898184],[5.906744,50.898003],[5.906568,50.897924],[5.906473,50.897882],[5.905959,50.897657],[5.905506,50.897465],[5.905483,50.897455],[5.905385,50.897414],[5.904971,50.897236],[5.90475,50.897141],[5.904603,50.897082],[5.904472,50.89703],[5.90449,50.897027],[5.904412,50.896994],[5.904313,50.896952],[5.9042,50.896904],[5.90399,50.896816],[5.903695,50.896691],[5.903668,50.89668],[5.903645,50.89667],[5.903555,50.896632],[5.903437,50.896583],[5.903252,50.896504],[5.903154,50.896463],[5.903082,50.896433],[5.903031,50.896411],[5.902851,50.896335],[5.90275,50.896292],[5.902626,50.89624],[5.902552,50.896209],[5.902369,50.896131],[5.902063,50.896002],[5.901765,50.895876],[5.901659,50.895831],[5.901657,50.895831],[5.901572,50.895794],[5.901533,50.895776],[5.901547,50.895766],[5.90156,50.895757],[5.901785,50.895593],[5.901951,50.895472],[5.901974,50.895455],[5.90253,50.895056],[5.902686,50.894943],[5.902898,50.894791],[5.903225,50.894555],[5.903352,50.894463],[5.903626,50.894267],[5.903666,50.894239],[5.903459,50.894145],[5.903258,50.894062],[5.903244,50.894058],[5.903069,50.894011],[5.903038,50.894002],[5.902982,50.893977],[5.902929,50.893953],[5.902828,50.893911],[5.902785,50.893893],[5.902784,50.893893],[5.902633,50.893836],[5.902247,50.893692],[5.902245,50.893691],[5.902204,50.893676],[5.902108,50.893631],[5.901929,50.893551],[5.901859,50.893518],[5.901814,50.893497],[5.901611,50.893396],[5.900935,50.893077],[5.900929,50.893075],[5.900752,50.892993],[5.900745,50.892989],[5.899329,50.892279],[5.899311,50.89227],[5.898871,50.892099],[5.898561,50.891965],[5.89778,50.891811],[5.897507,50.891701],[5.897471,50.891686],[5.897073,50.891525],[5.897072,50.891524],[5.897036,50.891506],[5.896732,50.891354],[5.896308,50.891125],[5.895952,50.890934],[5.895916,50.890915],[5.895725,50.890815],[5.895691,50.890797],[5.895506,50.890673],[5.89526,50.890516],[5.895096,50.890392],[5.895079,50.890379],[5.895076,50.890377],[5.89482,50.890172],[5.894807,50.890162],[5.894596,50.889994],[5.894267,50.889761],[5.894173,50.889718],[5.894028,50.889651],[5.892098,50.888986],[5.892027,50.888962],[5.89104,50.888632],[5.890924,50.888593],[5.890435,50.888429],[5.89039,50.888413],[5.890412,50.888393],[5.890428,50.888378],[5.890507,50.888305],[5.890496,50.888298],[5.890675,50.888094],[5.890951,50.887826],[5.891604,50.887309],[5.891856,50.887126],[5.892175,50.886897],[5.892355,50.886709],[5.892546,50.886542],[5.89277,50.886362],[5.893242,50.886069],[5.894003,50.885605],[5.893354,50.885501],[5.893217,50.885482],[5.893025,50.885457],[5.892763,50.885396],[5.892502,50.88533],[5.892473,50.885345],[5.891884,50.885213],[5.891661,50.885188],[5.891009,50.885109],[5.890663,50.88507],[5.890531,50.885059],[5.890479,50.885078],[5.889977,50.885479],[5.889636,50.885638],[5.889581,50.885612],[5.889395,50.885236],[5.889325,50.885114],[5.889205,50.884896],[5.889169,50.884835],[5.889124,50.884768],[5.889089,50.884725],[5.889033,50.88466],[5.888984,50.88461],[5.888955,50.884582],[5.888885,50.884524],[5.888781,50.884449],[5.888705,50.884398],[5.888652,50.884364],[5.888549,50.884302],[5.888463,50.884253],[5.888382,50.884211],[5.888166,50.884104],[5.888013,50.884033],[5.88785,50.883962],[5.887701,50.883899],[5.887626,50.883868],[5.887581,50.883849],[5.887526,50.883826],[5.887429,50.883793],[5.887356,50.883769],[5.887299,50.883752],[5.887229,50.883733],[5.887104,50.883704],[5.887038,50.883692],[5.88684,50.883693],[5.886788,50.883705],[5.886755,50.883716],[5.886724,50.883729],[5.886697,50.883741],[5.886655,50.883768],[5.885836,50.884279],[5.884802,50.883912],[5.882606,50.883146],[5.880793,50.882529],[5.880921,50.882515],[5.880824,50.882482],[5.880582,50.882475],[5.880554,50.882482],[5.880154,50.882611],[5.879752,50.882711],[5.87919,50.882809],[5.878391,50.882893],[5.87743,50.88296],[5.877036,50.883004],[5.876389,50.883105],[5.875478,50.883263],[5.875184,50.883308],[5.874663,50.88336],[5.874114,50.883399],[5.871845,50.883455],[5.871628,50.883465],[5.870933,50.88347],[5.870632,50.883469],[5.870192,50.883459],[5.86993,50.883444],[5.869633,50.883423],[5.869465,50.883415],[5.869319,50.883402],[5.86912,50.883391],[5.868869,50.883371],[5.868354,50.883325],[5.86796,50.883283],[5.867883,50.883277],[5.867783,50.883263],[5.867687,50.883252],[5.867519,50.883229],[5.867182,50.883168],[5.867,50.883144],[5.862802,50.882572],[5.862041,50.882475],[5.861929,50.88246],[5.861808,50.882445],[5.861618,50.882418],[5.86027,50.88221],[5.860092,50.882186],[5.859244,50.882083],[5.858345,50.882002],[5.857631,50.881946],[5.856978,50.881915],[5.856407,50.881908],[5.856384,50.881908],[5.855811,50.881911],[5.855766,50.881911],[5.853809,50.881999],[5.853255,50.882044],[5.85266,50.882102],[5.852627,50.88216],[5.852513,50.882115],[5.851665,50.8822],[5.851556,50.882634],[5.851515,50.882754],[5.851506,50.882782],[5.851506,50.882795],[5.851512,50.882805],[5.851528,50.882824],[5.851542,50.882834],[5.851526,50.882832],[5.851225,50.882802],[5.851034,50.882981],[5.850286,50.883653],[5.850012,50.883677],[5.84962,50.883717],[5.849365,50.883728],[5.849147,50.883732],[5.848754,50.8837],[5.848639,50.883687],[5.848252,50.88362],[5.847392,50.883395],[5.84716,50.883315],[5.846601,50.883118],[5.846037,50.882927],[5.845802,50.882871],[5.845273,50.882766],[5.844998,50.882725],[5.844726,50.882688],[5.844496,50.882653],[5.844157,50.882626],[5.843593,50.882602],[5.843567,50.8826],[5.84252,50.882508],[5.84077,50.882241],[5.838339,50.881896],[5.838019,50.881843],[5.838017,50.881857],[5.837976,50.88185],[5.836775,50.881608],[5.836575,50.88157],[5.836085,50.881467],[5.835927,50.881483],[5.835858,50.881487],[5.835792,50.8815],[5.835247,50.881287],[5.83522,50.880895],[5.834829,50.880694],[5.834693,50.88064],[5.834623,50.880643],[5.834612,50.880828],[5.834613,50.880964],[5.834622,50.881104],[5.834646,50.881226],[5.834684,50.881321],[5.834719,50.881387],[5.834791,50.881519],[5.834972,50.881813],[5.835161,50.882103],[5.835234,50.882248],[5.835256,50.882297],[5.835165,50.882431],[5.83501,50.88236],[5.834937,50.882326],[5.834677,50.882198],[5.834581,50.882152],[5.834485,50.882094],[5.83444,50.882064],[5.834398,50.882025],[5.834315,50.882045],[5.834099,50.882149],[5.834004,50.882214],[5.833883,50.882321],[5.833824,50.882381],[5.833764,50.882362],[5.833719,50.882347],[5.833508,50.882613],[5.833303,50.882864],[5.833007,50.883327],[5.832864,50.883694],[5.832873,50.883965],[5.832915,50.884335],[5.832855,50.884515],[5.8327,50.885051],[5.832682,50.885108],[5.832673,50.885228],[5.832679,50.885367],[5.832707,50.885539],[5.832737,50.885753],[5.83275,50.885819],[5.832852,50.886017],[5.832934,50.886169],[5.833219,50.886682],[5.833498,50.887151],[5.833641,50.887411],[5.833739,50.887575],[5.833776,50.887655],[5.833834,50.88776],[5.833948,50.887948],[5.834066,50.888128],[5.834189,50.888308],[5.834324,50.888494],[5.834467,50.888683],[5.834638,50.888866],[5.834801,50.889056],[5.834972,50.889246],[5.835128,50.88944],[5.836215,50.890746],[5.836265,50.890818],[5.836377,50.891088],[5.836529,50.89142],[5.836617,50.891605],[5.836578,50.891614],[5.83566,50.891774],[5.833691,50.892132],[5.833165,50.892228],[5.833165,50.892227],[5.833112,50.892209],[5.832391,50.891886],[5.832306,50.891848],[5.832286,50.89184],[5.832082,50.891752],[5.832056,50.89174],[5.831895,50.89167],[5.831722,50.891593],[5.831364,50.891432],[5.831215,50.891365],[5.831118,50.891321],[5.830915,50.891229],[5.830913,50.891228],[5.830557,50.891063],[5.830017,50.890684],[5.830017,50.890684],[5.830014,50.890682],[5.829861,50.890589],[5.82982,50.890571],[5.829739,50.890537],[5.829733,50.890533],[5.829633,50.890476],[5.829485,50.890364],[5.82943,50.890354],[5.829382,50.890306],[5.82931,50.890286],[5.829291,50.890242],[5.829211,50.890224],[5.82918,50.89018],[5.829111,50.890166],[5.829051,50.890027],[5.829009,50.890015],[5.828951,50.889963],[5.828771,50.889902],[5.828652,50.889834],[5.828304,50.889718],[5.827975,50.889611],[5.827975,50.88961],[5.827765,50.889544],[5.827585,50.889437],[5.827418,50.889336],[5.827101,50.889137],[5.827,50.888967],[5.826837,50.888886],[5.826801,50.888819],[5.826798,50.888816],[5.826739,50.888766],[5.82662,50.888665],[5.826556,50.888637],[5.826547,50.888625],[5.826473,50.888537],[5.826348,50.88838],[5.826307,50.888301],[5.826168,50.888109],[5.826058,50.888047],[5.825735,50.887878],[5.82545,50.887965],[5.825431,50.887945],[5.825253,50.88776],[5.8252,50.887627],[5.8251,50.887594],[5.825016,50.887548],[5.824977,50.887526],[5.824887,50.88746],[5.824839,50.887413],[5.824799,50.887375],[5.824771,50.887347],[5.82459,50.887196],[5.82443,50.88709],[5.824227,50.886997],[5.824086,50.886947],[5.824022,50.886935],[5.823857,50.886907],[5.823775,50.886892],[5.823533,50.88682],[5.823428,50.8868],[5.823228,50.886781],[5.823065,50.886741],[5.823044,50.886736],[5.82279,50.886679],[5.822648,50.886634],[5.822469,50.886601],[5.822427,50.886584],[5.822133,50.886468],[5.821919,50.886383],[5.821821,50.886344],[5.821283,50.886131],[5.821239,50.886106],[5.821192,50.886081],[5.821009,50.885935],[5.820881,50.885865],[5.820738,50.885788],[5.820548,50.885654],[5.820232,50.885438],[5.820106,50.885332],[5.820124,50.885324],[5.820165,50.885306],[5.820208,50.885275],[5.820172,50.885242],[5.819712,50.884813],[5.819372,50.884489],[5.819193,50.884323],[5.819306,50.884255],[5.819332,50.884239],[5.819364,50.88422],[5.81934,50.884158],[5.819324,50.884122],[5.819319,50.884108],[5.819207,50.883843],[5.819139,50.883867],[5.818346,50.884147],[5.817398,50.884481],[5.817317,50.884698],[5.817311,50.88472],[5.817309,50.884731],[5.817308,50.884733],[5.817305,50.884751],[5.817285,50.884768],[5.817241,50.884802],[5.817059,50.884945],[5.816609,50.885261],[5.816072,50.885508],[5.815843,50.885598],[5.815377,50.885952],[5.815047,50.886195],[5.814994,50.886237],[5.81499,50.886239],[5.814734,50.886325],[5.814082,50.886073],[5.813725,50.886224],[5.813644,50.886259],[5.813666,50.886291],[5.81322,50.886503],[5.812929,50.886642],[5.812891,50.88666],[5.812886,50.886663],[5.812596,50.886813],[5.812447,50.886885],[5.812401,50.886907],[5.812389,50.886911],[5.812271,50.886962],[5.81226,50.886967],[5.812161,50.887009],[5.811713,50.887191],[5.811261,50.887375],[5.810797,50.887564],[5.810467,50.887691],[5.810465,50.887689],[5.810409,50.887701],[5.810367,50.88771],[5.810364,50.887711],[5.810046,50.887812],[5.809866,50.887847],[5.809791,50.887848],[5.809417,50.887845],[5.809093,50.88785],[5.808931,50.887846],[5.808624,50.8878],[5.808433,50.887753],[5.808387,50.88774],[5.808351,50.887729],[5.808264,50.887704],[5.808186,50.887681],[5.808022,50.88765],[5.807821,50.887599],[5.807703,50.887569],[5.807556,50.887531],[5.807512,50.887519],[5.807472,50.887512],[5.807031,50.887437],[5.806969,50.887434],[5.806637,50.887399],[5.80656,50.88739],[5.806425,50.887376],[5.805966,50.887329],[5.805347,50.88727],[5.805343,50.887404],[5.80529,50.887398],[5.805091,50.887377],[5.804548,50.887318],[5.803606,50.887226],[5.803324,50.88725],[5.803166,50.887212],[5.803027,50.887185],[5.802973,50.887177],[5.802873,50.887162],[5.802646,50.887131],[5.802602,50.887125],[5.802519,50.887109],[5.802367,50.887079],[5.802289,50.887057],[5.802193,50.887026],[5.802086,50.886986],[5.802015,50.88695],[5.801935,50.886906],[5.80184,50.886848],[5.801608,50.886696],[5.801499,50.886627],[5.801387,50.886563],[5.80126,50.886499],[5.801155,50.886447],[5.800878,50.886316],[5.800677,50.886212],[5.800441,50.886109],[5.800335,50.886054],[5.800286,50.886022],[5.800237,50.885986],[5.800143,50.885911],[5.799842,50.885673],[5.799734,50.885733],[5.79967,50.885849],[5.799358,50.886314],[5.798886,50.887075],[5.798498,50.887809],[5.798455,50.887883],[5.798422,50.887927],[5.798391,50.887963],[5.79835,50.887997],[5.79824,50.888079],[5.798146,50.888143],[5.798106,50.888173],[5.798069,50.888204],[5.798057,50.888217],[5.797998,50.888372],[5.797977,50.888379],[5.797925,50.888395],[5.797844,50.888583],[5.797734,50.888815],[5.797693,50.888895],[5.797501,50.889328],[5.797396,50.889539],[5.797272,50.889783],[5.797216,50.889919],[5.797203,50.89001],[5.797237,50.890082],[5.797298,50.890131],[5.797395,50.890245],[5.797379,50.890264],[5.797366,50.890281],[5.797302,50.890351],[5.797201,50.89044],[5.797132,50.89052],[5.79706,50.890693],[5.797007,50.89091],[5.796953,50.891168],[5.796874,50.891407],[5.796773,50.891747],[5.796711,50.89206],[5.796704,50.892299],[5.796715,50.892437],[5.796746,50.892559],[5.796814,50.8927],[5.796993,50.893],[5.797105,50.89325],[5.797179,50.893529],[5.797272,50.893951],[5.797394,50.894378],[5.797574,50.894943],[5.797595,50.894986],[5.797621,50.895073],[5.797621,50.895088],[5.797635,50.89529],[5.797632,50.895459],[5.797617,50.895626],[5.797602,50.895675],[5.797569,50.895745],[5.797519,50.895813],[5.797499,50.895846],[5.797462,50.895918],[5.797402,50.896025],[5.797305,50.896204],[5.797129,50.896689],[5.797027,50.896945],[5.79692,50.897189],[5.796799,50.897387],[5.796716,50.89749],[5.796606,50.897659],[5.796578,50.897674],[5.796563,50.897697]]]},"properties":{"type":"boundary","gemeente":"Beekdaelen"}}]}