{"type":"FeatureCollection","metadata":{"gemeente":"Bergen op Zoom","slug":"bergen-op-zoom","generated_at":"2026-10-05T08:45:36.823494Z","total_points":92,"providers":["Amazon","DHL","DPD","PostNL","VintedGo","ViaTim","FedEx","InPost","Budbee"],"bounds":[4.26718,51.4766807,4.34120075,51.5522453]},"features":[{"type":"Feature","geometry":{"type":"Point","coordinates":[4.308418954,51.48556251]},"properties":{"type":"pakketpunt","locatieNaam":"Primera Zonneplein-","straatNaam":"Zonneplein 2","straatNr":"","vervoerder":"Amazon","puntType":"3p","bezettingsgraad":50,"latitude":51.48556251,"longitude":4.308418954,"canPickup":true,"canDropoff":false,"openingstijden":null}},{"type":"Feature","geometry":{"type":"Point","coordinates":[4.29069319,51.4933979]},"properties":{"type":"pakketpunt","locatieNaam":"Jumbo Supermarkt-","straatNaam":"Burgemeester Van Hasseltstraat 1","straatNr":"","vervoerder":"Amazon","puntType":"3p","bezettingsgraad":50,"latitude":51.4933979,"longitude":4.29069319,"canPickup":true,"canDropoff":false,"openingstijden":null}},{"type":"Feature","geometry":{"type":"Point","coordinates":[4.297649767,51.49816444]},"properties":{"type":"pakketpunt","locatieNaam":"sportschool fitness Pal-Jang B.V.","straatNaam":"Wattweg 1 A","straatNr":"","vervoerder":"Amazon","puntType":"3p","bezettingsgraad":50,"latitude":51.49816444,"longitude":4.297649767,"canPickup":true,"canDropoff":false,"openingstijden":null}},{"type":"Feature","geometry":{"type":"Point","coordinates":[4.276620388031006,51.49205780029297]},"properties":{"type":"pakketpunt","locatieNaam":"DHL - Pakketautomaat Basic-Fit Markieztw","straatNaam":"Burgemeester van der Laarstraat 9","straatNr":"","vervoerder":"Amazon","puntType":"3p","bezettingsgraad":50,"latitude":51.49205780029297,"longitude":4.276620388031006,"canPickup":true,"canDropoff":false,"openingstijden":null}},{"type":"Feature","geometry":{"type":"Point","coordinates":[4.3057968,51.5053458]},"properties":{"type":"pakketpunt","locatieNaam":"DHL - Pakketautomaat Basic-Fit Bastionwg","straatNaam":"Bastionweg 30","straatNr":"","vervoerder":"Amazon","puntType":"3p","bezettingsgraad":50,"latitude":51.5053458,"longitude":4.3057968,"canPickup":true,"canDropoff":false,"openingstijden":null}},{"type":"Feature","geometry":{"type":"Point","coordinates":[4.2792707,51.5291296]},"properties":{"type":"pakketpunt","locatieNaam":"DHL - Pakketautomaat Lidl Halsteren","straatNaam":"Nijverheidsweg 8","straatNr":"","vervoerder":"Amazon","puntType":"3p","bezettingsgraad":50,"latitude":51.5291296,"longitude":4.2792707,"canPickup":true,"canDropoff":false,"openingstijden":null}},{"type":"Feature","geometry":{"type":"Point","coordinates":[4.27513,51.5110423]},"properties":{"type":"pakketpunt","locatieNaam":"DHL - Pakketautomaat AVIA Bergen op Zoom","straatNaam":"Randweg West 1","straatNr":"","vervoerder":"Amazon","puntType":"3p","bezettingsgraad":50,"latitude":51.5110423,"longitude":4.27513,"canPickup":true,"canDropoff":false,"openingstijden":null}},{"type":"Feature","geometry":{"type":"Point","coordinates":[4.26994888623061,51.5036648704984]},"properties":{"type":"pakketpunt","locatieNaam":"VPP PpP","straatNaam":"Vierlinghweg 39 A","straatNr":"","vervoerder":"Amazon","puntType":"3p","bezettingsgraad":50,"latitude":51.5036648704984,"longitude":4.26994888623061,"canPickup":true,"canDropoff":false,"openingstijden":null}},{"type":"Feature","geometry":{"type":"Point","coordinates":[4.301340963,51.51126031]},"properties":{"type":"pakketpunt","locatieNaam":"Phone Connect Bergen op Zoom","straatNaam":"Fruiteniersdreef 8","straatNr":"","vervoerder":"Amazon","puntType":"3p","bezettingsgraad":50,"latitude":51.51126031,"longitude":4.301340963,"canPickup":true,"canDropoff":false,"openingstijden":null}},{"type":"Feature","geometry":{"type":"Point","coordinates":[4.2987035,51.4766807]},"properties":{"type":"pakketpunt","locatieNaam":"Pakketautomaat Lidl Bergen op Zoom","straatNaam":"Laan van Borgvliet","straatNr":"1","vervoerder":"DHL","puntType":"packStation","bezettingsgraad":50,"latitude":51.4766807,"longitude":4.2987035,"canPickup":true,"canDropoff":true,"openingstijden":{"ma":"07:30 - 21:00","di":"07:30 - 21:00","wo":"07:30 - 21:00","do":"07:30 - 21:00","vr":"07:30 - 21:00","za":"08:00 - 21:00","zo":"08:00 - 20:00"}}},{"type":"Feature","geometry":{"type":"Point","coordinates":[4.2700147,51.503631]},"properties":{"type":"pakketpunt","locatieNaam":"DHL Pakketpunt Bergen op Zoom","straatNaam":"Vierlinghweg","straatNr":"39-A","vervoerder":"DHL","puntType":"parcelShop","bezettingsgraad":50,"latitude":51.503631,"longitude":4.2700147,"canPickup":true,"canDropoff":true,"openingstijden":{"ma":"09:00 - 20:00","di":"09:00 - 20:00","wo":"09:00 - 20:00","do":"09:00 - 20:00","vr":"09:00 - 20:00","za":"09:00 - 19:00","zo":"gesloten"}}},{"type":"Feature","geometry":{"type":"Point","coordinates":[4.2719926,51.5225571]},"properties":{"type":"pakketpunt","locatieNaam":"Monique Groenten & Fruit","straatNaam":"Dorpsstraat","straatNr":"170","vervoerder":"DHL","puntType":"parcelShop","bezettingsgraad":50,"latitude":51.5225571,"longitude":4.2719926,"canPickup":true,"canDropoff":true,"openingstijden":{"ma":"gesloten","di":"08:30 - 12:30, 13:00 - 17:30","wo":"08:30 - 12:30, 13:00 - 17:30","do":"08:30 - 12:30, 13:00 - 17:30","vr":"08:30 - 12:30, 13:00 - 17:30","za":"08:00 - 12:30, 13:00 - 16:00","zo":"gesloten"}}},{"type":"Feature","geometry":{"type":"Point","coordinates":[4.27513,51.5110423]},"properties":{"type":"pakketpunt","locatieNaam":"Pakketautomaat AVIA Bergen op Zoom","straatNaam":"Randweg West","straatNr":"1","vervoerder":"DHL","puntType":"packStation","bezettingsgraad":50,"latitude":51.5110423,"longitude":4.27513,"canPickup":true,"canDropoff":true,"openingstijden":{"ma":"00:00 - 23:59","di":"00:00 - 23:59","wo":"00:00 - 23:59","do":"00:00 - 23:59","vr":"00:00 - 23:59","za":"00:00 - 23:59","zo":"00:00 - 23:59"}}},{"type":"Feature","geometry":{"type":"Point","coordinates":[4.276422785461044,51.505969277086535]},"properties":{"type":"pakketpunt","locatieNaam":"Pakketautomaat GAMMA BoZ","straatNaam":"Moerweg","straatNr":"1","vervoerder":"DHL","puntType":"packStation","bezettingsgraad":50,"latitude":51.505969277086535,"longitude":4.276422785461044,"canPickup":true,"canDropoff":true,"openingstijden":{"ma":"09:00 - 21:00","di":"09:00 - 21:00","wo":"09:00 - 21:00","do":"09:00 - 21:00","vr":"09:00 - 21:00","za":"09:00 - 18:00","zo":"10:00 - 17:00"}}},{"type":"Feature","geometry":{"type":"Point","coordinates":[4.274628046182647,51.49396327053768]},"properties":{"type":"pakketpunt","locatieNaam":"Pakketautomaat MediaMarkt BoZ","straatNaam":"Burgemeester van de laarstraat","straatNr":"17","vervoerder":"DHL","puntType":"packStation","bezettingsgraad":50,"latitude":51.49396327053768,"longitude":4.274628046182647,"canPickup":true,"canDropoff":true,"openingstijden":{"ma":"10:00 - 20:00","di":"10:00 - 20:00","wo":"10:00 - 20:00","do":"10:00 - 20:00","vr":"10:00 - 21:00","za":"10:00 - 18:00","zo":"11:00 - 17:00"}}},{"type":"Feature","geometry":{"type":"Point","coordinates":[4.275816,51.519284]},"properties":{"type":"pakketpunt","locatieNaam":"De Kock Tweewielers","straatNaam":"Halsterseweg","straatNr":"19","vervoerder":"DHL","puntType":"parcelShop","bezettingsgraad":50,"latitude":51.519284,"longitude":4.275816,"canPickup":true,"canDropoff":true,"openingstijden":{"ma":"gesloten","di":"08:00 - 18:00","wo":"08:00 - 18:00","do":"08:00 - 18:00","vr":"08:00 - 18:00","za":"09:00 - 16:00","zo":"gesloten"}}},{"type":"Feature","geometry":{"type":"Point","coordinates":[4.276620388031006,51.49205780029297]},"properties":{"type":"pakketpunt","locatieNaam":"Pakketautomaat Basic-Fit Markieztw","straatNaam":"Burgemeester van der Laarstraat","straatNr":"9","vervoerder":"DHL","puntType":"packStation","bezettingsgraad":50,"latitude":51.49205780029297,"longitude":4.276620388031006,"canPickup":true,"canDropoff":true,"openingstijden":{"ma":"00:00 - 23:59","di":"00:00 - 23:59","wo":"00:00 - 23:59","do":"00:00 - 23:59","vr":"00:00 - 23:59","za":"00:00 - 23:59","zo":"00:00 - 23:59"}}},{"type":"Feature","geometry":{"type":"Point","coordinates":[4.2792707,51.5291296]},"properties":{"type":"pakketpunt","locatieNaam":"Pakketautomaat Lidl Halsteren","straatNaam":"Nijverheidsweg","straatNr":"8","vervoerder":"DHL","puntType":"packStation","bezettingsgraad":50,"latitude":51.5291296,"longitude":4.2792707,"canPickup":true,"canDropoff":true,"openingstijden":{"ma":"00:00 - 23:59","di":"00:00 - 23:59","wo":"00:00 - 23:59","do":"00:00 - 23:59","vr":"00:00 - 23:59","za":"00:00 - 23:59","zo":"00:00 - 23:59"}}},{"type":"Feature","geometry":{"type":"Point","coordinates":[4.2815490347101886,51.47983807561815]},"properties":{"type":"pakketpunt","locatieNaam":"Pakketautomaat Jumbo Vogelaar","straatNaam":"Vogelaar","straatNr":"29","vervoerder":"DHL","puntType":"packStation","bezettingsgraad":50,"latitude":51.47983807561815,"longitude":4.2815490347101886,"canPickup":true,"canDropoff":true,"openingstijden":{"ma":"07:30 - 21:00","di":"07:30 - 21:00","wo":"07:30 - 21:00","do":"07:30 - 21:00","vr":"07:30 - 21:00","za":"07:30 - 21:00","zo":"08:00 - 21:00"}}},{"type":"Feature","geometry":{"type":"Point","coordinates":[4.2893839,51.4951597]},"properties":{"type":"pakketpunt","locatieNaam":"Intertoys Bergen op Zoom","straatNaam":"Zuivelstraat","straatNr":"41","vervoerder":"DHL","puntType":"parcelShop","bezettingsgraad":50,"latitude":51.4951597,"longitude":4.2893839,"canPickup":true,"canDropoff":true,"openingstijden":{"ma":"13:00 - 17:30","di":"09:30 - 17:30","wo":"09:30 - 17:30","do":"09:30 - 17:30","vr":"09:30 - 17:30","za":"09:30 - 17:00","zo":"gesloten"}}},{"type":"Feature","geometry":{"type":"Point","coordinates":[4.289763,51.495251]},"properties":{"type":"pakketpunt","locatieNaam":"Jeans Centre Bergen op Zoom","straatNaam":"Zuivelstraat","straatNr":"49","vervoerder":"DHL","puntType":"parcelShop","bezettingsgraad":50,"latitude":51.495251,"longitude":4.289763,"canPickup":true,"canDropoff":true,"openingstijden":{"ma":"13:00 - 17:30","di":"09:30 - 17:30","wo":"09:30 - 17:30","do":"09:30 - 17:30","vr":"09:30 - 20:00","za":"09:30 - 17:00","zo":"gesloten"}}},{"type":"Feature","geometry":{"type":"Point","coordinates":[4.290742528647555,51.49390534308399]},"properties":{"type":"pakketpunt","locatieNaam":"Pakketautomaat HEMA BoZ","straatNaam":"Sint Joshepstraat","straatNr":"72-Kast","vervoerder":"DHL","puntType":"packStation","bezettingsgraad":50,"latitude":51.49390534308399,"longitude":4.290742528647555,"canPickup":true,"canDropoff":true,"openingstijden":{"ma":"09:00 - 17:30","di":"09:00 - 17:30","wo":"09:00 - 17:30","do":"09:00 - 17:30","vr":"09:00 - 20:00","za":"09:00 - 17:30","zo":"gesloten"}}},{"type":"Feature","geometry":{"type":"Point","coordinates":[4.290691921326471,51.49343544580794]},"properties":{"type":"pakketpunt","locatieNaam":"Pakketautomaat Jumbo Burg Hassel","straatNaam":"Burg. van Hasseltstraat","straatNr":"1","vervoerder":"DHL","puntType":"packStation","bezettingsgraad":50,"latitude":51.49343544580794,"longitude":4.290691921326471,"canPickup":true,"canDropoff":true,"openingstijden":{"ma":"08:00 - 21:00","di":"08:00 - 21:00","wo":"08:00 - 21:00","do":"08:00 - 21:00","vr":"08:00 - 21:00","za":"08:00 - 21:00","zo":"08:00 - 20:00"}}},{"type":"Feature","geometry":{"type":"Point","coordinates":[4.2976525,51.4981687]},"properties":{"type":"pakketpunt","locatieNaam":"Sportschool Fitness Pal-Jang","straatNaam":"Wattweg","straatNr":"1-A","vervoerder":"DHL","puntType":"parcelShop","bezettingsgraad":50,"latitude":51.4981687,"longitude":4.2976525,"canPickup":true,"canDropoff":true,"openingstijden":{"ma":"11:00 - 21:00","di":"11:00 - 21:00","wo":"11:00 - 21:00","do":"11:00 - 21:00","vr":"11:00 - 21:00","za":"11:00 - 21:00","zo":"11:00 - 21:00"}}},{"type":"Feature","geometry":{"type":"Point","coordinates":[4.2975904,51.4888182]},"properties":{"type":"pakketpunt","locatieNaam":"Tabakzaak Bergen op Zoom","straatNaam":"Pastoor Jutenlaan","straatNr":"2-a","vervoerder":"DHL","puntType":"parcelShop","bezettingsgraad":50,"latitude":51.4888182,"longitude":4.2975904,"canPickup":true,"canDropoff":true,"openingstijden":{"ma":"08:00 - 22:00","di":"08:00 - 22:00","wo":"08:00 - 22:00","do":"08:00 - 22:00","vr":"08:00 - 22:00","za":"08:00 - 22:00","zo":"10:00 - 22:00"}}},{"type":"Feature","geometry":{"type":"Point","coordinates":[4.3057968,51.5053458]},"properties":{"type":"pakketpunt","locatieNaam":"Pakketautomaat Basic-Fit Bastionwg","straatNaam":"Bastionweg","straatNr":"30","vervoerder":"DHL","puntType":"packStation","bezettingsgraad":50,"latitude":51.5053458,"longitude":4.3057968,"canPickup":true,"canDropoff":true,"openingstijden":{"ma":"00:00 - 23:59","di":"00:00 - 23:59","wo":"00:00 - 23:59","do":"00:00 - 23:59","vr":"00:00 - 23:59","za":"00:00 - 23:59","zo":"00:00 - 23:59"}}},{"type":"Feature","geometry":{"type":"Point","coordinates":[4.307704294658909,51.498790975634364]},"properties":{"type":"pakketpunt","locatieNaam":"Pakketautomaat Karwei BoZ","straatNaam":"Drebbelstraat","straatNr":"42","vervoerder":"DHL","puntType":"packStation","bezettingsgraad":50,"latitude":51.498790975634364,"longitude":4.307704294658909,"canPickup":true,"canDropoff":true,"openingstijden":{"ma":"09:00 - 21:00","di":"09:00 - 21:00","wo":"09:00 - 21:00","do":"09:00 - 21:00","vr":"09:00 - 21:00","za":"09:00 - 18:00","zo":"10:00 - 17:00"}}},{"type":"Feature","geometry":{"type":"Point","coordinates":[4.3086623,51.485564]},"properties":{"type":"pakketpunt","locatieNaam":"DA Zonneplein","straatNaam":"Zonneplein","straatNr":"5","vervoerder":"DHL","puntType":"parcelShop","bezettingsgraad":50,"latitude":51.485564,"longitude":4.3086623,"canPickup":true,"canDropoff":true,"openingstijden":{"ma":"09:00 - 18:00","di":"09:00 - 18:00","wo":"09:00 - 18:00","do":"09:00 - 18:00","vr":"09:00 - 18:00","za":"09:00 - 17:00","zo":"gesloten"}}},{"type":"Feature","geometry":{"type":"Point","coordinates":[4.2837261,51.5055934]},"properties":{"type":"pakketpunt","locatieNaam":"ViaTim & Irma","straatNaam":"TULPENVELD","straatNr":"2","vervoerder":"DPD","puntType":"pickup_point","bezettingsgraad":50,"latitude":51.5055934,"longitude":4.2837261,"canPickup":true,"canDropoff":true,"openingstijden":{"ma":"14:00 - 21:00","di":"14:00 - 21:00","wo":"14:00 - 21:00","do":"14:00 - 21:00","vr":"14:00 - 21:00","za":"gesloten","zo":"gesloten"}}},{"type":"Feature","geometry":{"type":"Point","coordinates":[4.297653,51.498169]},"properties":{"type":"pakketpunt","locatieNaam":"Pal-Jang B.V.","straatNaam":"WATTWEG","straatNr":"1A","vervoerder":"DPD","puntType":"pickup_point","bezettingsgraad":50,"latitude":51.498169,"longitude":4.297653,"canPickup":true,"canDropoff":true,"openingstijden":{"ma":"10:00 - 22:00","di":"10:00 - 22:00","wo":"10:00 - 22:00","do":"10:00 - 22:00","vr":"10:00 - 22:00","za":"10:00 - 18:00","zo":"10:00 - 17:00"}}},{"type":"Feature","geometry":{"type":"Point","coordinates":[4.2719926,51.5225571]},"properties":{"type":"pakketpunt","locatieNaam":"Monique Groenten en Fruit","straatNaam":"DORPSSTRAAT","straatNr":"170","vervoerder":"DPD","puntType":"pickup_point","bezettingsgraad":50,"latitude":51.5225571,"longitude":4.2719926,"canPickup":true,"canDropoff":true,"openingstijden":{"ma":"gesloten","di":"08:30 - 17:30","wo":"08:30 - 17:30","do":"08:30 - 17:30","vr":"08:30 - 17:30","za":"08:00 - 16:00","zo":"gesloten"}}},{"type":"Feature","geometry":{"type":"Point","coordinates":[4.2684268,51.5270706]},"properties":{"type":"pakketpunt","locatieNaam":"Kringloop de Snuffelhoek","straatNaam":"DORPSSTRAAT","straatNr":"68","vervoerder":"DPD","puntType":"pickup_point","bezettingsgraad":50,"latitude":51.5270706,"longitude":4.2684268,"canPickup":true,"canDropoff":true,"openingstijden":{"ma":"09:00 - 15:00","di":"09:00 - 15:00","wo":"09:00 - 15:00","do":"09:00 - 15:00","vr":"09:00 - 15:00","za":"gesloten","zo":"gesloten"}}},{"type":"Feature","geometry":{"type":"Point","coordinates":[4.309813,51.48583]},"properties":{"type":"pakketpunt","locatieNaam":"UR198 Pakketautomaat Budbee","straatNaam":"ZONNEPLEIN","straatNr":"31","vervoerder":"DPD","puntType":"dpd_box","bezettingsgraad":50,"latitude":51.48583,"longitude":4.309813,"canPickup":true,"canDropoff":false,"openingstijden":{"ma":"08:00 - 21:00","di":"08:00 - 21:00","wo":"08:00 - 21:00","do":"08:00 - 21:00","vr":"08:00 - 21:00","za":"08:00 - 21:00","zo":"09:00 - 21:00"}}},{"type":"Feature","geometry":{"type":"Point","coordinates":[4.29667,51.50165]},"properties":{"type":"pakketpunt","locatieNaam":"Pakketautomaat Ont-Moet","straatNaam":"RAVELSTRAAT","straatNr":"28","vervoerder":"DPD","puntType":"dpd_box","bezettingsgraad":50,"latitude":51.50165,"longitude":4.29667,"canPickup":true,"canDropoff":true,"openingstijden":{"ma":"00:01 - 23:59","di":"00:01 - 23:59","wo":"00:01 - 23:59","do":"00:01 - 23:59","vr":"00:01 - 23:59","za":"00:01 - 23:59","zo":"00:01 - 23:59"}}},{"type":"Feature","geometry":{"type":"Point","coordinates":[4.29902,51.48781]},"properties":{"type":"pakketpunt","locatieNaam":"Business Point - Tabakspeciaalzaak","straatNaam":"PASTOOR JUTENLAAN","straatNr":"2 B","vervoerder":"DPD","puntType":"pickup_point","bezettingsgraad":50,"latitude":51.48781,"longitude":4.29902,"canPickup":true,"canDropoff":true,"openingstijden":{"ma":"08:00 - 22:00","di":"08:00 - 22:00","wo":"08:00 - 22:00","do":"08:00 - 22:00","vr":"08:00 - 22:00","za":"08:00 - 22:00","zo":"12:00 - 22:00"}}},{"type":"Feature","geometry":{"type":"Point","coordinates":[4.294674633,51.50570566]},"properties":{"type":"pakketpunt","locatieNaam":"Primera Bloemendaal","straatNaam":"Bloemendaal","straatNr":"56","vervoerder":"PostNL","puntType":"servicepunt","bezettingsgraad":50,"latitude":51.50570566,"longitude":4.294674633,"canPickup":true,"canDropoff":true,"openingstijden":"08:00 - 20:00 (Na 18:00 open; Zaterdag open)"}},{"type":"Feature","geometry":{"type":"Point","coordinates":[4.301340963,51.51126031]},"properties":{"type":"pakketpunt","locatieNaam":"Phone Connect Bergen op Zoom","straatNaam":"Fruiteniersdreef","straatNr":"8","vervoerder":"PostNL","puntType":"servicepunt","bezettingsgraad":50,"latitude":51.51126031,"longitude":4.301340963,"canPickup":true,"canDropoff":true,"openingstijden":"09:00 - 17:30"}},{"type":"Feature","geometry":{"type":"Point","coordinates":[4.297649767,51.49816444]},"properties":{"type":"pakketpunt","locatieNaam":"sportschool fitness Pal-Jang B.V.","straatNaam":"Wattweg","straatNr":"1A","vervoerder":"PostNL","puntType":"servicepunt","bezettingsgraad":50,"latitude":51.49816444,"longitude":4.297649767,"canPickup":true,"canDropoff":true,"openingstijden":"10:00 - 22:00"}},{"type":"Feature","geometry":{"type":"Point","coordinates":[4.307640846,51.49894042]},"properties":{"type":"pakketpunt","locatieNaam":"Pakket- en briefautomaat","straatNaam":"Drebbelstraat","straatNr":"42PBA","vervoerder":"PostNL","puntType":"automaat","bezettingsgraad":50,"latitude":51.49894042,"longitude":4.307640846,"canPickup":true,"canDropoff":true,"openingstijden":"09:00 - 21:00"}},{"type":"Feature","geometry":{"type":"Point","coordinates":[4.307640846,51.49894042]},"properties":{"type":"pakketpunt","locatieNaam":"KARWEI Bergen op Zoom","straatNaam":"Drebbelstraat","straatNr":"42","vervoerder":"PostNL","puntType":"servicepunt","bezettingsgraad":50,"latitude":51.49894042,"longitude":4.307640846,"canPickup":true,"canDropoff":true,"openingstijden":"09:00 - 21:00"}},{"type":"Feature","geometry":{"type":"Point","coordinates":[4.301547264,51.49598038]},"properties":{"type":"pakketpunt","locatieNaam":"Pakket- en briefautomaat","straatNaam":"Kastanjelaan","straatNr":"157PBA","vervoerder":"PostNL","puntType":"automaat","bezettingsgraad":50,"latitude":51.49598038,"longitude":4.301547264,"canPickup":true,"canDropoff":true,"openingstijden":"00:00 - 23:59"}},{"type":"Feature","geometry":{"type":"Point","coordinates":[4.276390001,51.50591972]},"properties":{"type":"pakketpunt","locatieNaam":"GAMMA Bergen op Zoom","straatNaam":"Moerweg","straatNr":"1","vervoerder":"PostNL","puntType":"servicepunt","bezettingsgraad":50,"latitude":51.50591972,"longitude":4.276390001,"canPickup":true,"canDropoff":true,"openingstijden":"09:00 - 21:00"}},{"type":"Feature","geometry":{"type":"Point","coordinates":[4.276390001,51.50591972]},"properties":{"type":"pakketpunt","locatieNaam":"Pakket- en briefautomaat","straatNaam":"Moerweg","straatNr":"1PBA","vervoerder":"PostNL","puntType":"automaat","bezettingsgraad":50,"latitude":51.50591972,"longitude":4.276390001,"canPickup":true,"canDropoff":true,"openingstijden":"09:00 - 21:00"}},{"type":"Feature","geometry":{"type":"Point","coordinates":[4.2906931901672,51.4933978967856]},"properties":{"type":"pakketpunt","locatieNaam":"Pakketautomaat","straatNaam":"Burgemeester Van Hasseltstraat","straatNr":"1PBA","vervoerder":"PostNL","puntType":"automaat","bezettingsgraad":50,"latitude":51.4933978967856,"longitude":4.2906931901672,"canPickup":true,"canDropoff":true,"openingstijden":"08:00 - 21:00"}},{"type":"Feature","geometry":{"type":"Point","coordinates":[4.278358887,51.51615033]},"properties":{"type":"pakketpunt","locatieNaam":"Intratuin Halsteren","straatNaam":"Halsterseweg","straatNr":"65A","vervoerder":"PostNL","puntType":"servicepunt","bezettingsgraad":50,"latitude":51.51615033,"longitude":4.278358887,"canPickup":true,"canDropoff":true,"openingstijden":"09:00 - 17:30"}},{"type":"Feature","geometry":{"type":"Point","coordinates":[4.26994888623061,51.5036648704984]},"properties":{"type":"pakketpunt","locatieNaam":"VPP PpP","straatNaam":"Vierlinghweg","straatNr":"39A","vervoerder":"PostNL","puntType":"servicepunt","bezettingsgraad":50,"latitude":51.5036648704984,"longitude":4.26994888623061,"canPickup":true,"canDropoff":true,"openingstijden":"09:00 - 19:00"}},{"type":"Feature","geometry":{"type":"Point","coordinates":[4.29758565407735,51.4888149321125]},"properties":{"type":"pakketpunt","locatieNaam":"Smoke Shop Bergen op zoom","straatNaam":"Pastoor Jutenlaan","straatNr":"2A","vervoerder":"PostNL","puntType":"servicepunt","bezettingsgraad":50,"latitude":51.4888149321125,"longitude":4.29758565407735,"canPickup":true,"canDropoff":true,"openingstijden":"08:00 - 22:00 (Na 18:00 open; Zaterdag open; Zondag open)"}},{"type":"Feature","geometry":{"type":"Point","coordinates":[4.308418954,51.48556251]},"properties":{"type":"pakketpunt","locatieNaam":"Primera Zonneplein","straatNaam":"Zonneplein","straatNr":"2","vervoerder":"PostNL","puntType":"servicepunt","bezettingsgraad":50,"latitude":51.48556251,"longitude":4.308418954,"canPickup":true,"canDropoff":true,"openingstijden":"09:00 - 18:00 (Na 18:00 open; Zaterdag open)"}},{"type":"Feature","geometry":{"type":"Point","coordinates":[4.27145957,51.52369861]},"properties":{"type":"pakketpunt","locatieNaam":"PLUS Halsteren","straatNaam":"Dorpsstraat","straatNr":"75","vervoerder":"PostNL","puntType":"servicepunt","bezettingsgraad":50,"latitude":51.52369861,"longitude":4.27145957,"canPickup":true,"canDropoff":true,"openingstijden":"07:30 - 21:00"}},{"type":"Feature","geometry":{"type":"Point","coordinates":[4.27144538387584,51.5236894887673]},"properties":{"type":"pakketpunt","locatieNaam":"Pakketautomaat","straatNaam":"Dorpsstraat","straatNr":"75PBA","vervoerder":"PostNL","puntType":"automaat","bezettingsgraad":50,"latitude":51.5236894887673,"longitude":4.27144538387584,"canPickup":true,"canDropoff":true,"openingstijden":"07:30 - 21:00"}},{"type":"Feature","geometry":{"type":"Point","coordinates":[4.281547304,51.47982761]},"properties":{"type":"pakketpunt","locatieNaam":"Pakket- en briefautomaat","straatNaam":"Vogelaar","straatNr":"29PBA","vervoerder":"PostNL","puntType":"automaat","bezettingsgraad":50,"latitude":51.47982761,"longitude":4.281547304,"canPickup":true,"canDropoff":true,"openingstijden":"00:00 - 23:59"}},{"type":"Feature","geometry":{"type":"Point","coordinates":[4.268257417,51.52733564]},"properties":{"type":"pakketpunt","locatieNaam":"Primera Halsteren","straatNaam":"Dorpsstraat","straatNr":"62","vervoerder":"PostNL","puntType":"servicepunt","bezettingsgraad":50,"latitude":51.52733564,"longitude":4.268257417,"canPickup":true,"canDropoff":true,"openingstijden":"08:30 - 18:00 (Na 18:00 open; Zaterdag open)"}},{"type":"Feature","geometry":{"type":"Point","coordinates":[4.278007879,51.54943451]},"properties":{"type":"pakketpunt","locatieNaam":"Multi-Bikes","straatNaam":"Kerkstraat","straatNr":"59","vervoerder":"PostNL","puntType":"servicepunt","bezettingsgraad":50,"latitude":51.54943451,"longitude":4.278007879,"canPickup":true,"canDropoff":true,"openingstijden":null}},{"type":"Feature","geometry":{"type":"Point","coordinates":[4.2837262,51.5055934]},"properties":{"type":"pakketpunt","locatieNaam":"R. V. Kammen","straatNaam":"Tulpenveld 2","straatNr":"","vervoerder":"VintedGo","puntType":"social","bezettingsgraad":50,"latitude":51.5055934,"longitude":4.2837262,"canPickup":true,"canDropoff":true,"openingstijden":null}},{"type":"Feature","geometry":{"type":"Point","coordinates":[4.2854651,51.4953575]},"properties":{"type":"pakketpunt","locatieNaam":"Ma vie ","straatNaam":"Kortemeestraat 5","straatNr":"","vervoerder":"VintedGo","puntType":"parcel_shop","bezettingsgraad":50,"latitude":51.4953575,"longitude":4.2854651,"canPickup":true,"canDropoff":true,"openingstijden":null}},{"type":"Feature","geometry":{"type":"Point","coordinates":[4.2959379,51.4954365]},"properties":{"type":"pakketpunt","locatieNaam":"Stationstelecom","straatNaam":"Stationsplein 2","straatNr":"","vervoerder":"VintedGo","puntType":"parcel_shop","bezettingsgraad":50,"latitude":51.4954365,"longitude":4.2959379,"canPickup":true,"canDropoff":true,"openingstijden":null}},{"type":"Feature","geometry":{"type":"Point","coordinates":[4.30951,51.48556]},"properties":{"type":"pakketpunt","locatieNaam":"T’Winkeltje ","straatNaam":"Zonneplein 15","straatNr":"","vervoerder":"VintedGo","puntType":"parcel_shop","bezettingsgraad":50,"latitude":51.48556,"longitude":4.30951,"canPickup":true,"canDropoff":true,"openingstijden":null}},{"type":"Feature","geometry":{"type":"Point","coordinates":[4.29762,51.49804]},"properties":{"type":"pakketpunt","locatieNaam":"Beauty Center Le Asmin","straatNaam":"Wattweg 1","straatNr":"","vervoerder":"VintedGo","puntType":"parcel_shop","bezettingsgraad":50,"latitude":51.49804,"longitude":4.29762,"canPickup":true,"canDropoff":true,"openingstijden":null}},{"type":"Feature","geometry":{"type":"Point","coordinates":[4.27199,51.52256]},"properties":{"type":"pakketpunt","locatieNaam":"Monique Groenten En Fruit ","straatNaam":"Dorpsstraat 170","straatNr":"","vervoerder":"VintedGo","puntType":"parcel_shop","bezettingsgraad":50,"latitude":51.52256,"longitude":4.27199,"canPickup":true,"canDropoff":true,"openingstijden":null}},{"type":"Feature","geometry":{"type":"Point","coordinates":[4.2976,51.48881]},"properties":{"type":"pakketpunt","locatieNaam":"Tabakzaak Bergen Op Zoom","straatNaam":"Pastoor Jutenlaan 2b","straatNr":"","vervoerder":"VintedGo","puntType":"parcel_shop","bezettingsgraad":50,"latitude":51.48881,"longitude":4.2976,"canPickup":true,"canDropoff":true,"openingstijden":null}},{"type":"Feature","geometry":{"type":"Point","coordinates":[4.28005,51.52396]},"properties":{"type":"pakketpunt","locatieNaam":"R. Schouw","straatNaam":"Pottenbakker 13","straatNr":"","vervoerder":"VintedGo","puntType":"social","bezettingsgraad":50,"latitude":51.52396,"longitude":4.28005,"canPickup":true,"canDropoff":true,"openingstijden":null}},{"type":"Feature","geometry":{"type":"Point","coordinates":[4.26718,51.52866]},"properties":{"type":"pakketpunt","locatieNaam":"SDW de Colweghe","straatNaam":"Dorpsstraat 30","straatNr":"","vervoerder":"VintedGo","puntType":"parcel_shop","bezettingsgraad":50,"latitude":51.52866,"longitude":4.26718,"canPickup":true,"canDropoff":true,"openingstijden":null}},{"type":"Feature","geometry":{"type":"Point","coordinates":[4.2896218,51.4948794]},"properties":{"type":"pakketpunt","locatieNaam":"Gossip Fashionstore - Bergen Op Zoom","straatNaam":"Zuivelplein 4","straatNr":"","vervoerder":"VintedGo","puntType":"parcel_shop","bezettingsgraad":50,"latitude":51.4948794,"longitude":4.2896218,"canPickup":true,"canDropoff":true,"openingstijden":null}},{"type":"Feature","geometry":{"type":"Point","coordinates":[4.2932189,51.5522453]},"properties":{"type":"pakketpunt","locatieNaam":"Van Wijk Keuken En Bad","straatNaam":"Steenbergseweg 85A","straatNr":"","vervoerder":"VintedGo","puntType":"locker","bezettingsgraad":50,"latitude":51.5522453,"longitude":4.2932189,"canPickup":true,"canDropoff":true,"openingstijden":null}},{"type":"Feature","geometry":{"type":"Point","coordinates":[4.2879051,51.4947365]},"properties":{"type":"pakketpunt","locatieNaam":"Van Katoen Vintage ","straatNaam":"Zuivelstraat 4","straatNr":"","vervoerder":"VintedGo","puntType":"parcel_shop","bezettingsgraad":50,"latitude":51.4947365,"longitude":4.2879051,"canPickup":true,"canDropoff":true,"openingstijden":null}},{"type":"Feature","geometry":{"type":"Point","coordinates":[4.2699909,51.5036108]},"properties":{"type":"pakketpunt","locatieNaam":"Vpp","straatNaam":"Vierlinghweg 39A","straatNr":"","vervoerder":"VintedGo","puntType":"parcel_shop","bezettingsgraad":50,"latitude":51.5036108,"longitude":4.2699909,"canPickup":true,"canDropoff":true,"openingstijden":null}},{"type":"Feature","geometry":{"type":"Point","coordinates":[4.270825,51.523825]},"properties":{"type":"pakketpunt","locatieNaam":"Plus Halsteren","straatNaam":"dorpsstraat 75-77","straatNr":"","vervoerder":"VintedGo","puntType":"locker","bezettingsgraad":50,"latitude":51.523825,"longitude":4.270825,"canPickup":true,"canDropoff":true,"openingstijden":null}},{"type":"Feature","geometry":{"type":"Point","coordinates":[4.2873561,51.495137]},"properties":{"type":"pakketpunt","locatieNaam":"Bumblebeez Spellenwinkel","straatNaam":"Kremerstraat 6","straatNr":"","vervoerder":"VintedGo","puntType":"parcel_shop","bezettingsgraad":50,"latitude":51.495137,"longitude":4.2873561,"canPickup":true,"canDropoff":true,"openingstijden":null}},{"type":"Feature","geometry":{"type":"Point","coordinates":[4.2966728,51.4998001]},"properties":{"type":"pakketpunt","locatieNaam":"Mrd Cars","straatNaam":"Buitenvest 44","straatNr":"","vervoerder":"VintedGo","puntType":"parcel_shop","bezettingsgraad":50,"latitude":51.4998001,"longitude":4.2966728,"canPickup":true,"canDropoff":true,"openingstijden":null}},{"type":"Feature","geometry":{"type":"Point","coordinates":[4.2901778,51.4935533]},"properties":{"type":"pakketpunt","locatieNaam":"Multivlaai Bergen Op Zoom","straatNaam":"Huijbergsestraat 13","straatNr":"","vervoerder":"VintedGo","puntType":"parcel_shop","bezettingsgraad":50,"latitude":51.4935533,"longitude":4.2901778,"canPickup":true,"canDropoff":true,"openingstijden":null}},{"type":"Feature","geometry":{"type":"Point","coordinates":[4.2987871,51.4924416]},"properties":{"type":"pakketpunt","locatieNaam":"Dagbesteding Op Eigen Koers","straatNaam":"Kastanjelaan 70","straatNr":"","vervoerder":"VintedGo","puntType":"parcel_shop","bezettingsgraad":50,"latitude":51.4924416,"longitude":4.2987871,"canPickup":true,"canDropoff":true,"openingstijden":null}},{"type":"Feature","geometry":{"type":"Point","coordinates":[4.34120075,51.51814722]},"properties":{"type":"pakketpunt","locatieNaam":"ViaTim en Stichting Ekulinda","straatNaam":"Heerlesebaan","straatNr":"29","vervoerder":"ViaTim","puntType":"servicepunt","bezettingsgraad":50,"latitude":51.51814722,"longitude":4.34120075,"canPickup":true,"canDropoff":true,"openingstijden":{"ma":"09:00 - 17:00","di":"gesloten","wo":"09:00 - 17:00","do":"gesloten","vr":"09:00 - 17:00","za":"gesloten","zo":"gesloten"}}},{"type":"Feature","geometry":{"type":"Point","coordinates":[4.28308002,51.50805572]},"properties":{"type":"pakketpunt","locatieNaam":"ViaTim en Esteban","straatNaam":"Welle","straatNr":"31","vervoerder":"ViaTim","puntType":"servicepunt","bezettingsgraad":50,"latitude":51.50805572,"longitude":4.28308002,"canPickup":true,"canDropoff":true,"openingstijden":{"ma":"17:30 - 20:30","di":"gesloten","wo":"17:30 - 20:30","do":"17:30 - 20:30","vr":"17:30 - 20:30","za":"gesloten","zo":"gesloten"}}},{"type":"Feature","geometry":{"type":"Point","coordinates":[4.31481707,51.50701896]},"properties":{"type":"pakketpunt","locatieNaam":"ViaTim en Wilma","straatNaam":"Struikheide","straatNr":"15","vervoerder":"ViaTim","puntType":"servicepunt","bezettingsgraad":50,"latitude":51.50701896,"longitude":4.31481707,"canPickup":true,"canDropoff":true,"openingstijden":{"ma":"gesloten","di":"gesloten","wo":"09:00 - 16:00","do":"gesloten","vr":"10:30 - 16:00","za":"gesloten","zo":"gesloten"}}},{"type":"Feature","geometry":{"type":"Point","coordinates":[4.28372613227622,51.5055933478226]},"properties":{"type":"pakketpunt","locatieNaam":"ViaTim en Irma","straatNaam":"Tulpenveld","straatNr":"2","vervoerder":"ViaTim","puntType":"servicepunt","bezettingsgraad":50,"latitude":51.5055933478226,"longitude":4.28372613227622,"canPickup":true,"canDropoff":true,"openingstijden":{"ma":"16:00 - 21:00","di":"16:00 - 21:00","wo":"16:00 - 21:00","do":"16:00 - 21:00","vr":"gesloten","za":"gesloten","zo":"gesloten"}}},{"type":"Feature","geometry":{"type":"Point","coordinates":[4.281726409922122,51.47982782656126]},"properties":{"type":"pakketpunt","locatieNaam":"FedEx Ship&Get","straatNaam":"Vogelaar 29 PBA","straatNr":"","vervoerder":"FedEx","puntType":"servicepunt","bezettingsgraad":50,"latitude":51.47982782656126,"longitude":4.281726409922122,"canPickup":true,"canDropoff":true,"openingstijden":{"ma":"00:00 - 23:59","di":"00:00 - 23:59","wo":"00:00 - 23:59","do":"00:00 - 23:59","vr":"00:00 - 23:59","za":"00:00 - 23:59","zo":"00:00 - 23:59"}}},{"type":"Feature","geometry":{"type":"Point","coordinates":[4.297737157015562,51.48869741429894]},"properties":{"type":"pakketpunt","locatieNaam":"FedEx OnSite","straatNaam":"PASTOOR JUTENLAAN 2B","straatNr":"","vervoerder":"FedEx","puntType":"servicepunt","bezettingsgraad":50,"latitude":51.48869741429894,"longitude":4.297737157015562,"canPickup":true,"canDropoff":true,"openingstijden":{"ma":"08:00 - 22:00","di":"08:00 - 22:00","wo":"08:00 - 22:00","do":"08:00 - 22:00","vr":"08:00 - 22:00","za":"08:00 - 22:00","zo":"12:00 - 22:00"}}},{"type":"Feature","geometry":{"type":"Point","coordinates":[4.288576,51.495018]},"properties":{"type":"pakketpunt","locatieNaam":"FedEx OnSite","straatNaam":"ZUIVELSTRAAT 23","straatNr":"","vervoerder":"FedEx","puntType":"servicepunt","bezettingsgraad":50,"latitude":51.495018,"longitude":4.288576,"canPickup":true,"canDropoff":true,"openingstijden":{"ma":"13:00 - 17:30","di":"10:00 - 17:30","wo":"10:00 - 17:30","do":"10:00 - 17:30","vr":"10:00 - 20:00","za":"10:00 - 17:00","zo":"gesloten"}}},{"type":"Feature","geometry":{"type":"Point","coordinates":[4.301401176508972,51.49596386327696]},"properties":{"type":"pakketpunt","locatieNaam":"FedEx Ship&Get","straatNaam":"Kastanjelaan 157 PBA","straatNr":"","vervoerder":"FedEx","puntType":"servicepunt","bezettingsgraad":50,"latitude":51.49596386327696,"longitude":4.301401176508972,"canPickup":true,"canDropoff":true,"openingstijden":{"ma":"00:00 - 23:59","di":"00:00 - 23:59","wo":"00:00 - 23:59","do":"00:00 - 23:59","vr":"00:00 - 23:59","za":"00:00 - 23:59","zo":"00:00 - 23:59"}}},{"type":"Feature","geometry":{"type":"Point","coordinates":[4.297637,51.498215]},"properties":{"type":"pakketpunt","locatieNaam":"FedEx OnSite","straatNaam":"WATTWEG 1A","straatNr":"","vervoerder":"FedEx","puntType":"servicepunt","bezettingsgraad":50,"latitude":51.498215,"longitude":4.297637,"canPickup":true,"canDropoff":true,"openingstijden":{"ma":"10:00 - 21:00","di":"10:00 - 21:00","wo":"10:00 - 21:00","do":"10:00 - 21:00","vr":"10:00 - 21:00","za":"09:30 - 15:00","zo":"09:30 - 15:00"}}},{"type":"Feature","geometry":{"type":"Point","coordinates":[4.307637017790995,51.49894109537035]},"properties":{"type":"pakketpunt","locatieNaam":"FedEx Ship&Get","straatNaam":"Drebbelstraat 42 PBA","straatNr":"","vervoerder":"FedEx","puntType":"servicepunt","bezettingsgraad":50,"latitude":51.49894109537035,"longitude":4.307637017790995,"canPickup":true,"canDropoff":true,"openingstijden":{"ma":"09:00 - 21:00","di":"09:00 - 21:00","wo":"09:00 - 21:00","do":"09:00 - 21:00","vr":"09:00 - 21:00","za":"09:00 - 18:00","zo":"10:00 - 17:00"}}},{"type":"Feature","geometry":{"type":"Point","coordinates":[4.275985129916071,51.50581250142863]},"properties":{"type":"pakketpunt","locatieNaam":"FedEx Ship&Get","straatNaam":"Moerweg 1 PBA","straatNr":"","vervoerder":"FedEx","puntType":"servicepunt","bezettingsgraad":50,"latitude":51.50581250142863,"longitude":4.275985129916071,"canPickup":true,"canDropoff":true,"openingstijden":{"ma":"09:00 - 21:00","di":"09:00 - 21:00","wo":"09:00 - 21:00","do":"09:00 - 21:00","vr":"09:00 - 21:00","za":"09:00 - 18:00","zo":"10:00 - 17:00"}}},{"type":"Feature","geometry":{"type":"Point","coordinates":[4.272033,51.522547]},"properties":{"type":"pakketpunt","locatieNaam":"FedEx OnSite","straatNaam":"DORPSSTRAAT 170","straatNr":"","vervoerder":"FedEx","puntType":"servicepunt","bezettingsgraad":50,"latitude":51.522547,"longitude":4.272033,"canPickup":true,"canDropoff":true,"openingstijden":{"ma":"gesloten","di":"08:30 - 12:30, 13:00 - 17:30","wo":"08:30 - 12:30, 13:00 - 17:30","do":"08:30 - 12:30, 13:00 - 17:30","vr":"08:30 - 12:30, 13:00 - 17:30","za":"08:30 - 12:30, 13:00 - 16:00","zo":"gesloten"}}},{"type":"Feature","geometry":{"type":"Point","coordinates":[4.271488687489797,51.52368038755934]},"properties":{"type":"pakketpunt","locatieNaam":"FedEx Ship&Get","straatNaam":"Dorpsstraat 75 PBA","straatNr":"","vervoerder":"FedEx","puntType":"servicepunt","bezettingsgraad":50,"latitude":51.52368038755934,"longitude":4.271488687489797,"canPickup":true,"canDropoff":true,"openingstijden":{"ma":"07:30 - 21:00","di":"07:30 - 21:00","wo":"07:30 - 21:00","do":"07:30 - 21:00","vr":"07:30 - 21:00","za":"07:30 - 21:00","zo":"08:00 - 21:00"}}},{"type":"Feature","geometry":{"type":"Point","coordinates":[4.29764,51.49822]},"properties":{"type":"pakketpunt","locatieNaam":"PAL-JANG (SPORT)","straatNaam":"Wattweg 1A","straatNr":"","vervoerder":"InPost","puntType":"servicepunt","bezettingsgraad":50,"latitude":51.49822,"longitude":4.29764,"canPickup":true,"canDropoff":true,"openingstijden":null}},{"type":"Feature","geometry":{"type":"Point","coordinates":[4.27203,51.52255]},"properties":{"type":"pakketpunt","locatieNaam":"MONIQUE GROENTEN EN FRUIT","straatNaam":"Dorpsstraat 170","straatNr":"","vervoerder":"InPost","puntType":"servicepunt","bezettingsgraad":50,"latitude":51.52255,"longitude":4.27203,"canPickup":true,"canDropoff":true,"openingstijden":null}},{"type":"Feature","geometry":{"type":"Point","coordinates":[4.28858,51.49502]},"properties":{"type":"pakketpunt","locatieNaam":"WORLD OF PHONES","straatNaam":"Zuivelstraat 23","straatNr":"","vervoerder":"InPost","puntType":"servicepunt","bezettingsgraad":50,"latitude":51.49502,"longitude":4.28858,"canPickup":true,"canDropoff":true,"openingstijden":null}},{"type":"Feature","geometry":{"type":"Point","coordinates":[4.29754,51.48876]},"properties":{"type":"pakketpunt","locatieNaam":"TABAKSPECIAALZAAK BERGEN OP ZOOM","straatNaam":"Pastoor Jutenlaan 2b","straatNr":"","vervoerder":"InPost","puntType":"servicepunt","bezettingsgraad":50,"latitude":51.48876,"longitude":4.29754,"canPickup":true,"canDropoff":true,"openingstijden":null}},{"type":"Feature","geometry":{"type":"Point","coordinates":[4.30724,51.4991]},"properties":{"type":"pakketpunt","locatieNaam":"","straatNaam":"Drebbelstraat","straatNr":"42","vervoerder":"InPost","puntType":"automaat","bezettingsgraad":50,"latitude":51.4991,"longitude":4.30724,"canPickup":true,"canDropoff":true,"openingstijden":"24/7"}},{"type":"Feature","geometry":{"type":"Point","coordinates":[4.26978,51.5037]},"properties":{"type":"pakketpunt","locatieNaam":"VPP","straatNaam":"Vierlinghweg 39a","straatNr":"","vervoerder":"InPost","puntType":"servicepunt","bezettingsgraad":50,"latitude":51.5037,"longitude":4.26978,"canPickup":true,"canDropoff":true,"openingstijden":null}},{"type":"Feature","geometry":{"type":"Point","coordinates":[4.28737,51.49514]},"properties":{"type":"pakketpunt","locatieNaam":"BUMBLEBEEZ-SPELLENWINKEL","straatNaam":"Kremerstraat 6","straatNr":"","vervoerder":"InPost","puntType":"servicepunt","bezettingsgraad":50,"latitude":51.49514,"longitude":4.28737,"canPickup":true,"canDropoff":true,"openingstijden":null}},{"type":"Feature","geometry":{"type":"Point","coordinates":[4.309813,51.48583]},"properties":{"type":"pakketpunt","locatieNaam":"UR198 Pakketautomaat Budbee","straatNaam":"ZONNEPLEIN","straatNr":"31","vervoerder":"Budbee","puntType":"automaat","bezettingsgraad":50,"latitude":51.48583,"longitude":4.309813,"canPickup":true,"canDropoff":true,"openingstijden":null}},{"type":"Feature","geometry":{"type":"Polygon","coordinates":[[[4.219931,51.513803],[4.220102,51.514284],[4.220587,51.515318],[4.220911,51.516009],[4.22186,51.517706],[4.222818,51.519402],[4.223776,51.521097],[4.224538,51.522451],[4.224734,51.522792],[4.224839,51.52299],[4.224882,51.523066],[4.225692,51.524488],[4.227608,51.527878],[4.228567,51.529574],[4.230099,51.532285],[4.231442,51.53466],[4.231744,51.535196],[4.232143,51.535905],[4.2324,51.536355],[4.233043,51.537492],[4.233359,51.538051],[4.234005,51.539225],[4.234098,51.539394],[4.234294,51.539751],[4.235068,51.541482],[4.23533,51.542265],[4.235657,51.543242],[4.236058,51.545021],[4.236268,51.546814],[4.236277,51.547714],[4.236287,51.548611],[4.236119,51.550366],[4.237596,51.550461],[4.238692,51.550532],[4.238726,51.550534],[4.238724,51.550541],[4.238729,51.550557],[4.238743,51.55057],[4.238766,51.550583],[4.238781,51.55059],[4.238803,51.550596],[4.238824,51.550601],[4.238846,51.550607],[4.238875,51.550613],[4.238919,51.550616],[4.238979,51.550616],[4.239073,51.550614],[4.239148,51.550617],[4.239211,51.550625],[4.239249,51.550629],[4.239298,51.550635],[4.239355,51.550642],[4.239317,51.550719],[4.239521,51.550753],[4.239621,51.550802],[4.239668,51.550846],[4.239725,51.550919],[4.239789,51.551051],[4.239798,51.551163],[4.239738,51.551292],[4.239724,51.551361],[4.239888,51.551323],[4.239921,51.551315],[4.239956,51.551425],[4.240004,51.551579],[4.239987,51.551616],[4.240215,51.552305],[4.240373,51.552723],[4.240587,51.553302],[4.240638,51.553428],[4.241076,51.554528],[4.241534,51.555677],[4.241599,51.555774],[4.241668,51.555886],[4.241694,51.55593],[4.241661,51.555929],[4.241624,51.555931],[4.241719,51.556075],[4.241888,51.556499],[4.242057,51.556922],[4.242081,51.556982],[4.242375,51.557719],[4.242377,51.557721],[4.242778,51.558736],[4.242936,51.559125],[4.242968,51.559206],[4.242972,51.559327],[4.242972,51.559332],[4.242984,51.559413],[4.243007,51.559491],[4.243055,51.559566],[4.24309,51.559592],[4.243185,51.559623],[4.243376,51.559578],[4.243404,51.559574],[4.243186,51.560278],[4.24316,51.560364],[4.242963,51.561001],[4.242928,51.561133],[4.242899,51.561267],[4.242881,51.561399],[4.242881,51.561417],[4.242878,51.561459],[4.242878,51.561464],[4.242878,51.561469],[4.242877,51.561482],[4.242877,51.561484],[4.242875,51.561534],[4.242901,51.561931],[4.242928,51.562358],[4.242929,51.562371],[4.242965,51.562921],[4.242976,51.56298],[4.243023,51.563032],[4.243936,51.563761],[4.243973,51.563791],[4.244355,51.564096],[4.244626,51.564305],[4.244901,51.564512],[4.245004,51.564585],[4.245142,51.564682],[4.245144,51.564684],[4.24536,51.564836],[4.245381,51.56485],[4.245645,51.565037],[4.245848,51.565218],[4.245858,51.565227],[4.246089,51.565433],[4.246481,51.565784],[4.246492,51.565794],[4.246761,51.566035],[4.246876,51.566138],[4.247134,51.566376],[4.247176,51.566418],[4.247186,51.566427],[4.247303,51.566532],[4.247292,51.566536],[4.247549,51.566771],[4.247665,51.566883],[4.248113,51.567314],[4.248318,51.567508],[4.248595,51.567755],[4.249126,51.568228],[4.25017,51.569163],[4.250364,51.569341],[4.25071,51.569652],[4.250745,51.56968],[4.250974,51.569869],[4.251164,51.57002],[4.251218,51.570063],[4.251481,51.57025],[4.251774,51.570455],[4.251771,51.570455],[4.251742,51.570461],[4.251766,51.57048],[4.251971,51.570633],[4.252008,51.570661],[4.252021,51.570659],[4.252038,51.570656],[4.252067,51.57065],[4.252211,51.570622],[4.252216,51.570621],[4.252318,51.570601],[4.252433,51.570575],[4.252483,51.570565],[4.252491,51.570564],[4.252732,51.570517],[4.253399,51.570392],[4.253889,51.570297],[4.254383,51.570206],[4.255473,51.57002],[4.256659,51.569819],[4.257113,51.569741],[4.257959,51.569598],[4.258236,51.569551],[4.258544,51.569499],[4.258929,51.569434],[4.259528,51.569333],[4.260135,51.569232],[4.260189,51.569223],[4.260315,51.569203],[4.26097,51.569094],[4.262145,51.568895],[4.262984,51.568756],[4.26341,51.568684],[4.263971,51.568591],[4.26471,51.568467],[4.265413,51.568351],[4.26664,51.568162],[4.267258,51.568068],[4.267301,51.568061],[4.267472,51.568034],[4.267622,51.56801],[4.267608,51.567783],[4.267587,51.567406],[4.267581,51.567188],[4.267575,51.56706],[4.267553,51.566822],[4.267482,51.566068],[4.26745,51.565722],[4.267434,51.565591],[4.267428,51.565537],[4.267406,51.565413],[4.267395,51.56533],[4.267309,51.565081],[4.267162,51.564944],[4.267182,51.564944],[4.26727,51.564945],[4.267343,51.56494],[4.267647,51.564913],[4.267689,51.564909],[4.267885,51.564891],[4.268469,51.564846],[4.269259,51.564785],[4.270026,51.564726],[4.270878,51.564661],[4.271531,51.564612],[4.27152,51.564588],[4.272584,51.564514],[4.272625,51.56451],[4.272888,51.564477],[4.273129,51.564438],[4.273231,51.564416],[4.273583,51.564337],[4.273736,51.564306],[4.274296,51.564184],[4.274643,51.564106],[4.275532,51.563908],[4.275948,51.563818],[4.276528,51.563687],[4.276999,51.563584],[4.277684,51.563434],[4.278457,51.563265],[4.278631,51.563225],[4.278639,51.56324],[4.27914,51.563129],[4.280382,51.562855],[4.280917,51.562735],[4.280909,51.562721],[4.281648,51.562558],[4.282618,51.562343],[4.28301,51.562255],[4.283114,51.562232],[4.284105,51.562025],[4.285202,51.561787],[4.285547,51.561716],[4.28643,51.561528],[4.287275,51.561348],[4.287863,51.561223],[4.287954,51.561203],[4.288217,51.561143],[4.288304,51.561123],[4.289598,51.560835],[4.29039,51.560658],[4.290721,51.560584],[4.291203,51.560477],[4.29224,51.560246],[4.292302,51.560232],[4.292867,51.560108],[4.292909,51.560099],[4.294018,51.559854],[4.294228,51.559807],[4.29444,51.55976],[4.29445,51.559779],[4.294714,51.55972],[4.294969,51.559663],[4.294958,51.559638],[4.295188,51.55959],[4.295719,51.559472],[4.295727,51.559492],[4.298087,51.558966],[4.298633,51.558844],[4.298633,51.558841],[4.29863,51.558825],[4.298602,51.558829],[4.298557,51.558617],[4.298559,51.558149],[4.298385,51.557671],[4.298244,51.557226],[4.298238,51.557208],[4.298103,51.556795],[4.297814,51.555913],[4.297592,51.555491],[4.297585,51.55548],[4.297462,51.555307],[4.297462,51.555307],[4.297317,51.555098],[4.296957,51.554704],[4.29695,51.554696],[4.296907,51.554645],[4.296902,51.554639],[4.296893,51.554629],[4.296892,51.554628],[4.296235,51.55386],[4.29622,51.553848],[4.296157,51.553797],[4.296289,51.553784],[4.296292,51.553784],[4.296508,51.553756],[4.296512,51.553756],[4.29687,51.5537],[4.29716,51.553658],[4.297422,51.553619],[4.29753,51.553603],[4.298424,51.553471],[4.29973,51.553322],[4.29986,51.553307],[4.301164,51.553157],[4.306453,51.552546],[4.306592,51.55253],[4.309579,51.552184],[4.311751,51.551933],[4.317883,51.551226],[4.317885,51.551226],[4.31797,51.551217],[4.317978,51.551216],[4.31802,51.551126],[4.318154,51.550844],[4.318179,51.550793],[4.318192,51.550726],[4.318187,51.550653],[4.318172,51.550483],[4.318128,51.550265],[4.317916,51.549677],[4.317629,51.548914],[4.317178,51.547698],[4.317124,51.547552],[4.317067,51.547402],[4.316986,51.547191],[4.316696,51.546472],[4.316309,51.545497],[4.316268,51.545488],[4.316194,51.545499],[4.314331,51.545825],[4.313128,51.54603],[4.313026,51.546041],[4.312951,51.546035],[4.312646,51.545978],[4.312578,51.545969],[4.312509,51.545969],[4.312434,51.545968],[4.312348,51.545982],[4.312241,51.545998],[4.308281,51.546717],[4.308203,51.546734],[4.308193,51.546709],[4.30815,51.546599],[4.308088,51.546446],[4.308051,51.546362],[4.307938,51.546074],[4.307739,51.545568],[4.307565,51.545121],[4.307389,51.544664],[4.307202,51.544191],[4.307023,51.543768],[4.306992,51.543697],[4.306978,51.543666],[4.306964,51.543649],[4.30694,51.543621],[4.306917,51.543596],[4.306897,51.543579],[4.306856,51.543548],[4.306809,51.543515],[4.306879,51.543496],[4.306909,51.543505],[4.307076,51.543453],[4.312619,51.541711],[4.312671,51.541694],[4.314602,51.541082],[4.314624,51.541075],[4.315721,51.540261],[4.315989,51.540157],[4.316032,51.54014],[4.316147,51.540094],[4.316836,51.539823],[4.317542,51.539545],[4.318101,51.539324],[4.318134,51.539311],[4.318374,51.539223],[4.318457,51.539178],[4.318787,51.539041],[4.319282,51.53884],[4.319723,51.538658],[4.320218,51.538454],[4.320581,51.538304],[4.320716,51.53825],[4.320889,51.538179],[4.321039,51.538116],[4.321153,51.538081],[4.321352,51.538056],[4.32148,51.538022],[4.321573,51.537988],[4.321629,51.53797],[4.321604,51.537878],[4.321697,51.537842],[4.322447,51.537504],[4.323246,51.537169],[4.324396,51.536628],[4.325261,51.536226],[4.325288,51.536179],[4.325293,51.536177],[4.325615,51.536025],[4.326219,51.535741],[4.326384,51.535668],[4.326564,51.535588],[4.327575,51.535194],[4.328231,51.533232],[4.328241,51.533202],[4.328726,51.531753],[4.32795,51.530975],[4.328294,51.530818],[4.328358,51.530784],[4.328388,51.530753],[4.328414,51.530727],[4.326554,51.530126],[4.326218,51.530025],[4.325738,51.529944],[4.325669,51.529686],[4.325649,51.529614],[4.329103,51.529357],[4.329493,51.529328],[4.329535,51.529325],[4.329569,51.529224],[4.329592,51.529152],[4.329848,51.528378],[4.329885,51.528264],[4.329891,51.528247],[4.329886,51.52824],[4.330088,51.528285],[4.330139,51.528272],[4.330549,51.528259],[4.330901,51.528261],[4.331738,51.528268],[4.332194,51.528279],[4.332272,51.528282],[4.332358,51.52828],[4.33247,51.528269],[4.334139,51.527923],[4.334526,51.527841],[4.336071,51.527512],[4.336429,51.527445],[4.336588,51.527421],[4.336746,51.527415],[4.33685,51.527414],[4.336958,51.527428],[4.33712,51.527454],[4.337295,51.527496],[4.337379,51.527524],[4.337646,51.527563],[4.338984,51.527227],[4.33944,51.527115],[4.340664,51.526811],[4.341301,51.526657],[4.341951,51.526546],[4.342778,51.52639],[4.342806,51.526265],[4.342816,51.526224],[4.342799,51.526185],[4.342772,51.52614],[4.342661,51.525972],[4.342383,51.525593],[4.342173,51.525299],[4.341887,51.5249],[4.341851,51.524847],[4.341784,51.524746],[4.34149,51.524283],[4.341312,51.524012],[4.341255,51.523904],[4.341199,51.523772],[4.341227,51.523765],[4.341098,51.52355],[4.341049,51.523494],[4.341019,51.523458],[4.34096,51.523371],[4.340771,51.523109],[4.340587,51.522853],[4.340505,51.522746],[4.340462,51.522677],[4.340457,51.522669],[4.340555,51.522669],[4.340562,51.522658],[4.340706,51.522221],[4.340659,51.522214],[4.340815,51.521789],[4.340837,51.521729],[4.340996,51.521318],[4.341175,51.520816],[4.341375,51.52028],[4.341473,51.520004],[4.341647,51.519544],[4.341655,51.519522],[4.341686,51.519439],[4.341966,51.518683],[4.342194,51.51805],[4.342365,51.51805],[4.342371,51.51805],[4.34295,51.518059],[4.343763,51.518071],[4.344123,51.518082],[4.344353,51.518089],[4.344359,51.518089],[4.344899,51.518121],[4.344897,51.518141],[4.345645,51.51818],[4.346042,51.518197],[4.346049,51.518173],[4.346333,51.518185],[4.3468,51.518207],[4.347325,51.51823],[4.348221,51.518271],[4.348257,51.518279],[4.348292,51.518292],[4.348492,51.518302],[4.348723,51.518318],[4.35013,51.518373],[4.35014,51.518373],[4.350179,51.518367],[4.35022,51.518361],[4.350224,51.518359],[4.350603,51.518166],[4.350932,51.517998],[4.350956,51.518014],[4.351392,51.517806],[4.351444,51.517781],[4.351597,51.517701],[4.351592,51.517665],[4.351763,51.516985],[4.351834,51.51673],[4.351803,51.516724],[4.351894,51.516363],[4.351924,51.516368],[4.352004,51.516079],[4.352042,51.515938],[4.352279,51.515031],[4.35242,51.514491],[4.352464,51.514299],[4.35245,51.514216],[4.352438,51.514162],[4.352364,51.51384],[4.352297,51.513546],[4.352223,51.513221],[4.352127,51.51278],[4.351984,51.512125],[4.351978,51.512098],[4.351864,51.51156],[4.351841,51.51145],[4.351775,51.511204],[4.351741,51.511051],[4.351552,51.510178],[4.351536,51.510098],[4.351496,51.509896],[4.351493,51.509879],[4.351473,51.509877],[4.351443,51.509711],[4.351414,51.509567],[4.351235,51.50878],[4.351118,51.508251],[4.351011,51.507767],[4.350978,51.50763],[4.350866,51.507113],[4.35085,51.507053],[4.35076,51.506638],[4.350632,51.506031],[4.350604,51.505915],[4.350555,51.505701],[4.350557,51.505668],[4.350601,51.505652],[4.350882,51.505697],[4.351463,51.505817],[4.352353,51.506043],[4.352399,51.506055],[4.352693,51.50613],[4.353597,51.506359],[4.35396,51.506451],[4.354066,51.506287],[4.35432,51.505898],[4.354398,51.505778],[4.353804,51.505622],[4.353503,51.505531],[4.353234,51.505452],[4.353107,51.505407],[4.352881,51.505298],[4.35274,51.505199],[4.3526,51.505082],[4.35118,51.503851],[4.34954,51.503481],[4.349561,51.503447],[4.349668,51.503273],[4.350014,51.502709],[4.350177,51.502443],[4.350284,51.502269],[4.350621,51.501671],[4.350769,51.501286],[4.350825,51.50119],[4.351039,51.500817],[4.351275,51.500409],[4.35137,51.500241],[4.351457,51.500102],[4.35159,51.499928],[4.351677,51.49982],[4.351715,51.499775],[4.351804,51.499674],[4.351897,51.499569],[4.352074,51.499374],[4.352258,51.499173],[4.352364,51.499055],[4.353303,51.498019],[4.353347,51.497989],[4.354555,51.49668],[4.355221,51.495966],[4.356106,51.49497],[4.35777,51.493106],[4.357934,51.492925],[4.358012,51.492815],[4.358173,51.492603],[4.358414,51.49247],[4.358835,51.492381],[4.359891,51.492155],[4.360467,51.492032],[4.361389,51.491819],[4.361566,51.491779],[4.362061,51.491661],[4.362917,51.491461],[4.363562,51.491311],[4.363701,51.491276],[4.363791,51.49124],[4.363838,51.491212],[4.363879,51.491187],[4.363935,51.491154],[4.363939,51.491151],[4.363983,51.491173],[4.364131,51.49106],[4.364936,51.490454],[4.365016,51.490404],[4.36512,51.490349],[4.36525,51.490288],[4.365395,51.490236],[4.365599,51.490145],[4.367113,51.489645],[4.367176,51.489625],[4.368087,51.489313],[4.368551,51.48915],[4.368533,51.489133],[4.368976,51.488988],[4.369154,51.488927],[4.36953,51.488797],[4.369708,51.488736],[4.372041,51.48796],[4.37211,51.487937],[4.372309,51.487874],[4.372644,51.487772],[4.372798,51.487724],[4.372767,51.487671],[4.372701,51.487555],[4.372677,51.487512],[4.372623,51.487413],[4.372579,51.487313],[4.372559,51.487237],[4.372531,51.487119],[4.372409,51.486575],[4.372338,51.486306],[4.372244,51.485952],[4.372109,51.485288],[4.372087,51.485184],[4.371954,51.484588],[4.371841,51.484058],[4.371823,51.483906],[4.371866,51.483911],[4.371824,51.482587],[4.371786,51.482587],[4.371765,51.481968],[4.371744,51.481445],[4.371733,51.481141],[4.371716,51.480722],[4.371694,51.480169],[4.371668,51.479519],[4.371655,51.479093],[4.371664,51.479047],[4.371676,51.479029],[4.37169,51.479008],[4.371542,51.478969],[4.368303,51.47811],[4.368283,51.478133],[4.368271,51.478148],[4.3682,51.478129],[4.366467,51.477662],[4.364956,51.477253],[4.363528,51.476866],[4.363423,51.476838],[4.361632,51.476372],[4.361636,51.476365],[4.361757,51.475837],[4.361726,51.475834],[4.361922,51.474923],[4.361951,51.474931],[4.362231,51.473624],[4.362217,51.473623],[4.362295,51.473276],[4.362409,51.472847],[4.362533,51.472294],[4.362668,51.471685],[4.362578,51.471653],[4.362489,51.471617],[4.361397,51.471219],[4.362206,51.469133],[4.362342,51.468777],[4.363197,51.466539],[4.363699,51.465247],[4.363983,51.464518],[4.364084,51.464257],[4.364735,51.462585],[4.36519,51.461431],[4.365219,51.461355],[4.36526,51.461251],[4.365638,51.460278],[4.365655,51.460235],[4.365663,51.460214],[4.366094,51.459104],[4.366137,51.458996],[4.366995,51.456788],[4.366966,51.456719],[4.365913,51.456899],[4.365629,51.456946],[4.361801,51.457578],[4.359769,51.457913],[4.35982,51.457961],[4.359542,51.458007],[4.359457,51.458021],[4.357098,51.458416],[4.356484,51.458519],[4.354776,51.458805],[4.352632,51.459167],[4.351184,51.459409],[4.349198,51.459741],[4.347804,51.459977],[4.346116,51.460263],[4.344308,51.460587],[4.343791,51.460732],[4.343365,51.460868],[4.342891,51.461055],[4.342616,51.461175],[4.342209,51.461376],[4.34203,51.461474],[4.341752,51.461636],[4.341453,51.461821],[4.340902,51.462279],[4.340719,51.462431],[4.34039,51.462703],[4.34028,51.462621],[4.340183,51.462548],[4.336515,51.459801],[4.336382,51.459869],[4.335553,51.460295],[4.334802,51.460682],[4.334018,51.461086],[4.333218,51.461499],[4.332181,51.462041],[4.331145,51.462579],[4.330343,51.463004],[4.330244,51.463057],[4.329378,51.463509],[4.328751,51.463837],[4.328623,51.4639],[4.327961,51.464242],[4.326914,51.463697],[4.32583,51.46313],[4.324755,51.462571],[4.324216,51.462291],[4.324208,51.462088],[4.324193,51.461483],[4.324191,51.461407],[4.322593,51.460394],[4.322477,51.4603],[4.322383,51.460308],[4.322371,51.460309],[4.320011,51.460589],[4.319957,51.460595],[4.319935,51.460594],[4.319913,51.46059],[4.319889,51.460591],[4.319872,51.460585],[4.319848,51.460581],[4.319815,51.460576],[4.319793,51.460573],[4.31887,51.460404],[4.317753,51.4602],[4.317678,51.460189],[4.317617,51.460177],[4.317563,51.460169],[4.317509,51.460163],[4.317486,51.460161],[4.317424,51.460156],[4.317385,51.46015],[4.317343,51.460147],[4.317291,51.460144],[4.317247,51.460144],[4.317186,51.460144],[4.317117,51.460144],[4.317052,51.460145],[4.315606,51.460171],[4.315044,51.460173],[4.314316,51.460177],[4.314294,51.460177],[4.314234,51.460177],[4.314184,51.460178],[4.314042,51.460174],[4.313658,51.46017],[4.3134,51.460165],[4.312735,51.460138],[4.312714,51.460137],[4.31255,51.460133],[4.311728,51.460116],[4.311437,51.460142],[4.311275,51.460172],[4.311229,51.460173],[4.311167,51.460173],[4.310921,51.460635],[4.310841,51.460945],[4.310835,51.460972],[4.310716,51.461303],[4.310327,51.46203],[4.30983,51.462837],[4.309764,51.462947],[4.309574,51.463456],[4.309325,51.463941],[4.309088,51.464363],[4.308848,51.46479],[4.308655,51.465103],[4.308611,51.465187],[4.308578,51.465249],[4.308472,51.465407],[4.308277,51.465376],[4.308031,51.465343],[4.308001,51.465339],[4.307927,51.465329],[4.307399,51.46618],[4.307377,51.466177],[4.307359,51.466217],[4.307064,51.466179],[4.306716,51.466134],[4.304533,51.465859],[4.304182,51.465816],[4.303918,51.466643],[4.302146,51.466432],[4.301533,51.466359],[4.301447,51.466621],[4.300896,51.466554],[4.299565,51.466393],[4.299559,51.466333],[4.299513,51.466025],[4.29934,51.466297],[4.29925,51.466374],[4.299181,51.466529],[4.2991,51.466801],[4.298953,51.466741],[4.298552,51.466577],[4.298082,51.466384],[4.297685,51.466222],[4.297842,51.465993],[4.297898,51.465867],[4.297952,51.465709],[4.29797,51.465619],[4.297981,51.465527],[4.298111,51.463584],[4.298121,51.463323],[4.298105,51.463143],[4.29804,51.462832],[4.297951,51.462542],[4.297532,51.460805],[4.297579,51.459576],[4.297586,51.459504],[4.297595,51.459401],[4.297688,51.457985],[4.29773,51.457349],[4.297663,51.457343],[4.297664,51.457327],[4.297731,51.457333],[4.297823,51.455903],[4.297863,51.455274],[4.29782,51.455271],[4.29782,51.455264],[4.297856,51.454709],[4.297835,51.454709],[4.297857,51.454323],[4.297848,51.454296],[4.297827,51.45426],[4.297827,51.454256],[4.297836,51.453992],[4.297861,51.453374],[4.297865,51.45332],[4.297866,51.453307],[4.297866,51.453149],[4.297946,51.453132],[4.297947,51.45313],[4.297949,51.453125],[4.297889,51.453068],[4.297871,51.453069],[4.297878,51.45299],[4.297878,51.452983],[4.297911,51.452554],[4.297799,51.451716],[4.297752,51.451472],[4.297706,51.451348],[4.297683,51.45126],[4.297462,51.450113],[4.297387,51.450071],[4.296938,51.449819],[4.296801,51.449743],[4.295364,51.448974],[4.295082,51.448823],[4.294838,51.448194],[4.293706,51.445306],[4.29367,51.445302],[4.293012,51.445284],[4.29235,51.445267],[4.291274,51.445293],[4.291053,51.445288],[4.290855,51.445279],[4.290577,51.445241],[4.290252,51.445183],[4.289875,51.445099],[4.289214,51.444892],[4.288944,51.444799],[4.288663,51.444694],[4.288075,51.444446],[4.287656,51.444243],[4.287133,51.44397],[4.286838,51.443799],[4.286556,51.443619],[4.286433,51.443539],[4.286312,51.443458],[4.286148,51.443347],[4.285987,51.443234],[4.285773,51.443067],[4.285569,51.442895],[4.284981,51.442104],[4.283325,51.439871],[4.283173,51.439667],[4.283101,51.439669],[4.279968,51.439796],[4.278896,51.439829],[4.277817,51.439863],[4.26922,51.44022],[4.268381,51.440255],[4.268272,51.440264],[4.268168,51.44027],[4.268082,51.440274],[4.267978,51.440272],[4.267918,51.440262],[4.267821,51.440242],[4.26769,51.440212],[4.26753,51.440177],[4.266639,51.439965],[4.265519,51.439701],[4.265432,51.439681],[4.265418,51.4397],[4.259052,51.448628],[4.252683,51.457556],[4.250422,51.460725],[4.243717,51.470118],[4.239947,51.47541],[4.23255,51.485788],[4.232182,51.486304],[4.230328,51.488904],[4.226558,51.494181],[4.226248,51.494615],[4.224906,51.496493],[4.224272,51.49738],[4.218927,51.504858],[4.218748,51.507164],[4.2188,51.508961],[4.219044,51.510752],[4.219062,51.510827],[4.219083,51.510915],[4.219213,51.511446],[4.219292,51.511766],[4.219478,51.512529],[4.219931,51.513803]]]},"properties":{"type":"boundary","gemeente":"Bergen op Zoom"}}]}