{"type":"FeatureCollection","metadata":{"gemeente":"Best","slug":"best","generated_at":"2026-09-28T08:13:38.859639Z","total_points":38,"providers":["DHL","DPD","PostNL","VintedGo","GLS","FedEx","InPost","Budbee"],"bounds":[5.36891250697521,51.49017,5.415855068943514,51.51865]},"features":[{"type":"Feature","geometry":{"type":"Point","coordinates":[5.394151,51.5119873]},"properties":{"type":"pakketpunt","locatieNaam":"Foto Aartsen","straatNaam":"Boterhoek","straatNr":"12","vervoerder":"DHL","puntType":"parcelShop","bezettingsgraad":50,"latitude":51.5119873,"longitude":5.394151,"canPickup":true,"canDropoff":true,"openingstijden":{"ma":"13:00 - 18:00","di":"10:00 - 18:00","wo":"10:00 - 18:00","do":"10:00 - 18:00","vr":"10:00 - 18:00","za":"10:00 - 17:00","zo":"gesloten"}}},{"type":"Feature","geometry":{"type":"Point","coordinates":[5.3931329,51.5122655]},"properties":{"type":"pakketpunt","locatieNaam":"Shoeby Best","straatNaam":"Hoofdstraat","straatNr":"14","vervoerder":"DHL","puntType":"parcelShop","bezettingsgraad":50,"latitude":51.5122655,"longitude":5.3931329,"canPickup":true,"canDropoff":true,"openingstijden":{"ma":"13:00 - 18:00","di":"10:00 - 18:00","wo":"10:00 - 18:00","do":"10:00 - 18:00","vr":"10:00 - 18:00","za":"09:30 - 17:00","zo":"gesloten"}}},{"type":"Feature","geometry":{"type":"Point","coordinates":[5.3950471,51.5125088]},"properties":{"type":"pakketpunt","locatieNaam":"Kledingreparatie & Stomerij Best","straatNaam":"Hoofdstraat","straatNr":"2-A","vervoerder":"DHL","puntType":"parcelShop","bezettingsgraad":50,"latitude":51.5125088,"longitude":5.3950471,"canPickup":true,"canDropoff":true,"openingstijden":{"ma":"09:00 - 18:00","di":"09:00 - 18:00","wo":"09:00 - 18:00","do":"09:00 - 18:00","vr":"09:00 - 18:00","za":"09:00 - 17:00","zo":"gesloten"}}},{"type":"Feature","geometry":{"type":"Point","coordinates":[5.394906,51.4987732]},"properties":{"type":"pakketpunt","locatieNaam":"Dutchbreakers","straatNaam":"Koningin Julianaweg","straatNr":"35","vervoerder":"DHL","puntType":"parcelShop","bezettingsgraad":50,"latitude":51.4987732,"longitude":5.394906,"canPickup":true,"canDropoff":true,"openingstijden":{"ma":"13:00 - 18:00","di":"10:00 - 13:00, 13:30 - 17:30","wo":"10:00 - 13:00, 13:30 - 17:00","do":"10:00 - 13:00, 13:30 - 17:00","vr":"10:00 - 13:00, 13:30 - 17:00","za":"gesloten","zo":"gesloten"}}},{"type":"Feature","geometry":{"type":"Point","coordinates":[5.407576084136963,51.502166748046875]},"properties":{"type":"pakketpunt","locatieNaam":"Delivery Times Tugra","straatNaam":"Fabrieksweg","straatNr":"46","vervoerder":"DHL","puntType":"parcelShop","bezettingsgraad":50,"latitude":51.502166748046875,"longitude":5.407576084136963,"canPickup":true,"canDropoff":true,"openingstijden":{"ma":"10:00 - 18:00","di":"10:00 - 18:00","wo":"10:00 - 18:00","do":"10:00 - 18:00","vr":"10:00 - 18:00","za":"10:00 - 16:00","zo":"gesloten"}}},{"type":"Feature","geometry":{"type":"Point","coordinates":[5.373202,51.501387]},"properties":{"type":"pakketpunt","locatieNaam":"Bij de Tantes Best","straatNaam":"Rendierhei","straatNr":"15","vervoerder":"DHL","puntType":"parcelShop","bezettingsgraad":50,"latitude":51.501387,"longitude":5.373202,"canPickup":true,"canDropoff":true,"openingstijden":{"ma":"gesloten","di":"09:30 - 17:00","wo":"09:30 - 17:00","do":"09:30 - 17:00","vr":"09:30 - 17:00","za":"09:30 - 17:00","zo":"gesloten"}}},{"type":"Feature","geometry":{"type":"Point","coordinates":[5.36892924584114,51.51848197218353]},"properties":{"type":"pakketpunt","locatieNaam":"Pakketautomaat De Mortelen","straatNaam":"Aarleseweg","straatNr":"50","vervoerder":"DHL","puntType":"packStation","bezettingsgraad":50,"latitude":51.51848197218353,"longitude":5.36892924584114,"canPickup":true,"canDropoff":true,"openingstijden":{"ma":"08:00 - 20:00","di":"08:00 - 20:00","wo":"08:00 - 20:00","do":"08:00 - 20:00","vr":"08:00 - 20:00","za":"08:00 - 17:00","zo":"gesloten"}}},{"type":"Feature","geometry":{"type":"Point","coordinates":[5.4073042,51.5019895]},"properties":{"type":"pakketpunt","locatieNaam":"Delivery Time Tugra","straatNaam":"FABRIEKSWEG","straatNr":"48","vervoerder":"DPD","puntType":"pickup_point","bezettingsgraad":50,"latitude":51.5019895,"longitude":5.4073042,"canPickup":true,"canDropoff":true,"openingstijden":{"ma":"10:00 - 18:00","di":"10:00 - 18:00","wo":"10:00 - 18:00","do":"10:00 - 18:00","vr":"10:00 - 18:00","za":"10:00 - 16:00","zo":"gesloten"}}},{"type":"Feature","geometry":{"type":"Point","coordinates":[5.4088597,51.5038072]},"properties":{"type":"pakketpunt","locatieNaam":"Pakketautomaat CarPro Carwash Best","straatNaam":"ZANDSTRAAT","straatNr":"18 A","vervoerder":"DPD","puntType":"dpd_box","bezettingsgraad":50,"latitude":51.5038072,"longitude":5.4088597,"canPickup":true,"canDropoff":true,"openingstijden":{"ma":"08:00 - 18:00","di":"08:00 - 18:00","wo":"08:00 - 18:00","do":"08:00 - 18:00","vr":"08:00 - 18:00","za":"08:00 - 18:00","zo":"09:00 - 18:00"}}},{"type":"Feature","geometry":{"type":"Point","coordinates":[5.39399,51.51155]},"properties":{"type":"pakketpunt","locatieNaam":"UR184 Pakketautomaat Budbee","straatNaam":"BOTERHOEK","straatNr":"21","vervoerder":"DPD","puntType":"dpd_box","bezettingsgraad":50,"latitude":51.51155,"longitude":5.39399,"canPickup":true,"canDropoff":false,"openingstijden":{"ma":"08:00 - 21:00","di":"08:00 - 21:00","wo":"08:00 - 21:00","do":"08:00 - 21:00","vr":"08:00 - 21:00","za":"08:00 - 21:00","zo":"09:00 - 20:00"}}},{"type":"Feature","geometry":{"type":"Point","coordinates":[5.394533,51.496075]},"properties":{"type":"pakketpunt","locatieNaam":"UR154 Pakketautomaat Budbee","straatNaam":"WILHELMINAPLEIN","straatNr":"6","vervoerder":"DPD","puntType":"dpd_box","bezettingsgraad":50,"latitude":51.496075,"longitude":5.394533,"canPickup":true,"canDropoff":false,"openingstijden":{"ma":"08:00 - 21:00","di":"08:00 - 21:00","wo":"08:00 - 21:00","do":"08:00 - 21:00","vr":"08:00 - 21:00","za":"08:00 - 21:00","zo":"09:00 - 19:00"}}},{"type":"Feature","geometry":{"type":"Point","coordinates":[5.39098,51.51207]},"properties":{"type":"pakketpunt","locatieNaam":"Stef’s Kapsalon Shop","straatNaam":"KERKSTRAAT","straatNr":"1 A","vervoerder":"DPD","puntType":"pickup_point","bezettingsgraad":50,"latitude":51.51207,"longitude":5.39098,"canPickup":true,"canDropoff":true,"openingstijden":{"ma":"12:00 - 18:00","di":"10:00 - 18:00","wo":"10:00 - 18:00","do":"10:00 - 18:00","vr":"10:00 - 18:00","za":"10:00 - 18:00","zo":"gesloten"}}},{"type":"Feature","geometry":{"type":"Point","coordinates":[5.393974168,51.51178539]},"properties":{"type":"pakketpunt","locatieNaam":"Best Telefoonmaken","straatNaam":"Boterhoek","straatNr":"14","vervoerder":"PostNL","puntType":"servicepunt","bezettingsgraad":50,"latitude":51.51178539,"longitude":5.393974168,"canPickup":true,"canDropoff":true,"openingstijden":null}},{"type":"Feature","geometry":{"type":"Point","coordinates":[5.393066627,51.51175848]},"properties":{"type":"pakketpunt","locatieNaam":"Bruna","straatNaam":"Boterhoek","straatNr":"94","vervoerder":"PostNL","puntType":"servicepunt","bezettingsgraad":50,"latitude":51.51175848,"longitude":5.393066627,"canPickup":true,"canDropoff":true,"openingstijden":"09:00 - 18:00 (Na 18:00 open; Zaterdag open)"}},{"type":"Feature","geometry":{"type":"Point","coordinates":[5.38292543,51.50984398]},"properties":{"type":"pakketpunt","locatieNaam":"Sun & More","straatNaam":"Oirschotseweg","straatNr":"64","vervoerder":"PostNL","puntType":"servicepunt","bezettingsgraad":50,"latitude":51.50984398,"longitude":5.38292543,"canPickup":true,"canDropoff":true,"openingstijden":"12:00 - 19:00 (Na 18:00 open; Zaterdag open)"}},{"type":"Feature","geometry":{"type":"Point","coordinates":[5.41524495083867,51.5022092961929]},"properties":{"type":"pakketpunt","locatieNaam":"Pakket- en briefautomaat","straatNaam":"N.C.B.-weg","straatNr":"4PBA","vervoerder":"PostNL","puntType":"automaat","bezettingsgraad":50,"latitude":51.5022092961929,"longitude":5.41524495083867,"canPickup":true,"canDropoff":true,"openingstijden":"09:00 - 21:00"}},{"type":"Feature","geometry":{"type":"Point","coordinates":[5.41536013,51.50214635]},"properties":{"type":"pakketpunt","locatieNaam":"KARWEI Best","straatNaam":"N.C.B.-weg","straatNr":"4","vervoerder":"PostNL","puntType":"servicepunt","bezettingsgraad":50,"latitude":51.50214635,"longitude":5.41536013,"canPickup":true,"canDropoff":true,"openingstijden":"09:00 - 21:00"}},{"type":"Feature","geometry":{"type":"Point","coordinates":[5.36891250697521,51.5184749690018]},"properties":{"type":"pakketpunt","locatieNaam":"Pakketautomaat","straatNaam":"Aarleseweg","straatNr":"50PBA","vervoerder":"PostNL","puntType":"automaat","bezettingsgraad":50,"latitude":51.5184749690018,"longitude":5.36891250697521,"canPickup":true,"canDropoff":true,"openingstijden":"00:00 - 23:59"}},{"type":"Feature","geometry":{"type":"Point","coordinates":[5.394202311,51.49690919]},"properties":{"type":"pakketpunt","locatieNaam":"Primera Wilhelminaplein","straatNaam":"Wilhelminaplein","straatNr":"20","vervoerder":"PostNL","puntType":"servicepunt","bezettingsgraad":50,"latitude":51.49690919,"longitude":5.394202311,"canPickup":true,"canDropoff":true,"openingstijden":"09:00 - 18:00 (Na 18:00 open; Zaterdag open)"}},{"type":"Feature","geometry":{"type":"Point","coordinates":[5.373492821,51.50144788]},"properties":{"type":"pakketpunt","locatieNaam":"Plus","straatNaam":"Rendierhei","straatNr":"8","vervoerder":"PostNL","puntType":"servicepunt","bezettingsgraad":50,"latitude":51.50144788,"longitude":5.373492821,"canPickup":true,"canDropoff":true,"openingstijden":"08:00 - 20:00 (Na 18:00 open; Zaterdag open; Zondag open)"}},{"type":"Feature","geometry":{"type":"Point","coordinates":[5.3734928207906,51.5014478826246]},"properties":{"type":"pakketpunt","locatieNaam":"Pakket- en briefautomaat","straatNaam":"Rendierhei","straatNr":"8PBA","vervoerder":"PostNL","puntType":"automaat","bezettingsgraad":50,"latitude":51.5014478826246,"longitude":5.3734928207906,"canPickup":true,"canDropoff":true,"openingstijden":"00:00 - 23:59"}},{"type":"Feature","geometry":{"type":"Point","coordinates":[5.4073,51.50199]},"properties":{"type":"pakketpunt","locatieNaam":"Dtttransport","straatNaam":"Fabrieksweg 48","straatNr":"","vervoerder":"VintedGo","puntType":"parcel_shop","bezettingsgraad":50,"latitude":51.50199,"longitude":5.4073,"canPickup":true,"canDropoff":true,"openingstijden":null}},{"type":"Feature","geometry":{"type":"Point","coordinates":[5.39087,51.51196]},"properties":{"type":"pakketpunt","locatieNaam":"Stef’s Kapsalon Shop","straatNaam":"Kerkstraat 1A","straatNr":"","vervoerder":"VintedGo","puntType":"parcel_shop","bezettingsgraad":50,"latitude":51.51196,"longitude":5.39087,"canPickup":true,"canDropoff":true,"openingstijden":null}},{"type":"Feature","geometry":{"type":"Point","coordinates":[5.37501,51.50953]},"properties":{"type":"pakketpunt","locatieNaam":"GM tuningparts","straatNaam":"Oirschotseweg 92A","straatNr":"","vervoerder":"VintedGo","puntType":"parcel_shop","bezettingsgraad":50,"latitude":51.50953,"longitude":5.37501,"canPickup":true,"canDropoff":true,"openingstijden":null}},{"type":"Feature","geometry":{"type":"Point","coordinates":[5.39415,51.51199]},"properties":{"type":"pakketpunt","locatieNaam":"Foto Aartsen","straatNaam":"Boterhoek 12","straatNr":"","vervoerder":"VintedGo","puntType":"parcel_shop","bezettingsgraad":50,"latitude":51.51199,"longitude":5.39415,"canPickup":true,"canDropoff":true,"openingstijden":null}},{"type":"Feature","geometry":{"type":"Point","coordinates":[5.390167,51.511793]},"properties":{"type":"pakketpunt","locatieNaam":"Ekoplaza Best","straatNaam":"Hoofdstraat 50","straatNr":"","vervoerder":"VintedGo","puntType":"locker","bezettingsgraad":50,"latitude":51.511793,"longitude":5.390167,"canPickup":true,"canDropoff":true,"openingstijden":null}},{"type":"Feature","geometry":{"type":"Point","coordinates":[5.3689317,51.5184762]},"properties":{"type":"pakketpunt","locatieNaam":"Groencentrum De Mortelen","straatNaam":"Aarleseweg 50","straatNr":"","vervoerder":"VintedGo","puntType":"locker","bezettingsgraad":50,"latitude":51.5184762,"longitude":5.3689317,"canPickup":true,"canDropoff":true,"openingstijden":null}},{"type":"Feature","geometry":{"type":"Point","coordinates":[5.41524495,51.5022092]},"properties":{"type":"pakketpunt","locatieNaam":"Pakketautomaat","straatNaam":"N.C.B.-weg","straatNr":"4","vervoerder":"GLS","puntType":"locker","bezettingsgraad":50,"latitude":51.5022092,"longitude":5.41524495,"canPickup":true,"canDropoff":true,"openingstijden":{"ma":"09:00 - 21:00","di":"09:00 - 21:00","wo":"09:00 - 21:00","do":"09:00 - 21:00","vr":"09:00 - 21:00","za":"09:00 - 18:00","zo":"11:00 - 17:00"}}},{"type":"Feature","geometry":{"type":"Point","coordinates":[5.4072203,51.5020784]},"properties":{"type":"pakketpunt","locatieNaam":"Delivery Time Tugra","straatNaam":"Fabrieksweg","straatNr":"46","vervoerder":"GLS","puntType":"parcel_shop","bezettingsgraad":50,"latitude":51.5020784,"longitude":5.4072203,"canPickup":true,"canDropoff":true,"openingstijden":{"ma":"10:00 - 18:00","di":"10:00 - 18:00","wo":"10:00 - 18:00","do":"10:00 - 18:00","vr":"10:00 - 18:00","za":"10:00 - 18:00","zo":"00:00 - 00:00"}}},{"type":"Feature","geometry":{"type":"Point","coordinates":[5.373437171830604,51.50142596055608]},"properties":{"type":"pakketpunt","locatieNaam":"FedEx Ship&Get","straatNaam":"Rendierhei 8 PBA","straatNr":"","vervoerder":"FedEx","puntType":"servicepunt","bezettingsgraad":50,"latitude":51.50142596055608,"longitude":5.373437171830604,"canPickup":true,"canDropoff":true,"openingstijden":{"ma":"00:00 - 23:59","di":"00:00 - 23:59","wo":"00:00 - 23:59","do":"00:00 - 23:59","vr":"00:00 - 23:59","za":"00:00 - 23:59","zo":"00:00 - 23:59"}}},{"type":"Feature","geometry":{"type":"Point","coordinates":[5.39078914064389,51.51204753697435]},"properties":{"type":"pakketpunt","locatieNaam":"FedEx OnSite","straatNaam":"KERKSTRAAT 1A","straatNr":"","vervoerder":"FedEx","puntType":"servicepunt","bezettingsgraad":50,"latitude":51.51204753697435,"longitude":5.39078914064389,"canPickup":true,"canDropoff":true,"openingstijden":{"ma":"12:00 - 18:00","di":"10:00 - 18:00","wo":"10:00 - 18:00","do":"10:00 - 18:00","vr":"10:00 - 21:00","za":"10:00 - 21:00","zo":"12:00 - 18:00"}}},{"type":"Feature","geometry":{"type":"Point","coordinates":[5.415855068943514,51.50240812696856]},"properties":{"type":"pakketpunt","locatieNaam":"FedEx Ship&Get","straatNaam":"N.C.B.-weg 4 PBA","straatNr":"","vervoerder":"FedEx","puntType":"servicepunt","bezettingsgraad":50,"latitude":51.50240812696856,"longitude":5.415855068943514,"canPickup":true,"canDropoff":true,"openingstijden":{"ma":"09:00 - 21:00","di":"09:00 - 21:00","wo":"09:00 - 21:00","do":"09:00 - 21:00","vr":"09:00 - 21:00","za":"09:00 - 18:00","zo":"11:00 - 17:00"}}},{"type":"Feature","geometry":{"type":"Point","coordinates":[5.39078,51.51214]},"properties":{"type":"pakketpunt","locatieNaam":"STEF'S KAPSALONSHOP","straatNaam":"Kerkstraat 1A","straatNr":"","vervoerder":"InPost","puntType":"servicepunt","bezettingsgraad":50,"latitude":51.51214,"longitude":5.39078,"canPickup":true,"canDropoff":true,"openingstijden":null}},{"type":"Feature","geometry":{"type":"Point","coordinates":[5.36954,51.51865]},"properties":{"type":"pakketpunt","locatieNaam":"","straatNaam":"Aarleseweg","straatNr":"50","vervoerder":"InPost","puntType":"automaat","bezettingsgraad":50,"latitude":51.51865,"longitude":5.36954,"canPickup":true,"canDropoff":true,"openingstijden":"24/7"}},{"type":"Feature","geometry":{"type":"Point","coordinates":[5.40328,51.49017]},"properties":{"type":"pakketpunt","locatieNaam":"","straatNaam":"De Run","straatNr":"8","vervoerder":"InPost","puntType":"automaat","bezettingsgraad":50,"latitude":51.49017,"longitude":5.40328,"canPickup":true,"canDropoff":true,"openingstijden":"24/7"}},{"type":"Feature","geometry":{"type":"Point","coordinates":[5.40739,51.50233]},"properties":{"type":"pakketpunt","locatieNaam":"DELIVERY TIME TUGRA","straatNaam":"Fabrieksweg 46","straatNr":"","vervoerder":"InPost","puntType":"servicepunt","bezettingsgraad":50,"latitude":51.50233,"longitude":5.40739,"canPickup":true,"canDropoff":true,"openingstijden":null}},{"type":"Feature","geometry":{"type":"Point","coordinates":[5.39399,51.51155]},"properties":{"type":"pakketpunt","locatieNaam":"UR184 Pakketautomaat Budbee","straatNaam":"BOTERHOEK","straatNr":"21","vervoerder":"Budbee","puntType":"automaat","bezettingsgraad":50,"latitude":51.51155,"longitude":5.39399,"canPickup":true,"canDropoff":true,"openingstijden":null}},{"type":"Feature","geometry":{"type":"Point","coordinates":[5.394533,51.496075]},"properties":{"type":"pakketpunt","locatieNaam":"UR154 Pakketautomaat Budbee","straatNaam":"WILHELMINAPLEIN","straatNr":"6","vervoerder":"Budbee","puntType":"automaat","bezettingsgraad":50,"latitude":51.496075,"longitude":5.394533,"canPickup":true,"canDropoff":true,"openingstijden":null}},{"type":"Feature","geometry":{"type":"Polygon","coordinates":[[[5.356911,51.544717],[5.357595,51.543963],[5.357695,51.543854],[5.358371,51.543112],[5.359615,51.541748],[5.359681,51.541676],[5.359746,51.541604],[5.359911,51.541424],[5.361014,51.540214],[5.361011,51.540172],[5.361062,51.540116],[5.361222,51.539941],[5.361651,51.53947],[5.361864,51.539236],[5.362404,51.538644],[5.362375,51.538566],[5.362524,51.538403],[5.362542,51.538383],[5.362565,51.538396],[5.362676,51.538307],[5.362749,51.538338],[5.36581,51.534977],[5.367294,51.533345],[5.367417,51.533203],[5.368225,51.532317],[5.368637,51.531867],[5.368602,51.531759],[5.368598,51.531737],[5.368576,51.531615],[5.368596,51.53149],[5.368306,51.53136],[5.367417,51.530703],[5.367353,51.530667],[5.367189,51.530572],[5.367046,51.530482],[5.366672,51.530249],[5.366433,51.5303],[5.366418,51.530299],[5.366348,51.530284],[5.365967,51.530124],[5.365722,51.530022],[5.365622,51.529981],[5.3652,51.529946],[5.365176,51.529944],[5.364198,51.52987],[5.364154,51.52987],[5.364145,51.529856],[5.363998,51.529856],[5.364,51.529826],[5.363843,51.529792],[5.363825,51.529829],[5.363733,51.529794],[5.36185,51.529462],[5.36127,51.529361],[5.361141,51.529341],[5.360942,51.529319],[5.360644,51.529325],[5.360649,51.529294],[5.360616,51.529292],[5.360395,51.529279],[5.359327,51.529218],[5.359102,51.52922],[5.35905,51.529217],[5.358379,51.529177],[5.35786,51.529145],[5.35686,51.529069],[5.356376,51.529035],[5.355929,51.529003],[5.355693,51.528975],[5.355613,51.528959],[5.355539,51.528938],[5.355459,51.528903],[5.355415,51.528834],[5.355371,51.528442],[5.355367,51.528414],[5.355356,51.527862],[5.355276,51.527771],[5.354974,51.527718],[5.35471,51.527362],[5.35477,51.527336],[5.354468,51.526971],[5.353732,51.526084],[5.353726,51.526025],[5.35372,51.525985],[5.353719,51.525972],[5.353712,51.525918],[5.353711,51.525886],[5.353692,51.525424],[5.353683,51.525294],[5.353681,51.525268],[5.353667,51.525113],[5.353669,51.525065],[5.353697,51.524206],[5.353704,51.524016],[5.353555,51.524008],[5.353557,51.523993],[5.353592,51.523508],[5.353609,51.523367],[5.353647,51.523186],[5.353651,51.523173],[5.353663,51.523156],[5.353761,51.523022],[5.353772,51.523023],[5.353799,51.523024],[5.353792,51.522716],[5.35388,51.521491],[5.353902,51.521187],[5.3541,51.520879],[5.354341,51.520502],[5.354252,51.520479],[5.354092,51.520438],[5.354055,51.520419],[5.353633,51.52015],[5.353563,51.520105],[5.352995,51.520155],[5.352698,51.520181],[5.35226,51.520171],[5.352258,51.52016],[5.352167,51.519797],[5.352142,51.519701],[5.352129,51.519591],[5.352123,51.519546],[5.352112,51.519483],[5.352111,51.519476],[5.352111,51.519474],[5.352092,51.519367],[5.352086,51.519331],[5.352048,51.519211],[5.351977,51.519032],[5.351901,51.518902],[5.351888,51.51888],[5.351756,51.518691],[5.351627,51.5184],[5.351507,51.518007],[5.351473,51.518002],[5.351343,51.518008],[5.351053,51.518012],[5.350957,51.51801],[5.350465,51.517966],[5.350345,51.517329],[5.349995,51.517265],[5.349576,51.517283],[5.349402,51.51706],[5.349386,51.516998],[5.349385,51.516995],[5.349381,51.516968],[5.34937,51.516903],[5.349362,51.516802],[5.349363,51.51675],[5.349372,51.516646],[5.349375,51.516514],[5.349393,51.516446],[5.349409,51.516385],[5.349428,51.516332],[5.34945,51.516275],[5.349815,51.515624],[5.349959,51.51537],[5.350117,51.514985],[5.350096,51.51498],[5.350225,51.514292],[5.350456,51.513603],[5.350219,51.512837],[5.350789,51.512501],[5.350927,51.51242],[5.350902,51.512189],[5.350893,51.512127],[5.350841,51.511909],[5.350812,51.511792],[5.350799,51.511752],[5.350758,51.511621],[5.350642,51.511218],[5.350751,51.511223],[5.35081,51.511059],[5.350785,51.510769],[5.350796,51.510666],[5.350722,51.510372],[5.350667,51.510151],[5.35067,51.510146],[5.350665,51.510111],[5.350738,51.509923],[5.350776,51.509763],[5.350824,51.509559],[5.350827,51.509464],[5.350825,51.509341],[5.350824,51.509297],[5.350797,51.509297],[5.350755,51.509278],[5.350729,51.509246],[5.350714,51.509211],[5.350689,51.509103],[5.350581,51.508731],[5.350508,51.508475],[5.350632,51.508007],[5.350751,51.507553],[5.351026,51.50735],[5.351132,51.507075],[5.351227,51.506734],[5.35123,51.506725],[5.351269,51.50662],[5.351316,51.506265],[5.351318,51.506054],[5.351514,51.50604],[5.351935,51.506009],[5.352359,51.505992],[5.352471,51.505992],[5.352607,51.505992],[5.35259,51.505749],[5.352553,51.505202],[5.352561,51.505172],[5.352624,51.50492],[5.352638,51.504794],[5.35267,51.504508],[5.352696,51.504386],[5.352812,51.503861],[5.352822,51.503821],[5.352898,51.503513],[5.353326,51.501796],[5.353332,51.501746],[5.353363,51.501654],[5.353555,51.5013],[5.353559,51.501293],[5.353652,51.501152],[5.353729,51.501058],[5.353963,51.500774],[5.354134,51.500565],[5.354149,51.500545],[5.354201,51.500476],[5.355181,51.499159],[5.354954,51.499033],[5.354939,51.49902],[5.354808,51.498908],[5.354693,51.49881],[5.355436,51.497504],[5.355454,51.497501],[5.355559,51.49731],[5.355604,51.497228],[5.355635,51.497173],[5.355493,51.49715],[5.355698,51.496608],[5.355856,51.496189],[5.355887,51.496107],[5.356846,51.495535],[5.358401,51.494607],[5.358537,51.494526],[5.361296,51.49288],[5.361473,51.492854],[5.362701,51.492567],[5.36391,51.492103],[5.364611,51.491447],[5.365014,51.491359],[5.366424,51.491052],[5.366775,51.490842],[5.370489,51.490034],[5.372803,51.489531],[5.375018,51.489049],[5.375826,51.488874],[5.383983,51.4871],[5.384622,51.486961],[5.384674,51.486949],[5.385344,51.486804],[5.385729,51.486746],[5.386014,51.486703],[5.38661,51.486614],[5.387201,51.487063],[5.387536,51.487317],[5.388593,51.487411],[5.389737,51.487517],[5.389745,51.487557],[5.389747,51.487567],[5.389862,51.487569],[5.389907,51.487561],[5.389937,51.487533],[5.389937,51.487532],[5.389946,51.48746],[5.389978,51.487012],[5.389986,51.486905],[5.390004,51.486542],[5.390011,51.48627],[5.390013,51.486196],[5.390034,51.485814],[5.39019,51.485779],[5.390285,51.485758],[5.390484,51.485715],[5.390487,51.48567],[5.391017,51.485555],[5.391665,51.485413],[5.39191,51.485361],[5.391974,51.485347],[5.391991,51.485343],[5.392032,51.485335],[5.392073,51.485326],[5.39209,51.485322],[5.39217,51.485305],[5.392222,51.485299],[5.392239,51.485298],[5.392271,51.485294],[5.392281,51.485292],[5.392326,51.485283],[5.39263,51.485239],[5.392922,51.485181],[5.39374,51.485011],[5.394558,51.48484],[5.395423,51.484668],[5.39604,51.484545],[5.396659,51.484432],[5.397391,51.484299],[5.397822,51.484235],[5.398229,51.484176],[5.398646,51.484123],[5.398764,51.484108],[5.398881,51.484093],[5.398999,51.484079],[5.399118,51.484065],[5.399236,51.484052],[5.399355,51.48404],[5.399473,51.484029],[5.399592,51.484018],[5.399711,51.484007],[5.39983,51.483998],[5.39995,51.483989],[5.400786,51.483928],[5.401326,51.483889],[5.401451,51.48388],[5.401575,51.483871],[5.4017,51.483863],[5.401824,51.483856],[5.401949,51.483849],[5.402074,51.483843],[5.402198,51.483838],[5.402323,51.483833],[5.402448,51.483829],[5.402991,51.483814],[5.403141,51.483811],[5.403291,51.483809],[5.403441,51.483807],[5.403591,51.483806],[5.403741,51.483806],[5.403891,51.483807],[5.404041,51.483808],[5.404191,51.483809],[5.404341,51.483812],[5.404496,51.483815],[5.404633,51.483817],[5.404769,51.48382],[5.404906,51.483824],[5.405042,51.483828],[5.405178,51.483833],[5.405315,51.483839],[5.405451,51.483845],[5.405587,51.483852],[5.405723,51.48386],[5.406087,51.483882],[5.406337,51.48391],[5.406841,51.483961],[5.40721,51.484006],[5.407269,51.484012],[5.407593,51.484053],[5.407788,51.48408],[5.408629,51.484191],[5.409018,51.484236],[5.409278,51.484268],[5.409486,51.484292],[5.409964,51.484349],[5.410358,51.484386],[5.410752,51.484422],[5.410695,51.484477],[5.41078,51.48449],[5.41146,51.484601],[5.411582,51.484623],[5.411708,51.484646],[5.411798,51.484662],[5.41182,51.484666],[5.411859,51.484673],[5.411881,51.484677],[5.411954,51.484691],[5.411976,51.484695],[5.412015,51.484702],[5.412037,51.484706],[5.412062,51.48471],[5.412134,51.484723],[5.412171,51.484731],[5.412379,51.484772],[5.412423,51.484781],[5.412619,51.484819],[5.412663,51.484828],[5.412755,51.484846],[5.412923,51.484881],[5.413471,51.484995],[5.413836,51.485077],[5.41411,51.485139],[5.414133,51.485144],[5.414575,51.48525],[5.414789,51.485301],[5.41544,51.485469],[5.415686,51.485537],[5.41586,51.485586],[5.415995,51.485624],[5.416083,51.485649],[5.416646,51.485815],[5.416875,51.485885],[5.416893,51.485891],[5.417173,51.485977],[5.41719,51.485982],[5.417359,51.486035],[5.41787,51.486197],[5.418405,51.48637],[5.41908,51.486591],[5.419181,51.486624],[5.420536,51.487077],[5.421163,51.487298],[5.42179,51.487517],[5.422024,51.487606],[5.422492,51.487783],[5.422983,51.487969],[5.422992,51.487972],[5.423196,51.488051],[5.423264,51.488077],[5.424251,51.488458],[5.425472,51.488939],[5.425883,51.489105],[5.425885,51.489106],[5.426132,51.489205],[5.426326,51.489283],[5.426414,51.489319],[5.426575,51.489383],[5.426576,51.489383],[5.426692,51.489429],[5.426703,51.489433],[5.426735,51.489446],[5.426778,51.489463],[5.42685,51.489491],[5.426893,51.489508],[5.426936,51.489525],[5.427131,51.489602],[5.427156,51.489612],[5.42719,51.489626],[5.42722,51.489637],[5.427292,51.489666],[5.427366,51.489695],[5.427495,51.489746],[5.427487,51.489754],[5.427438,51.489803],[5.427425,51.489816],[5.427421,51.48982],[5.427405,51.489836],[5.427394,51.489847],[5.427463,51.48987],[5.42758,51.489908],[5.427603,51.489916],[5.427946,51.490028],[5.428249,51.490128],[5.428996,51.490368],[5.429098,51.490401],[5.429633,51.490564],[5.42977,51.490606],[5.429875,51.490634],[5.429897,51.49064],[5.429905,51.490642],[5.429962,51.490658],[5.429974,51.490662],[5.430146,51.490709],[5.430185,51.490719],[5.430192,51.490721],[5.430216,51.490728],[5.430341,51.490762],[5.430397,51.490777],[5.43111,51.490963],[5.431799,51.491112],[5.432046,51.491176],[5.432054,51.491178],[5.432092,51.491188],[5.432131,51.491198],[5.432164,51.491206],[5.432466,51.491284],[5.432961,51.491416],[5.433114,51.491458],[5.433851,51.491658],[5.433917,51.491677],[5.434118,51.491734],[5.434664,51.49189],[5.434742,51.491913],[5.434921,51.491965],[5.435061,51.492004],[5.435087,51.492011],[5.435174,51.492036],[5.435523,51.492133],[5.435586,51.492151],[5.435817,51.492216],[5.4359,51.492239],[5.435926,51.492246],[5.43602,51.492272],[5.436234,51.492331],[5.436238,51.492333],[5.436286,51.492346],[5.437374,51.492648],[5.437599,51.49271],[5.437803,51.492766],[5.438028,51.492825],[5.439114,51.493111],[5.439562,51.493222],[5.439999,51.49333],[5.440465,51.493446],[5.441827,51.493764],[5.441985,51.493799],[5.442142,51.493833],[5.442168,51.493839],[5.442196,51.493845],[5.442571,51.493927],[5.442405,51.494252],[5.442305,51.494449],[5.442248,51.494517],[5.441749,51.495105],[5.441407,51.49549],[5.440705,51.496059],[5.440708,51.496068],[5.440746,51.496167],[5.441574,51.498125],[5.441835,51.49874],[5.441949,51.499011],[5.442182,51.499562],[5.442198,51.499599],[5.442287,51.49981],[5.442673,51.500722],[5.442793,51.501007],[5.44288,51.501212],[5.443054,51.501624],[5.443071,51.501664],[5.443239,51.502062],[5.443262,51.502116],[5.443767,51.50331],[5.443836,51.503473],[5.443849,51.503504],[5.443861,51.503531],[5.44407,51.504027],[5.444105,51.504109],[5.444126,51.504158],[5.444138,51.504187],[5.444417,51.504845],[5.444459,51.504944],[5.444481,51.505003],[5.444782,51.505714],[5.444815,51.505792],[5.445594,51.507633],[5.44575,51.507998],[5.445793,51.508099],[5.446061,51.50871],[5.446474,51.509668],[5.447045,51.510994],[5.447114,51.511156],[5.447508,51.512069],[5.447186,51.512392],[5.447086,51.512492],[5.44706,51.512518],[5.445368,51.513974],[5.444826,51.51444],[5.444526,51.514697],[5.444388,51.514816],[5.444355,51.514845],[5.444286,51.514904],[5.444254,51.514932],[5.441863,51.516988],[5.441832,51.517015],[5.437668,51.520624],[5.437118,51.521077],[5.437153,51.521091],[5.43701,51.521192],[5.437,51.521198],[5.436662,51.521485],[5.436008,51.522041],[5.435734,51.522274],[5.435124,51.522791],[5.435117,51.522797],[5.434241,51.523542],[5.434232,51.52355],[5.433651,51.524121],[5.433631,51.524141],[5.433449,51.52432],[5.433377,51.52439],[5.43337,51.524397],[5.431912,51.525831],[5.431911,51.525831],[5.431887,51.525855],[5.431758,51.525981],[5.431522,51.526213],[5.431382,51.526351],[5.431193,51.526537],[5.431171,51.526559],[5.430432,51.527267],[5.429206,51.528444],[5.429199,51.528451],[5.42826,51.529352],[5.428237,51.529374],[5.427208,51.530477],[5.426439,51.531303],[5.427402,51.531621],[5.427505,51.531666],[5.427359,51.531821],[5.427291,51.531893],[5.427289,51.531895],[5.426666,51.532504],[5.426434,51.532733],[5.426421,51.532745],[5.425742,51.532528],[5.425304,51.532382],[5.42522,51.532474],[5.424862,51.532854],[5.424424,51.533319],[5.423796,51.533986],[5.423801,51.533987],[5.423889,51.534007],[5.423887,51.534008],[5.423843,51.534055],[5.423034,51.533895],[5.422978,51.533941],[5.42263,51.534221],[5.423201,51.534397],[5.422859,51.534973],[5.42253,51.535527],[5.422562,51.535558],[5.422637,51.535641],[5.422632,51.535643],[5.422391,51.535701],[5.422398,51.535712],[5.422432,51.535806],[5.422451,51.535895],[5.422441,51.535939],[5.422315,51.536424],[5.422293,51.536535],[5.422224,51.53677],[5.422158,51.536911],[5.422001,51.53714],[5.421749,51.537409],[5.421497,51.537667],[5.420682,51.538286],[5.420304,51.538565],[5.420151,51.538672],[5.419896,51.538823],[5.419753,51.538891],[5.419499,51.538991],[5.418622,51.539312],[5.418206,51.539469],[5.418075,51.539518],[5.417825,51.539621],[5.417379,51.539849],[5.417096,51.540007],[5.416496,51.540332],[5.416386,51.540377],[5.416343,51.540389],[5.416187,51.540435],[5.416185,51.540429],[5.416145,51.540437],[5.41603,51.540455],[5.416028,51.540455],[5.415968,51.540462],[5.415932,51.540465],[5.415899,51.540466],[5.415818,51.540467],[5.415736,51.540465],[5.415561,51.540465],[5.415299,51.540465],[5.415228,51.540467],[5.415153,51.54047],[5.415087,51.540474],[5.41502,51.54048],[5.414937,51.540487],[5.414884,51.540495],[5.41486,51.540501],[5.414814,51.540515],[5.41477,51.540533],[5.414691,51.540568],[5.414583,51.540622],[5.414485,51.540672],[5.414376,51.540735],[5.414381,51.540738],[5.41426,51.540806],[5.414149,51.540889],[5.414059,51.540957],[5.413574,51.541457],[5.413462,51.541547],[5.412907,51.541997],[5.412614,51.542271],[5.412172,51.542622],[5.412045,51.5427],[5.410936,51.542269],[5.410534,51.542707],[5.409378,51.543965],[5.409284,51.544067],[5.408074,51.545384],[5.408055,51.545405],[5.407196,51.546339],[5.406519,51.547076],[5.406431,51.547173],[5.405393,51.548318],[5.40536,51.548353],[5.404305,51.548296],[5.404233,51.548292],[5.404163,51.548288],[5.403539,51.548253],[5.401618,51.547693],[5.401146,51.547555],[5.400294,51.547307],[5.39919,51.547063],[5.398592,51.546931],[5.398103,51.546823],[5.396842,51.546545],[5.396321,51.54652],[5.396314,51.54652],[5.396117,51.546511],[5.393739,51.546398],[5.393646,51.546394],[5.393778,51.546018],[5.390611,51.54538],[5.390419,51.545295],[5.39023,51.545212],[5.388223,51.544367],[5.388166,51.544332],[5.388162,51.544277],[5.387201,51.544136],[5.386053,51.543967],[5.384579,51.543751],[5.382792,51.543489],[5.382675,51.543728],[5.382674,51.543782],[5.382501,51.543779],[5.381957,51.543768],[5.37791,51.543686],[5.377835,51.543684],[5.373444,51.543595],[5.373292,51.543592],[5.373288,51.543592],[5.372786,51.543582],[5.372291,51.543572],[5.37202,51.543566],[5.371776,51.543562],[5.371771,51.543562],[5.370423,51.543541],[5.37026,51.543538],[5.36852,51.543523],[5.368491,51.543833],[5.368396,51.543884],[5.368272,51.543957],[5.368258,51.543966],[5.367898,51.54418],[5.367745,51.544259],[5.366684,51.544663],[5.366568,51.544697],[5.366213,51.544772],[5.365585,51.544904],[5.365171,51.545003],[5.365081,51.544998],[5.364687,51.544977],[5.363806,51.54493],[5.362165,51.544904],[5.361759,51.544946],[5.361457,51.544924],[5.361101,51.5449],[5.36107,51.544896],[5.360979,51.544888],[5.358406,51.544664],[5.35837,51.544665],[5.357713,51.544692],[5.357707,51.544692],[5.357626,51.544695],[5.357575,51.544697],[5.357546,51.544698],[5.357436,51.544703],[5.357144,51.544714],[5.356964,51.544716],[5.356911,51.544717]]]},"properties":{"type":"boundary","gemeente":"Best"}}]}