{"type":"FeatureCollection","metadata":{"gemeente":"Bloemendaal","slug":"bloemendaal","generated_at":"2026-10-05T08:46:16.735177Z","total_points":12,"providers":["DHL","DPD","PostNL","VintedGo"],"bounds":[4.57513239160196,52.319556088758,4.6214068,52.4089541]},"features":[{"type":"Feature","geometry":{"type":"Point","coordinates":[4.5924956,52.3253208]},"properties":{"type":"pakketpunt","locatieNaam":"Buurtgemak van den Hoven","straatNaam":"Zwarteweg","straatNr":"44","vervoerder":"DHL","puntType":"parcelShop","bezettingsgraad":50,"latitude":52.3253208,"longitude":4.5924956,"canPickup":true,"canDropoff":true,"openingstijden":{"ma":"08:00 - 19:00","di":"08:00 - 19:00","wo":"08:00 - 19:00","do":"08:00 - 19:00","vr":"08:00 - 19:00","za":"08:00 - 19:00","zo":"08:00 - 18:00"}}},{"type":"Feature","geometry":{"type":"Point","coordinates":[4.621356010437012,52.40523910522461]},"properties":{"type":"pakketpunt","locatieNaam":"Eddy Ekelschot Schoenreparatie","straatNaam":"Bloemendaalseweg","straatNr":"31","vervoerder":"DHL","puntType":"parcelShop","bezettingsgraad":50,"latitude":52.40523910522461,"longitude":4.621356010437012,"canPickup":true,"canDropoff":true,"openingstijden":{"ma":"gesloten","di":"10:00 - 18:00","wo":"10:00 - 18:00","do":"10:00 - 18:00","vr":"10:00 - 18:00","za":"10:00 - 17:00","zo":"gesloten"}}},{"type":"Feature","geometry":{"type":"Point","coordinates":[4.6214068,52.4051705]},"properties":{"type":"pakketpunt","locatieNaam":"E. Schoenenreparatie","straatNaam":"BLOEMENDAALSEWEG","straatNr":"31","vervoerder":"DPD","puntType":"pickup_point","bezettingsgraad":50,"latitude":52.4051705,"longitude":4.6214068,"canPickup":true,"canDropoff":true,"openingstijden":{"ma":"gesloten","di":"10:00 - 18:00","wo":"10:00 - 18:00","do":"10:00 - 18:00","vr":"10:00 - 18:00","za":"10:00 - 17:00","zo":"gesloten"}}},{"type":"Feature","geometry":{"type":"Point","coordinates":[4.592501,52.32531]},"properties":{"type":"pakketpunt","locatieNaam":"Buurtgemak van den Hoven","straatNaam":"ZWARTEWEG","straatNr":"44","vervoerder":"DPD","puntType":"pickup_point","bezettingsgraad":50,"latitude":52.32531,"longitude":4.592501,"canPickup":true,"canDropoff":true,"openingstijden":{"ma":"08:00 - 19:00","di":"08:00 - 19:00","wo":"08:00 - 19:00","do":"08:00 - 19:00","vr":"08:00 - 19:00","za":"08:00 - 19:00","zo":"10:00 - 18:00"}}},{"type":"Feature","geometry":{"type":"Point","coordinates":[4.609298111,52.39123996]},"properties":{"type":"pakketpunt","locatieNaam":"Primera Overveen","straatNaam":"Bloemendaalseweg","straatNr":"234","vervoerder":"PostNL","puntType":"servicepunt","bezettingsgraad":50,"latitude":52.39123996,"longitude":4.609298111,"canPickup":true,"canDropoff":true,"openingstijden":"12:00 - 18:00 (Na 18:00 open; Zaterdag open)"}},{"type":"Feature","geometry":{"type":"Point","coordinates":[4.619657452,52.40383664]},"properties":{"type":"pakketpunt","locatieNaam":"Papyrium","straatNaam":"Bloemendaalseweg","straatNr":"78","vervoerder":"PostNL","puntType":"servicepunt","bezettingsgraad":50,"latitude":52.40383664,"longitude":4.619657452,"canPickup":true,"canDropoff":true,"openingstijden":null}},{"type":"Feature","geometry":{"type":"Point","coordinates":[4.575146893,52.31956518]},"properties":{"type":"pakketpunt","locatieNaam":"Supermarkt Vogelenzang","straatNaam":"Deken Zondaglaan","straatNr":"55","vervoerder":"PostNL","puntType":"servicepunt","bezettingsgraad":50,"latitude":52.31956518,"longitude":4.575146893,"canPickup":true,"canDropoff":true,"openingstijden":"08:00 - 19:00 (Na 18:00 open; Zaterdag open; Zondag open)"}},{"type":"Feature","geometry":{"type":"Point","coordinates":[4.57513239160196,52.319556088758]},"properties":{"type":"pakketpunt","locatieNaam":"Pakketautomaat","straatNaam":"Deken Zondaglaan","straatNr":"55PBA","vervoerder":"PostNL","puntType":"automaat","bezettingsgraad":50,"latitude":52.319556088758,"longitude":4.57513239160196,"canPickup":true,"canDropoff":true,"openingstijden":"08:00 - 19:00"}},{"type":"Feature","geometry":{"type":"Point","coordinates":[4.59981444288225,52.3205498607251]},"properties":{"type":"pakketpunt","locatieNaam":"Drogisterij Zwetsloot","straatNaam":"Schoollaan","straatNr":"24C","vervoerder":"PostNL","puntType":"servicepunt","bezettingsgraad":50,"latitude":52.3205498607251,"longitude":4.59981444288225,"canPickup":true,"canDropoff":true,"openingstijden":"09:00 - 18:00 (Na 18:00 open; Zaterdag open)"}},{"type":"Feature","geometry":{"type":"Point","coordinates":[4.5924839,52.3253586]},"properties":{"type":"pakketpunt","locatieNaam":"Buurtgemak Van Den Hoven","straatNaam":"Zwarteweg 44","straatNr":"","vervoerder":"VintedGo","puntType":"parcel_shop","bezettingsgraad":50,"latitude":52.3253586,"longitude":4.5924839,"canPickup":true,"canDropoff":true,"openingstijden":null}},{"type":"Feature","geometry":{"type":"Point","coordinates":[4.6065652,52.4089541]},"properties":{"type":"pakketpunt","locatieNaam":"Santos Het Kopje Van Bloemendaal","straatNaam":"Hoge Duin En Daalse Weg 5","straatNr":"","vervoerder":"VintedGo","puntType":"parcel_shop","bezettingsgraad":50,"latitude":52.4089541,"longitude":4.6065652,"canPickup":true,"canDropoff":true,"openingstijden":null}},{"type":"Feature","geometry":{"type":"Point","coordinates":[4.6184408,52.4025702]},"properties":{"type":"pakketpunt","locatieNaam":"Kuierkos Bv","straatNaam":"Bloemendaalseweg 104","straatNr":"","vervoerder":"VintedGo","puntType":"parcel_shop","bezettingsgraad":50,"latitude":52.4025702,"longitude":4.6184408,"canPickup":true,"canDropoff":true,"openingstijden":null}},{"type":"Feature","geometry":{"type":"Polygon","coordinates":[[[4.526045,52.405167],[4.528356,52.404597],[4.531353,52.403858],[4.534855,52.402993],[4.537847,52.402254],[4.539438,52.401862],[4.54182,52.401273],[4.542656,52.401157],[4.542877,52.401126],[4.542961,52.401114],[4.543193,52.401065],[4.543335,52.401037],[4.543341,52.401036],[4.543592,52.400987],[4.543608,52.400985],[4.543664,52.400973],[4.543696,52.400967],[4.543853,52.400938],[4.543918,52.400926],[4.543944,52.400921],[4.543971,52.400916],[4.543999,52.400911],[4.544049,52.400902],[4.544375,52.400841],[4.544598,52.400794],[4.544751,52.400765],[4.544809,52.400754],[4.544936,52.400737],[4.545049,52.400713],[4.545399,52.400643],[4.545613,52.4006],[4.545917,52.40054],[4.546044,52.400511],[4.546097,52.400493],[4.54632,52.400459],[4.546507,52.400413],[4.547174,52.400294],[4.54799,52.400137],[4.549323,52.399875],[4.549886,52.399768],[4.549892,52.399766],[4.552146,52.399332],[4.552198,52.399322],[4.554083,52.398963],[4.555441,52.398698],[4.556208,52.398545],[4.557231,52.398355],[4.558536,52.398112],[4.561955,52.397444],[4.562092,52.397417],[4.562541,52.397329],[4.564653,52.396916],[4.565341,52.396792],[4.565672,52.396732],[4.566383,52.396605],[4.566611,52.396565],[4.566772,52.396533],[4.568888,52.396124],[4.575338,52.394876],[4.576469,52.394657],[4.581087,52.393764],[4.583576,52.393282],[4.587788,52.392466],[4.588329,52.392361],[4.5884,52.392347],[4.591654,52.391717],[4.591659,52.391716],[4.591657,52.391712],[4.591473,52.391387],[4.591409,52.391275],[4.591107,52.39074],[4.587378,52.384151],[4.58679,52.383104],[4.586788,52.383102],[4.586562,52.382702],[4.586091,52.381867],[4.585243,52.380372],[4.584397,52.378872],[4.583807,52.377825],[4.583085,52.376549],[4.582677,52.375829],[4.582477,52.375476],[4.582367,52.375281],[4.581992,52.374618],[4.581481,52.373714],[4.581028,52.372911],[4.580878,52.372649],[4.580515,52.372012],[4.579895,52.370914],[4.579603,52.370399],[4.579573,52.370346],[4.579411,52.370061],[4.579404,52.370047],[4.579383,52.370018],[4.579378,52.369999],[4.579361,52.369968],[4.579228,52.36972],[4.579115,52.36952],[4.579021,52.36934],[4.578999,52.369299],[4.578967,52.36924],[4.578816,52.368963],[4.578744,52.368831],[4.578623,52.368608],[4.578539,52.368453],[4.578373,52.368149],[4.578355,52.368116],[4.578314,52.368041],[4.578272,52.367964],[4.578107,52.367662],[4.578085,52.367622],[4.577975,52.367422],[4.577864,52.367219],[4.577836,52.367167],[4.577796,52.367095],[4.577778,52.367066],[4.577734,52.366993],[4.577633,52.366828],[4.577571,52.366727],[4.577515,52.366635],[4.577486,52.366588],[4.577434,52.366503],[4.577422,52.366483],[4.577245,52.366192],[4.577054,52.365878],[4.57699,52.365773],[4.57694,52.365691],[4.57667,52.365253],[4.576577,52.36509],[4.576428,52.364828],[4.576408,52.364792],[4.576269,52.364548],[4.576178,52.364388],[4.576085,52.364226],[4.57584,52.363795],[4.575834,52.363784],[4.575785,52.363698],[4.575704,52.363556],[4.575565,52.363312],[4.575455,52.363126],[4.575287,52.362823],[4.575244,52.36275],[4.57521,52.36269],[4.575205,52.36268],[4.574581,52.361584],[4.574558,52.361544],[4.574525,52.361486],[4.574451,52.361354],[4.574286,52.361058],[4.574033,52.360602],[4.573945,52.360427],[4.5739,52.360348],[4.573785,52.360141],[4.573729,52.360044],[4.573695,52.359983],[4.573612,52.359836],[4.573509,52.35965],[4.573369,52.359395],[4.572491,52.357815],[4.572358,52.357575],[4.571918,52.356774],[4.57112,52.355328],[4.5702,52.353662],[4.570036,52.353363],[4.569998,52.353293],[4.569962,52.35323],[4.569694,52.352727],[4.565523,52.345262],[4.565348,52.344966],[4.562026,52.338958],[4.559082,52.333914],[4.558984,52.333747],[4.553652,52.32461],[4.553413,52.324226],[4.547322,52.313997],[4.547355,52.313988],[4.547414,52.313972],[4.547617,52.313916],[4.548427,52.313686],[4.548913,52.313543],[4.549864,52.313264],[4.550698,52.313023],[4.55082,52.312996],[4.551477,52.312794],[4.554004,52.311924],[4.554032,52.31195],[4.554072,52.311988],[4.556582,52.311339],[4.556738,52.311299],[4.557671,52.311058],[4.55772,52.311011],[4.557776,52.310957],[4.557778,52.310955],[4.55782,52.31094],[4.557841,52.310933],[4.558208,52.310803],[4.558541,52.310712],[4.559688,52.310397],[4.560642,52.310134],[4.563427,52.309376],[4.563581,52.309334],[4.563583,52.309333],[4.563707,52.309298],[4.563942,52.309583],[4.564351,52.310089],[4.564674,52.31049],[4.564956,52.310839],[4.565229,52.311169],[4.565554,52.311558],[4.565908,52.311982],[4.566229,52.312366],[4.566559,52.312732],[4.566824,52.312869],[4.566917,52.313034],[4.566918,52.313035],[4.567142,52.313434],[4.567239,52.313605],[4.567288,52.313725],[4.567293,52.313731],[4.567294,52.313732],[4.567314,52.313757],[4.567359,52.313873],[4.567375,52.313898],[4.56741,52.313952],[4.567536,52.314155],[4.567698,52.314407],[4.567713,52.314431],[4.56781,52.314586],[4.568115,52.315082],[4.568262,52.315324],[4.568468,52.315678],[4.568662,52.316006],[4.568849,52.316341],[4.568955,52.316513],[4.568984,52.316505],[4.569911,52.316278],[4.571032,52.316002],[4.571329,52.315929],[4.571787,52.315816],[4.572684,52.315594],[4.572714,52.315587],[4.572883,52.315546],[4.572887,52.315545],[4.572984,52.315487],[4.572999,52.31548],[4.573153,52.315401],[4.573159,52.315398],[4.573241,52.315356],[4.576094,52.316203],[4.579386,52.317214],[4.583272,52.318395],[4.583462,52.31838],[4.583566,52.318372],[4.584264,52.318318],[4.584707,52.318283],[4.584798,52.318276],[4.585793,52.318197],[4.585799,52.318193],[4.586149,52.317949],[4.586203,52.317911],[4.58622,52.3179],[4.586072,52.317793],[4.585865,52.317643],[4.585868,52.317639],[4.5859,52.317602],[4.586021,52.317467],[4.586133,52.317342],[4.58609,52.317315],[4.586608,52.317005],[4.586686,52.317003],[4.586942,52.316994],[4.587009,52.316991],[4.587007,52.316974],[4.58733,52.316802],[4.587343,52.316795],[4.587357,52.316789],[4.587372,52.316783],[4.587387,52.316778],[4.587403,52.316774],[4.587419,52.31677],[4.587435,52.316767],[4.587452,52.316765],[4.587469,52.316763],[4.587486,52.316762],[4.587503,52.316762],[4.587521,52.316762],[4.587538,52.316763],[4.587555,52.316765],[4.587571,52.316767],[4.587588,52.31677],[4.587604,52.316774],[4.58762,52.316778],[4.587635,52.316783],[4.587673,52.316797],[4.587771,52.316837],[4.587853,52.316875],[4.587916,52.316905],[4.587933,52.316913],[4.587949,52.316922],[4.587965,52.316931],[4.587981,52.31694],[4.587995,52.31695],[4.58801,52.316961],[4.588017,52.316966],[4.58797,52.317056],[4.587906,52.317043],[4.587873,52.317048],[4.587809,52.317055],[4.587752,52.317074],[4.587732,52.317181],[4.587721,52.317237],[4.587713,52.317282],[4.587663,52.317543],[4.58775,52.317549],[4.587686,52.317881],[4.587776,52.317887],[4.588854,52.317955],[4.589554,52.3179],[4.59034,52.317838],[4.590352,52.317837],[4.590435,52.31783],[4.590587,52.317818],[4.590611,52.317816],[4.590637,52.317815],[4.590826,52.317801],[4.590981,52.31779],[4.591032,52.317789],[4.591048,52.317789],[4.591233,52.317786],[4.5914,52.317797],[4.592101,52.317843],[4.59226,52.317843],[4.593159,52.317805],[4.593327,52.317777],[4.593367,52.31777],[4.593409,52.317772],[4.593461,52.317775],[4.593574,52.317762],[4.593702,52.317753],[4.59382,52.317745],[4.593965,52.317735],[4.594142,52.317729],[4.594237,52.317726],[4.59439,52.317721],[4.594628,52.317716],[4.595006,52.317707],[4.595239,52.317703],[4.595486,52.317706],[4.595681,52.317726],[4.595893,52.317757],[4.596124,52.31778],[4.596224,52.317777],[4.596302,52.317763],[4.596325,52.317748],[4.596381,52.317742],[4.596541,52.317724],[4.596555,52.317721],[4.59676,52.317662],[4.596764,52.317661],[4.596821,52.317645],[4.597083,52.317593],[4.597084,52.317593],[4.597173,52.317575],[4.597183,52.317593],[4.597234,52.317584],[4.597372,52.317558],[4.597456,52.317542],[4.597657,52.317505],[4.597937,52.317454],[4.598023,52.317438],[4.598218,52.317403],[4.598493,52.317355],[4.598496,52.317354],[4.598645,52.317323],[4.598794,52.31729],[4.598813,52.317285],[4.598842,52.317279],[4.598876,52.317271],[4.598977,52.317249],[4.599193,52.317182],[4.599456,52.317101],[4.599458,52.317101],[4.599723,52.317026],[4.599725,52.317026],[4.599988,52.316951],[4.599989,52.316951],[4.600253,52.316877],[4.600255,52.316876],[4.600352,52.316849],[4.600521,52.316802],[4.600522,52.316802],[4.600786,52.31673],[4.60079,52.316729],[4.601054,52.316654],[4.601056,52.316654],[4.601316,52.316571],[4.601318,52.316571],[4.601496,52.316508],[4.601688,52.316439],[4.601787,52.316404],[4.601809,52.31638],[4.601822,52.316364],[4.601865,52.316316],[4.601914,52.316283],[4.601973,52.316257],[4.602449,52.316143],[4.602464,52.31614],[4.6026,52.316107],[4.602758,52.316044],[4.602828,52.315978],[4.602866,52.315935],[4.602872,52.315928],[4.602907,52.3159],[4.602914,52.315894],[4.602972,52.315863],[4.603056,52.315832],[4.603106,52.315818],[4.603107,52.315818],[4.603128,52.315812],[4.603486,52.315721],[4.603566,52.315697],[4.603662,52.31568],[4.603717,52.315663],[4.603718,52.315663],[4.603782,52.315643],[4.604202,52.315514],[4.60455,52.315431],[4.604767,52.315378],[4.605025,52.315316],[4.605299,52.315238],[4.605546,52.315146],[4.605551,52.315144],[4.605656,52.315095],[4.606313,52.314912],[4.606892,52.314772],[4.608581,52.314366],[4.608589,52.314364],[4.611424,52.313626],[4.611676,52.31356],[4.611659,52.313779],[4.611653,52.313919],[4.611648,52.314053],[4.611628,52.314422],[4.61162,52.314602],[4.611613,52.314743],[4.611609,52.31492],[4.611602,52.315208],[4.611597,52.315547],[4.611592,52.315869],[4.61159,52.315969],[4.611586,52.316097],[4.611583,52.316237],[4.61158,52.316404],[4.611577,52.316536],[4.611574,52.316675],[4.611569,52.316799],[4.611563,52.316938],[4.611563,52.316971],[4.611564,52.317065],[4.611566,52.317183],[4.611566,52.317309],[4.611566,52.317412],[4.611566,52.317504],[4.611565,52.317593],[4.611573,52.317729],[4.611581,52.317848],[4.611577,52.317916],[4.611573,52.317981],[4.611571,52.318014],[4.611532,52.318275],[4.611515,52.318866],[4.611512,52.318905],[4.611499,52.319305],[4.611496,52.319333],[4.611493,52.31936],[4.611488,52.31945],[4.611475,52.31978],[4.611454,52.320282],[4.61144,52.320567],[4.611437,52.32063],[4.611435,52.320674],[4.611432,52.320779],[4.611426,52.321151],[4.611418,52.321567],[4.611417,52.321616],[4.611408,52.32169],[4.61141,52.321755],[4.611405,52.321843],[4.611403,52.321876],[4.611401,52.321907],[4.611397,52.321986],[4.611389,52.322034],[4.611384,52.322205],[4.61134,52.322217],[4.611269,52.322237],[4.611151,52.322271],[4.611133,52.322277],[4.610999,52.322321],[4.610876,52.322362],[4.61012,52.322601],[4.609987,52.322607],[4.609888,52.32263],[4.60983,52.322646],[4.609748,52.322665],[4.609537,52.322723],[4.609514,52.322729],[4.609447,52.32275],[4.609187,52.322841],[4.609045,52.32288],[4.608953,52.3229],[4.608846,52.322919],[4.608666,52.322959],[4.608631,52.322976],[4.608569,52.323006],[4.608379,52.323108],[4.608281,52.323174],[4.608068,52.323319],[4.607995,52.323375],[4.60766,52.32359],[4.60762,52.323561],[4.607367,52.323376],[4.607259,52.323297],[4.606973,52.323439],[4.606765,52.32354],[4.606697,52.323571],[4.606618,52.323605],[4.606467,52.323647],[4.606448,52.323656],[4.606254,52.323753],[4.606148,52.323808],[4.606114,52.323827],[4.606066,52.323857],[4.605964,52.323913],[4.605789,52.324008],[4.605779,52.324012],[4.605773,52.324013],[4.605768,52.324012],[4.605761,52.32401],[4.605754,52.324005],[4.605701,52.324055],[4.605696,52.32406],[4.605704,52.324066],[4.605658,52.324089],[4.605595,52.324122],[4.605546,52.324149],[4.605496,52.324176],[4.605354,52.324251],[4.605098,52.324392],[4.605056,52.324417],[4.604953,52.32447],[4.60489,52.324502],[4.604748,52.324577],[4.604744,52.32458],[4.604687,52.324614],[4.604656,52.324636],[4.604625,52.32466],[4.604605,52.324676],[4.604565,52.32471],[4.604543,52.324727],[4.604501,52.324752],[4.60449,52.324759],[4.604475,52.324765],[4.604458,52.324769],[4.604421,52.324777],[4.604385,52.324784],[4.604323,52.324795],[4.604246,52.324807],[4.604176,52.324821],[4.604121,52.324828],[4.604092,52.324841],[4.603766,52.324989],[4.603757,52.324995],[4.603606,52.325101],[4.603408,52.325233],[4.603338,52.325253],[4.603276,52.325274],[4.603111,52.325332],[4.602932,52.325406],[4.602813,52.325454],[4.602673,52.325511],[4.602603,52.325538],[4.602544,52.325551],[4.602509,52.325554],[4.602478,52.325556],[4.602251,52.325655],[4.601871,52.325821],[4.60124,52.326099],[4.600163,52.326571],[4.599774,52.326742],[4.599393,52.32691],[4.599033,52.32707],[4.598557,52.327279],[4.598164,52.327451],[4.597589,52.327703],[4.597515,52.327734],[4.597437,52.327769],[4.597327,52.327816],[4.597292,52.327831],[4.597258,52.327835],[4.597247,52.327822],[4.597175,52.327842],[4.596527,52.328023],[4.59644,52.327917],[4.596408,52.327883],[4.596291,52.327748],[4.596235,52.327765],[4.596008,52.327833],[4.595899,52.327866],[4.595731,52.327917],[4.595623,52.32795],[4.595494,52.328001],[4.595453,52.328017],[4.595325,52.328068],[4.595222,52.328109],[4.595155,52.328136],[4.594842,52.328266],[4.594562,52.328381],[4.594556,52.328384],[4.59423,52.328511],[4.594023,52.328593],[4.593874,52.328646],[4.593667,52.328431],[4.593603,52.328364],[4.593517,52.328272],[4.593446,52.328224],[4.593468,52.328222],[4.593369,52.328117],[4.59336,52.328108],[4.593112,52.328173],[4.592911,52.328226],[4.592823,52.328249],[4.592711,52.328278],[4.592677,52.328286],[4.592587,52.328309],[4.592371,52.328364],[4.591779,52.328526],[4.591695,52.328402],[4.591655,52.32831],[4.591585,52.328176],[4.591285,52.328237],[4.591216,52.32825],[4.591096,52.328273],[4.591078,52.32827],[4.590804,52.32821],[4.590375,52.328304],[4.590265,52.328332],[4.590186,52.328353],[4.590207,52.328402],[4.59021,52.32841],[4.590274,52.328546],[4.590504,52.329208],[4.590804,52.33007],[4.590992,52.330593],[4.59118,52.331117],[4.591211,52.331204],[4.591212,52.331205],[4.591218,52.331219],[4.591369,52.331641],[4.591458,52.331896],[4.591648,52.332426],[4.591735,52.332668],[4.591894,52.333112],[4.592432,52.334613],[4.592897,52.335913],[4.593529,52.337673],[4.593541,52.337706],[4.594266,52.339522],[4.595253,52.341991],[4.595634,52.342865],[4.595719,52.343066],[4.595903,52.34348],[4.596399,52.344622],[4.598817,52.349783],[4.600802,52.353899],[4.600831,52.353959],[4.60086,52.35402],[4.600997,52.354304],[4.601276,52.354882],[4.601325,52.354985],[4.602154,52.356707],[4.602261,52.356697],[4.60235,52.356995],[4.60235,52.356995],[4.602301,52.357001],[4.602301,52.357001],[4.602351,52.357104],[4.602433,52.357096],[4.602525,52.357417],[4.602592,52.357405],[4.60266,52.357745],[4.602655,52.357745],[4.602658,52.357752],[4.60279,52.358031],[4.602832,52.358117],[4.602826,52.358121],[4.602801,52.358145],[4.602787,52.358182],[4.602784,52.358245],[4.602796,52.358307],[4.602826,52.358379],[4.602867,52.358439],[4.602905,52.358498],[4.60301,52.358651],[4.603056,52.358722],[4.603091,52.358795],[4.603173,52.358981],[4.603201,52.359099],[4.603252,52.359229],[4.603338,52.359457],[4.603425,52.359675],[4.60355,52.359956],[4.603591,52.360028],[4.603604,52.360062],[4.603617,52.360092],[4.603669,52.360211],[4.60381,52.360558],[4.603809,52.360561],[4.603825,52.360659],[4.603839,52.360708],[4.603871,52.3608],[4.603905,52.360854],[4.603958,52.36093],[4.604068,52.361073],[4.604103,52.361121],[4.604133,52.361156],[4.604186,52.361242],[4.604276,52.361392],[4.604372,52.361547],[4.604474,52.361713],[4.604488,52.361744],[4.60458,52.361954],[4.604613,52.362029],[4.60465,52.362208],[4.604693,52.362337],[4.604732,52.362429],[4.604763,52.362477],[4.60482,52.362566],[4.604888,52.362649],[4.604964,52.362713],[4.605076,52.362763],[4.605185,52.362811],[4.605219,52.362828],[4.605657,52.363229],[4.6057,52.363273],[4.605707,52.363295],[4.605716,52.363338],[4.605724,52.363405],[4.605727,52.36351],[4.605725,52.363548],[4.6057,52.363745],[4.605701,52.363781],[4.605718,52.363865],[4.605733,52.3639],[4.605768,52.363943],[4.60585,52.364051],[4.605983,52.36422],[4.606037,52.364292],[4.606089,52.364368],[4.606173,52.364506],[4.60633,52.364732],[4.606348,52.364769],[4.60637,52.364837],[4.606384,52.364912],[4.606388,52.365028],[4.606388,52.365068],[4.606377,52.365133],[4.606346,52.365248],[4.606335,52.365312],[4.606344,52.365382],[4.60635,52.365418],[4.606382,52.365548],[4.606402,52.365645],[4.606414,52.365677],[4.606429,52.365715],[4.606447,52.365748],[4.606538,52.365906],[4.60667,52.366155],[4.606715,52.366235],[4.60686,52.366435],[4.606917,52.366518],[4.606963,52.366581],[4.606987,52.366617],[4.607022,52.366662],[4.607168,52.366832],[4.607197,52.366868],[4.607204,52.366878],[4.607324,52.367045],[4.607098,52.367081],[4.606239,52.367223],[4.605424,52.367363],[4.605117,52.367411],[4.604332,52.36754],[4.604178,52.367585],[4.604158,52.367593],[4.604262,52.367819],[4.60429,52.367883],[4.604305,52.367972],[4.604311,52.368083],[4.604297,52.368175],[4.60427,52.368264],[4.604271,52.368266],[4.604248,52.368325],[4.604206,52.368401],[4.604133,52.368496],[4.60407,52.368563],[4.603959,52.368656],[4.603862,52.368733],[4.603802,52.368795],[4.603785,52.368816],[4.603773,52.368857],[4.603785,52.368913],[4.60384,52.369094],[4.603956,52.369496],[4.603997,52.369674],[4.604025,52.369758],[4.604108,52.370022],[4.60416,52.370202],[4.604265,52.370501],[4.60435,52.370806],[4.604404,52.370978],[4.604439,52.371077],[4.604567,52.371321],[4.604586,52.371355],[4.604472,52.37139],[4.60426,52.371454],[4.603834,52.371584],[4.603358,52.371727],[4.603268,52.371756],[4.601812,52.372192],[4.601526,52.372278],[4.601473,52.372643],[4.601421,52.372965],[4.601379,52.373308],[4.601355,52.373497],[4.601336,52.373633],[4.601316,52.373767],[4.601297,52.373902],[4.601286,52.373983],[4.60127,52.37417],[4.601263,52.374242],[4.60126,52.374341],[4.601259,52.374748],[4.601252,52.374907],[4.601243,52.375009],[4.601237,52.375152],[4.601251,52.375357],[4.601171,52.375516],[4.600897,52.376044],[4.600798,52.376276],[4.600935,52.376495],[4.600941,52.376512],[4.600955,52.376573],[4.601067,52.376802],[4.60092,52.376828],[4.600283,52.37693],[4.599818,52.377007],[4.599706,52.377032],[4.599674,52.377049],[4.599658,52.377065],[4.599603,52.377136],[4.599552,52.37722],[4.599534,52.377278],[4.59952,52.377353],[4.599516,52.377454],[4.59953,52.377557],[4.599773,52.378873],[4.599779,52.378935],[4.600068,52.380814],[4.600254,52.380759],[4.600279,52.380792],[4.600242,52.380814],[4.600231,52.380904],[4.600229,52.380946],[4.600208,52.38112],[4.600262,52.381428],[4.600288,52.381591],[4.60057,52.381662],[4.600616,52.381695],[4.60059,52.381711],[4.600584,52.381726],[4.600578,52.381747],[4.600575,52.381795],[4.600572,52.382052],[4.60054,52.38234],[4.600536,52.382376],[4.600533,52.382408],[4.600504,52.38261],[4.600491,52.382776],[4.600493,52.382802],[4.600497,52.382838],[4.600509,52.382872],[4.600531,52.382921],[4.600585,52.383005],[4.600727,52.383207],[4.600855,52.383378],[4.601232,52.383794],[4.601725,52.384326],[4.601833,52.384431],[4.602017,52.384619],[4.60204,52.38464],[4.60206,52.384654],[4.602107,52.384679],[4.602179,52.384709],[4.602847,52.384953],[4.602958,52.384991],[4.602977,52.384994],[4.603011,52.384997],[4.603044,52.384997],[4.603097,52.384992],[4.60347,52.384935],[4.603682,52.384909],[4.6037,52.384911],[4.603719,52.384916],[4.603746,52.384932],[4.603761,52.384948],[4.603775,52.384966],[4.603796,52.385019],[4.603798,52.385028],[4.603826,52.385193],[4.603836,52.385217],[4.603863,52.385248],[4.6039,52.38528],[4.603963,52.385306],[4.604023,52.385329],[4.604168,52.385373],[4.604349,52.385419],[4.604475,52.385442],[4.604602,52.385457],[4.604806,52.385479],[4.605212,52.385497],[4.605308,52.385492],[4.605467,52.385501],[4.605644,52.385512],[4.60585,52.385528],[4.605969,52.385536],[4.606002,52.385538],[4.606035,52.38554],[4.606117,52.385542],[4.606179,52.385546],[4.606196,52.385577],[4.606222,52.385586],[4.606239,52.385613],[4.606285,52.385613],[4.606301,52.385655],[4.606308,52.385672],[4.606339,52.385751],[4.607127,52.385634],[4.607801,52.385539],[4.608294,52.385466],[4.608339,52.385467],[4.608421,52.385465],[4.608552,52.385444],[4.608583,52.385524],[4.608801,52.386077],[4.608858,52.386235],[4.608888,52.386343],[4.608912,52.386411],[4.608933,52.386476],[4.609145,52.387158],[4.609159,52.38722],[4.609196,52.387376],[4.609215,52.387468],[4.609194,52.387483],[4.609223,52.387605],[4.609249,52.387679],[4.609272,52.387674],[4.609332,52.387746],[4.609537,52.387815],[4.609751,52.387751],[4.609799,52.387765],[4.609808,52.387761],[4.609831,52.387768],[4.610029,52.38802],[4.610077,52.388096],[4.610199,52.38834],[4.610293,52.388531],[4.610313,52.388582],[4.610372,52.388698],[4.610241,52.388719],[4.610406,52.389008],[4.610488,52.389149],[4.61036,52.38919],[4.610469,52.389345],[4.610819,52.389821],[4.611503,52.389702],[4.613305,52.389383],[4.613278,52.389335],[4.614651,52.389096],[4.616184,52.388833],[4.616675,52.388757],[4.617718,52.388581],[4.617874,52.388556],[4.61848,52.388464],[4.618897,52.388401],[4.618881,52.388376],[4.618937,52.388369],[4.619161,52.388338],[4.619416,52.388302],[4.619502,52.388289],[4.619616,52.388273],[4.619856,52.388238],[4.620045,52.388213],[4.620385,52.388164],[4.620524,52.388144],[4.620645,52.388124],[4.620849,52.388095],[4.621406,52.388012],[4.621606,52.387982],[4.621682,52.388121],[4.621754,52.388261],[4.621787,52.388321],[4.62183,52.388393],[4.621892,52.388519],[4.621967,52.388671],[4.622096,52.388872],[4.622154,52.38896],[4.62221,52.389034],[4.622294,52.389141],[4.622388,52.389292],[4.622503,52.389545],[4.622583,52.389743],[4.622711,52.389951],[4.622914,52.39033],[4.622991,52.390479],[4.623043,52.390568],[4.62312,52.390698],[4.623213,52.390857],[4.623268,52.390957],[4.623307,52.391019],[4.623336,52.391113],[4.623351,52.391168],[4.623381,52.391227],[4.62344,52.391299],[4.623485,52.391377],[4.623572,52.391509],[4.623597,52.391554],[4.623884,52.391912],[4.623941,52.392005],[4.623912,52.392079],[4.623727,52.392374],[4.62364,52.392553],[4.623594,52.392659],[4.623544,52.392789],[4.623504,52.392891],[4.623464,52.393011],[4.623392,52.393186],[4.623347,52.393296],[4.623309,52.393427],[4.623307,52.393507],[4.623312,52.393609],[4.623313,52.393683],[4.623314,52.393762],[4.623314,52.39384],[4.623314,52.393864],[4.623315,52.393893],[4.623341,52.39419],[4.623365,52.394437],[4.623398,52.394594],[4.623464,52.394875],[4.623532,52.395153],[4.623625,52.395544],[4.623758,52.396206],[4.62386,52.396241],[4.623884,52.396327],[4.623979,52.396739],[4.624088,52.39706],[4.624267,52.397435],[4.624254,52.397439],[4.624373,52.397665],[4.624427,52.397778],[4.624837,52.398562],[4.625764,52.40035],[4.625887,52.400594],[4.625976,52.400763],[4.626009,52.400821],[4.626025,52.400854],[4.626092,52.400973],[4.626172,52.401135],[4.626207,52.401198],[4.626231,52.401249],[4.626263,52.401306],[4.626295,52.401369],[4.626345,52.401448],[4.626403,52.401554],[4.626425,52.401602],[4.626486,52.401715],[4.626681,52.402087],[4.626772,52.402259],[4.626805,52.402343],[4.627016,52.402743],[4.627125,52.402947],[4.627194,52.403074],[4.627216,52.403116],[4.627435,52.403539],[4.627623,52.403897],[4.627722,52.404086],[4.627883,52.404395],[4.628139,52.404888],[4.628203,52.405028],[4.628256,52.405122],[4.628318,52.405236],[4.628499,52.405587],[4.628536,52.405659],[4.628688,52.405957],[4.628804,52.406193],[4.628941,52.406462],[4.629167,52.406893],[4.629203,52.406958],[4.629193,52.40696],[4.629217,52.407006],[4.629317,52.407179],[4.629382,52.407295],[4.629435,52.407411],[4.629543,52.407629],[4.629649,52.407837],[4.629713,52.40796],[4.62978,52.408083],[4.629893,52.408302],[4.629968,52.408442],[4.630037,52.408583],[4.63012,52.408747],[4.630206,52.408904],[4.630335,52.409156],[4.630339,52.409165],[4.630454,52.409382],[4.63052,52.409504],[4.63057,52.409599],[4.630766,52.409984],[4.631023,52.410471],[4.631203,52.410838],[4.631413,52.41122],[4.631648,52.411665],[4.631611,52.411671],[4.631588,52.411675],[4.63127,52.411724],[4.63121,52.411733],[4.631197,52.411735],[4.631182,52.411739],[4.631172,52.411742],[4.63112,52.411748],[4.630531,52.411862],[4.630158,52.411934],[4.629658,52.41203],[4.629631,52.412034],[4.629554,52.412049],[4.62939,52.412009],[4.629373,52.412014],[4.629327,52.412032],[4.629308,52.41204],[4.629101,52.412132],[4.629014,52.412166],[4.62893,52.412192],[4.62883,52.41222],[4.628749,52.412246],[4.628652,52.412277],[4.628517,52.41232],[4.62838,52.412362],[4.628284,52.412392],[4.628159,52.412431],[4.627618,52.412598],[4.627735,52.412735],[4.627809,52.412823],[4.627852,52.412878],[4.627927,52.412973],[4.627991,52.413056],[4.628001,52.413066],[4.627982,52.413106],[4.627962,52.413147],[4.627942,52.413169],[4.627941,52.413177],[4.627935,52.413184],[4.627925,52.413189],[4.627912,52.413192],[4.627819,52.413221],[4.627778,52.413231],[4.627898,52.4133],[4.627816,52.413327],[4.627862,52.413383],[4.627873,52.413397],[4.627913,52.413445],[4.627965,52.413509],[4.628018,52.413573],[4.628058,52.413621],[4.628128,52.413707],[4.628164,52.41375],[4.628204,52.413798],[4.628257,52.413862],[4.62831,52.413926],[4.62835,52.413974],[4.628392,52.414023],[4.628465,52.414112],[4.628638,52.414059],[4.628692,52.414125],[4.628737,52.41418],[4.628749,52.414194],[4.628806,52.414263],[4.628842,52.414308],[4.62861,52.414487],[4.628582,52.414452],[4.628561,52.414457],[4.628553,52.414467],[4.62852,52.414506],[4.628412,52.414535],[4.628426,52.414555],[4.628354,52.414575],[4.628238,52.414606],[4.628064,52.414652],[4.628064,52.414652],[4.628049,52.414656],[4.627986,52.414672],[4.627842,52.414708],[4.627893,52.414772],[4.628101,52.415035],[4.628171,52.415097],[4.628215,52.415132],[4.628127,52.415152],[4.628157,52.415191],[4.628293,52.415373],[4.628368,52.415474],[4.628466,52.41546],[4.628475,52.415472],[4.62851,52.415522],[4.628561,52.415595],[4.628589,52.415635],[4.628614,52.41567],[4.628664,52.415742],[4.628736,52.415844],[4.628699,52.415851],[4.628652,52.415859],[4.628473,52.415891],[4.628302,52.41592],[4.628166,52.415937],[4.62816,52.415938],[4.628034,52.415957],[4.627996,52.41596],[4.627904,52.415976],[4.627713,52.41601],[4.627579,52.416034],[4.627469,52.416054],[4.62738,52.416074],[4.627342,52.416086],[4.627244,52.416119],[4.627161,52.416156],[4.627065,52.4162],[4.626935,52.416264],[4.6269,52.416282],[4.626599,52.41643],[4.62653,52.416465],[4.626399,52.416529],[4.62651,52.416557],[4.626472,52.416611],[4.626434,52.416661],[4.626442,52.416676],[4.626477,52.416732],[4.62651,52.416726],[4.626531,52.416799],[4.626337,52.416833],[4.626454,52.41691],[4.626493,52.416988],[4.626514,52.417038],[4.626547,52.417032],[4.626551,52.417093],[4.626554,52.417116],[4.62657,52.417266],[4.626496,52.417349],[4.626583,52.417338],[4.62666,52.417336],[4.62673,52.417324],[4.626754,52.41731],[4.626805,52.417299],[4.62684,52.417294],[4.626921,52.417313],[4.626988,52.417316],[4.627029,52.417331],[4.627063,52.417342],[4.627054,52.41736],[4.627037,52.417392],[4.626929,52.417599],[4.626785,52.41787],[4.626737,52.41796],[4.626704,52.418037],[4.626718,52.418038],[4.626774,52.418044],[4.626833,52.418054],[4.626869,52.418062],[4.626883,52.418065],[4.626905,52.418069],[4.626924,52.418074],[4.626937,52.418079],[4.626949,52.418084],[4.626962,52.41809],[4.626973,52.418096],[4.626984,52.418103],[4.626991,52.41811],[4.627,52.418119],[4.627008,52.418128],[4.627014,52.418138],[4.627019,52.418148],[4.627025,52.418165],[4.627037,52.418193],[4.627049,52.41823],[4.626572,52.418343],[4.626524,52.418444],[4.626473,52.41855],[4.626362,52.418753],[4.626214,52.41873],[4.626159,52.418722],[4.626018,52.419021],[4.626187,52.419125],[4.626177,52.419144],[4.62617,52.41916],[4.625897,52.419738],[4.625836,52.419867],[4.625765,52.419886],[4.625597,52.419926],[4.625566,52.419934],[4.625559,52.419943],[4.625433,52.420096],[4.625509,52.420162],[4.625617,52.420261],[4.62564,52.420287],[4.625914,52.420557],[4.6259,52.420565],[4.625833,52.420605],[4.625824,52.420611],[4.625776,52.420639],[4.625733,52.420666],[4.625689,52.420692],[4.625651,52.420716],[4.625594,52.42075],[4.625534,52.420785],[4.625486,52.420811],[4.625445,52.420835],[4.625409,52.420855],[4.625387,52.420867],[4.625368,52.420877],[4.625346,52.420887],[4.625337,52.420895],[4.625152,52.421055],[4.624926,52.421247],[4.624737,52.421409],[4.624651,52.421481],[4.624599,52.421526],[4.624556,52.421563],[4.624512,52.421601],[4.624479,52.42163],[4.624461,52.421644],[4.624434,52.421647],[4.624423,52.421644],[4.624398,52.421661],[4.624371,52.42168],[4.624181,52.421725],[4.623893,52.421892],[4.623662,52.422025],[4.623576,52.422075],[4.623636,52.422134],[4.623639,52.422137],[4.623846,52.422342],[4.623849,52.422345],[4.623912,52.422407],[4.624117,52.422613],[4.624227,52.422724],[4.624456,52.422961],[4.624478,52.422984],[4.624509,52.423016],[4.624499,52.423018],[4.624448,52.423028],[4.624475,52.423074],[4.6245,52.423121],[4.624502,52.423125],[4.624603,52.423316],[4.624608,52.423318],[4.624619,52.423324],[4.624635,52.423325],[4.624758,52.4233],[4.624768,52.42332],[4.624791,52.423315],[4.624794,52.42332],[4.62482,52.423315],[4.624992,52.423492],[4.624661,52.423625],[4.624608,52.423646],[4.624107,52.423847],[4.623732,52.423997],[4.623027,52.42428],[4.622971,52.424302],[4.622724,52.424401],[4.622053,52.42467],[4.622002,52.42469],[4.621857,52.424748],[4.621747,52.424793],[4.621697,52.424813],[4.621494,52.424894],[4.621468,52.424904],[4.621364,52.424817],[4.620843,52.424385],[4.620464,52.42459],[4.620221,52.424722],[4.620219,52.424723],[4.620137,52.424737],[4.620064,52.424748],[4.620042,52.424751],[4.620009,52.424757],[4.62,52.42476],[4.619985,52.424765],[4.619811,52.424827],[4.619577,52.424915],[4.619302,52.425018],[4.619159,52.42506],[4.618885,52.425115],[4.618745,52.425122],[4.618612,52.425104],[4.618442,52.425076],[4.618364,52.425012],[4.618269,52.424945],[4.618102,52.424826],[4.618065,52.424839],[4.617307,52.425105],[4.617248,52.425125],[4.617121,52.425172],[4.615084,52.425921],[4.614428,52.426182],[4.614408,52.42619],[4.613918,52.426362],[4.612617,52.426766],[4.611315,52.427171],[4.608022,52.428208],[4.607955,52.428229],[4.607479,52.428379],[4.605936,52.42886],[4.602243,52.430013],[4.599479,52.430873],[4.598482,52.431167],[4.595745,52.431974],[4.59317,52.432774],[4.587823,52.434436],[4.58469,52.434843],[4.579371,52.435532],[4.578413,52.435656],[4.578411,52.435656],[4.571309,52.436585],[4.563671,52.437584],[4.563185,52.437647],[4.562526,52.437734],[4.560958,52.437939],[4.56036,52.438017],[4.54894,52.438918],[4.544065,52.439302],[4.543229,52.435262],[4.541453,52.431268],[4.539974,52.427878],[4.536948,52.423137],[4.53612,52.421747],[4.534228,52.41857],[4.531564,52.414129],[4.529162,52.409941],[4.527706,52.407692],[4.526045,52.405167]]]},"properties":{"type":"boundary","gemeente":"Bloemendaal"}}]}