{"type":"FeatureCollection","metadata":{"gemeente":"Borne","slug":"borne","generated_at":"2026-09-28T08:14:25.458843Z","total_points":24,"providers":["Amazon","DHL","DPD","PostNL","VintedGo","ViaTim","FedEx","InPost"],"bounds":[6.720370767204863,52.29388373,6.76166798,52.324981223435145]},"features":[{"type":"Feature","geometry":{"type":"Point","coordinates":[6.752057544,52.30159303]},"properties":{"type":"pakketpunt","locatieNaam":"Discus Hospers","straatNaam":"Grotestraat 238","straatNr":"","vervoerder":"Amazon","puntType":"3p","bezettingsgraad":50,"latitude":52.30159303,"longitude":6.752057544,"canPickup":true,"canDropoff":false,"openingstijden":null}},{"type":"Feature","geometry":{"type":"Point","coordinates":[6.73590866244878,52.3091401925057]},"properties":{"type":"pakketpunt","locatieNaam":"Speelgoedbezorgd BV","straatNaam":"Ambachtstraat 2","straatNr":"","vervoerder":"Amazon","puntType":"3p","bezettingsgraad":50,"latitude":52.3091401925057,"longitude":6.73590866244878,"canPickup":true,"canDropoff":false,"openingstijden":null}},{"type":"Feature","geometry":{"type":"Point","coordinates":[6.754422664642334,52.295753479003906]},"properties":{"type":"pakketpunt","locatieNaam":"Hush Borne","straatNaam":"Europastraat","straatNr":"28","vervoerder":"DHL","puntType":"parcelShop","bezettingsgraad":50,"latitude":52.295753479003906,"longitude":6.754422664642334,"canPickup":true,"canDropoff":true,"openingstijden":{"ma":"06:30 - 20:00","di":"06:30 - 20:00","wo":"06:30 - 20:00","do":"06:30 - 20:00","vr":"06:30 - 20:00","za":"07:00 - 20:00","zo":"08:00 - 20:00"}}},{"type":"Feature","geometry":{"type":"Point","coordinates":[6.75566,52.30003]},"properties":{"type":"pakketpunt","locatieNaam":"Pakketautomaat terStal Borne","straatNaam":"Nieuwe Kerkstraat","straatNr":"5-Kast","vervoerder":"DHL","puntType":"packStation","bezettingsgraad":50,"latitude":52.30003,"longitude":6.75566,"canPickup":true,"canDropoff":true,"openingstijden":{"ma":"13:00 - 17:30","di":"09:00 - 17:30","wo":"09:00 - 17:30","do":"09:00 - 17:30","vr":"09:00 - 17:00","za":"09:30 - 17:00","zo":"gesloten"}}},{"type":"Feature","geometry":{"type":"Point","coordinates":[6.756875038146973,52.300437927246094]},"properties":{"type":"pakketpunt","locatieNaam":"Sama Markt","straatNaam":"Marktplein","straatNr":"19-A","vervoerder":"DHL","puntType":"parcelShop","bezettingsgraad":50,"latitude":52.300437927246094,"longitude":6.756875038146973,"canPickup":true,"canDropoff":true,"openingstijden":{"ma":"12:00 - 18:00","di":"10:00 - 18:00","wo":"09:00 - 18:00","do":"09:00 - 18:00","vr":"09:00 - 18:00","za":"09:00 - 18:00","zo":"12:00 - 17:00"}}},{"type":"Feature","geometry":{"type":"Point","coordinates":[6.7565484,52.3015707]},"properties":{"type":"pakketpunt","locatieNaam":"Marskramer Top1Toys Borne","straatNaam":"Grotestraat","straatNr":"162-A","vervoerder":"DHL","puntType":"parcelShop","bezettingsgraad":50,"latitude":52.3015707,"longitude":6.7565484,"canPickup":true,"canDropoff":true,"openingstijden":{"ma":"09:00 - 18:00","di":"09:00 - 18:00","wo":"09:00 - 18:00","do":"09:00 - 18:00","vr":"09:00 - 20:00","za":"09:00 - 17:00","zo":"gesloten"}}},{"type":"Feature","geometry":{"type":"Point","coordinates":[6.720370767204863,52.324981223435145]},"properties":{"type":"pakketpunt","locatieNaam":"Pakketautomaat Zenderen Vooruit","straatNaam":"Hoofdstraat","straatNr":"46-A","vervoerder":"DHL","puntType":"packStation","bezettingsgraad":50,"latitude":52.324981223435145,"longitude":6.720370767204863,"canPickup":true,"canDropoff":true,"openingstijden":{"ma":"00:00 - 23:59","di":"00:00 - 23:59","wo":"00:00 - 23:59","do":"00:00 - 23:59","vr":"00:00 - 23:59","za":"00:00 - 23:59","zo":"00:00 - 23:59"}}},{"type":"Feature","geometry":{"type":"Point","coordinates":[6.75655,52.30157]},"properties":{"type":"pakketpunt","locatieNaam":"Marskramer & Top1Toys Borne","straatNaam":"GROTESTRAAT","straatNr":"162A","vervoerder":"DPD","puntType":"pickup_point","bezettingsgraad":50,"latitude":52.30157,"longitude":6.75655,"canPickup":true,"canDropoff":true,"openingstijden":{"ma":"09:00 - 18:00","di":"09:00 - 18:00","wo":"09:00 - 18:00","do":"09:00 - 18:00","vr":"09:00 - 20:00","za":"09:00 - 17:00","zo":"gesloten"}}},{"type":"Feature","geometry":{"type":"Point","coordinates":[6.73590866244878,52.3091401925057]},"properties":{"type":"pakketpunt","locatieNaam":"Pakketautomaat","straatNaam":"Ambachtstraat","straatNr":"2PBA","vervoerder":"PostNL","puntType":"automaat","bezettingsgraad":50,"latitude":52.3091401925057,"longitude":6.73590866244878,"canPickup":true,"canDropoff":true,"openingstijden":"00:00 - 23:59"}},{"type":"Feature","geometry":{"type":"Point","coordinates":[6.73590866244878,52.3091401925057]},"properties":{"type":"pakketpunt","locatieNaam":"Speelgoedbezorgd BV","straatNaam":"Ambachtstraat","straatNr":"2","vervoerder":"PostNL","puntType":"servicepunt","bezettingsgraad":50,"latitude":52.3091401925057,"longitude":6.73590866244878,"canPickup":true,"canDropoff":true,"openingstijden":"13:00 - 18:00 (Na 18:00 open)"}},{"type":"Feature","geometry":{"type":"Point","coordinates":[6.752057544,52.30159303]},"properties":{"type":"pakketpunt","locatieNaam":"Discus Hospers","straatNaam":"Grotestraat","straatNr":"238","vervoerder":"PostNL","puntType":"servicepunt","bezettingsgraad":50,"latitude":52.30159303,"longitude":6.752057544,"canPickup":true,"canDropoff":true,"openingstijden":"13:00 - 18:00"}},{"type":"Feature","geometry":{"type":"Point","coordinates":[6.755899682,52.30113512]},"properties":{"type":"pakketpunt","locatieNaam":"Bruna Borne","straatNaam":"Grotestraat","straatNr":"195","vervoerder":"PostNL","puntType":"servicepunt","bezettingsgraad":50,"latitude":52.30113512,"longitude":6.755899682,"canPickup":true,"canDropoff":true,"openingstijden":"10:00 - 18:00 (Na 18:00 open; Zaterdag open)"}},{"type":"Feature","geometry":{"type":"Point","coordinates":[6.75665878308424,52.3005510416528]},"properties":{"type":"pakketpunt","locatieNaam":"Sama markt PpP","straatNaam":"Marktplein","straatNr":"19A","vervoerder":"PostNL","puntType":"servicepunt","bezettingsgraad":50,"latitude":52.3005510416528,"longitude":6.75665878308424,"canPickup":true,"canDropoff":true,"openingstijden":"12:00 - 18:00"}},{"type":"Feature","geometry":{"type":"Point","coordinates":[6.754520522,52.29538925]},"properties":{"type":"pakketpunt","locatieNaam":"Pakket- en briefautomaat","straatNaam":"Europastraat","straatNr":"28PBA","vervoerder":"PostNL","puntType":"automaat","bezettingsgraad":50,"latitude":52.29538925,"longitude":6.754520522,"canPickup":true,"canDropoff":true,"openingstijden":"00:00 - 23:59"}},{"type":"Feature","geometry":{"type":"Point","coordinates":[6.75655,52.30157]},"properties":{"type":"pakketpunt","locatieNaam":"Marskramer Top1Toys Borne","straatNaam":"Grotestraat 162a","straatNr":"","vervoerder":"VintedGo","puntType":"parcel_shop","bezettingsgraad":50,"latitude":52.30157,"longitude":6.75655,"canPickup":true,"canDropoff":true,"openingstijden":null}},{"type":"Feature","geometry":{"type":"Point","coordinates":[6.7203709,52.3249585]},"properties":{"type":"pakketpunt","locatieNaam":"Sv Zenderen Vooruit","straatNaam":"Hoofdstraat 46A","straatNr":"","vervoerder":"VintedGo","puntType":"locker","bezettingsgraad":50,"latitude":52.3249585,"longitude":6.7203709,"canPickup":true,"canDropoff":true,"openingstijden":null}},{"type":"Feature","geometry":{"type":"Point","coordinates":[6.7592525,52.2990249]},"properties":{"type":"pakketpunt","locatieNaam":"Meulenbroekdierenartsen","straatNaam":"Grotestraat 122","straatNr":"","vervoerder":"VintedGo","puntType":"locker","bezettingsgraad":50,"latitude":52.2990249,"longitude":6.7592525,"canPickup":true,"canDropoff":true,"openingstijden":null}},{"type":"Feature","geometry":{"type":"Point","coordinates":[6.7327849,52.3092565]},"properties":{"type":"pakketpunt","locatieNaam":"Foundation Kringloopbedrijf Borne","straatNaam":"Ambachtstraat 26","straatNr":"","vervoerder":"VintedGo","puntType":"locker","bezettingsgraad":50,"latitude":52.3092565,"longitude":6.7327849,"canPickup":true,"canDropoff":true,"openingstijden":null}},{"type":"Feature","geometry":{"type":"Point","coordinates":[6.7566578,52.3003118]},"properties":{"type":"pakketpunt","locatieNaam":"Sama Markt","straatNaam":"Marktplein 19A","straatNr":"","vervoerder":"VintedGo","puntType":"parcel_shop","bezettingsgraad":50,"latitude":52.3003118,"longitude":6.7566578,"canPickup":true,"canDropoff":true,"openingstijden":null}},{"type":"Feature","geometry":{"type":"Point","coordinates":[6.73947441,52.29388373]},"properties":{"type":"pakketpunt","locatieNaam":"ViaTim en Nikki","straatNaam":"Wingerdstraat","straatNr":"6","vervoerder":"ViaTim","puntType":"servicepunt","bezettingsgraad":50,"latitude":52.29388373,"longitude":6.73947441,"canPickup":true,"canDropoff":true,"openingstijden":{"ma":"14:30 - 21:00","di":"14:30 - 21:00","wo":"14:30 - 21:00","do":"14:30 - 21:00","vr":"14:30 - 21:00","za":"17:00 - 21:00","zo":"gesloten"}}},{"type":"Feature","geometry":{"type":"Point","coordinates":[6.76166798,52.30995401]},"properties":{"type":"pakketpunt","locatieNaam":"ViaTim en Kimberly","straatNaam":"Weerselosestraat","straatNr":"200","vervoerder":"ViaTim","puntType":"servicepunt","bezettingsgraad":50,"latitude":52.30995401,"longitude":6.76166798,"canPickup":true,"canDropoff":true,"openingstijden":{"ma":"gesloten","di":"09:30 - 13:30","wo":"12:00 - 16:00","do":"16:00 - 20:00","vr":"gesloten","za":"12:00 - 15:00","zo":"gesloten"}}},{"type":"Feature","geometry":{"type":"Point","coordinates":[6.754586279977408,52.29536230600848]},"properties":{"type":"pakketpunt","locatieNaam":"FedEx Ship&Get","straatNaam":"Europastraat 28 PBA","straatNr":"","vervoerder":"FedEx","puntType":"servicepunt","bezettingsgraad":50,"latitude":52.29536230600848,"longitude":6.754586279977408,"canPickup":true,"canDropoff":true,"openingstijden":{"ma":"00:00 - 23:59","di":"00:00 - 23:59","wo":"00:00 - 23:59","do":"00:00 - 23:59","vr":"00:00 - 23:59","za":"00:00 - 23:59","zo":"00:00 - 23:59"}}},{"type":"Feature","geometry":{"type":"Point","coordinates":[6.756104,52.301763]},"properties":{"type":"pakketpunt","locatieNaam":"FedEx OnSite","straatNaam":"GROTESTRAAT 172D","straatNr":"","vervoerder":"FedEx","puntType":"servicepunt","bezettingsgraad":50,"latitude":52.301763,"longitude":6.756104,"canPickup":true,"canDropoff":true,"openingstijden":{"ma":"13:00 - 18:00","di":"09:00 - 18:00","wo":"09:00 - 18:00","do":"09:00 - 18:00","vr":"09:00 - 20:00","za":"09:00 - 17:00","zo":"gesloten"}}},{"type":"Feature","geometry":{"type":"Point","coordinates":[6.7561,52.30176]},"properties":{"type":"pakketpunt","locatieNaam":"SANDR","straatNaam":"Grotestraat 172D","straatNr":"","vervoerder":"InPost","puntType":"servicepunt","bezettingsgraad":50,"latitude":52.30176,"longitude":6.7561,"canPickup":true,"canDropoff":true,"openingstijden":null}},{"type":"Feature","geometry":{"type":"Polygon","coordinates":[[[6.69094,52.308391],[6.691412,52.308464],[6.692106,52.308544],[6.692261,52.308558],[6.692805,52.308606],[6.693506,52.308652],[6.693844,52.308666],[6.693989,52.308654],[6.69463,52.308602],[6.694648,52.3086],[6.694662,52.308599],[6.69562,52.308645],[6.69632,52.3086],[6.697014,52.308529],[6.69727,52.308462],[6.697313,52.308495],[6.69746,52.308611],[6.697478,52.308608],[6.698253,52.308517],[6.698481,52.308491],[6.699193,52.308397],[6.699273,52.308385],[6.699892,52.308295],[6.700579,52.308179],[6.701049,52.308076],[6.701088,52.308069],[6.701213,52.307784],[6.702017,52.307852],[6.702271,52.307782],[6.703141,52.307545],[6.703793,52.30733],[6.704415,52.307089],[6.705013,52.30683],[6.705649,52.306542],[6.705608,52.30651],[6.705594,52.306499],[6.705758,52.306421],[6.705778,52.30639],[6.705809,52.306397],[6.705905,52.30642],[6.70591,52.306418],[6.706775,52.306025],[6.707964,52.3055],[6.709522,52.304815],[6.709549,52.304774],[6.709617,52.304672],[6.709911,52.304653],[6.709978,52.304621],[6.710903,52.304177],[6.711006,52.30413],[6.711172,52.304086],[6.711234,52.304124],[6.71135,52.304064],[6.711303,52.304019],[6.711275,52.303777],[6.711338,52.303768],[6.711363,52.303764],[6.711842,52.303691],[6.711992,52.303668],[6.711989,52.303625],[6.712004,52.303615],[6.712138,52.303549],[6.712135,52.303501],[6.712546,52.303303],[6.713073,52.302998],[6.713576,52.302677],[6.714098,52.302369],[6.714426,52.302189],[6.714637,52.302073],[6.714648,52.302039],[6.714908,52.301905],[6.715401,52.301599],[6.716164,52.301124],[6.716194,52.301108],[6.716717,52.300827],[6.717077,52.300609],[6.717239,52.300511],[6.717283,52.300482],[6.717738,52.300182],[6.718211,52.299838],[6.718673,52.299489],[6.718701,52.299467],[6.718816,52.29938],[6.718879,52.299331],[6.719095,52.299285],[6.719167,52.299309],[6.719169,52.299308],[6.71924,52.29926],[6.719176,52.299229],[6.719066,52.299059],[6.719192,52.298987],[6.719241,52.29896],[6.719431,52.298854],[6.72012,52.298473],[6.720599,52.29819],[6.720649,52.298161],[6.720834,52.298039],[6.721147,52.297832],[6.721266,52.297744],[6.721612,52.297484],[6.721669,52.297432],[6.721854,52.297261],[6.722023,52.297105],[6.722203,52.29682],[6.722375,52.296547],[6.722812,52.296562],[6.723159,52.29633],[6.723303,52.295961],[6.723527,52.296025],[6.723697,52.296065],[6.723841,52.296081],[6.724011,52.296046],[6.724127,52.29596],[6.724187,52.295909],[6.724231,52.295872],[6.724308,52.295859],[6.724431,52.295836],[6.724507,52.295698],[6.724604,52.29558],[6.724699,52.295498],[6.724779,52.295439],[6.724901,52.295356],[6.725172,52.295121],[6.725223,52.295069],[6.725273,52.294995],[6.72532,52.294915],[6.725351,52.294838],[6.725432,52.29464],[6.725716,52.294525],[6.725828,52.294333],[6.726345,52.293498],[6.726603,52.293203],[6.726821,52.292994],[6.7273,52.292535],[6.727742,52.29213],[6.727838,52.292056],[6.728207,52.291844],[6.728613,52.291696],[6.729554,52.291354],[6.729641,52.291323],[6.729604,52.291283],[6.729578,52.291231],[6.729617,52.290472],[6.730887,52.290797],[6.730946,52.290779],[6.730988,52.289994],[6.732222,52.290164],[6.732793,52.289816],[6.732892,52.289813],[6.734038,52.289117],[6.734151,52.289045],[6.734455,52.288852],[6.734989,52.288542],[6.735841,52.287988],[6.736439,52.287579],[6.736605,52.287462],[6.736618,52.287451],[6.736951,52.287155],[6.73701,52.287102],[6.737135,52.286994],[6.737358,52.286973],[6.737416,52.287012],[6.7376,52.286928],[6.737555,52.286882],[6.737672,52.286771],[6.73775,52.286737],[6.737906,52.286676],[6.738038,52.286597],[6.738399,52.286356],[6.738426,52.286337],[6.738758,52.286109],[6.738876,52.286027],[6.73958,52.285539],[6.740794,52.284695],[6.741333,52.284312],[6.741416,52.284235],[6.741867,52.283904],[6.742303,52.283544],[6.742336,52.283513],[6.742374,52.283479],[6.742771,52.283119],[6.742778,52.283118],[6.742887,52.283113],[6.743581,52.283307],[6.743942,52.283411],[6.746607,52.284179],[6.748602,52.284756],[6.749498,52.285015],[6.74979,52.285007],[6.749845,52.285006],[6.749915,52.285017],[6.750117,52.285069],[6.75032,52.285121],[6.750364,52.285136],[6.750404,52.285157],[6.750439,52.285185],[6.750567,52.285324],[6.751844,52.286703],[6.751882,52.286744],[6.751921,52.286775],[6.751958,52.286793],[6.752013,52.28681],[6.752089,52.286817],[6.752146,52.286813],[6.752249,52.2868],[6.752961,52.287561],[6.753255,52.287507],[6.753252,52.287383],[6.753351,52.287288],[6.753492,52.287237],[6.753874,52.287154],[6.75412,52.28713],[6.754328,52.287127],[6.754605,52.287146],[6.754871,52.287177],[6.755486,52.287242],[6.756955,52.287419],[6.758043,52.287624],[6.758074,52.28763],[6.759019,52.287808],[6.759194,52.287841],[6.759068,52.288001],[6.759347,52.288029],[6.75941,52.288035],[6.759743,52.288067],[6.762089,52.288295],[6.76235,52.288321],[6.763012,52.288385],[6.763052,52.288389],[6.763221,52.288406],[6.763333,52.288472],[6.763651,52.288664],[6.764013,52.288882],[6.764298,52.289056],[6.764643,52.289264],[6.764931,52.289438],[6.765034,52.289501],[6.765194,52.289598],[6.765525,52.289797],[6.765838,52.289988],[6.766188,52.290199],[6.766479,52.290376],[6.766558,52.290422],[6.766629,52.290474],[6.766683,52.290519],[6.766727,52.290568],[6.766759,52.290611],[6.766772,52.29063],[6.766781,52.29065],[6.766792,52.29067],[6.766813,52.290734],[6.766833,52.290849],[6.766846,52.290925],[6.766853,52.290963],[6.766874,52.291099],[6.766898,52.291238],[6.76692,52.291365],[6.76693,52.291405],[6.766942,52.291441],[6.76696,52.291488],[6.766999,52.291563],[6.767032,52.291628],[6.767077,52.291719],[6.76709,52.291747],[6.76711,52.291787],[6.767154,52.291872],[6.767211,52.291983],[6.767227,52.291966],[6.767325,52.292199],[6.767442,52.292245],[6.767534,52.292376],[6.767656,52.292502],[6.767688,52.292545],[6.767696,52.292556],[6.76775,52.292632],[6.767757,52.292477],[6.767758,52.292465],[6.76792,52.292304],[6.768108,52.292112],[6.768136,52.292084],[6.768263,52.291956],[6.768298,52.29192],[6.768323,52.291894],[6.768356,52.291873],[6.768386,52.291855],[6.768367,52.291755],[6.768627,52.291734],[6.768629,52.291734],[6.768771,52.291724],[6.768843,52.291743],[6.76953,52.291648],[6.769659,52.29163],[6.770025,52.291594],[6.770026,52.291594],[6.770131,52.291615],[6.77018,52.291631],[6.770208,52.291643],[6.770272,52.29167],[6.770317,52.291719],[6.770361,52.291772],[6.770499,52.291988],[6.770648,52.29222],[6.770683,52.292267],[6.770692,52.292275],[6.770948,52.292275],[6.770995,52.292274],[6.771114,52.292274],[6.771581,52.292274],[6.772115,52.292374],[6.772565,52.292385],[6.773107,52.292407],[6.773446,52.2924],[6.773639,52.29247],[6.77387,52.292554],[6.774838,52.292907],[6.774945,52.292945],[6.775516,52.293152],[6.775593,52.293222],[6.775678,52.293298],[6.776785,52.294293],[6.777709,52.295124],[6.777766,52.295175],[6.777893,52.29529],[6.779821,52.297023],[6.77989,52.297084],[6.779988,52.297173],[6.780091,52.29714],[6.780505,52.297003],[6.780608,52.29697],[6.780687,52.297027],[6.78085,52.297131],[6.781339,52.297443],[6.781766,52.297716],[6.782207,52.297997],[6.782379,52.298106],[6.783538,52.298846],[6.783839,52.299038],[6.784587,52.299515],[6.784879,52.299702],[6.784952,52.299749],[6.785049,52.299813],[6.785844,52.299701],[6.785956,52.299689],[6.785991,52.299685],[6.786013,52.299684],[6.786152,52.299679],[6.786323,52.299679],[6.786354,52.299684],[6.786558,52.299721],[6.787053,52.299803],[6.788071,52.299985],[6.7892,52.300096],[6.791205,52.30027],[6.791906,52.300331],[6.792221,52.300358],[6.792551,52.300387],[6.791901,52.300896],[6.791407,52.301283],[6.791047,52.301565],[6.790726,52.301816],[6.790566,52.301941],[6.790492,52.302],[6.790285,52.302162],[6.790128,52.302284],[6.790024,52.302366],[6.789888,52.302472],[6.789257,52.302967],[6.789104,52.303087],[6.789022,52.303151],[6.78891,52.303239],[6.78874,52.303372],[6.788393,52.303643],[6.788383,52.303651],[6.788297,52.303883],[6.787892,52.304976],[6.788002,52.305011],[6.788102,52.305043],[6.788205,52.305076],[6.788786,52.305264],[6.788854,52.305286],[6.789201,52.305398],[6.789279,52.305406],[6.789523,52.3054],[6.789611,52.305398],[6.78964,52.305398],[6.789816,52.305413],[6.789982,52.305423],[6.790115,52.30541],[6.790267,52.305373],[6.790471,52.305344],[6.790781,52.305329],[6.79085,52.305334],[6.790873,52.305338],[6.790896,52.305342],[6.790919,52.305346],[6.790924,52.305349],[6.790997,52.305368],[6.79108,52.305377],[6.791279,52.305402],[6.791641,52.305484],[6.791766,52.305521],[6.791811,52.305535],[6.791996,52.305593],[6.792169,52.305653],[6.792238,52.305655],[6.792293,52.305665],[6.792357,52.305685],[6.792506,52.305744],[6.792586,52.305776],[6.792728,52.305832],[6.792807,52.305852],[6.792898,52.305866],[6.793011,52.305875],[6.793113,52.305877],[6.793439,52.305884],[6.794021,52.306009],[6.794102,52.306017],[6.794127,52.306018],[6.794142,52.306052],[6.794108,52.306084],[6.794103,52.306086],[6.794064,52.30611],[6.794025,52.306147],[6.794028,52.306186],[6.794064,52.306206],[6.794129,52.306215],[6.794945,52.306297],[6.795149,52.306309],[6.795289,52.306334],[6.795328,52.306339],[6.795367,52.306343],[6.795406,52.306347],[6.795445,52.306351],[6.795484,52.306354],[6.795523,52.306356],[6.795562,52.306358],[6.795602,52.306359],[6.796777,52.306605],[6.797088,52.306649],[6.797175,52.306661],[6.797316,52.306682],[6.797452,52.306701],[6.797519,52.306731],[6.797563,52.306772],[6.79811,52.30758],[6.798157,52.307639],[6.79829,52.307679],[6.798424,52.30772],[6.799893,52.308176],[6.800934,52.3085],[6.801008,52.308523],[6.801029,52.308529],[6.801046,52.308534],[6.801064,52.308538],[6.801082,52.308542],[6.801101,52.308545],[6.801119,52.308547],[6.801138,52.308549],[6.801157,52.30855],[6.801177,52.30855],[6.801196,52.30855],[6.801215,52.308549],[6.801234,52.308547],[6.801348,52.308651],[6.801371,52.30873],[6.801337,52.308764],[6.801376,52.308934],[6.801418,52.309061],[6.801431,52.3091],[6.801439,52.309123],[6.801463,52.309195],[6.801745,52.310574],[6.801826,52.310779],[6.801837,52.310899],[6.801785,52.310953],[6.801825,52.310977],[6.801831,52.311127],[6.801833,52.311187],[6.801831,52.311321],[6.80186,52.311586],[6.801881,52.311845],[6.801884,52.31191],[6.801887,52.311975],[6.801912,52.312076],[6.80193,52.312322],[6.801949,52.312408],[6.801931,52.312518],[6.801956,52.312756],[6.801998,52.312772],[6.80199,52.312869],[6.801934,52.31324],[6.801962,52.31333],[6.80203,52.313553],[6.802039,52.313586],[6.802058,52.31366],[6.802095,52.313804],[6.802136,52.314051],[6.802129,52.314544],[6.801905,52.314562],[6.80079,52.314653],[6.800546,52.314673],[6.800502,52.314676],[6.797801,52.315039],[6.797661,52.315058],[6.797426,52.31509],[6.796394,52.315228],[6.796334,52.315241],[6.79618,52.315275],[6.793027,52.31596],[6.792942,52.315978],[6.792794,52.31601],[6.790774,52.316449],[6.790491,52.31651],[6.790223,52.316568],[6.789724,52.316677],[6.789535,52.316718],[6.788547,52.316931],[6.787947,52.317061],[6.787468,52.317112],[6.787454,52.317113],[6.787382,52.317121],[6.787292,52.31713],[6.786732,52.317189],[6.786664,52.317196],[6.786659,52.317197],[6.786617,52.317201],[6.786524,52.317211],[6.78634,52.317231],[6.786292,52.317236],[6.786195,52.317246],[6.785701,52.317303],[6.785305,52.317344],[6.785149,52.31737],[6.785272,52.317516],[6.785405,52.317673],[6.785507,52.317794],[6.785623,52.317921],[6.785824,52.31814],[6.78587,52.318191],[6.785903,52.31823],[6.784623,52.318249],[6.784305,52.318252],[6.78414,52.318257],[6.783688,52.318289],[6.782996,52.318293],[6.782574,52.318338],[6.782215,52.318332],[6.782203,52.318332],[6.782047,52.318331],[6.78184,52.318336],[6.781713,52.318328],[6.781539,52.318311],[6.781416,52.318294],[6.781201,52.318249],[6.780944,52.318206],[6.780803,52.318189],[6.780612,52.318165],[6.780496,52.318146],[6.780466,52.31814],[6.780376,52.318124],[6.780277,52.318095],[6.780189,52.318067],[6.780046,52.318027],[6.779992,52.318013],[6.77992,52.317996],[6.779805,52.317967],[6.779684,52.317942],[6.779578,52.317926],[6.779381,52.317852],[6.779219,52.31782],[6.779209,52.317822],[6.779078,52.317854],[6.779059,52.317858],[6.77821,52.318085],[6.778056,52.318129],[6.777971,52.318155],[6.777967,52.318157],[6.77788,52.318202],[6.77778,52.318258],[6.777676,52.318316],[6.777666,52.318322],[6.777641,52.318334],[6.777599,52.318354],[6.777584,52.318359],[6.777532,52.318375],[6.77747,52.318384],[6.777397,52.318391],[6.777354,52.31839],[6.77733,52.318389],[6.777273,52.318388],[6.777254,52.318386],[6.777219,52.318382],[6.777155,52.318389],[6.777133,52.318402],[6.777095,52.318425],[6.776965,52.318505],[6.776911,52.318527],[6.776866,52.318534],[6.776705,52.318538],[6.776634,52.31853],[6.776553,52.318508],[6.77654,52.318501],[6.776514,52.318486],[6.77648,52.318466],[6.776354,52.318396],[6.776304,52.318374],[6.776275,52.318362],[6.776145,52.318351],[6.776005,52.318364],[6.775822,52.318392],[6.77577,52.318401],[6.775687,52.318427],[6.77559,52.318468],[6.775391,52.318551],[6.775249,52.318591],[6.77505,52.318623],[6.774763,52.318673],[6.774485,52.318741],[6.774141,52.318835],[6.773842,52.318911],[6.773769,52.318972],[6.773742,52.318996],[6.773718,52.319016],[6.773316,52.319358],[6.773265,52.319402],[6.773263,52.319401],[6.773172,52.319479],[6.772784,52.319811],[6.771757,52.320692],[6.77174,52.320707],[6.771671,52.320765],[6.771658,52.320777],[6.771028,52.321316],[6.770779,52.321528],[6.770118,52.322093],[6.770071,52.322133],[6.770007,52.322188],[6.769983,52.322207],[6.769766,52.322375],[6.769764,52.322377],[6.769755,52.322384],[6.768584,52.323295],[6.768571,52.323305],[6.767868,52.323851],[6.767863,52.323855],[6.767839,52.323874],[6.767823,52.323887],[6.767821,52.323888],[6.767725,52.323962],[6.767003,52.324524],[6.765204,52.325923],[6.763684,52.327104],[6.763546,52.327211],[6.763184,52.327492],[6.763128,52.327722],[6.763064,52.327981],[6.763052,52.32803],[6.762837,52.328903],[6.762835,52.32891],[6.762831,52.328927],[6.762376,52.330128],[6.762218,52.330546],[6.7622,52.330594],[6.762169,52.330675],[6.762136,52.330762],[6.759516,52.331859],[6.759425,52.331897],[6.759035,52.332061],[6.758945,52.332015],[6.758555,52.331867],[6.757478,52.331456],[6.755915,52.330861],[6.754962,52.330498],[6.753988,52.330127],[6.753772,52.330044],[6.753708,52.330036],[6.752657,52.329908],[6.752211,52.329853],[6.751572,52.329775],[6.751518,52.329768],[6.751131,52.329721],[6.750679,52.329665],[6.750556,52.329737],[6.750336,52.329863],[6.750189,52.329948],[6.749954,52.330084],[6.748799,52.331265],[6.748446,52.331626],[6.748373,52.3317],[6.747626,52.332463],[6.747585,52.332504],[6.747474,52.332618],[6.747406,52.332687],[6.746684,52.333424],[6.746279,52.333836],[6.746013,52.334109],[6.745778,52.334348],[6.745729,52.334398],[6.745516,52.334615],[6.745469,52.334663],[6.745415,52.334718],[6.745413,52.33472],[6.745072,52.334995],[6.744117,52.335763],[6.743836,52.335988],[6.743685,52.336109],[6.743605,52.336137],[6.743531,52.336163],[6.742982,52.336355],[6.742607,52.336486],[6.741686,52.336808],[6.741653,52.33682],[6.741586,52.336843],[6.741227,52.336968],[6.740577,52.337196],[6.740183,52.337333],[6.739657,52.337517],[6.738983,52.337745],[6.738976,52.337747],[6.738966,52.33775],[6.738934,52.33776],[6.738902,52.337769],[6.738893,52.337772],[6.738879,52.337776],[6.738837,52.337789],[6.736738,52.338521],[6.736552,52.338586],[6.736294,52.338683],[6.735947,52.338813],[6.735663,52.338919],[6.735435,52.339004],[6.735088,52.339134],[6.734497,52.339355],[6.734216,52.339391],[6.733952,52.339426],[6.733754,52.339452],[6.733642,52.339466],[6.733384,52.3395],[6.733256,52.339517],[6.732435,52.339624],[6.731342,52.339766],[6.729611,52.339991],[6.727379,52.340282],[6.727059,52.340324],[6.726973,52.340335],[6.726318,52.34042],[6.725946,52.340469],[6.725764,52.340495],[6.725611,52.340517],[6.724792,52.340636],[6.724648,52.340657],[6.724278,52.34071],[6.722564,52.340959],[6.721739,52.341078],[6.720846,52.341208],[6.721168,52.341081],[6.721153,52.340991],[6.721144,52.340941],[6.721069,52.340508],[6.721011,52.340128],[6.720144,52.33939],[6.72005,52.33931],[6.71932,52.338677],[6.719104,52.338489],[6.719208,52.338465],[6.718685,52.337993],[6.718568,52.337944],[6.717685,52.337537],[6.717004,52.337224],[6.716474,52.336981],[6.715587,52.33657],[6.715421,52.336479],[6.715422,52.336478],[6.715396,52.336458],[6.715039,52.336185],[6.71496,52.336104],[6.714835,52.335938],[6.714809,52.335903],[6.714646,52.335676],[6.714505,52.33548],[6.714413,52.335362],[6.714395,52.335341],[6.714205,52.335124],[6.714043,52.33494],[6.713986,52.33483],[6.71394,52.334783],[6.713905,52.334748],[6.713839,52.334665],[6.713636,52.334417],[6.713526,52.334287],[6.713446,52.334205],[6.713316,52.334098],[6.713125,52.333966],[6.712957,52.333852],[6.712795,52.333734],[6.712749,52.333693],[6.712717,52.333658],[6.712702,52.333623],[6.712698,52.333599],[6.712618,52.333579],[6.712516,52.333545],[6.712388,52.333442],[6.712356,52.333414],[6.712175,52.333249],[6.711893,52.332968],[6.711829,52.332901],[6.711779,52.332849],[6.711038,52.332087],[6.710439,52.331471],[6.710423,52.331455],[6.710123,52.331143],[6.709956,52.33097],[6.709844,52.330858],[6.709802,52.330806],[6.709447,52.3306],[6.709159,52.330784],[6.708828,52.330996],[6.708511,52.331199],[6.708138,52.331438],[6.707968,52.331547],[6.707803,52.331651],[6.707507,52.331838],[6.707116,52.332085],[6.70702,52.332146],[6.706841,52.332259],[6.706751,52.332236],[6.706739,52.332233],[6.706654,52.332212],[6.706648,52.33221],[6.7062,52.332098],[6.706151,52.332086],[6.705961,52.332038],[6.703007,52.331296],[6.702917,52.331273],[6.701399,52.330901],[6.700309,52.330637],[6.700176,52.330605],[6.699849,52.330524],[6.699436,52.330423],[6.699218,52.330369],[6.699054,52.330328],[6.698648,52.330228],[6.698208,52.330119],[6.698124,52.330098],[6.696954,52.329807],[6.696148,52.328503],[6.696106,52.328436],[6.696044,52.328336],[6.695808,52.327958],[6.695753,52.327872],[6.695637,52.327689],[6.695435,52.32737],[6.695428,52.327359],[6.695417,52.327341],[6.695292,52.327133],[6.695185,52.326999],[6.695207,52.326978],[6.695174,52.326945],[6.695142,52.326928],[6.694945,52.326823],[6.695112,52.326735],[6.695091,52.32672],[6.6955,52.326486],[6.695728,52.326375],[6.696075,52.326196],[6.696507,52.325982],[6.696813,52.32584],[6.696774,52.32581],[6.696873,52.325762],[6.696914,52.325794],[6.696967,52.325769],[6.696982,52.32578],[6.697127,52.325713],[6.697133,52.325715],[6.697229,52.325672],[6.697437,52.325588],[6.697987,52.325323],[6.698784,52.324938],[6.699463,52.324613],[6.70008,52.324318],[6.700153,52.324284],[6.700322,52.324201],[6.700315,52.324196],[6.700487,52.324113],[6.700756,52.323984],[6.70237,52.323213],[6.703095,52.322876],[6.704569,52.322171],[6.704575,52.322169],[6.704575,52.322161],[6.704587,52.322171],[6.704699,52.322118],[6.704672,52.322095],[6.705029,52.321927],[6.706227,52.321349],[6.706891,52.321034],[6.706924,52.321045],[6.70701,52.321004],[6.706906,52.320954],[6.706873,52.320938],[6.706768,52.320887],[6.706767,52.320887],[6.70668,52.320845],[6.706353,52.32069],[6.706008,52.320525],[6.705935,52.320491],[6.705645,52.320353],[6.70528,52.320179],[6.704963,52.320028],[6.704932,52.320014],[6.70452,52.319816],[6.704354,52.319736],[6.704534,52.319529],[6.705341,52.318598],[6.705345,52.318593],[6.705574,52.318328],[6.705896,52.317957],[6.705754,52.317919],[6.704393,52.317552],[6.704174,52.317493],[6.702875,52.317142],[6.702564,52.317058],[6.702111,52.316937],[6.700632,52.316541],[6.700562,52.316522],[6.699812,52.316322],[6.699794,52.316317],[6.699777,52.316313],[6.699717,52.316296],[6.696585,52.315455],[6.695699,52.315217],[6.69487,52.314994],[6.694769,52.314964],[6.694785,52.314931],[6.694798,52.314904],[6.694796,52.314883],[6.694784,52.314854],[6.694754,52.31483],[6.694721,52.314821],[6.694681,52.314811],[6.694589,52.314828],[6.694425,52.314852],[6.694195,52.314868],[6.694121,52.314869],[6.694001,52.314856],[6.693907,52.314852],[6.693753,52.31484],[6.693548,52.314815],[6.693448,52.314797],[6.693202,52.314826],[6.692993,52.314843],[6.692762,52.314859],[6.692529,52.314873],[6.692447,52.314876],[6.692217,52.314884],[6.692144,52.314886],[6.691849,52.314888],[6.691724,52.314886],[6.691677,52.314886],[6.691542,52.314885],[6.691354,52.31488],[6.691001,52.314865],[6.690856,52.314855],[6.690682,52.314841],[6.690508,52.314827],[6.69023,52.314792],[6.690157,52.314731],[6.690679,52.314555],[6.690762,52.314526],[6.691375,52.314311],[6.691542,52.314252],[6.691593,52.314235],[6.69232,52.313968],[6.690042,52.31301],[6.690093,52.312981],[6.690181,52.312925],[6.690417,52.312762],[6.690712,52.312547],[6.690898,52.312263],[6.690989,52.312108],[6.691002,52.312029],[6.691086,52.31157],[6.691098,52.311481],[6.69081,52.31148],[6.690708,52.311478],[6.690696,52.311478],[6.690686,52.310545],[6.690467,52.310293],[6.690347,52.310156],[6.689913,52.309833],[6.689813,52.309776],[6.689481,52.309589],[6.69094,52.308391]]]},"properties":{"type":"boundary","gemeente":"Borne"}}]}