{"type":"FeatureCollection","metadata":{"gemeente":"Boxtel","slug":"boxtel","generated_at":"2026-10-05T08:46:47.676588Z","total_points":55,"providers":["Amazon","DeBuren","DHL","DPD","PostNL","VintedGo","ViaTim","FedEx","InPost"],"bounds":[5.3092375,51.567562,5.37820111,51.60262512]},"features":[{"type":"Feature","geometry":{"type":"Point","coordinates":[5.31388641400967,51.5796267070113]},"properties":{"type":"pakketpunt","locatieNaam":"Het Goed Boxtel","straatNaam":"Industrieweg 6","straatNr":"","vervoerder":"Amazon","puntType":"3p","bezettingsgraad":50,"latitude":51.5796267070113,"longitude":5.31388641400967,"canPickup":true,"canDropoff":false,"openingstijden":null}},{"type":"Feature","geometry":{"type":"Point","coordinates":[5.309699058532715,51.588653564453125]},"properties":{"type":"pakketpunt","locatieNaam":"DHL - Pakketautomaat DHL Boxtel","straatNaam":"Kapelweg 3-Kast","straatNr":"","vervoerder":"Amazon","puntType":"3p","bezettingsgraad":50,"latitude":51.588653564453125,"longitude":5.309699058532715,"canPickup":true,"canDropoff":false,"openingstijden":null}},{"type":"Feature","geometry":{"type":"Point","coordinates":[5.323828983,51.58823458]},"properties":{"type":"pakketpunt","locatieNaam":"'T Goei Leven","straatNaam":"Stationsstraat 9","straatNr":"","vervoerder":"Amazon","puntType":"3p","bezettingsgraad":50,"latitude":51.58823458,"longitude":5.323828983,"canPickup":true,"canDropoff":false,"openingstijden":null}},{"type":"Feature","geometry":{"type":"Point","coordinates":[5.331485511239907,51.58533886618434]},"properties":{"type":"pakketpunt","locatieNaam":"DHL - DeBuren Locker 24-7 TinQ Boxtel","straatNaam":"Brederodeweg 26","straatNr":"","vervoerder":"Amazon","puntType":"3p","bezettingsgraad":50,"latitude":51.58533886618434,"longitude":5.331485511239907,"canPickup":true,"canDropoff":false,"openingstijden":null}},{"type":"Feature","geometry":{"type":"Point","coordinates":[5.324091277873229,51.60240160278763]},"properties":{"type":"pakketpunt","locatieNaam":"DHL - Pakketautomaat GAMMA Boxtel","straatNaam":"Vuurijzer 2","straatNr":"","vervoerder":"Amazon","puntType":"3p","bezettingsgraad":50,"latitude":51.60240160278763,"longitude":5.324091277873229,"canPickup":true,"canDropoff":false,"openingstijden":null}},{"type":"Feature","geometry":{"type":"Point","coordinates":[5.369994,51.571507]},"properties":{"type":"pakketpunt","locatieNaam":"DHL - Pakketautomaat Boons Liempde","straatNaam":"Nieuwstraat 59","straatNr":"","vervoerder":"Amazon","puntType":"3p","bezettingsgraad":50,"latitude":51.571507,"longitude":5.369994,"canPickup":true,"canDropoff":false,"openingstijden":null}},{"type":"Feature","geometry":{"type":"Point","coordinates":[5.33149,51.58506]},"properties":{"type":"pakketpunt","locatieNaam":"Boxtel | Brederodeweg | TinQ | Pakket-automaat","straatNaam":"Brederodeweg ","straatNr":"26","vervoerder":"DeBuren","puntType":"Buitenkluis","bezettingsgraad":50,"latitude":51.58506,"longitude":5.33149,"canPickup":true,"canDropoff":true,"openingstijden":null}},{"type":"Feature","geometry":{"type":"Point","coordinates":[5.3175326,51.5711011]},"properties":{"type":"pakketpunt","locatieNaam":"DHL Buurtpunt ViaTim & Sjannie","straatNaam":"Pastoor Mandersstraat","straatNr":"4","vervoerder":"DHL","puntType":"parcelShop","bezettingsgraad":50,"latitude":51.5711011,"longitude":5.3175326,"canPickup":true,"canDropoff":true,"openingstijden":{"ma":"15:00 - 20:00","di":"15:00 - 20:00","wo":"15:00 - 20:00","do":"15:00 - 20:00","vr":"15:00 - 20:00","za":"gesloten","zo":"gesloten"}}},{"type":"Feature","geometry":{"type":"Point","coordinates":[5.373628,51.569359]},"properties":{"type":"pakketpunt","locatieNaam":"t Liempds Pakhuis","straatNaam":"Dorpsstraat","straatNr":"22","vervoerder":"DHL","puntType":"parcelShop","bezettingsgraad":50,"latitude":51.569359,"longitude":5.373628,"canPickup":true,"canDropoff":true,"openingstijden":{"ma":"09:00 - 18:00","di":"09:00 - 13:00","wo":"09:00 - 18:00","do":"09:00 - 18:00","vr":"09:00 - 18:00","za":"08:30 - 16:00","zo":"gesloten"}}},{"type":"Feature","geometry":{"type":"Point","coordinates":[5.369994,51.571507]},"properties":{"type":"pakketpunt","locatieNaam":"Pakketautomaat Boons Liempde","straatNaam":"Nieuwstraat","straatNr":"59","vervoerder":"DHL","puntType":"packStation","bezettingsgraad":50,"latitude":51.571507,"longitude":5.369994,"canPickup":true,"canDropoff":true,"openingstijden":{"ma":"00:00 - 23:59","di":"00:00 - 23:59","wo":"00:00 - 23:59","do":"00:00 - 23:59","vr":"00:00 - 23:59","za":"00:00 - 23:59","zo":"00:00 - 23:59"}}},{"type":"Feature","geometry":{"type":"Point","coordinates":[5.3092375,51.5886146]},"properties":{"type":"pakketpunt","locatieNaam":"DHL Pakketpunt Boxtel balie","straatNaam":"Kapelweg","straatNr":"3","vervoerder":"DHL","puntType":"parcelShop","bezettingsgraad":50,"latitude":51.5886146,"longitude":5.3092375,"canPickup":true,"canDropoff":true,"openingstijden":{"ma":"09:00 - 19:00","di":"09:00 - 19:00","wo":"09:00 - 19:00","do":"09:00 - 19:00","vr":"09:00 - 19:00","za":"09:00 - 18:00","zo":"gesloten"}}},{"type":"Feature","geometry":{"type":"Point","coordinates":[5.309699058532715,51.588653564453125]},"properties":{"type":"pakketpunt","locatieNaam":"Pakketautomaat DHL Boxtel","straatNaam":"Kapelweg","straatNr":"3-Kast","vervoerder":"DHL","puntType":"packStation","bezettingsgraad":50,"latitude":51.588653564453125,"longitude":5.309699058532715,"canPickup":true,"canDropoff":true,"openingstijden":{"ma":"00:00 - 23:59","di":"00:00 - 23:59","wo":"00:00 - 23:59","do":"00:00 - 23:59","vr":"00:00 - 23:59","za":"00:00 - 23:59","zo":"00:00 - 23:59"}}},{"type":"Feature","geometry":{"type":"Point","coordinates":[5.316487789154053,51.59773254394531]},"properties":{"type":"pakketpunt","locatieNaam":"Vannalles","straatNaam":"Banier","straatNr":"3","vervoerder":"DHL","puntType":"parcelShop","bezettingsgraad":50,"latitude":51.59773254394531,"longitude":5.316487789154053,"canPickup":true,"canDropoff":true,"openingstijden":{"ma":"gesloten","di":"09:00 - 18:00","wo":"09:00 - 18:00","do":"09:00 - 18:00","vr":"09:00 - 18:00","za":"09:00 - 17:00","zo":"gesloten"}}},{"type":"Feature","geometry":{"type":"Point","coordinates":[5.324091277873229,51.60240160278763]},"properties":{"type":"pakketpunt","locatieNaam":"Pakketautomaat GAMMA Boxtel","straatNaam":"Vuurijzer","straatNr":"2","vervoerder":"DHL","puntType":"packStation","bezettingsgraad":50,"latitude":51.60240160278763,"longitude":5.324091277873229,"canPickup":true,"canDropoff":true,"openingstijden":{"ma":"00:00 - 23:59","di":"00:00 - 23:59","wo":"00:00 - 23:59","do":"00:00 - 23:59","vr":"00:00 - 23:59","za":"00:00 - 23:59","zo":"00:00 - 23:59"}}},{"type":"Feature","geometry":{"type":"Point","coordinates":[5.3214172,51.5879569]},"properties":{"type":"pakketpunt","locatieNaam":"Leeuw Kledingreparatie","straatNaam":"De Bernhardstaete","straatNr":"4","vervoerder":"DHL","puntType":"parcelShop","bezettingsgraad":50,"latitude":51.5879569,"longitude":5.3214172,"canPickup":true,"canDropoff":true,"openingstijden":{"ma":"09:30 - 17:30","di":"09:30 - 17:30","wo":"09:30 - 17:30","do":"09:00 - 17:30","vr":"09:00 - 17:30","za":"09:00 - 17:30","zo":"gesloten"}}},{"type":"Feature","geometry":{"type":"Point","coordinates":[5.3260059,51.5878785]},"properties":{"type":"pakketpunt","locatieNaam":"Shoeby Boxtel","straatNaam":"Rechterstraat","straatNr":"18","vervoerder":"DHL","puntType":"parcelShop","bezettingsgraad":50,"latitude":51.5878785,"longitude":5.3260059,"canPickup":true,"canDropoff":true,"openingstijden":{"ma":"13:00 - 18:00","di":"09:30 - 18:00","wo":"09:30 - 18:00","do":"09:30 - 18:00","vr":"09:30 - 20:00","za":"09:30 - 17:00","zo":"gesloten"}}},{"type":"Feature","geometry":{"type":"Point","coordinates":[5.3274197,51.5881039]},"properties":{"type":"pakketpunt","locatieNaam":"Fanshop t Hoenske","straatNaam":"Rozemarijnstraat","straatNr":"13","vervoerder":"DHL","puntType":"parcelShop","bezettingsgraad":50,"latitude":51.5881039,"longitude":5.3274197,"canPickup":true,"canDropoff":true,"openingstijden":{"ma":"13:00 - 17:00","di":"09:30 - 17:30","wo":"09:30 - 17:30","do":"09:30 - 17:30","vr":"09:30 - 18:00","za":"10:00 - 17:00","zo":"gesloten"}}},{"type":"Feature","geometry":{"type":"Point","coordinates":[5.331485511239907,51.58533886618434]},"properties":{"type":"pakketpunt","locatieNaam":"DeBuren Locker 24-7 TinQ Boxtel","straatNaam":"Brederodeweg","straatNr":"26","vervoerder":"DHL","puntType":"packStation","bezettingsgraad":50,"latitude":51.58533886618434,"longitude":5.331485511239907,"canPickup":true,"canDropoff":true,"openingstijden":{"ma":"00:00 - 23:59","di":"00:00 - 23:59","wo":"00:00 - 23:59","do":"00:00 - 23:59","vr":"00:00 - 23:59","za":"00:00 - 23:59","zo":"00:00 - 23:59"}}},{"type":"Feature","geometry":{"type":"Point","coordinates":[5.334692,51.587529]},"properties":{"type":"pakketpunt","locatieNaam":"Dierenspeciaalzaak Boxtel","straatNaam":"Oosterhof","straatNr":"2","vervoerder":"DHL","puntType":"parcelShop","bezettingsgraad":50,"latitude":51.587529,"longitude":5.334692,"canPickup":true,"canDropoff":true,"openingstijden":{"ma":"08:30 - 18:00","di":"08:30 - 18:00","wo":"08:30 - 18:00","do":"08:30 - 18:00","vr":"08:30 - 18:00","za":"08:30 - 17:00","zo":"gesloten"}}},{"type":"Feature","geometry":{"type":"Point","coordinates":[5.373918,51.567562]},"properties":{"type":"pakketpunt","locatieNaam":"Cadeau&Drogist Liempde","straatNaam":"RAADHUISPLEIN","straatNr":"2A","vervoerder":"DPD","puntType":"pickup_point","bezettingsgraad":50,"latitude":51.567562,"longitude":5.373918,"canPickup":true,"canDropoff":true,"openingstijden":{"ma":"08:30 - 18:00","di":"08:30 - 18:00","wo":"08:30 - 18:00","do":"08:30 - 18:00","vr":"08:30 - 19:00","za":"09:00 - 17:30","zo":"gesloten"}}},{"type":"Feature","geometry":{"type":"Point","coordinates":[5.3175326,51.5711011]},"properties":{"type":"pakketpunt","locatieNaam":"ViaTim & Sjannie","straatNaam":"PASTOOR MANDERSSTRAAT","straatNr":"4","vervoerder":"DPD","puntType":"pickup_point","bezettingsgraad":50,"latitude":51.5711011,"longitude":5.3175326,"canPickup":true,"canDropoff":true,"openingstijden":{"ma":"15:00 - 20:00","di":"15:00 - 20:00","wo":"15:00 - 20:00","do":"15:00 - 20:00","vr":"15:00 - 20:00","za":"gesloten","zo":"gesloten"}}},{"type":"Feature","geometry":{"type":"Point","coordinates":[5.3314304,51.5852161]},"properties":{"type":"pakketpunt","locatieNaam":"Pakketautomaat TinQ Brederodeweg","straatNaam":"BREDERODEWEG","straatNr":"26","vervoerder":"DPD","puntType":"dpd_box","bezettingsgraad":50,"latitude":51.5852161,"longitude":5.3314304,"canPickup":true,"canDropoff":true,"openingstijden":{"ma":"00:00 - 23:59","di":"00:00 - 23:59","wo":"00:00 - 23:59","do":"00:00 - 23:59","vr":"00:00 - 23:59","za":"00:00 - 23:59","zo":"00:00 - 23:59"}}},{"type":"Feature","geometry":{"type":"Point","coordinates":[5.3274197,51.5881039]},"properties":{"type":"pakketpunt","locatieNaam":"T Hoenske Feestwinkel","straatNaam":"ROZEMARIJNSTRAAT","straatNr":"13","vervoerder":"DPD","puntType":"pickup_point","bezettingsgraad":50,"latitude":51.5881039,"longitude":5.3274197,"canPickup":true,"canDropoff":true,"openingstijden":{"ma":"13:00 - 17:00","di":"09:30 - 17:30","wo":"09:30 - 17:30","do":"09:30 - 17:30","vr":"09:30 - 18:00","za":"10:00 - 17:00","zo":"gesloten"}}},{"type":"Feature","geometry":{"type":"Point","coordinates":[5.3699942,51.5715069]},"properties":{"type":"pakketpunt","locatieNaam":"Pakketautomaat Boon’s Markt Liempde","straatNaam":"NIEUWSTRAAT","straatNr":"59","vervoerder":"DPD","puntType":"dpd_box","bezettingsgraad":50,"latitude":51.5715069,"longitude":5.3699942,"canPickup":true,"canDropoff":true,"openingstijden":{"ma":"00:01 - 23:59","di":"00:01 - 23:59","wo":"00:01 - 23:59","do":"00:01 - 23:59","vr":"00:01 - 23:59","za":"00:01 - 23:59","zo":"00:01 - 23:59"}}},{"type":"Feature","geometry":{"type":"Point","coordinates":[5.32141,51.58795]},"properties":{"type":"pakketpunt","locatieNaam":"Leeuw kledingreparatie","straatNaam":"DE BERNHARDESTAETE","straatNr":"4","vervoerder":"DPD","puntType":"pickup_point","bezettingsgraad":50,"latitude":51.58795,"longitude":5.32141,"canPickup":true,"canDropoff":true,"openingstijden":{"ma":"09:00 - 17:30","di":"09:00 - 17:30","wo":"09:00 - 17:30","do":"09:00 - 17:30","vr":"09:00 - 17:30","za":"09:00 - 17:30","zo":"gesloten"}}},{"type":"Feature","geometry":{"type":"Point","coordinates":[5.326296774,51.5879932]},"properties":{"type":"pakketpunt","locatieNaam":"Bruna","straatNaam":"Rechterstraat","straatNr":"19","vervoerder":"PostNL","puntType":"servicepunt","bezettingsgraad":50,"latitude":51.5879932,"longitude":5.326296774,"canPickup":true,"canDropoff":true,"openingstijden":"11:00 - 18:00 (Na 18:00 open; Zaterdag open)"}},{"type":"Feature","geometry":{"type":"Point","coordinates":[5.32727579211285,51.5880432755286]},"properties":{"type":"pakketpunt","locatieNaam":"'t Hoenske Feestwinkel PpP","straatNaam":"Rozemarijnstraat","straatNr":"13","vervoerder":"PostNL","puntType":"servicepunt","bezettingsgraad":50,"latitude":51.5880432755286,"longitude":5.32727579211285,"canPickup":true,"canDropoff":true,"openingstijden":"13:00 - 17:00"}},{"type":"Feature","geometry":{"type":"Point","coordinates":[5.323828983,51.58823458]},"properties":{"type":"pakketpunt","locatieNaam":"'T Goei Leven","straatNaam":"Stationsstraat","straatNr":"9","vervoerder":"PostNL","puntType":"servicepunt","bezettingsgraad":50,"latitude":51.58823458,"longitude":5.323828983,"canPickup":true,"canDropoff":true,"openingstijden":null}},{"type":"Feature","geometry":{"type":"Point","coordinates":[5.320047958,51.58854707]},"properties":{"type":"pakketpunt","locatieNaam":"Pakket- en briefautomaat","straatNaam":"Breukelsplein","straatNr":"2PBA","vervoerder":"PostNL","puntType":"automaat","bezettingsgraad":50,"latitude":51.58854707,"longitude":5.320047958,"canPickup":true,"canDropoff":true,"openingstijden":"00:00 - 23:59"}},{"type":"Feature","geometry":{"type":"Point","coordinates":[5.33149500921552,51.5850565151703]},"properties":{"type":"pakketpunt","locatieNaam":"Pakketautomaat","straatNaam":"Brederodeweg","straatNr":"26PBA","vervoerder":"PostNL","puntType":"automaat","bezettingsgraad":50,"latitude":51.5850565151703,"longitude":5.33149500921552,"canPickup":true,"canDropoff":true,"openingstijden":"00:00 - 23:59"}},{"type":"Feature","geometry":{"type":"Point","coordinates":[5.33149500921552,51.5850565151703]},"properties":{"type":"pakketpunt","locatieNaam":"Shopenco","straatNaam":"Brederodeweg","straatNr":"26","vervoerder":"PostNL","puntType":"servicepunt","bezettingsgraad":50,"latitude":51.5850565151703,"longitude":5.33149500921552,"canPickup":true,"canDropoff":true,"openingstijden":"08:30 - 19:00 (Na 18:00 open; Zaterdag open; Zondag open)"}},{"type":"Feature","geometry":{"type":"Point","coordinates":[5.33479601571147,51.587790565271]},"properties":{"type":"pakketpunt","locatieNaam":"Primera Oosterhof","straatNaam":"Oosterhof","straatNr":"3","vervoerder":"PostNL","puntType":"servicepunt","bezettingsgraad":50,"latitude":51.587790565271,"longitude":5.33479601571147,"canPickup":true,"canDropoff":true,"openingstijden":"08:30 - 18:00 (Na 18:00 open; Zaterdag open)"}},{"type":"Feature","geometry":{"type":"Point","coordinates":[5.31388641400967,51.5796267070113]},"properties":{"type":"pakketpunt","locatieNaam":"Het Goed Boxtel","straatNaam":"Industrieweg","straatNr":"6","vervoerder":"PostNL","puntType":"servicepunt","bezettingsgraad":50,"latitude":51.5796267070113,"longitude":5.31388641400967,"canPickup":true,"canDropoff":true,"openingstijden":"10:00 - 18:00"}},{"type":"Feature","geometry":{"type":"Point","coordinates":[5.323505821,51.60261612]},"properties":{"type":"pakketpunt","locatieNaam":"Pakket- en briefautomaat","straatNaam":"Vuurijzer","straatNr":"2PBA","vervoerder":"PostNL","puntType":"automaat","bezettingsgraad":50,"latitude":51.60261612,"longitude":5.323505821,"canPickup":true,"canDropoff":true,"openingstijden":"00:00 - 23:59"}},{"type":"Feature","geometry":{"type":"Point","coordinates":[5.323520243,51.60262512]},"properties":{"type":"pakketpunt","locatieNaam":"GAMMA Boxtel","straatNaam":"Vuurijzer","straatNr":"2","vervoerder":"PostNL","puntType":"servicepunt","bezettingsgraad":50,"latitude":51.60262512,"longitude":5.323520243,"canPickup":true,"canDropoff":true,"openingstijden":"09:00 - 21:00"}},{"type":"Feature","geometry":{"type":"Point","coordinates":[5.3699956593028,51.5715046914407]},"properties":{"type":"pakketpunt","locatieNaam":"Boon's Markt Liempde","straatNaam":"Nieuwstraat","straatNr":"59","vervoerder":"PostNL","puntType":"servicepunt","bezettingsgraad":50,"latitude":51.5715046914407,"longitude":5.3699956593028,"canPickup":true,"canDropoff":true,"openingstijden":"08:00 - 20:00 (Na 18:00 open; Zaterdag open; Zondag open)"}},{"type":"Feature","geometry":{"type":"Point","coordinates":[5.3699956593028,51.5715046914407]},"properties":{"type":"pakketpunt","locatieNaam":"Pakketautomaat","straatNaam":"Nieuwstraat","straatNr":"59PBA","vervoerder":"PostNL","puntType":"automaat","bezettingsgraad":50,"latitude":51.5715046914407,"longitude":5.3699956593028,"canPickup":true,"canDropoff":true,"openingstijden":"00:00 - 23:59"}},{"type":"Feature","geometry":{"type":"Point","coordinates":[5.3175327,51.5711011]},"properties":{"type":"pakketpunt","locatieNaam":"S. Oldenhof","straatNaam":"Pastoor Mandersstraat 4","straatNr":"","vervoerder":"VintedGo","puntType":"social","bezettingsgraad":50,"latitude":51.5711011,"longitude":5.3175327,"canPickup":true,"canDropoff":true,"openingstijden":null}},{"type":"Feature","geometry":{"type":"Point","coordinates":[5.33446,51.59017]},"properties":{"type":"pakketpunt","locatieNaam":"M. V. D. Ven","straatNaam":"Kempenlandstraat 1","straatNr":"","vervoerder":"VintedGo","puntType":"social","bezettingsgraad":50,"latitude":51.59017,"longitude":5.33446,"canPickup":true,"canDropoff":true,"openingstijden":null}},{"type":"Feature","geometry":{"type":"Point","coordinates":[5.37382,51.56757]},"properties":{"type":"pakketpunt","locatieNaam":"Cadeau&drogist liempde","straatNaam":"Raadhuisplein 2a","straatNr":"","vervoerder":"VintedGo","puntType":"parcel_shop","bezettingsgraad":50,"latitude":51.56757,"longitude":5.37382,"canPickup":true,"canDropoff":true,"openingstijden":null}},{"type":"Feature","geometry":{"type":"Point","coordinates":[5.32742,51.5881]},"properties":{"type":"pakketpunt","locatieNaam":"Fanshop ' Hoenske ","straatNaam":"Rozemarijnstraat 13","straatNr":"","vervoerder":"VintedGo","puntType":"parcel_shop","bezettingsgraad":50,"latitude":51.5881,"longitude":5.32742,"canPickup":true,"canDropoff":true,"openingstijden":null}},{"type":"Feature","geometry":{"type":"Point","coordinates":[5.32142,51.58796]},"properties":{"type":"pakketpunt","locatieNaam":"Leeuw Kledingreparatie ","straatNaam":"De Bernhardstaete 4","straatNr":"","vervoerder":"VintedGo","puntType":"parcel_shop","bezettingsgraad":50,"latitude":51.58796,"longitude":5.32142,"canPickup":true,"canDropoff":true,"openingstijden":null}},{"type":"Feature","geometry":{"type":"Point","coordinates":[5.3699978,51.571502]},"properties":{"type":"pakketpunt","locatieNaam":"Boon's Markt Liempde","straatNaam":"Nieuwstraat 59","straatNr":"","vervoerder":"VintedGo","puntType":"locker","bezettingsgraad":50,"latitude":51.571502,"longitude":5.3699978,"canPickup":true,"canDropoff":true,"openingstijden":null}},{"type":"Feature","geometry":{"type":"Point","coordinates":[5.3314412,51.5851996]},"properties":{"type":"pakketpunt","locatieNaam":"Shopenco B.v.","straatNaam":"Brederodeweg 26","straatNr":"","vervoerder":"VintedGo","puntType":"locker","bezettingsgraad":50,"latitude":51.5851996,"longitude":5.3314412,"canPickup":true,"canDropoff":true,"openingstijden":null}},{"type":"Feature","geometry":{"type":"Point","coordinates":[5.37820111,51.56892817]},"properties":{"type":"pakketpunt","locatieNaam":"ViaTim en Babbel","straatNaam":"De Geerakkers","straatNr":"49","vervoerder":"ViaTim","puntType":"servicepunt","bezettingsgraad":50,"latitude":51.56892817,"longitude":5.37820111,"canPickup":true,"canDropoff":true,"openingstijden":{"ma":"12:00 - 18:00","di":"12:00 - 18:00","wo":"12:00 - 18:00","do":"12:00 - 18:00","vr":"12:00 - 18:00","za":"gesloten","zo":"gesloten"}}},{"type":"Feature","geometry":{"type":"Point","coordinates":[5.3175326455647,51.5711010531292]},"properties":{"type":"pakketpunt","locatieNaam":"ViaTim & Sjannie","straatNaam":"Pastoor Mandersstraat","straatNr":"4","vervoerder":"ViaTim","puntType":"servicepunt","bezettingsgraad":50,"latitude":51.5711010531292,"longitude":5.3175326455647,"canPickup":true,"canDropoff":true,"openingstijden":{"ma":"15:00 - 20:00","di":"15:00 - 20:00","wo":"15:00 - 20:00","do":"15:00 - 20:00","vr":"15:00 - 20:00","za":"gesloten","zo":"gesloten"}}},{"type":"Feature","geometry":{"type":"Point","coordinates":[5.320021369907044,51.5885659571262]},"properties":{"type":"pakketpunt","locatieNaam":"FedEx Ship&Get","straatNaam":"Breukelsplein 2 PBA","straatNr":"","vervoerder":"FedEx","puntType":"servicepunt","bezettingsgraad":50,"latitude":51.5885659571262,"longitude":5.320021369907044,"canPickup":true,"canDropoff":true,"openingstijden":{"ma":"00:00 - 23:59","di":"00:00 - 23:59","wo":"00:00 - 23:59","do":"00:00 - 23:59","vr":"00:00 - 23:59","za":"00:00 - 23:59","zo":"00:00 - 23:59"}}},{"type":"Feature","geometry":{"type":"Point","coordinates":[5.321447865634945,51.58785479567082]},"properties":{"type":"pakketpunt","locatieNaam":"FedEx OnSite","straatNaam":"DE BERNHARDSTAETE 4","straatNr":"","vervoerder":"FedEx","puntType":"servicepunt","bezettingsgraad":50,"latitude":51.58785479567082,"longitude":5.321447865634945,"canPickup":true,"canDropoff":true,"openingstijden":{"ma":"09:00 - 18:00","di":"09:00 - 18:00","wo":"09:00 - 18:00","do":"09:00 - 18:00","vr":"09:00 - 18:00","za":"09:00 - 17:00","zo":"gesloten"}}},{"type":"Feature","geometry":{"type":"Point","coordinates":[5.327315591701578,51.58801993208493]},"properties":{"type":"pakketpunt","locatieNaam":"FedEx OnSite","straatNaam":"ROZEMARIJNSTRAAT 13","straatNr":"","vervoerder":"FedEx","puntType":"servicepunt","bezettingsgraad":50,"latitude":51.58801993208493,"longitude":5.327315591701578,"canPickup":true,"canDropoff":true,"openingstijden":{"ma":"13:00 - 17:00","di":"09:30 - 17:30","wo":"09:30 - 17:30","do":"09:30 - 17:30","vr":"09:30 - 19:00","za":"10:00 - 17:00","zo":"gesloten"}}},{"type":"Feature","geometry":{"type":"Point","coordinates":[5.331495,51.585057]},"properties":{"type":"pakketpunt","locatieNaam":"FedEx Ship&Get","straatNaam":"Brederodeweg 26 PBA","straatNr":"","vervoerder":"FedEx","puntType":"servicepunt","bezettingsgraad":50,"latitude":51.585057,"longitude":5.331495,"canPickup":true,"canDropoff":true,"openingstijden":{"ma":"00:00 - 23:59","di":"00:00 - 23:59","wo":"00:00 - 23:59","do":"00:00 - 23:59","vr":"00:00 - 23:59","za":"00:00 - 23:59","zo":"00:00 - 23:59"}}},{"type":"Feature","geometry":{"type":"Point","coordinates":[5.323909384527981,51.60242851403827]},"properties":{"type":"pakketpunt","locatieNaam":"FedEx Ship&Get","straatNaam":"Vuurijzer 2 PBA","straatNr":"","vervoerder":"FedEx","puntType":"servicepunt","bezettingsgraad":50,"latitude":51.60242851403827,"longitude":5.323909384527981,"canPickup":true,"canDropoff":true,"openingstijden":{"ma":"00:00 - 23:59","di":"00:00 - 23:59","wo":"00:00 - 23:59","do":"00:00 - 23:59","vr":"00:00 - 23:59","za":"00:00 - 23:59","zo":"00:00 - 23:59"}}},{"type":"Feature","geometry":{"type":"Point","coordinates":[5.369993443615293,51.57148363397242]},"properties":{"type":"pakketpunt","locatieNaam":"FedEx Ship&Get","straatNaam":"Nieuwstraat 59 PBA","straatNr":"","vervoerder":"FedEx","puntType":"servicepunt","bezettingsgraad":50,"latitude":51.57148363397242,"longitude":5.369993443615293,"canPickup":true,"canDropoff":true,"openingstijden":{"ma":"00:00 - 23:59","di":"00:00 - 23:59","wo":"00:00 - 23:59","do":"00:00 - 23:59","vr":"00:00 - 23:59","za":"00:00 - 23:59","zo":"00:00 - 23:59"}}},{"type":"Feature","geometry":{"type":"Point","coordinates":[5.32729,51.58801]},"properties":{"type":"pakketpunt","locatieNaam":"'T HOENSKE","straatNaam":"Rozemarijnstraat 13","straatNr":"","vervoerder":"InPost","puntType":"servicepunt","bezettingsgraad":50,"latitude":51.58801,"longitude":5.32729,"canPickup":true,"canDropoff":true,"openingstijden":null}},{"type":"Feature","geometry":{"type":"Point","coordinates":[5.32142,51.58796]},"properties":{"type":"pakketpunt","locatieNaam":"LEEUW KLEDINGREPARATIE","straatNaam":"De Bernhardstaete 4","straatNr":"","vervoerder":"InPost","puntType":"servicepunt","bezettingsgraad":50,"latitude":51.58796,"longitude":5.32142,"canPickup":true,"canDropoff":true,"openingstijden":null}},{"type":"Feature","geometry":{"type":"Point","coordinates":[5.33149,51.58493]},"properties":{"type":"pakketpunt","locatieNaam":"","straatNaam":"Brederodeweg","straatNr":"26","vervoerder":"InPost","puntType":"automaat","bezettingsgraad":50,"latitude":51.58493,"longitude":5.33149,"canPickup":true,"canDropoff":true,"openingstijden":"24/7"}},{"type":"Feature","geometry":{"type":"Polygon","coordinates":[[[5.247241,51.587041],[5.247254,51.587133],[5.247301,51.587259],[5.247304,51.587274],[5.247509,51.5886],[5.247536,51.588761],[5.247537,51.588771],[5.247584,51.589056],[5.247639,51.589387],[5.247649,51.589445],[5.247644,51.589617],[5.24764,51.589742],[5.247705,51.589773],[5.247841,51.589839],[5.247856,51.589846],[5.247905,51.58984],[5.247936,51.58981],[5.247942,51.589798],[5.24798,51.58972],[5.24801,51.589701],[5.248085,51.589708],[5.248193,51.589779],[5.248228,51.589802],[5.248252,51.589844],[5.248229,51.589928],[5.248249,51.58997],[5.248316,51.590004],[5.248486,51.590044],[5.248544,51.590082],[5.24859,51.590192],[5.248599,51.590213],[5.248644,51.590272],[5.248674,51.590294],[5.248633,51.590439],[5.248645,51.590515],[5.248661,51.590556],[5.248679,51.5906],[5.248774,51.590653],[5.24891,51.590642],[5.249008,51.59069],[5.249032,51.590717],[5.249033,51.59072],[5.249058,51.590803],[5.249066,51.590855],[5.249184,51.590851],[5.249359,51.590854],[5.249418,51.590858],[5.249465,51.590861],[5.24958,51.590875],[5.24968,51.59089],[5.249689,51.590891],[5.249794,51.590905],[5.249894,51.590916],[5.249958,51.590925],[5.250056,51.590943],[5.250138,51.590958],[5.250223,51.590977],[5.250316,51.591004],[5.250351,51.591015],[5.250436,51.591041],[5.250534,51.591074],[5.250624,51.591107],[5.250732,51.591146],[5.250871,51.591207],[5.250968,51.591252],[5.25105,51.591294],[5.251202,51.591372],[5.251397,51.59147],[5.251659,51.591595],[5.25191,51.591718],[5.25224,51.59188],[5.252443,51.591981],[5.25267,51.592097],[5.253203,51.59236],[5.25333,51.592422],[5.253418,51.592466],[5.25361,51.592559],[5.253862,51.59267],[5.254173,51.592813],[5.254303,51.592876],[5.254454,51.592957],[5.254521,51.592991],[5.254717,51.593091],[5.255024,51.593237],[5.255143,51.593297],[5.255221,51.593336],[5.255306,51.593378],[5.25538,51.593424],[5.255452,51.593473],[5.255533,51.593533],[5.255604,51.593593],[5.25567,51.593655],[5.255762,51.593738],[5.255847,51.593821],[5.255932,51.593921],[5.255988,51.593988],[5.256028,51.594053],[5.256076,51.594138],[5.256126,51.594232],[5.256162,51.594319],[5.256195,51.59442],[5.256258,51.594565],[5.256317,51.594699],[5.256375,51.594831],[5.256401,51.594887],[5.256439,51.594975],[5.256518,51.59516],[5.256526,51.595178],[5.256554,51.595241],[5.256595,51.595321],[5.256633,51.59539],[5.256676,51.595467],[5.256731,51.595557],[5.256787,51.595636],[5.256875,51.595733],[5.256934,51.595787],[5.256979,51.595827],[5.257038,51.595878],[5.257114,51.595937],[5.257198,51.595994],[5.257294,51.596054],[5.257397,51.596121],[5.257435,51.596142],[5.257494,51.596176],[5.257578,51.596215],[5.257689,51.596261],[5.257783,51.596299],[5.257879,51.596341],[5.257993,51.596393],[5.258096,51.596439],[5.258234,51.596495],[5.2587,51.596705],[5.25897,51.596821],[5.259169,51.596912],[5.259332,51.596974],[5.259458,51.597025],[5.259636,51.597102],[5.259699,51.597132],[5.259784,51.597187],[5.259888,51.597252],[5.259995,51.597317],[5.260117,51.597396],[5.260235,51.597473],[5.260351,51.597567],[5.26045,51.597648],[5.260556,51.597745],[5.260706,51.597884],[5.260928,51.598108],[5.261126,51.598297],[5.261135,51.598305],[5.261382,51.598545],[5.261598,51.598745],[5.261724,51.598869],[5.261871,51.599017],[5.26196,51.599105],[5.262082,51.59923],[5.262197,51.59935],[5.262296,51.599452],[5.2624,51.599541],[5.262486,51.599618],[5.262567,51.599689],[5.262641,51.599747],[5.262726,51.599812],[5.26283,51.59987],[5.262907,51.599921],[5.262978,51.59996],[5.263066,51.600006],[5.263174,51.600055],[5.26327,51.600094],[5.2634,51.60015],[5.263522,51.600194],[5.263667,51.600242],[5.26388,51.600288],[5.26402,51.600312],[5.264233,51.600348],[5.264288,51.600355],[5.264474,51.600381],[5.264774,51.600413],[5.265178,51.600448],[5.265504,51.600479],[5.265938,51.600518],[5.266327,51.600561],[5.266581,51.600589],[5.266856,51.600618],[5.267203,51.600663],[5.267342,51.600681],[5.267437,51.600693],[5.267682,51.60072],[5.267909,51.600751],[5.268228,51.600793],[5.2685,51.600866],[5.268655,51.600912],[5.2688,51.600963],[5.268814,51.600967],[5.268983,51.601033],[5.269156,51.601105],[5.269346,51.601183],[5.269558,51.601277],[5.269729,51.601348],[5.269818,51.601386],[5.270053,51.60149],[5.270228,51.601564],[5.270687,51.601755],[5.270972,51.601872],[5.271272,51.601999],[5.27132,51.602017],[5.271493,51.602083],[5.271649,51.602148],[5.271759,51.6022],[5.271857,51.602244],[5.27202,51.602317],[5.272096,51.602349],[5.272298,51.602437],[5.272442,51.602504],[5.272681,51.602617],[5.272788,51.602669],[5.272842,51.602698],[5.27292,51.602749],[5.272936,51.602759],[5.273103,51.602857],[5.273324,51.603006],[5.273627,51.603206],[5.273903,51.603395],[5.274338,51.603692],[5.274419,51.603744],[5.274538,51.603826],[5.274667,51.603909],[5.274727,51.603947],[5.274919,51.604065],[5.275141,51.60418],[5.275665,51.604405],[5.276056,51.604534],[5.276396,51.604617],[5.276629,51.604667],[5.276938,51.604718],[5.277232,51.604752],[5.277358,51.604765],[5.277554,51.604773],[5.277959,51.604787],[5.278478,51.604788],[5.278744,51.604791],[5.278739,51.60495],[5.278285,51.605216],[5.277943,51.605413],[5.277525,51.605652],[5.276261,51.606377],[5.276083,51.606434],[5.276171,51.60654],[5.276257,51.606736],[5.276289,51.606835],[5.276394,51.607194],[5.276503,51.607551],[5.27595,51.607676],[5.275663,51.607741],[5.275221,51.607842],[5.27455,51.607997],[5.273948,51.608134],[5.272855,51.608383],[5.273078,51.60895],[5.272724,51.609031],[5.27198,51.609205],[5.271952,51.609149],[5.271788,51.609053],[5.271635,51.609048],[5.271493,51.609044],[5.270911,51.609169],[5.270406,51.609275],[5.270352,51.609286],[5.270366,51.609323],[5.27014,51.609381],[5.269627,51.609513],[5.26924,51.609609],[5.269294,51.609726],[5.269725,51.610708],[5.270023,51.611381],[5.270113,51.611586],[5.270102,51.611601],[5.270082,51.611629],[5.269417,51.6118],[5.268263,51.612101],[5.268796,51.612346],[5.268767,51.612399],[5.269022,51.612502],[5.268821,51.612538],[5.268838,51.612548],[5.268825,51.612559],[5.269139,51.612731],[5.269404,51.612879],[5.269586,51.612989],[5.269659,51.613048],[5.26971,51.613103],[5.269952,51.613114],[5.270096,51.613098],[5.270193,51.613073],[5.270711,51.612973],[5.271091,51.612893],[5.271377,51.612861],[5.271734,51.612836],[5.271747,51.612836],[5.271374,51.613436],[5.270938,51.614138],[5.270874,51.614241],[5.270842,51.61433],[5.270804,51.614437],[5.270829,51.614496],[5.271041,51.614994],[5.271195,51.615248],[5.271338,51.615398],[5.271392,51.615456],[5.271434,51.615458],[5.271643,51.615471],[5.272405,51.615187],[5.272405,51.61527],[5.2724,51.615386],[5.272386,51.615514],[5.272554,51.615524],[5.272743,51.615535],[5.273485,51.615578],[5.275401,51.615728],[5.275831,51.615761],[5.27594,51.616071],[5.276056,51.61635],[5.276221,51.616533],[5.276657,51.617006],[5.277611,51.617992],[5.277707,51.618068],[5.278028,51.618199],[5.278222,51.618243],[5.278342,51.618297],[5.278294,51.618459],[5.278181,51.618707],[5.278126,51.618808],[5.278056,51.618904],[5.277856,51.619022],[5.27792,51.619065],[5.277683,51.6192],[5.277677,51.619197],[5.277683,51.6192],[5.277683,51.6192],[5.27777,51.619239],[5.277798,51.619253],[5.278936,51.619767],[5.279719,51.620114],[5.279753,51.620137],[5.279785,51.62016],[5.279814,51.620186],[5.279827,51.620211],[5.279833,51.620244],[5.279835,51.620252],[5.279816,51.620512],[5.279828,51.620573],[5.279798,51.620633],[5.279998,51.620753],[5.2801,51.620817],[5.280316,51.620991],[5.280383,51.621048],[5.280471,51.621118],[5.280554,51.621181],[5.280589,51.621198],[5.280656,51.621232],[5.280791,51.621283],[5.280784,51.621312],[5.280782,51.621324],[5.280631,51.621979],[5.280567,51.622254],[5.280487,51.62227],[5.280693,51.622617],[5.280715,51.622653],[5.280747,51.622708],[5.280759,51.622727],[5.281724,51.622534],[5.282078,51.622462],[5.28239,51.622496],[5.283909,51.622662],[5.284058,51.622679],[5.284107,51.622684],[5.284138,51.62274],[5.28423,51.622754],[5.284282,51.622741],[5.284335,51.622742],[5.284411,51.622751],[5.284458,51.62276],[5.284519,51.622772],[5.284708,51.622815],[5.284708,51.622815],[5.284836,51.62284],[5.284944,51.622857],[5.285092,51.622876],[5.285521,51.622928],[5.285819,51.622884],[5.286211,51.6228],[5.286264,51.622775],[5.286933,51.622452],[5.286987,51.622426],[5.286996,51.622419],[5.287062,51.622384],[5.287153,51.622335],[5.287215,51.622312],[5.287381,51.62226],[5.287458,51.622236],[5.287681,51.622169],[5.287903,51.622107],[5.288285,51.622025],[5.288411,51.621994],[5.288671,51.621943],[5.288817,51.621918],[5.288922,51.621898],[5.289007,51.621881],[5.289285,51.621805],[5.28951,51.621738],[5.289911,51.621624],[5.290027,51.621591],[5.290325,51.621504],[5.290658,51.621397],[5.290901,51.621336],[5.290923,51.621327],[5.290993,51.621319],[5.291153,51.62131],[5.291441,51.621296],[5.291919,51.621288],[5.29273,51.621257],[5.293203,51.621248],[5.293199,51.621305],[5.293567,51.621313],[5.293841,51.621322],[5.293999,51.621324],[5.294254,51.621342],[5.294412,51.621355],[5.294667,51.621335],[5.294734,51.621378],[5.294835,51.621494],[5.294854,51.621592],[5.294879,51.621971],[5.294906,51.622348],[5.294913,51.62242],[5.294928,51.622582],[5.294956,51.622698],[5.295013,51.622806],[5.295072,51.622894],[5.295174,51.623016],[5.295278,51.623141],[5.295484,51.623375],[5.295779,51.623635],[5.296008,51.623756],[5.296072,51.623792],[5.296129,51.623822],[5.296192,51.623858],[5.296265,51.62395],[5.296285,51.623976],[5.296336,51.624077],[5.296498,51.624388],[5.296564,51.62452],[5.296652,51.624654],[5.296714,51.62474],[5.296756,51.624786],[5.296875,51.624857],[5.296895,51.624791],[5.297029,51.624983],[5.297757,51.625136],[5.297734,51.625202],[5.29779,51.625219],[5.2978,51.625222],[5.298127,51.62532],[5.298153,51.625327],[5.298185,51.625337],[5.298233,51.625351],[5.298766,51.625506],[5.299178,51.625588],[5.299233,51.625599],[5.299601,51.625689],[5.29964,51.625699],[5.299646,51.625709],[5.301308,51.625383],[5.301495,51.625393],[5.301668,51.62548],[5.301747,51.625457],[5.301892,51.625423],[5.303724,51.625046],[5.304333,51.624924],[5.304493,51.625107],[5.304989,51.625674],[5.305333,51.626073],[5.305769,51.626579],[5.306374,51.627281],[5.30669,51.627645],[5.306732,51.627705],[5.306806,51.627825],[5.306859,51.627962],[5.30688,51.628086],[5.306888,51.628136],[5.30689,51.628169],[5.306886,51.62823],[5.306884,51.628285],[5.306858,51.628372],[5.306828,51.628458],[5.306765,51.628573],[5.306688,51.628678],[5.306623,51.628757],[5.30659,51.628796],[5.3064,51.629032],[5.306358,51.629099],[5.306312,51.629163],[5.306167,51.629526],[5.30614,51.629642],[5.30614,51.629697],[5.306176,51.629904],[5.306193,51.629949],[5.306303,51.63014],[5.30655,51.630569],[5.306725,51.630822],[5.307076,51.631317],[5.307076,51.631317],[5.307931,51.632551],[5.308275,51.633035],[5.308435,51.633209],[5.308709,51.633402],[5.308993,51.633485],[5.309381,51.633581],[5.3096,51.633618],[5.309692,51.633629],[5.309928,51.63364],[5.310754,51.633665],[5.310819,51.633668],[5.310956,51.633672],[5.311848,51.63367],[5.311844,51.633695],[5.312329,51.633688],[5.313803,51.633667],[5.314641,51.633717],[5.314888,51.633745],[5.315086,51.633771],[5.315211,51.633793],[5.315315,51.633815],[5.315448,51.63385],[5.315463,51.633855],[5.316322,51.634152],[5.316818,51.634323],[5.317732,51.634634],[5.317762,51.634616],[5.318076,51.634431],[5.31828,51.63431],[5.319087,51.633833],[5.319732,51.633452],[5.320399,51.633063],[5.320773,51.63285],[5.320818,51.632823],[5.320837,51.632811],[5.320916,51.632763],[5.32094,51.632748],[5.321466,51.632427],[5.321496,51.632409],[5.321886,51.632179],[5.322034,51.63209],[5.322333,51.631899],[5.322758,51.631639],[5.323143,51.631405],[5.3242,51.63076],[5.324229,51.630742],[5.324284,51.630709],[5.324629,51.630499],[5.326529,51.629343],[5.328404,51.628209],[5.329433,51.627579],[5.330478,51.626939],[5.330653,51.626832],[5.331375,51.626388],[5.331596,51.626253],[5.331882,51.626077],[5.331943,51.62604],[5.332074,51.625959],[5.332435,51.625737],[5.332454,51.625725],[5.33247,51.625716],[5.332529,51.625679],[5.332639,51.625612],[5.332665,51.625595],[5.33285,51.625484],[5.333317,51.625201],[5.333569,51.625048],[5.333894,51.624852],[5.334675,51.624381],[5.335388,51.62395],[5.336062,51.623543],[5.338405,51.622127],[5.338901,51.622207],[5.338924,51.62221],[5.339698,51.622335],[5.3403,51.622432],[5.340452,51.622457],[5.341088,51.622559],[5.341858,51.622679],[5.342048,51.622709],[5.343042,51.622865],[5.34309,51.622926],[5.34388,51.622976],[5.343995,51.622983],[5.343889,51.622886],[5.34388,51.622877],[5.343802,51.622805],[5.343766,51.622769],[5.343727,51.622731],[5.343672,51.622662],[5.343628,51.622583],[5.343604,51.622503],[5.343592,51.62242],[5.343589,51.62234],[5.343593,51.622252],[5.3436,51.62217],[5.3436,51.62208],[5.343595,51.621989],[5.343575,51.621899],[5.343546,51.621807],[5.343502,51.621721],[5.343434,51.62164],[5.343384,51.621556],[5.343306,51.621478],[5.343193,51.621376],[5.342603,51.620928],[5.342252,51.620661],[5.342221,51.620695],[5.342167,51.620648],[5.342119,51.620607],[5.342076,51.620564],[5.342017,51.620503],[5.341966,51.620439],[5.341938,51.62039],[5.341926,51.620361],[5.341916,51.620339],[5.341902,51.62029],[5.341894,51.620241],[5.341888,51.620198],[5.341887,51.620154],[5.341893,51.6201],[5.341905,51.620047],[5.341925,51.619994],[5.341949,51.619942],[5.341975,51.619893],[5.342007,51.619845],[5.342208,51.61949],[5.342816,51.618452],[5.343054,51.618063],[5.3431,51.61807],[5.343156,51.617971],[5.343169,51.617949],[5.343364,51.617607],[5.343404,51.617498],[5.343416,51.617385],[5.343399,51.617285],[5.343395,51.617262],[5.343373,51.61717],[5.343332,51.617066],[5.343267,51.616961],[5.343178,51.616868],[5.343076,51.616779],[5.342965,51.6167],[5.34296,51.616697],[5.342834,51.616626],[5.342721,51.616569],[5.342078,51.61624],[5.341373,51.615881],[5.34135,51.615867],[5.341274,51.61582],[5.341186,51.615755],[5.341111,51.615679],[5.341055,51.615595],[5.341013,51.615517],[5.340815,51.615085],[5.340775,51.615002],[5.340749,51.614949],[5.340739,51.614929],[5.340716,51.614887],[5.34065,51.614791],[5.340571,51.614689],[5.340468,51.61459],[5.340347,51.614496],[5.340212,51.614413],[5.339588,51.614109],[5.33957,51.614101],[5.339526,51.614079],[5.339497,51.614065],[5.339229,51.613935],[5.339048,51.613861],[5.338869,51.613799],[5.338679,51.61375],[5.338483,51.613721],[5.338284,51.613704],[5.33808,51.613693],[5.338073,51.613734],[5.337244,51.613705],[5.336977,51.613697],[5.336824,51.613701],[5.336603,51.613711],[5.336382,51.613728],[5.335977,51.613768],[5.335909,51.613778],[5.335839,51.613785],[5.335768,51.613793],[5.335696,51.613799],[5.335622,51.613802],[5.335547,51.613801],[5.335474,51.613797],[5.335401,51.61379],[5.335325,51.613781],[5.335251,51.61377],[5.335182,51.613755],[5.335114,51.613739],[5.335048,51.613718],[5.334983,51.613696],[5.334922,51.613669],[5.334863,51.61364],[5.334816,51.613612],[5.334772,51.613582],[5.334689,51.613524],[5.334616,51.613461],[5.334573,51.613415],[5.334535,51.613367],[5.334212,51.612914],[5.334209,51.612911],[5.334026,51.612652],[5.333945,51.612553],[5.333921,51.612521],[5.333844,51.612431],[5.333776,51.612363],[5.333415,51.612038],[5.333269,51.611928],[5.333145,51.611845],[5.332853,51.611673],[5.332773,51.61163],[5.332593,51.611536],[5.332468,51.611472],[5.332419,51.611446],[5.332373,51.611418],[5.332329,51.611385],[5.33231,51.611369],[5.332288,51.61135],[5.332234,51.611295],[5.332189,51.611236],[5.332157,51.611187],[5.332131,51.611137],[5.332114,51.611083],[5.332104,51.611029],[5.332099,51.610972],[5.33211,51.610872],[5.332095,51.610871],[5.332101,51.610838],[5.332111,51.610808],[5.332125,51.610784],[5.332152,51.610752],[5.332172,51.610739],[5.332208,51.610726],[5.33228,51.610717],[5.332497,51.610709],[5.332643,51.610706],[5.332749,51.610705],[5.332807,51.610695],[5.332856,51.610675],[5.33289,51.610645],[5.332918,51.610614],[5.33295,51.610584],[5.332997,51.610538],[5.333034,51.610488],[5.33304,51.610479],[5.333045,51.610469],[5.333064,51.610428],[5.333078,51.610385],[5.333082,51.610332],[5.33307,51.610279],[5.332916,51.609887],[5.332917,51.609874],[5.332919,51.609862],[5.332922,51.609841],[5.332925,51.609821],[5.332949,51.60978],[5.332992,51.609744],[5.333042,51.609714],[5.33309,51.609682],[5.333147,51.609648],[5.333209,51.609617],[5.333277,51.60959],[5.333349,51.609569],[5.33341,51.609556],[5.333473,51.609547],[5.333597,51.609544],[5.33375,51.609525],[5.334001,51.609496],[5.334339,51.609457],[5.334543,51.60932],[5.334591,51.609286],[5.334638,51.609252],[5.3347,51.609189],[5.334749,51.609121],[5.334784,51.609062],[5.334811,51.609002],[5.334897,51.608901],[5.334971,51.608796],[5.334977,51.608747],[5.334979,51.608698],[5.334942,51.608603],[5.334885,51.608513],[5.334775,51.608433],[5.334648,51.608365],[5.334555,51.608302],[5.334452,51.608246],[5.334337,51.608199],[5.334214,51.608159],[5.334087,51.60813],[5.333955,51.608109],[5.333951,51.608108],[5.333947,51.608106],[5.33389,51.608091],[5.333833,51.608078],[5.333654,51.608066],[5.333475,51.608069],[5.333291,51.608095],[5.333111,51.608133],[5.332915,51.608152],[5.332722,51.608181],[5.33254,51.608235],[5.332397,51.608323],[5.332219,51.608397],[5.332054,51.608486],[5.331995,51.608486],[5.332007,51.60844],[5.331981,51.608265],[5.331949,51.608047],[5.331895,51.607684],[5.331881,51.60759],[5.331875,51.607483],[5.331895,51.607378],[5.331938,51.607281],[5.332005,51.607182],[5.332024,51.607162],[5.332093,51.60709],[5.332206,51.607009],[5.332323,51.606949],[5.332419,51.60691],[5.33246,51.606894],[5.332514,51.606875],[5.33286,51.60675],[5.333628,51.606475],[5.33382,51.606406],[5.333984,51.606342],[5.334147,51.606269],[5.334289,51.606183],[5.334417,51.606091],[5.334522,51.605993],[5.33461,51.605886],[5.334651,51.605821],[5.334681,51.605774],[5.334726,51.605655],[5.334781,51.605368],[5.334859,51.604955],[5.334876,51.604838],[5.334906,51.604724],[5.334939,51.604614],[5.334946,51.604593],[5.334976,51.604507],[5.33502,51.604403],[5.335076,51.6043],[5.335083,51.604289],[5.335108,51.604244],[5.335134,51.604197],[5.335193,51.604101],[5.335355,51.603848],[5.33539,51.603794],[5.335603,51.603459],[5.33586,51.603134],[5.335868,51.603136],[5.335928,51.603153],[5.335968,51.603085],[5.338488,51.603831],[5.338495,51.603833],[5.340453,51.604347],[5.340493,51.604358],[5.340536,51.604364],[5.340549,51.604363],[5.340561,51.604362],[5.340731,51.604353],[5.340755,51.604353],[5.340834,51.60435],[5.340842,51.604231],[5.340846,51.603881],[5.340851,51.603769],[5.340858,51.603642],[5.340889,51.603324],[5.34089,51.603322],[5.340891,51.603318],[5.340916,51.603223],[5.340935,51.603168],[5.341002,51.602971],[5.341008,51.602952],[5.34102,51.602927],[5.341026,51.602916],[5.341037,51.602892],[5.341046,51.602877],[5.341058,51.602854],[5.341097,51.602785],[5.34114,51.602714],[5.341227,51.602599],[5.341287,51.602506],[5.341336,51.602401],[5.341338,51.602384],[5.34136,51.602202],[5.341388,51.602189],[5.341398,51.602184],[5.341389,51.602144],[5.341382,51.602114],[5.341385,51.602098],[5.341342,51.602057],[5.341329,51.602043],[5.341365,51.601998],[5.341387,51.601861],[5.34139,51.601766],[5.341377,51.601532],[5.341386,51.601468],[5.341482,51.601298],[5.341499,51.601265],[5.341519,51.601233],[5.34152,51.601232],[5.34155,51.601193],[5.341584,51.601156],[5.341639,51.601109],[5.341701,51.601066],[5.341928,51.600915],[5.342023,51.600857],[5.342091,51.600807],[5.342248,51.600688],[5.342293,51.600649],[5.342368,51.600571],[5.342505,51.600453],[5.342721,51.600283],[5.342778,51.600242],[5.342811,51.600228],[5.342835,51.600224],[5.342842,51.600237],[5.342881,51.6003],[5.342911,51.600348],[5.343058,51.600484],[5.343136,51.600572],[5.343383,51.600796],[5.343398,51.600808],[5.343475,51.600871],[5.343622,51.601016],[5.343665,51.601058],[5.343707,51.6011],[5.343716,51.601107],[5.343884,51.601249],[5.3439,51.601261],[5.343912,51.60127],[5.343918,51.601275],[5.344023,51.601353],[5.344027,51.601356],[5.344283,51.601546],[5.34454,51.601738],[5.344681,51.60183],[5.344692,51.601839],[5.344765,51.601898],[5.344784,51.601888],[5.344834,51.601913],[5.344865,51.601932],[5.345434,51.602386],[5.345575,51.602498],[5.345784,51.602676],[5.345867,51.602738],[5.346085,51.60277],[5.348517,51.603364],[5.348606,51.603385],[5.348619,51.603389],[5.349984,51.603722],[5.350985,51.603966],[5.351501,51.603097],[5.351556,51.603004],[5.351651,51.602844],[5.351677,51.6028],[5.351848,51.602512],[5.351922,51.602388],[5.35262,51.601211],[5.352929,51.600691],[5.353071,51.600693],[5.353834,51.600822],[5.35474,51.600901],[5.354761,51.600904],[5.354809,51.600911],[5.355376,51.600992],[5.356024,51.601088],[5.35651,51.601163],[5.356516,51.601163],[5.356536,51.601165],[5.357532,51.601318],[5.357541,51.601319],[5.357544,51.60132],[5.357807,51.601366],[5.357877,51.601379],[5.357896,51.601382],[5.357923,51.601387],[5.358334,51.60146],[5.358545,51.601497],[5.358699,51.601524],[5.35927,51.601636],[5.359296,51.601641],[5.359307,51.60161],[5.359773,51.601678],[5.359926,51.601695],[5.360099,51.601714],[5.360222,51.601727],[5.360219,51.601753],[5.360674,51.601775],[5.360679,51.601744],[5.361123,51.601747],[5.361122,51.601777],[5.361667,51.601777],[5.361679,51.601777],[5.361998,51.601776],[5.361997,51.601749],[5.362411,51.601748],[5.362413,51.601748],[5.362416,51.601748],[5.362569,51.601747],[5.362658,51.601747],[5.362658,51.601774],[5.363043,51.601774],[5.363213,51.601783],[5.363414,51.601782],[5.364583,51.601776],[5.364606,51.601776],[5.364807,51.601776],[5.36488,51.601776],[5.36491,51.601776],[5.365886,51.601776],[5.365907,51.601776],[5.365936,51.601776],[5.366097,51.601776],[5.366127,51.601776],[5.366623,51.601777],[5.367121,51.601777],[5.367136,51.601777],[5.367151,51.60174],[5.367219,51.601741],[5.367251,51.60174],[5.3681,51.60174],[5.370445,51.601741],[5.371046,51.601743],[5.371534,51.60174],[5.371666,51.601739],[5.3721,51.601733],[5.372604,51.60172],[5.372768,51.601715],[5.373028,51.601708],[5.373028,51.601735],[5.373515,51.601717],[5.374123,51.60173],[5.374139,51.60173],[5.374138,51.601737],[5.374423,51.601758],[5.37455,51.601767],[5.374895,51.601803],[5.375226,51.601856],[5.376596,51.602118],[5.376847,51.602169],[5.377664,51.602334],[5.377596,51.602393],[5.377589,51.602399],[5.378837,51.602642],[5.3789,51.602576],[5.379099,51.602615],[5.379777,51.602751],[5.380167,51.602829],[5.380529,51.602902],[5.380602,51.602849],[5.380947,51.602913],[5.380976,51.602852],[5.381012,51.602775],[5.381111,51.602739],[5.381176,51.602715],[5.382054,51.602393],[5.38218,51.602347],[5.382244,51.602323],[5.382304,51.602302],[5.382596,51.602197],[5.382905,51.602077],[5.383048,51.602021],[5.383106,51.602],[5.383725,51.601771],[5.383817,51.601736],[5.383963,51.601681],[5.383965,51.60168],[5.384368,51.601528],[5.384375,51.601525],[5.384837,51.601355],[5.38501,51.601292],[5.385116,51.601253],[5.385372,51.601159],[5.385861,51.600981],[5.385873,51.600976],[5.386013,51.600932],[5.386029,51.600927],[5.38603,51.600927],[5.386212,51.600869],[5.385926,51.600655],[5.385894,51.600631],[5.385491,51.600326],[5.38502,51.599979],[5.384636,51.599685],[5.384569,51.599628],[5.384404,51.599374],[5.384003,51.598759],[5.38368,51.598259],[5.383684,51.598256],[5.383447,51.597899],[5.383425,51.597866],[5.383149,51.59745],[5.383139,51.597425],[5.383134,51.59739],[5.383136,51.597357],[5.383144,51.597319],[5.383183,51.597266],[5.383972,51.597071],[5.383829,51.597029],[5.382593,51.596669],[5.382274,51.596576],[5.381502,51.59623],[5.381443,51.596204],[5.383969,51.594088],[5.38446,51.593677],[5.384611,51.593404],[5.386158,51.590614],[5.386236,51.590643],[5.386767,51.590841],[5.386888,51.590885],[5.38691,51.590908],[5.387006,51.591207],[5.387201,51.591193],[5.387226,51.591191],[5.387201,51.591133],[5.387163,51.59104],[5.387201,51.590983],[5.387504,51.590532],[5.387478,51.590517],[5.387426,51.590499],[5.387608,51.590431],[5.388526,51.590091],[5.388778,51.590002],[5.388931,51.589949],[5.389303,51.589808],[5.389458,51.589731],[5.389547,51.589699],[5.389591,51.589671],[5.389469,51.589458],[5.389261,51.589133],[5.389181,51.589127],[5.389056,51.589118],[5.388608,51.58911],[5.387201,51.589089],[5.386702,51.589081],[5.386624,51.589087],[5.38649,51.589137],[5.386481,51.58914],[5.386386,51.589184],[5.386235,51.58924],[5.386006,51.589324],[5.385989,51.589332],[5.38597,51.589341],[5.385907,51.589366],[5.38538,51.589546],[5.38526,51.589587],[5.384015,51.589064],[5.38368,51.58891],[5.383508,51.588831],[5.38338,51.588762],[5.38303,51.588589],[5.382643,51.588359],[5.382536,51.588291],[5.382053,51.587986],[5.381745,51.587792],[5.381443,51.587601],[5.381815,51.587563],[5.38202,51.587536],[5.382308,51.587485],[5.382515,51.587438],[5.38275,51.587358],[5.383071,51.587226],[5.383537,51.58704],[5.383914,51.586889],[5.384027,51.586846],[5.384016,51.586746],[5.384029,51.586739],[5.384214,51.586682],[5.384348,51.586638],[5.384412,51.586625],[5.384531,51.58659],[5.384611,51.586567],[5.385027,51.586368],[5.385529,51.5861],[5.385614,51.586055],[5.38569,51.586096],[5.38593,51.585858],[5.385869,51.585823],[5.386033,51.585721],[5.386361,51.585511],[5.387042,51.585076],[5.387201,51.584964],[5.387937,51.584448],[5.387988,51.584416],[5.388296,51.58422],[5.389055,51.583848],[5.389506,51.58358],[5.389667,51.583484],[5.389712,51.583405],[5.389159,51.58268],[5.388404,51.582572],[5.387826,51.582454],[5.387848,51.582424],[5.387864,51.5824],[5.388949,51.580827],[5.389041,51.580863],[5.389045,51.58086],[5.389089,51.580841],[5.389196,51.580816],[5.389308,51.580803],[5.389454,51.580817],[5.389504,51.580819],[5.389656,51.580842],[5.389622,51.580879],[5.389544,51.580898],[5.389264,51.580926],[5.38914,51.581028],[5.389105,51.581148],[5.38914,51.581334],[5.38921,51.581519],[5.38936,51.581645],[5.389587,51.58171],[5.389868,51.581705],[5.390096,51.581661],[5.390354,51.581575],[5.390787,51.581339],[5.39117,51.581118],[5.391353,51.580948],[5.391588,51.580774],[5.391907,51.580602],[5.392351,51.580355],[5.392479,51.58024],[5.392617,51.580141],[5.392754,51.580081],[5.392926,51.580033],[5.393137,51.580027],[5.393391,51.58005],[5.393521,51.580057],[5.39358,51.580047],[5.393628,51.580007],[5.393682,51.579946],[5.393686,51.579921],[5.393692,51.579876],[5.393667,51.579778],[5.393592,51.579666],[5.393389,51.579453],[5.393273,51.579299],[5.3932,51.579166],[5.393115,51.578983],[5.393028,51.578741],[5.392992,51.578558],[5.392976,51.578463],[5.392939,51.578322],[5.392886,51.578164],[5.392814,51.57797],[5.392733,51.577733],[5.392727,51.577723],[5.392717,51.577704],[5.392644,51.577571],[5.392493,51.577403],[5.392255,51.577187],[5.392109,51.577058],[5.392002,51.576927],[5.39177,51.576642],[5.391556,51.576386],[5.391492,51.576281],[5.391451,51.576164],[5.391442,51.57606],[5.391494,51.575965],[5.39157,51.575911],[5.39172,51.575858],[5.391982,51.575803],[5.3922,51.575732],[5.392399,51.575642],[5.392492,51.57557],[5.392548,51.575516],[5.392618,51.575445],[5.39266,51.575427],[5.392703,51.575408],[5.392811,51.5754],[5.392952,51.575427],[5.392967,51.57543],[5.393273,51.57554],[5.393883,51.57577],[5.394253,51.575889],[5.394645,51.576006],[5.394947,51.576135],[5.395156,51.576248],[5.395322,51.576369],[5.395446,51.576483],[5.395499,51.576542],[5.395552,51.576575],[5.395616,51.576579],[5.395952,51.576606],[5.396304,51.576617],[5.39658,51.576608],[5.396879,51.576564],[5.397482,51.576481],[5.398291,51.57629],[5.399087,51.576075],[5.399575,51.575896],[5.39993,51.575741],[5.40016,51.575673],[5.400345,51.575642],[5.400599,51.575623],[5.400813,51.575627],[5.401097,51.575654],[5.401289,51.575706],[5.401522,51.575788],[5.401627,51.57584],[5.401736,51.575894],[5.401946,51.575979],[5.402092,51.576019],[5.402227,51.576021],[5.402367,51.576014],[5.402546,51.575998],[5.402945,51.575954],[5.40321,51.575933],[5.403347,51.575923],[5.403501,51.575921],[5.403631,51.575921],[5.403739,51.575922],[5.403816,51.575908],[5.403843,51.575892],[5.403866,51.575868],[5.403874,51.575842],[5.403876,51.575813],[5.403861,51.575768],[5.403836,51.575708],[5.403774,51.575635],[5.403634,51.575493],[5.403529,51.575426],[5.40346,51.575382],[5.403129,51.575127],[5.40311,51.575113],[5.402929,51.574954],[5.402684,51.574689],[5.402415,51.574345],[5.402069,51.573922],[5.402015,51.573842],[5.402005,51.573802],[5.401996,51.573769],[5.401992,51.573713],[5.402072,51.573367],[5.402184,51.572944],[5.402377,51.572149],[5.402416,51.57196],[5.402396,51.571937],[5.402387,51.571895],[5.402403,51.571855],[5.402434,51.571798],[5.402499,51.571714],[5.402416,51.571729],[5.401626,51.571878],[5.401289,51.571941],[5.401029,51.571827],[5.400905,51.57188],[5.399801,51.572354],[5.39977,51.572358],[5.399592,51.572323],[5.399472,51.57228],[5.399415,51.572249],[5.399376,51.572224],[5.399344,51.572195],[5.399274,51.572062],[5.399241,51.571989],[5.3992,51.571909],[5.399181,51.571839],[5.399152,51.571727],[5.399145,51.571681],[5.399129,51.571534],[5.39909,51.571372],[5.398932,51.571295],[5.39901,51.571231],[5.399074,51.57116],[5.399095,51.571146],[5.39918,51.571089],[5.399271,51.571033],[5.39928,51.570979],[5.3993,51.570932],[5.399304,51.570922],[5.399334,51.570844],[5.399358,51.570794],[5.399371,51.570762],[5.399378,51.57072],[5.399375,51.570659],[5.399361,51.570554],[5.399354,51.570486],[5.399351,51.570438],[5.399348,51.57036],[5.399344,51.570252],[5.399344,51.570246],[5.399334,51.570173],[5.39931,51.570095],[5.399277,51.570036],[5.399249,51.570021],[5.399219,51.570004],[5.399202,51.569983],[5.399192,51.569947],[5.399195,51.569861],[5.399226,51.569772],[5.399246,51.569718],[5.399293,51.569408],[5.399283,51.569376],[5.39929,51.569305],[5.399327,51.569191],[5.399357,51.569138],[5.399405,51.569113],[5.399618,51.568997],[5.399311,51.568525],[5.399147,51.568297],[5.39902,51.568135],[5.398929,51.56802],[5.398865,51.567959],[5.398788,51.567889],[5.39874,51.567841],[5.398717,51.567818],[5.398689,51.567783],[5.398682,51.567757],[5.398839,51.567405],[5.399198,51.566699],[5.399268,51.566548],[5.39928,51.566522],[5.399319,51.566438],[5.399436,51.566184],[5.399476,51.566098],[5.399162,51.566041],[5.399061,51.566028],[5.399018,51.56602],[5.399004,51.566013],[5.398998,51.565991],[5.398977,51.565984],[5.398928,51.565985],[5.398808,51.565997],[5.398691,51.566019],[5.398657,51.566031],[5.39857,51.566056],[5.398507,51.566055],[5.398435,51.566049],[5.398365,51.566036],[5.398271,51.566012],[5.398176,51.565989],[5.398098,51.565973],[5.398022,51.565953],[5.397906,51.565935],[5.397859,51.565919],[5.39781,51.565894],[5.397934,51.565833],[5.398009,51.565781],[5.398064,51.565717],[5.398141,51.565544],[5.398155,51.565528],[5.398158,51.565525],[5.398161,51.565517],[5.398268,51.565212],[5.398298,51.565129],[5.39852,51.564527],[5.398526,51.564511],[5.398744,51.563912],[5.399126,51.563283],[5.399321,51.563068],[5.400084,51.562403],[5.400133,51.562383],[5.401494,51.561943],[5.401531,51.561931],[5.401605,51.561915],[5.401623,51.561914],[5.401667,51.561911],[5.402213,51.561924],[5.402701,51.561941],[5.402763,51.561943],[5.403785,51.561979],[5.403788,51.561979],[5.404825,51.562015],[5.404836,51.562015],[5.405201,51.562028],[5.405154,51.561943],[5.404602,51.560962],[5.403586,51.559156],[5.403585,51.559156],[5.40288,51.557902],[5.402811,51.557778],[5.402914,51.557763],[5.403042,51.557449],[5.404219,51.55456],[5.404247,51.554431],[5.404247,51.554425],[5.404259,51.554336],[5.404439,51.552954],[5.404495,51.552524],[5.404499,51.552487],[5.4045,51.552484],[5.404535,51.55157],[5.404526,51.551484],[5.404392,51.550146],[5.404238,51.550148],[5.404165,51.550142],[5.404018,51.550118],[5.404029,51.550022],[5.40403,51.550014],[5.404031,51.550005],[5.404117,51.549276],[5.404213,51.54846],[5.404233,51.548292],[5.404163,51.548288],[5.403539,51.548253],[5.401618,51.547693],[5.401146,51.547555],[5.400294,51.547307],[5.39919,51.547063],[5.398592,51.546931],[5.398103,51.546823],[5.396842,51.546545],[5.396321,51.54652],[5.396314,51.54652],[5.396117,51.546511],[5.393739,51.546398],[5.393646,51.546394],[5.393778,51.546018],[5.390611,51.54538],[5.390419,51.545295],[5.39023,51.545212],[5.388223,51.544367],[5.388166,51.544332],[5.388162,51.544277],[5.387201,51.544136],[5.386053,51.543967],[5.384579,51.543751],[5.382792,51.543489],[5.382675,51.543728],[5.382674,51.543782],[5.382501,51.543779],[5.381957,51.543768],[5.37791,51.543686],[5.377835,51.543684],[5.373444,51.543595],[5.373292,51.543592],[5.373288,51.543592],[5.372786,51.543582],[5.372291,51.543572],[5.37202,51.543566],[5.371776,51.543562],[5.371771,51.543562],[5.370423,51.543541],[5.37026,51.543538],[5.36852,51.543523],[5.368491,51.543833],[5.368396,51.543884],[5.368272,51.543957],[5.368258,51.543966],[5.367898,51.54418],[5.367745,51.544259],[5.366684,51.544663],[5.366568,51.544697],[5.366213,51.544772],[5.365585,51.544904],[5.365171,51.545003],[5.365081,51.544998],[5.364687,51.544977],[5.363806,51.54493],[5.362165,51.544904],[5.361759,51.544946],[5.361457,51.544924],[5.361101,51.5449],[5.36107,51.544896],[5.360979,51.544888],[5.358406,51.544664],[5.35837,51.544665],[5.357713,51.544692],[5.357707,51.544692],[5.357626,51.544695],[5.357575,51.544697],[5.357546,51.544698],[5.357436,51.544703],[5.357144,51.544714],[5.356964,51.544716],[5.356911,51.544717],[5.356897,51.544717],[5.356849,51.544717],[5.356845,51.544717],[5.356841,51.544717],[5.355787,51.544728],[5.355772,51.544728],[5.355692,51.544744],[5.35562,51.544758],[5.355563,51.54477],[5.354842,51.544861],[5.354842,51.544872],[5.354699,51.54489],[5.353865,51.544999],[5.353696,51.545021],[5.353532,51.54504],[5.353384,51.545035],[5.353268,51.545009],[5.353156,51.544969],[5.353095,51.544893],[5.353026,51.544826],[5.352868,51.544736],[5.352759,51.544667],[5.352623,51.544599],[5.352513,51.544565],[5.352214,51.544493],[5.351764,51.544361],[5.351448,51.544302],[5.351277,51.544336],[5.35108,51.544338],[5.350889,51.544352],[5.350648,51.544319],[5.350553,51.544333],[5.350479,51.544331],[5.350375,51.544307],[5.350274,51.544286],[5.35014,51.544264],[5.350016,51.544244],[5.349847,51.544237],[5.349733,51.54424],[5.349588,51.544252],[5.349438,51.544261],[5.349309,51.544271],[5.349139,51.544281],[5.348986,51.544285],[5.348854,51.544293],[5.348666,51.544287],[5.348545,51.544283],[5.348415,51.544282],[5.348186,51.544263],[5.34808,51.544255],[5.347975,51.544249],[5.347867,51.544236],[5.347765,51.544226],[5.347647,51.544217],[5.347526,51.544222],[5.347351,51.544236],[5.347202,51.544252],[5.347078,51.544255],[5.34693,51.544262],[5.34677,51.544258],[5.346559,51.544226],[5.346408,51.544209],[5.346264,51.544224],[5.346145,51.544254],[5.346018,51.544292],[5.34573,51.544398],[5.345516,51.544375],[5.345357,51.544369],[5.345055,51.544373],[5.34486,51.544382],[5.34465,51.544395],[5.344537,51.544414],[5.344157,51.544446],[5.344078,51.544455],[5.343954,51.544469],[5.343932,51.544471],[5.343917,51.544474],[5.342566,51.544772],[5.341454,51.545138],[5.340452,51.545475],[5.340362,51.545498],[5.339248,51.545699],[5.339172,51.545716],[5.339068,51.545747],[5.338266,51.546012],[5.337631,51.546221],[5.33735,51.54632],[5.337193,51.546403],[5.336874,51.546695],[5.336719,51.546817],[5.336363,51.547141],[5.336299,51.547209],[5.336149,51.547475],[5.336059,51.547635],[5.335974,51.547783],[5.335826,51.547907],[5.335542,51.54811],[5.335316,51.548274],[5.335191,51.548365],[5.335107,51.54845],[5.335062,51.548496],[5.334983,51.548599],[5.334803,51.548872],[5.334696,51.549017],[5.334367,51.549341],[5.334205,51.549487],[5.334165,51.549524],[5.334103,51.549604],[5.334068,51.549683],[5.334046,51.549759],[5.334024,51.54987],[5.333972,51.549987],[5.333937,51.550083],[5.333911,51.550212],[5.333958,51.550395],[5.33404,51.550631],[5.334054,51.550658],[5.334043,51.550659],[5.33388,51.550747],[5.333216,51.551071],[5.333201,51.55108],[5.333185,51.551088],[5.333169,51.551095],[5.333157,51.5511],[5.33314,51.551107],[5.333122,51.551113],[5.33311,51.551117],[5.333091,51.551122],[5.333072,51.551127],[5.333059,51.551129],[5.333039,51.551133],[5.333019,51.551136],[5.332999,51.551138],[5.332978,51.551139],[5.332958,51.55114],[5.332944,51.55114],[5.331768,51.551206],[5.330425,51.55128],[5.330305,51.551263],[5.330095,51.551229],[5.32953,51.551097],[5.329476,51.551085],[5.329466,51.551082],[5.329299,51.551215],[5.329266,51.551216],[5.325447,51.551351],[5.325444,51.551352],[5.325271,51.551302],[5.325208,51.551284],[5.325128,51.551261],[5.325026,51.551232],[5.324683,51.551134],[5.324664,51.551128],[5.324417,51.551039],[5.324067,51.550913],[5.324065,51.550913],[5.32399,51.550871],[5.323937,51.550841],[5.321209,51.549992],[5.319481,51.549473],[5.319468,51.549467],[5.319045,51.549338],[5.318973,51.549308],[5.31897,51.549306],[5.318812,51.549256],[5.318789,51.549249],[5.318651,51.549206],[5.316219,51.54844],[5.315117,51.548093],[5.312521,51.547275],[5.312176,51.547166],[5.308877,51.546127],[5.308396,51.54598],[5.307934,51.546071],[5.30784,51.54609],[5.307436,51.54617],[5.307127,51.546232],[5.307046,51.546248],[5.306929,51.546271],[5.305285,51.546597],[5.304711,51.546711],[5.304126,51.546827],[5.303998,51.546853],[5.303312,51.546989],[5.302721,51.547106],[5.302344,51.547181],[5.302285,51.547193],[5.302134,51.547223],[5.300701,51.547509],[5.300641,51.547521],[5.300584,51.547532],[5.300534,51.547542],[5.299092,51.54783],[5.299045,51.547839],[5.296032,51.548426],[5.28937,51.549724],[5.289385,51.549746],[5.289192,51.549783],[5.287154,51.550177],[5.286278,51.550343],[5.285939,51.550407],[5.285847,51.550425],[5.28584,51.550426],[5.2858,51.550431],[5.285605,51.550454],[5.28501,51.550565],[5.284197,51.550719],[5.282722,51.551006],[5.282428,51.551063],[5.282106,51.551124],[5.281001,51.551335],[5.280542,51.551421],[5.279714,51.55158],[5.27889,51.551743],[5.278292,51.551857],[5.278248,51.551865],[5.2782,51.551874],[5.278063,51.551901],[5.278002,51.551913],[5.27732,51.552047],[5.276305,51.55224],[5.274101,51.552662],[5.273588,51.552762],[5.273326,51.55281],[5.273275,51.55282],[5.273271,51.552821],[5.273223,51.55283],[5.273042,51.552865],[5.27286,51.5529],[5.272357,51.552997],[5.271854,51.553094],[5.271502,51.553167],[5.271384,51.55319],[5.270742,51.553312],[5.2701,51.553435],[5.269988,51.553461],[5.269886,51.55351],[5.269784,51.553559],[5.269624,51.55362],[5.269535,51.553638],[5.269445,51.553656],[5.269426,51.553638],[5.269385,51.553646],[5.269334,51.553655],[5.269238,51.553674],[5.269142,51.553692],[5.269064,51.553707],[5.268986,51.553721],[5.268952,51.553726],[5.268924,51.553731],[5.2689,51.553727],[5.268859,51.553765],[5.268848,51.553775],[5.267482,51.55504],[5.265257,51.557128],[5.264995,51.557386],[5.261884,51.560587],[5.261456,51.561129],[5.260865,51.561876],[5.260148,51.562742],[5.259787,51.563175],[5.258956,51.564171],[5.257595,51.565801],[5.257398,51.566038],[5.257124,51.566367],[5.254463,51.569554],[5.253376,51.570856],[5.252444,51.571973],[5.251115,51.573565],[5.249628,51.575347],[5.248163,51.577101],[5.247153,51.578311],[5.246735,51.578811],[5.24643,51.579176],[5.246238,51.579406],[5.246178,51.579478],[5.246208,51.579668],[5.24626,51.579999],[5.246312,51.58033],[5.246452,51.581217],[5.246649,51.582465],[5.246785,51.58352],[5.246953,51.584822],[5.247026,51.58539],[5.247139,51.586259],[5.247199,51.586713],[5.247225,51.586917],[5.24724,51.58703],[5.247241,51.587041]]]},"properties":{"type":"boundary","gemeente":"Boxtel"}}]}