{"type":"FeatureCollection","metadata":{"gemeente":"Brunssum","slug":"brunssum","generated_at":"2026-09-28T08:14:57.419194Z","total_points":39,"providers":["Amazon","DeBuren","DHL","DPD","PostNL","VintedGo","FedEx","InPost","Budbee"],"bounds":[5.9444478,50.93021754,5.98011,50.958472]},"features":[{"type":"Feature","geometry":{"type":"Point","coordinates":[5.97232990953047,50.9458940696572]},"properties":{"type":"pakketpunt","locatieNaam":"Every Day Slijterij PpP","straatNaam":"'t Winkelcentrum 15","straatNr":"","vervoerder":"Amazon","puntType":"3p","bezettingsgraad":50,"latitude":50.9458940696572,"longitude":5.97232990953047,"canPickup":true,"canDropoff":false,"openingstijden":null}},{"type":"Feature","geometry":{"type":"Point","coordinates":[5.973014508095368,50.93995456867077]},"properties":{"type":"pakketpunt","locatieNaam":"DHL - DeBuren Locker 24-7  Lukoil Bruns","straatNaam":"Prins Hendriklaan 243","straatNr":"","vervoerder":"Amazon","puntType":"3p","bezettingsgraad":50,"latitude":50.93995456867077,"longitude":5.973014508095368,"canPickup":true,"canDropoff":false,"openingstijden":null}},{"type":"Feature","geometry":{"type":"Point","coordinates":[5.975003230684246,50.930337973259704]},"properties":{"type":"pakketpunt","locatieNaam":"DHL - Pakketautomaat Tango Akerstraat","straatNaam":"Akerstraat 126","straatNr":"","vervoerder":"Amazon","puntType":"3p","bezettingsgraad":50,"latitude":50.930337973259704,"longitude":5.975003230684246,"canPickup":true,"canDropoff":false,"openingstijden":null}},{"type":"Feature","geometry":{"type":"Point","coordinates":[5.97482537,50.93021754]},"properties":{"type":"pakketpunt","locatieNaam":"Brunssum | Akerstraat | Tango | Pakketautomaat","straatNaam":"Akerstraat","straatNr":"126","vervoerder":"DeBuren","puntType":"Buitenkluis","bezettingsgraad":50,"latitude":50.93021754,"longitude":5.97482537,"canPickup":true,"canDropoff":true,"openingstijden":null}},{"type":"Feature","geometry":{"type":"Point","coordinates":[5.97362974,50.93799817]},"properties":{"type":"pakketpunt","locatieNaam":"Brunssum | Pr. Hendriklaan | Lukoil | Pakketautomaat","straatNaam":"Prins Hendriklaan","straatNr":"243","vervoerder":"DeBuren","puntType":"Buitenkluis","bezettingsgraad":50,"latitude":50.93799817,"longitude":5.97362974,"canPickup":true,"canDropoff":true,"openingstijden":null}},{"type":"Feature","geometry":{"type":"Point","coordinates":[5.975003230684246,50.930337973259704]},"properties":{"type":"pakketpunt","locatieNaam":"Pakketautomaat Tango Akerstraat","straatNaam":"Akerstraat","straatNr":"126","vervoerder":"DHL","puntType":"packStation","bezettingsgraad":50,"latitude":50.930337973259704,"longitude":5.975003230684246,"canPickup":true,"canDropoff":true,"openingstijden":{"ma":"00:00 - 23:59","di":"00:00 - 23:59","wo":"00:00 - 23:59","do":"00:00 - 23:59","vr":"00:00 - 23:59","za":"00:00 - 23:59","zo":"00:00 - 23:59"}}},{"type":"Feature","geometry":{"type":"Point","coordinates":[5.949732405707205,50.93289116139289]},"properties":{"type":"pakketpunt","locatieNaam":"Pakketautomaat GAMMA Brunssum","straatNaam":"De Pijler","straatNr":"38","vervoerder":"DHL","puntType":"packStation","bezettingsgraad":50,"latitude":50.93289116139289,"longitude":5.949732405707205,"canPickup":true,"canDropoff":true,"openingstijden":{"ma":"09:00 - 21:00","di":"09:00 - 21:00","wo":"09:00 - 21:00","do":"09:00 - 21:00","vr":"09:00 - 21:00","za":"09:00 - 18:00","zo":"10:00 - 17:00"}}},{"type":"Feature","geometry":{"type":"Point","coordinates":[5.972808,50.958472]},"properties":{"type":"pakketpunt","locatieNaam":"Pakketautomaat Basic-Fit Brunssum","straatNaam":"Haefland","straatNr":"2","vervoerder":"DHL","puntType":"packStation","bezettingsgraad":50,"latitude":50.958472,"longitude":5.972808,"canPickup":true,"canDropoff":true,"openingstijden":{"ma":"00:00 - 23:59","di":"00:00 - 23:59","wo":"00:00 - 23:59","do":"00:00 - 23:59","vr":"00:00 - 23:59","za":"00:00 - 23:59","zo":"00:00 - 23:59"}}},{"type":"Feature","geometry":{"type":"Point","coordinates":[5.972386,50.94898]},"properties":{"type":"pakketpunt","locatieNaam":"Plan Uw Kantoor","straatNaam":"Kerkstraat","straatNr":"326","vervoerder":"DHL","puntType":"parcelShop","bezettingsgraad":50,"latitude":50.94898,"longitude":5.972386,"canPickup":true,"canDropoff":true,"openingstijden":{"ma":"13:00 - 18:00","di":"10:00 - 18:00","wo":"10:00 - 18:00","do":"10:00 - 18:00","vr":"10:00 - 18:00","za":"gesloten","zo":"gesloten"}}},{"type":"Feature","geometry":{"type":"Point","coordinates":[5.9709349,50.9446432]},"properties":{"type":"pakketpunt","locatieNaam":"Luz Y Amor","straatNaam":"Kerkstraat","straatNr":"14","vervoerder":"DHL","puntType":"parcelShop","bezettingsgraad":50,"latitude":50.9446432,"longitude":5.9709349,"canPickup":true,"canDropoff":true,"openingstijden":{"ma":"gesloten","di":"10:00 - 18:00","wo":"10:00 - 18:00","do":"11:45 - 19:00","vr":"10:00 - 18:00","za":"10:00 - 14:00","zo":"gesloten"}}},{"type":"Feature","geometry":{"type":"Point","coordinates":[5.9724025,50.9460131]},"properties":{"type":"pakketpunt","locatieNaam":"Every day drink slijterij","straatNaam":"Het winkelcentrum","straatNr":"15","vervoerder":"DHL","puntType":"parcelShop","bezettingsgraad":50,"latitude":50.9460131,"longitude":5.9724025,"canPickup":true,"canDropoff":true,"openingstijden":{"ma":"gesloten","di":"11:00 - 17:00","wo":"11:00 - 17:00","do":"11:00 - 17:00","vr":"11:00 - 17:00","za":"11:00 - 16:30","zo":"gesloten"}}},{"type":"Feature","geometry":{"type":"Point","coordinates":[5.969713,50.9381069]},"properties":{"type":"pakketpunt","locatieNaam":"Pakketautomaat Lidl Brunssum","straatNaam":"Rumpenerstraat","straatNr":"116","vervoerder":"DHL","puntType":"packStation","bezettingsgraad":50,"latitude":50.9381069,"longitude":5.969713,"canPickup":true,"canDropoff":true,"openingstijden":{"ma":"00:00 - 23:59","di":"00:00 - 23:59","wo":"00:00 - 23:59","do":"00:00 - 23:59","vr":"00:00 - 23:59","za":"00:00 - 23:59","zo":"00:00 - 23:59"}}},{"type":"Feature","geometry":{"type":"Point","coordinates":[5.980041,50.9580518]},"properties":{"type":"pakketpunt","locatieNaam":"WLL E-commerce Solutions","straatNaam":"Molenvaart","straatNr":"3-A","vervoerder":"DHL","puntType":"parcelShop","bezettingsgraad":50,"latitude":50.9580518,"longitude":5.980041,"canPickup":true,"canDropoff":true,"openingstijden":{"ma":"10:00 - 19:00","di":"10:00 - 19:00","wo":"10:00 - 19:00","do":"10:00 - 19:00","vr":"10:00 - 19:00","za":"10:00 - 17:00","zo":"gesloten"}}},{"type":"Feature","geometry":{"type":"Point","coordinates":[5.973014508095368,50.93995456867077]},"properties":{"type":"pakketpunt","locatieNaam":"DeBuren Locker 24-7  Lukoil Bruns","straatNaam":"Prins Hendriklaan","straatNr":"243","vervoerder":"DHL","puntType":"packStation","bezettingsgraad":50,"latitude":50.93995456867077,"longitude":5.973014508095368,"canPickup":true,"canDropoff":true,"openingstijden":{"ma":"00:00 - 23:59","di":"00:00 - 23:59","wo":"00:00 - 23:59","do":"00:00 - 23:59","vr":"00:00 - 23:59","za":"00:00 - 23:59","zo":"00:00 - 23:59"}}},{"type":"Feature","geometry":{"type":"Point","coordinates":[5.9444478,50.9305691]},"properties":{"type":"pakketpunt","locatieNaam":"Beckers Sales & Rental","straatNaam":"PIJLER","straatNr":"32","vervoerder":"DPD","puntType":"pickup_point","bezettingsgraad":50,"latitude":50.9305691,"longitude":5.9444478,"canPickup":true,"canDropoff":true,"openingstijden":{"ma":"gesloten","di":"09:00 - 17:00","wo":"09:00 - 17:00","do":"09:00 - 17:00","vr":"09:00 - 17:00","za":"10:00 - 15:00","zo":"gesloten"}}},{"type":"Feature","geometry":{"type":"Point","coordinates":[5.97272,50.94628]},"properties":{"type":"pakketpunt","locatieNaam":"Totaal Gemak Heijne - Trendyballoon","straatNaam":"'T WINKELCENTRUM","straatNr":"5A","vervoerder":"DPD","puntType":"pickup_point","bezettingsgraad":50,"latitude":50.94628,"longitude":5.97272,"canPickup":true,"canDropoff":true,"openingstijden":{"ma":"13:00 - 17:00","di":"09:30 - 17:00","wo":"09:30 - 17:00","do":"09:30 - 17:00","vr":"09:30 - 17:00","za":"09:30 - 17:00","zo":"gesloten"}}},{"type":"Feature","geometry":{"type":"Point","coordinates":[5.959573,50.949726]},"properties":{"type":"pakketpunt","locatieNaam":"UR190 Pakketautomaat Budbee","straatNaam":"KENNEDYLAAN","straatNr":"90","vervoerder":"DPD","puntType":"dpd_box","bezettingsgraad":50,"latitude":50.949726,"longitude":5.959573,"canPickup":true,"canDropoff":false,"openingstijden":{"ma":"08:00 - 22:00","di":"08:00 - 22:00","wo":"08:00 - 22:00","do":"08:00 - 22:00","vr":"08:00 - 22:00","za":"08:00 - 22:00","zo":"08:00 - 20:00"}}},{"type":"Feature","geometry":{"type":"Point","coordinates":[5.97342,50.93787]},"properties":{"type":"pakketpunt","locatieNaam":"Pakketautomaat Lukoil Prins Hendrik","straatNaam":"PRINS HENDRIKLAAN","straatNr":"243","vervoerder":"DPD","puntType":"dpd_box","bezettingsgraad":50,"latitude":50.93787,"longitude":5.97342,"canPickup":true,"canDropoff":true,"openingstijden":{"ma":"00:01 - 23:59","di":"00:01 - 23:59","wo":"00:01 - 23:59","do":"00:01 - 23:59","vr":"00:01 - 23:59","za":"00:01 - 23:59","zo":"00:01 - 23:59"}}},{"type":"Feature","geometry":{"type":"Point","coordinates":[5.974825374,50.93021754]},"properties":{"type":"pakketpunt","locatieNaam":"Pakketautomaat Tango Akerstraat","straatNaam":"AKERSTRAAT","straatNr":"126","vervoerder":"DPD","puntType":"dpd_box","bezettingsgraad":50,"latitude":50.93021754,"longitude":5.974825374,"canPickup":true,"canDropoff":true,"openingstijden":{"ma":"00:01 - 23:59","di":"00:01 - 23:59","wo":"00:01 - 23:59","do":"00:01 - 23:59","vr":"00:01 - 23:59","za":"00:01 - 23:59","zo":"00:01 - 23:59"}}},{"type":"Feature","geometry":{"type":"Point","coordinates":[5.97985,50.95793]},"properties":{"type":"pakketpunt","locatieNaam":"Business Point - Webshop Logistics","straatNaam":"MOLENVAART","straatNr":"3","vervoerder":"DPD","puntType":"pickup_point","bezettingsgraad":50,"latitude":50.95793,"longitude":5.97985,"canPickup":true,"canDropoff":true,"openingstijden":{"ma":"10:00 - 19:00","di":"10:00 - 19:00","wo":"10:00 - 19:00","do":"10:00 - 19:00","vr":"10:00 - 19:00","za":"10:00 - 17:00","zo":"gesloten"}}},{"type":"Feature","geometry":{"type":"Point","coordinates":[5.97174053292294,50.9454206309044]},"properties":{"type":"pakketpunt","locatieNaam":"Pakket- en briefautomaat","straatNaam":"Kerkstraat","straatNr":"40PBA","vervoerder":"PostNL","puntType":"automaat","bezettingsgraad":50,"latitude":50.9454206309044,"longitude":5.97174053292294,"canPickup":true,"canDropoff":true,"openingstijden":"00:00 - 23:59"}},{"type":"Feature","geometry":{"type":"Point","coordinates":[5.97232990953047,50.9458940696572]},"properties":{"type":"pakketpunt","locatieNaam":"Every Day Slijterij PpP","straatNaam":"'t Winkelcentrum","straatNr":"15","vervoerder":"PostNL","puntType":"servicepunt","bezettingsgraad":50,"latitude":50.9458940696572,"longitude":5.97232990953047,"canPickup":true,"canDropoff":true,"openingstijden":null}},{"type":"Feature","geometry":{"type":"Point","coordinates":[5.9595948,50.9495629]},"properties":{"type":"pakketpunt","locatieNaam":"Pakket- en briefautomaat","straatNaam":"Kennedylaan","straatNr":"90PBA","vervoerder":"PostNL","puntType":"automaat","bezettingsgraad":50,"latitude":50.9495629,"longitude":5.9595948,"canPickup":true,"canDropoff":true,"openingstijden":"00:00 - 23:59"}},{"type":"Feature","geometry":{"type":"Point","coordinates":[5.979869801,50.95798186]},"properties":{"type":"pakketpunt","locatieNaam":"Webshop Logistics Limburg","straatNaam":"Molenvaart","straatNr":"3","vervoerder":"PostNL","puntType":"servicepunt","bezettingsgraad":50,"latitude":50.95798186,"longitude":5.979869801,"canPickup":true,"canDropoff":true,"openingstijden":"10:00 - 19:00 (Na 18:00 open; Zaterdag open)"}},{"type":"Feature","geometry":{"type":"Point","coordinates":[5.95352506296435,50.9359199413974]},"properties":{"type":"pakketpunt","locatieNaam":"Kringloop Helpen en Doen","straatNaam":"Schildstraat","straatNr":"14","vervoerder":"PostNL","puntType":"servicepunt","bezettingsgraad":50,"latitude":50.9359199413974,"longitude":5.95352506296435,"canPickup":true,"canDropoff":true,"openingstijden":"09:00 - 16:00 (Zaterdag open)"}},{"type":"Feature","geometry":{"type":"Point","coordinates":[5.949331455,50.93265941]},"properties":{"type":"pakketpunt","locatieNaam":"GAMMA Brunssum","straatNaam":"Pijler","straatNr":"38","vervoerder":"PostNL","puntType":"servicepunt","bezettingsgraad":50,"latitude":50.93265941,"longitude":5.949331455,"canPickup":true,"canDropoff":true,"openingstijden":"09:00 - 21:00"}},{"type":"Feature","geometry":{"type":"Point","coordinates":[5.949317122,50.93265049]},"properties":{"type":"pakketpunt","locatieNaam":"Pakket- en briefautomaat","straatNaam":"Pijler","straatNr":"38PBA","vervoerder":"PostNL","puntType":"automaat","bezettingsgraad":50,"latitude":50.93265049,"longitude":5.949317122,"canPickup":true,"canDropoff":true,"openingstijden":"00:00 - 23:59"}},{"type":"Feature","geometry":{"type":"Point","coordinates":[5.97987,50.95799]},"properties":{"type":"pakketpunt","locatieNaam":"Wll Retail Service ","straatNaam":"Molenvaart 3a","straatNr":"","vervoerder":"VintedGo","puntType":"parcel_shop","bezettingsgraad":50,"latitude":50.95799,"longitude":5.97987,"canPickup":true,"canDropoff":true,"openingstijden":null}},{"type":"Feature","geometry":{"type":"Point","coordinates":[5.97249,50.94588]},"properties":{"type":"pakketpunt","locatieNaam":"Every Day Drink Slijterij ","straatNaam":"'t Winkelcentrum 15","straatNr":"","vervoerder":"VintedGo","puntType":"parcel_shop","bezettingsgraad":50,"latitude":50.94588,"longitude":5.97249,"canPickup":true,"canDropoff":true,"openingstijden":null}},{"type":"Feature","geometry":{"type":"Point","coordinates":[5.9709393,50.9446307]},"properties":{"type":"pakketpunt","locatieNaam":"Luz Y Amor","straatNaam":"Kerkstraat 14","straatNr":"","vervoerder":"VintedGo","puntType":"parcel_shop","bezettingsgraad":50,"latitude":50.9446307,"longitude":5.9709393,"canPickup":true,"canDropoff":true,"openingstijden":null}},{"type":"Feature","geometry":{"type":"Point","coordinates":[5.959595918088145,50.94956413829481]},"properties":{"type":"pakketpunt","locatieNaam":"FedEx Ship&Get","straatNaam":"Kennedylaan 90 PBA","straatNr":"","vervoerder":"FedEx","puntType":"servicepunt","bezettingsgraad":50,"latitude":50.94956413829481,"longitude":5.959595918088145,"canPickup":true,"canDropoff":true,"openingstijden":{"ma":"00:00 - 23:59","di":"00:00 - 23:59","wo":"00:00 - 23:59","do":"00:00 - 23:59","vr":"00:00 - 23:59","za":"00:00 - 23:59","zo":"00:00 - 23:59"}}},{"type":"Feature","geometry":{"type":"Point","coordinates":[5.949376538046067,50.93275082496519]},"properties":{"type":"pakketpunt","locatieNaam":"FedEx Ship&Get","straatNaam":"Pijler 38 PBA","straatNr":"","vervoerder":"FedEx","puntType":"servicepunt","bezettingsgraad":50,"latitude":50.93275082496519,"longitude":5.949376538046067,"canPickup":true,"canDropoff":true,"openingstijden":{"ma":"00:00 - 23:59","di":"00:00 - 23:59","wo":"00:00 - 23:59","do":"00:00 - 23:59","vr":"00:00 - 23:59","za":"00:00 - 23:59","zo":"00:00 - 23:59"}}},{"type":"Feature","geometry":{"type":"Point","coordinates":[5.971815048371183,50.945157402311104]},"properties":{"type":"pakketpunt","locatieNaam":"FedEx Ship&Get","straatNaam":"Kerkstraat 40 PBA","straatNr":"","vervoerder":"FedEx","puntType":"servicepunt","bezettingsgraad":50,"latitude":50.945157402311104,"longitude":5.971815048371183,"canPickup":true,"canDropoff":true,"openingstijden":{"ma":"00:00 - 23:59","di":"00:00 - 23:59","wo":"00:00 - 23:59","do":"00:00 - 23:59","vr":"00:00 - 23:59","za":"00:00 - 23:59","zo":"00:00 - 23:59"}}},{"type":"Feature","geometry":{"type":"Point","coordinates":[5.972411553035886,50.9459966610584]},"properties":{"type":"pakketpunt","locatieNaam":"FedEx OnSite","straatNaam":"HET WINKELCENTRUM 15","straatNr":"","vervoerder":"FedEx","puntType":"servicepunt","bezettingsgraad":50,"latitude":50.9459966610584,"longitude":5.972411553035886,"canPickup":true,"canDropoff":true,"openingstijden":{"ma":"gesloten","di":"11:00 - 17:00","wo":"11:00 - 17:00","do":"11:00 - 17:00","vr":"11:00 - 17:00","za":"11:00 - 16:00","zo":"gesloten"}}},{"type":"Feature","geometry":{"type":"Point","coordinates":[5.980047431911846,50.957956938451815]},"properties":{"type":"pakketpunt","locatieNaam":"FedEx OnSite","straatNaam":"MOLENVAART 3 A","straatNr":"","vervoerder":"FedEx","puntType":"servicepunt","bezettingsgraad":50,"latitude":50.957956938451815,"longitude":5.980047431911846,"canPickup":true,"canDropoff":true,"openingstijden":{"ma":"10:00 - 20:00","di":"10:00 - 20:00","wo":"10:00 - 20:00","do":"10:00 - 20:00","vr":"10:00 - 20:00","za":"10:00 - 17:00","zo":"gesloten"}}},{"type":"Feature","geometry":{"type":"Point","coordinates":[5.98011,50.95803]},"properties":{"type":"pakketpunt","locatieNaam":"WLL E-COMMERCE","straatNaam":"Molenvaart 3 a","straatNr":"","vervoerder":"InPost","puntType":"servicepunt","bezettingsgraad":50,"latitude":50.95803,"longitude":5.98011,"canPickup":true,"canDropoff":true,"openingstijden":null}},{"type":"Feature","geometry":{"type":"Point","coordinates":[5.97244,50.94608]},"properties":{"type":"pakketpunt","locatieNaam":"EVERY DAY DRINK SLIJTERIJ","straatNaam":"Het Winkelcentrum 15","straatNr":"","vervoerder":"InPost","puntType":"servicepunt","bezettingsgraad":50,"latitude":50.94608,"longitude":5.97244,"canPickup":true,"canDropoff":true,"openingstijden":null}},{"type":"Feature","geometry":{"type":"Point","coordinates":[5.97094,50.94463]},"properties":{"type":"pakketpunt","locatieNaam":"LUZ Y AMOR","straatNaam":"Kerkstraat 14","straatNr":"","vervoerder":"InPost","puntType":"servicepunt","bezettingsgraad":50,"latitude":50.94463,"longitude":5.97094,"canPickup":true,"canDropoff":true,"openingstijden":null}},{"type":"Feature","geometry":{"type":"Point","coordinates":[5.959573,50.949726]},"properties":{"type":"pakketpunt","locatieNaam":"UR190 Pakketautomaat Budbee","straatNaam":"KENNEDYLAAN","straatNr":"90","vervoerder":"Budbee","puntType":"automaat","bezettingsgraad":50,"latitude":50.949726,"longitude":5.959573,"canPickup":true,"canDropoff":true,"openingstijden":null}},{"type":"Feature","geometry":{"type":"Polygon","coordinates":[[[5.92847,50.936612],[5.928622,50.936666],[5.928702,50.936693],[5.928704,50.936693],[5.929221,50.936817],[5.929696,50.937039],[5.930092,50.937177],[5.930711,50.937387],[5.931169,50.937543],[5.931348,50.937607],[5.932099,50.937836],[5.932697,50.938017],[5.933172,50.938189],[5.933917,50.938467],[5.934416,50.938636],[5.933839,50.938766],[5.93386,50.938801],[5.933726,50.93898],[5.933409,50.939363],[5.93252,50.940437],[5.93249,50.940474],[5.932342,50.94065],[5.931899,50.941077],[5.931885,50.941091],[5.931401,50.941557],[5.931425,50.941569],[5.931592,50.941724],[5.932039,50.942187],[5.932953,50.943135],[5.934633,50.944896],[5.934657,50.944921],[5.93475,50.94502],[5.934821,50.945125],[5.935694,50.946018],[5.936029,50.946325],[5.93622,50.946442],[5.936436,50.946545],[5.936586,50.946602],[5.936694,50.946637],[5.936696,50.946637],[5.936771,50.946661],[5.937798,50.946986],[5.938128,50.947102],[5.93816,50.94707],[5.939772,50.947601],[5.940635,50.947813],[5.941268,50.948098],[5.941358,50.948135],[5.941598,50.948279],[5.941707,50.948357],[5.941971,50.9486],[5.942292,50.949014],[5.942417,50.949189],[5.942448,50.949232],[5.942552,50.949378],[5.942633,50.949491],[5.942643,50.949506],[5.943096,50.949375],[5.943255,50.94933],[5.9438,50.949155],[5.944295,50.94937],[5.944904,50.949634],[5.945008,50.949674],[5.945056,50.949691],[5.945349,50.949805],[5.945556,50.949892],[5.946114,50.950077],[5.946192,50.950101],[5.946253,50.95012],[5.946353,50.950151],[5.946456,50.950183],[5.946559,50.950215],[5.946696,50.950257],[5.946835,50.950301],[5.946948,50.950336],[5.946988,50.950348],[5.947347,50.950462],[5.94752,50.950518],[5.94772,50.95058],[5.947907,50.950637],[5.94805,50.95068],[5.9481,50.950695],[5.948279,50.950746],[5.948558,50.950812],[5.948869,50.950901],[5.948922,50.950921],[5.949014,50.950949],[5.949537,50.951103],[5.949573,50.951115],[5.949599,50.951138],[5.949608,50.951174],[5.949598,50.951207],[5.949578,50.951238],[5.949528,50.951302],[5.949484,50.951375],[5.949337,50.951548],[5.949321,50.951553],[5.949294,50.951557],[5.949434,50.951579],[5.949539,50.951604],[5.949641,50.951631],[5.950521,50.951879],[5.951809,50.952243],[5.952081,50.95232],[5.95217,50.952342],[5.952376,50.952392],[5.952488,50.952423],[5.952625,50.952459],[5.952673,50.95247],[5.952499,50.952785],[5.952681,50.952946],[5.952762,50.953006],[5.952765,50.953015],[5.952966,50.953167],[5.952989,50.953184],[5.953232,50.953363],[5.953424,50.953501],[5.953432,50.953507],[5.953665,50.953663],[5.953731,50.953707],[5.953917,50.953817],[5.953962,50.953844],[5.954201,50.953995],[5.954493,50.954172],[5.954725,50.954313],[5.954933,50.954444],[5.955005,50.954486],[5.955223,50.954629],[5.955251,50.954656],[5.955293,50.954681],[5.955637,50.954884],[5.955687,50.954916],[5.955698,50.954922],[5.955851,50.955005],[5.956161,50.955166],[5.956174,50.955173],[5.956383,50.955274],[5.956464,50.955314],[5.95686,50.955509],[5.957154,50.955659],[5.957306,50.955742],[5.957429,50.955817],[5.957521,50.955882],[5.957589,50.955934],[5.957617,50.95596],[5.957639,50.955981],[5.95768,50.95602],[5.957707,50.956046],[5.95775,50.956087],[5.957846,50.956177],[5.957905,50.956219],[5.958138,50.956463],[5.958156,50.956479],[5.958388,50.956674],[5.958405,50.956677],[5.958419,50.956689],[5.958694,50.956785],[5.958869,50.956851],[5.959045,50.95691],[5.959117,50.956964],[5.959146,50.956962],[5.959185,50.95696],[5.959432,50.95709],[5.959441,50.957123],[5.959909,50.957358],[5.961825,50.958273],[5.962472,50.958581],[5.962654,50.958677],[5.962755,50.95874],[5.962917,50.958869],[5.964281,50.959954],[5.964395,50.960048],[5.964477,50.960121],[5.964584,50.960216],[5.964672,50.960299],[5.964838,50.960443],[5.964981,50.960569],[5.965136,50.960707],[5.965207,50.960772],[5.965357,50.960925],[5.965457,50.96105],[5.965474,50.961075],[5.965521,50.961161],[5.965675,50.961732],[5.965815,50.962252],[5.965862,50.962418],[5.96856,50.962495],[5.969128,50.962511],[5.969804,50.96253],[5.969882,50.962519],[5.969886,50.962519],[5.96999,50.962502],[5.970572,50.96219],[5.97068,50.962142],[5.970204,50.961957],[5.970154,50.961929],[5.969662,50.961544],[5.969465,50.96131],[5.969357,50.961224],[5.969084,50.961036],[5.969148,50.961],[5.969216,50.960962],[5.96985,50.960611],[5.970621,50.960186],[5.970757,50.960112],[5.972301,50.959275],[5.97308,50.959322],[5.973185,50.959328],[5.973234,50.959331],[5.973957,50.959375],[5.974023,50.958341],[5.974109,50.958336],[5.974401,50.958358],[5.974655,50.958384],[5.974729,50.958394],[5.974771,50.958418],[5.975018,50.958537],[5.975094,50.958572],[5.975099,50.958574],[5.975233,50.958632],[5.975385,50.958686],[5.975447,50.958711],[5.975716,50.958853],[5.975992,50.958999],[5.976218,50.959106],[5.976856,50.959333],[5.977094,50.959579],[5.977423,50.959738],[5.977895,50.959989],[5.977942,50.959954],[5.978039,50.959882],[5.978877,50.960203],[5.979058,50.960272],[5.979182,50.960319],[5.979645,50.960496],[5.980124,50.96068],[5.98355,50.960181],[5.983666,50.960164],[5.983834,50.96014],[5.984988,50.959972],[5.9859,50.95984],[5.985948,50.959833],[5.986504,50.959752],[5.988405,50.959477],[5.988581,50.959451],[5.988898,50.959405],[5.989108,50.959374],[5.989172,50.959365],[5.989592,50.959305],[5.989686,50.959291],[5.989832,50.959271],[5.990057,50.959238],[5.990185,50.95922],[5.990422,50.959186],[5.990605,50.95916],[5.990795,50.959133],[5.990974,50.959107],[5.991163,50.95908],[5.991737,50.958998],[5.993382,50.958763],[5.993408,50.958757],[5.99396,50.958651],[5.994986,50.958455],[5.995634,50.958375],[5.996249,50.958299],[5.99752,50.95809],[5.99847,50.957934],[5.998817,50.957877],[5.999193,50.957787],[5.999242,50.957775],[5.99925,50.957829],[5.999894,50.957797],[6.000043,50.95784],[6.000127,50.957865],[6.000793,50.957889],[6.001718,50.957892],[6.002401,50.957881],[6.003459,50.957783],[6.003464,50.957787],[6.005923,50.95755],[6.006054,50.957535],[6.005198,50.956777],[6.005261,50.956753],[6.007336,50.955937],[6.009384,50.955214],[6.009398,50.955238],[6.009512,50.955219],[6.010422,50.954888],[6.010464,50.954858],[6.010611,50.954795],[6.011225,50.954582],[6.011534,50.954466],[6.011801,50.954301],[6.012232,50.954179],[6.012221,50.954164],[6.012852,50.953968],[6.013198,50.953884],[6.013372,50.95382],[6.013382,50.953816],[6.014229,50.953506],[6.014784,50.953303],[6.016152,50.952803],[6.016487,50.95268],[6.016853,50.952643],[6.015497,50.949005],[6.015073,50.947883],[6.01576,50.945011],[6.015879,50.944508],[6.016463,50.942046],[6.016957,50.940008],[6.01711,50.939375],[6.017169,50.939062],[6.017781,50.936482],[6.018011,50.935508],[6.018202,50.934701],[6.018112,50.934539],[6.01787,50.934101],[6.017867,50.934097],[6.017525,50.933446],[6.017081,50.932603],[6.017003,50.932455],[6.016648,50.931781],[6.016249,50.931024],[6.016249,50.931023],[6.016137,50.930811],[6.01302,50.927743],[6.013018,50.927741],[6.012459,50.927191],[6.012396,50.927129],[6.01239,50.927122],[6.012287,50.927021],[6.012174,50.92691],[6.011941,50.926681],[6.011811,50.926552],[6.011811,50.926552],[6.011696,50.92644],[6.010583,50.926514],[6.010157,50.926542],[6.008557,50.926648],[6.007473,50.926721],[6.006264,50.926804],[6.005361,50.926866],[6.004529,50.926925],[6.003687,50.926987],[6.00298,50.927038],[6.002338,50.927082],[6.000856,50.927191],[5.997099,50.927466],[5.993534,50.927719],[5.991686,50.927844],[5.988666,50.928048],[5.987934,50.928103],[5.984234,50.928378],[5.983413,50.928439],[5.981183,50.928593],[5.980094,50.928668],[5.979604,50.928703],[5.978684,50.928769],[5.977717,50.928839],[5.977105,50.928886],[5.976743,50.928913],[5.97585,50.928975],[5.97548,50.929003],[5.975334,50.92895],[5.975099,50.928879],[5.97472,50.928787],[5.974637,50.928848],[5.974501,50.928938],[5.974259,50.929098],[5.973991,50.929279],[5.973597,50.929543],[5.973632,50.929631],[5.973189,50.929868],[5.972743,50.930139],[5.972724,50.930152],[5.972606,50.93023],[5.972506,50.930297],[5.972504,50.930298],[5.972345,50.930394],[5.972067,50.930562],[5.97205,50.930572],[5.971756,50.930734],[5.971704,50.930759],[5.9715,50.930855],[5.971462,50.930873],[5.971327,50.930939],[5.971214,50.930992],[5.971186,50.931],[5.971095,50.931031],[5.971009,50.931061],[5.971005,50.931062],[5.970511,50.931167],[5.970252,50.931226],[5.970101,50.931258],[5.970042,50.931272],[5.96999,50.931283],[5.969776,50.931329],[5.969629,50.931372],[5.969564,50.931392],[5.969529,50.931403],[5.969059,50.931556],[5.968988,50.931565],[5.968969,50.931568],[5.968775,50.93159],[5.968478,50.931641],[5.968189,50.93169],[5.967624,50.931871],[5.967134,50.932018],[5.966946,50.932061],[5.966824,50.932089],[5.966736,50.932111],[5.966588,50.93215],[5.966514,50.932174],[5.966405,50.932207],[5.966216,50.932322],[5.966061,50.932412],[5.965833,50.93256],[5.965719,50.932671],[5.965581,50.932782],[5.965418,50.932885],[5.965235,50.932972],[5.964448,50.933247],[5.964434,50.933252],[5.964307,50.933302],[5.964197,50.933358],[5.964162,50.933387],[5.964102,50.933437],[5.96402,50.933556],[5.963919,50.933811],[5.963833,50.933811],[5.963651,50.933824],[5.963456,50.933849],[5.963119,50.933904],[5.963057,50.933914],[5.962167,50.934051],[5.961266,50.934189],[5.961114,50.934207],[5.960952,50.934214],[5.960598,50.934222],[5.960259,50.934211],[5.959893,50.934198],[5.959338,50.934167],[5.958152,50.93408],[5.956813,50.933978],[5.955669,50.933898],[5.955572,50.933891],[5.954894,50.933838],[5.9549,50.933794],[5.954564,50.933724],[5.954113,50.933548],[5.95405,50.93339],[5.954238,50.932959],[5.953335,50.932705],[5.9528,50.93263],[5.952796,50.932629],[5.952362,50.932502],[5.95228,50.932478],[5.951137,50.931984],[5.949955,50.931472],[5.949485,50.931269],[5.94868,50.93092],[5.947296,50.930321],[5.946878,50.930145],[5.946443,50.929957],[5.946312,50.929901],[5.946049,50.929764],[5.946013,50.929742],[5.945981,50.929711],[5.945921,50.929654],[5.945888,50.929615],[5.945834,50.929555],[5.945782,50.929489],[5.945723,50.92939],[5.94568,50.929286],[5.945634,50.929128],[5.945605,50.928982],[5.945587,50.92883],[5.945584,50.928653],[5.945529,50.928641],[5.945458,50.928626],[5.945485,50.92837],[5.945264,50.92823],[5.945017,50.928164],[5.94421,50.927947],[5.944176,50.927998],[5.944096,50.927976],[5.943894,50.927923],[5.943642,50.927856],[5.943636,50.927855],[5.943638,50.927851],[5.943291,50.927759],[5.942926,50.927662],[5.942961,50.927609],[5.942997,50.927554],[5.943104,50.927391],[5.941859,50.927086],[5.941738,50.927152],[5.941632,50.92721],[5.941451,50.927303],[5.941413,50.927318],[5.941295,50.927363],[5.941186,50.927406],[5.941175,50.927411],[5.940624,50.927642],[5.940618,50.927644],[5.940088,50.927872],[5.939792,50.928007],[5.939654,50.928069],[5.939627,50.928081],[5.939511,50.928138],[5.939392,50.928197],[5.939191,50.928301],[5.938969,50.928418],[5.938755,50.928541],[5.938712,50.928507],[5.938142,50.928896],[5.938124,50.928888],[5.938066,50.928935],[5.937952,50.929027],[5.937819,50.929134],[5.937752,50.929181],[5.936725,50.929886],[5.936435,50.930057],[5.936185,50.930205],[5.936096,50.930257],[5.936039,50.930293],[5.935856,50.93041],[5.935609,50.930568],[5.935305,50.930766],[5.935036,50.93094],[5.934974,50.93098],[5.934942,50.930999],[5.934861,50.931054],[5.934811,50.931085],[5.934772,50.931112],[5.934738,50.931135],[5.934677,50.931174],[5.934608,50.931221],[5.934552,50.931257],[5.934311,50.931412],[5.934127,50.931529],[5.93404,50.931589],[5.934038,50.93159],[5.933992,50.93162],[5.933617,50.931859],[5.933524,50.931922],[5.933542,50.931934],[5.933485,50.931971],[5.933467,50.931963],[5.933296,50.932073],[5.933308,50.932082],[5.9332,50.932153],[5.933155,50.932183],[5.933083,50.932229],[5.933067,50.932239],[5.933026,50.932267],[5.932912,50.932341],[5.932766,50.932437],[5.932742,50.932452],[5.932601,50.932547],[5.932538,50.932585],[5.93246,50.932635],[5.932373,50.932691],[5.932293,50.932743],[5.932217,50.932792],[5.932195,50.93281],[5.931968,50.932958],[5.931843,50.93304],[5.931778,50.933083],[5.931715,50.933124],[5.931603,50.933197],[5.931486,50.933273],[5.931364,50.933351],[5.931229,50.93344],[5.931203,50.933457],[5.931202,50.933458],[5.931033,50.93357],[5.93084,50.933697],[5.930735,50.933765],[5.930713,50.933751],[5.930564,50.933849],[5.930582,50.93386],[5.930529,50.933898],[5.930468,50.933939],[5.930376,50.934002],[5.930389,50.934009],[5.930348,50.934043],[5.930224,50.934157],[5.930223,50.934157],[5.93014,50.934212],[5.930138,50.934214],[5.930114,50.934235],[5.930135,50.93424],[5.930111,50.934274],[5.929746,50.93479],[5.929205,50.935554],[5.929108,50.935689],[5.928964,50.935893],[5.928955,50.935891],[5.928907,50.935957],[5.928877,50.936],[5.928901,50.936007],[5.928856,50.93607],[5.928726,50.93625],[5.928698,50.936244],[5.928625,50.936349],[5.928646,50.936356],[5.928577,50.936456],[5.928549,50.936498],[5.92847,50.936612]]]},"properties":{"type":"boundary","gemeente":"Brunssum"}}]}