{"type":"FeatureCollection","metadata":{"gemeente":"Dinkelland","slug":"dinkelland","generated_at":"2026-10-05T08:49:01.921136Z","total_points":42,"providers":["Amazon","DHL","DPD","PostNL","VintedGo","ViaTim","FedEx","InPost"],"bounds":[6.8310062,52.2849775,7.0341667,52.42793441]},"features":[{"type":"Feature","geometry":{"type":"Point","coordinates":[6.853551710185255,52.3503770499258]},"properties":{"type":"pakketpunt","locatieNaam":"DHL - Pakketautomaat PLUS Weerselo","straatNaam":"Bisschopstraat 39","straatNr":"","vervoerder":"Amazon","puntType":"3p","bezettingsgraad":50,"latitude":52.3503770499258,"longitude":6.853551710185255,"canPickup":true,"canDropoff":false,"openingstijden":null}},{"type":"Feature","geometry":{"type":"Point","coordinates":[7.004278735,52.37421739]},"properties":{"type":"pakketpunt","locatieNaam":"Firma Brummelhuis+","straatNaam":"Nicolaasplein 8","straatNr":"","vervoerder":"Amazon","puntType":"3p","bezettingsgraad":50,"latitude":52.37421739,"longitude":7.004278735,"canPickup":true,"canDropoff":false,"openingstijden":null}},{"type":"Feature","geometry":{"type":"Point","coordinates":[7.006339682,52.37515105]},"properties":{"type":"pakketpunt","locatieNaam":"Morsink Multimedia","straatNaam":"Eurowerft 4","straatNr":"","vervoerder":"Amazon","puntType":"3p","bezettingsgraad":50,"latitude":52.37515105,"longitude":7.006339682,"canPickup":true,"canDropoff":false,"openingstijden":null}},{"type":"Feature","geometry":{"type":"Point","coordinates":[6.92503023035217,52.35421007247395]},"properties":{"type":"pakketpunt","locatieNaam":"Paul van Benthem","straatNaam":"Grotestraat 28","straatNr":"","vervoerder":"Amazon","puntType":"3p","bezettingsgraad":50,"latitude":52.35421007247395,"longitude":6.92503023035217,"canPickup":true,"canDropoff":false,"openingstijden":null}},{"type":"Feature","geometry":{"type":"Point","coordinates":[6.85338,52.28507]},"properties":{"type":"pakketpunt","locatieNaam":"DHL - DeBuren Locker 24-7 Frans op den B","straatNaam":"Hengelosestraat 6","straatNr":"","vervoerder":"Amazon","puntType":"3p","bezettingsgraad":50,"latitude":52.28507,"longitude":6.85338,"canPickup":true,"canDropoff":false,"openingstijden":null}},{"type":"Feature","geometry":{"type":"Point","coordinates":[6.85338,52.28507]},"properties":{"type":"pakketpunt","locatieNaam":"DeBuren Locker 24-7 Frans op den B","straatNaam":"Hengelosestraat","straatNr":"6","vervoerder":"DHL","puntType":"packStation","bezettingsgraad":50,"latitude":52.28507,"longitude":6.85338,"canPickup":true,"canDropoff":true,"openingstijden":{"ma":"00:00 - 23:59","di":"00:00 - 23:59","wo":"00:00 - 23:59","do":"00:00 - 23:59","vr":"00:00 - 23:59","za":"00:00 - 23:59","zo":"00:00 - 23:59"}}},{"type":"Feature","geometry":{"type":"Point","coordinates":[6.8310062,52.2984319]},"properties":{"type":"pakketpunt","locatieNaam":"AVIA Tankstation De Witte Beer","straatNaam":"Deurningerstraat","straatNr":"64","vervoerder":"DHL","puntType":"parcelShop","bezettingsgraad":50,"latitude":52.2984319,"longitude":6.8310062,"canPickup":true,"canDropoff":true,"openingstijden":{"ma":"07:00 - 20:00","di":"07:00 - 20:00","wo":"07:00 - 20:00","do":"07:00 - 20:00","vr":"07:00 - 20:00","za":"08:00 - 19:00","zo":"09:00 - 19:00"}}},{"type":"Feature","geometry":{"type":"Point","coordinates":[6.853551710185255,52.3503770499258]},"properties":{"type":"pakketpunt","locatieNaam":"Pakketautomaat PLUS Weerselo","straatNaam":"Bisschopstraat","straatNr":"39","vervoerder":"DHL","puntType":"packStation","bezettingsgraad":50,"latitude":52.3503770499258,"longitude":6.853551710185255,"canPickup":true,"canDropoff":true,"openingstijden":{"ma":"00:00 - 23:59","di":"00:00 - 23:59","wo":"00:00 - 23:59","do":"00:00 - 23:59","vr":"00:00 - 23:59","za":"00:00 - 23:59","zo":"00:00 - 23:59"}}},{"type":"Feature","geometry":{"type":"Point","coordinates":[6.8593722,52.3469432]},"properties":{"type":"pakketpunt","locatieNaam":"Tankstation Hoogendijk","straatNaam":"Holtwijkerstraat","straatNr":"3","vervoerder":"DHL","puntType":"parcelShop","bezettingsgraad":50,"latitude":52.3469432,"longitude":6.8593722,"canPickup":true,"canDropoff":true,"openingstijden":{"ma":"07:00 - 21:00","di":"07:00 - 21:00","wo":"07:00 - 21:00","do":"07:00 - 21:00","vr":"07:00 - 21:00","za":"07:30 - 21:00","zo":"08:30 - 21:00"}}},{"type":"Feature","geometry":{"type":"Point","coordinates":[6.9227839,52.3519428]},"properties":{"type":"pakketpunt","locatieNaam":"Kulturhus Rabo de CoCeR","straatNaam":"Thijplein","straatNr":"1","vervoerder":"DHL","puntType":"parcelShop","bezettingsgraad":50,"latitude":52.3519428,"longitude":6.9227839,"canPickup":true,"canDropoff":true,"openingstijden":{"ma":"gesloten","di":"08:30 - 17:00","wo":"08:30 - 17:00","do":"08:30 - 17:00","vr":"08:30 - 17:00","za":"gesloten","zo":"gesloten"}}},{"type":"Feature","geometry":{"type":"Point","coordinates":[6.9084535,52.412192]},"properties":{"type":"pakketpunt","locatieNaam":"SKDT Puur Geluk","straatNaam":"De Mors","straatNr":"105","vervoerder":"DHL","puntType":"parcelShop","bezettingsgraad":50,"latitude":52.412192,"longitude":6.9084535,"canPickup":true,"canDropoff":true,"openingstijden":{"ma":"09:00 - 17:00","di":"09:00 - 17:00","wo":"09:00 - 17:00","do":"09:00 - 17:00","vr":"09:00 - 17:00","za":"09:00 - 16:00","zo":"gesloten"}}},{"type":"Feature","geometry":{"type":"Point","coordinates":[7.006442,52.375206]},"properties":{"type":"pakketpunt","locatieNaam":"Schuurman Schoenen Denekamp","straatNaam":"Eurowerft","straatNr":"6","vervoerder":"DHL","puntType":"parcelShop","bezettingsgraad":50,"latitude":52.375206,"longitude":7.006442,"canPickup":true,"canDropoff":true,"openingstijden":{"ma":"13:00 - 17:30","di":"09:30 - 17:30","wo":"09:30 - 17:30","do":"09:30 - 17:30","vr":"09:30 - 17:30","za":"09:30 - 17:00","zo":"gesloten"}}},{"type":"Feature","geometry":{"type":"Point","coordinates":[7.0054182,52.3753277]},"properties":{"type":"pakketpunt","locatieNaam":"Pakketautomaat terStal Denekamp","straatNaam":"Eurowerft","straatNr":"5-Kast","vervoerder":"DHL","puntType":"packStation","bezettingsgraad":50,"latitude":52.3753277,"longitude":7.0054182,"canPickup":true,"canDropoff":true,"openingstijden":{"ma":"13:00 - 17:30","di":"09:30 - 17:30","wo":"09:30 - 17:30","do":"09:30 - 17:30","vr":"09:30 - 17:30","za":"09:30 - 17:00","zo":"gesloten"}}},{"type":"Feature","geometry":{"type":"Point","coordinates":[7.003829,52.375924]},"properties":{"type":"pakketpunt","locatieNaam":"Fashion365","straatNaam":"Ootmarsumsestraat","straatNr":"2","vervoerder":"DHL","puntType":"parcelShop","bezettingsgraad":50,"latitude":52.375924,"longitude":7.003829,"canPickup":true,"canDropoff":true,"openingstijden":{"ma":"gesloten","di":"09:30 - 17:30","wo":"09:30 - 17:30","do":"09:30 - 20:00","vr":"09:30 - 17:30","za":"09:30 - 17:00","zo":"gesloten"}}},{"type":"Feature","geometry":{"type":"Point","coordinates":[7.001066,52.372385]},"properties":{"type":"pakketpunt","locatieNaam":"PLUS Jan Ter Steege","straatNaam":"Oldenzaalsestraat","straatNr":"40-A","vervoerder":"DHL","puntType":"parcelShop","bezettingsgraad":50,"latitude":52.372385,"longitude":7.001066,"canPickup":true,"canDropoff":true,"openingstijden":{"ma":"08:00 - 21:00","di":"08:00 - 21:00","wo":"08:00 - 21:00","do":"08:00 - 21:00","vr":"08:00 - 21:00","za":"08:00 - 20:00","zo":"gesloten"}}},{"type":"Feature","geometry":{"type":"Point","coordinates":[7.0323100090026855,52.39950942993164]},"properties":{"type":"pakketpunt","locatieNaam":"AVIA Denekamp","straatNaam":"Nordhornsestraat","straatNr":"226","vervoerder":"DHL","puntType":"parcelShop","bezettingsgraad":50,"latitude":52.39950942993164,"longitude":7.0323100090026855,"canPickup":true,"canDropoff":true,"openingstijden":{"ma":"07:00 - 21:00","di":"07:00 - 21:00","wo":"07:00 - 21:00","do":"07:00 - 21:00","vr":"07:00 - 21:00","za":"07:00 - 21:00","zo":"08:00 - 21:00"}}},{"type":"Feature","geometry":{"type":"Point","coordinates":[7.003987,52.375958]},"properties":{"type":"pakketpunt","locatieNaam":"Elektro 'T Oude Lashof","straatNaam":"BRINKSTRAAT","straatNr":"1","vervoerder":"DPD","puntType":"pickup_point","bezettingsgraad":50,"latitude":52.375958,"longitude":7.003987,"canPickup":true,"canDropoff":true,"openingstijden":{"ma":"13:30 - 18:00","di":"09:00 - 18:00","wo":"09:00 - 18:00","do":"09:00 - 18:00","vr":"09:00 - 18:00","za":"09:00 - 17:00","zo":"gesloten"}}},{"type":"Feature","geometry":{"type":"Point","coordinates":[6.83103,52.29829]},"properties":{"type":"pakketpunt","locatieNaam":"Tankstation De Witte Beer","straatNaam":"DEURNINGERSTRAAT","straatNr":"64","vervoerder":"DPD","puntType":"pickup_point","bezettingsgraad":50,"latitude":52.29829,"longitude":6.83103,"canPickup":true,"canDropoff":true,"openingstijden":{"ma":"07:00 - 20:00","di":"07:00 - 20:00","wo":"07:00 - 20:00","do":"07:00 - 20:00","vr":"07:00 - 20:00","za":"08:00 - 20:00","zo":"09:00 - 20:00"}}},{"type":"Feature","geometry":{"type":"Point","coordinates":[6.859563,52.347197]},"properties":{"type":"pakketpunt","locatieNaam":"Hoogendijk Atw B.V.","straatNaam":"HOLTWIJKERSTRAAT","straatNr":"3","vervoerder":"DPD","puntType":"pickup_point","bezettingsgraad":50,"latitude":52.347197,"longitude":6.859563,"canPickup":true,"canDropoff":true,"openingstijden":{"ma":"07:00 - 21:00","di":"07:00 - 21:00","wo":"07:00 - 21:00","do":"07:00 - 21:00","vr":"07:00 - 21:00","za":"07:30 - 21:00","zo":"08:30 - 21:00"}}},{"type":"Feature","geometry":{"type":"Point","coordinates":[6.8533629,52.2849775]},"properties":{"type":"pakketpunt","locatieNaam":"Pakketautomaat Frans op den Bult He","straatNaam":"HENGELOSESTRAAT","straatNr":"6","vervoerder":"DPD","puntType":"dpd_box","bezettingsgraad":50,"latitude":52.2849775,"longitude":6.8533629,"canPickup":true,"canDropoff":true,"openingstijden":{"ma":"00:01 - 23:59","di":"00:01 - 23:59","wo":"00:01 - 23:59","do":"00:01 - 23:59","vr":"00:01 - 23:59","za":"00:01 - 23:59","zo":"00:01 - 23:59"}}},{"type":"Feature","geometry":{"type":"Point","coordinates":[6.92503023035217,52.35421007247395]},"properties":{"type":"pakketpunt","locatieNaam":"Paul van Benthem","straatNaam":"Grotestraat","straatNr":"28","vervoerder":"PostNL","puntType":"servicepunt","bezettingsgraad":50,"latitude":52.35421007247395,"longitude":6.92503023035217,"canPickup":true,"canDropoff":true,"openingstijden":null}},{"type":"Feature","geometry":{"type":"Point","coordinates":[6.897423515,52.4080792]},"properties":{"type":"pakketpunt","locatieNaam":"Sigarenspeciaalzaak Brummelhuis","straatNaam":"Markt","straatNr":"9","vervoerder":"PostNL","puntType":"servicepunt","bezettingsgraad":50,"latitude":52.4080792,"longitude":6.897423515,"canPickup":true,"canDropoff":true,"openingstijden":"08:30 - 17:30 (Zaterdag open)"}},{"type":"Feature","geometry":{"type":"Point","coordinates":[6.85388454756927,52.3502799686741]},"properties":{"type":"pakketpunt","locatieNaam":"Pakketautomaat","straatNaam":"Bisschopstraat","straatNr":"39PBA","vervoerder":"PostNL","puntType":"automaat","bezettingsgraad":50,"latitude":52.3502799686741,"longitude":6.85388454756927,"canPickup":true,"canDropoff":true,"openingstijden":"00:00 - 23:59"}},{"type":"Feature","geometry":{"type":"Point","coordinates":[7.00152681551053,52.3720526279131]},"properties":{"type":"pakketpunt","locatieNaam":"Pakketautomaat","straatNaam":"Oldenzaalsestraat","straatNr":"40PBA","vervoerder":"PostNL","puntType":"automaat","bezettingsgraad":50,"latitude":52.3720526279131,"longitude":7.00152681551053,"canPickup":true,"canDropoff":true,"openingstijden":"08:00 - 21:00"}},{"type":"Feature","geometry":{"type":"Point","coordinates":[7.004278735,52.37421739]},"properties":{"type":"pakketpunt","locatieNaam":"Firma Brummelhuis","straatNaam":"Nicolaasplein","straatNr":"8","vervoerder":"PostNL","puntType":"servicepunt","bezettingsgraad":50,"latitude":52.37421739,"longitude":7.004278735,"canPickup":true,"canDropoff":true,"openingstijden":"08:00 - 18:00 (Na 18:00 open; Zaterdag open)"}},{"type":"Feature","geometry":{"type":"Point","coordinates":[7.006339682,52.37515105]},"properties":{"type":"pakketpunt","locatieNaam":"Morsink Multimedia","straatNaam":"Eurowerft","straatNr":"4","vervoerder":"PostNL","puntType":"servicepunt","bezettingsgraad":50,"latitude":52.37515105,"longitude":7.006339682,"canPickup":true,"canDropoff":true,"openingstijden":"13:00 - 17:30"}},{"type":"Feature","geometry":{"type":"Point","coordinates":[6.977183889,52.42793441]},"properties":{"type":"pakketpunt","locatieNaam":"Broenink Tweewielers","straatNaam":"Dorpsstraat","straatNr":"70","vervoerder":"PostNL","puntType":"servicepunt","bezettingsgraad":50,"latitude":52.42793441,"longitude":6.977183889,"canPickup":true,"canDropoff":true,"openingstijden":null}},{"type":"Feature","geometry":{"type":"Point","coordinates":[7.034059337,52.40253605]},"properties":{"type":"pakketpunt","locatieNaam":"Tensundern supermarkt","straatNaam":"Nordhornsestraat","straatNr":"233","vervoerder":"PostNL","puntType":"servicepunt","bezettingsgraad":50,"latitude":52.40253605,"longitude":7.034059337,"canPickup":true,"canDropoff":true,"openingstijden":"08:00 - 21:00"}},{"type":"Feature","geometry":{"type":"Point","coordinates":[6.838780188,52.30407453]},"properties":{"type":"pakketpunt","locatieNaam":"ABTB Bijen","straatNaam":"'t Haarboer","straatNr":"1","vervoerder":"PostNL","puntType":"servicepunt","bezettingsgraad":50,"latitude":52.30407453,"longitude":6.838780188,"canPickup":true,"canDropoff":true,"openingstijden":"08:30 - 18:00 (Na 18:00 open; Zaterdag open)"}},{"type":"Feature","geometry":{"type":"Point","coordinates":[6.8571304,52.352633]},"properties":{"type":"pakketpunt","locatieNaam":"Welman Winkel","straatNaam":"Legtenbergerstraat 15","straatNr":"","vervoerder":"VintedGo","puntType":"parcel_shop","bezettingsgraad":50,"latitude":52.352633,"longitude":6.8571304,"canPickup":true,"canDropoff":true,"openingstijden":null}},{"type":"Feature","geometry":{"type":"Point","coordinates":[6.90864,52.41223]},"properties":{"type":"pakketpunt","locatieNaam":"Skdt-Stichting","straatNaam":"De Mors 105","straatNr":"","vervoerder":"VintedGo","puntType":"parcel_shop","bezettingsgraad":50,"latitude":52.41223,"longitude":6.90864,"canPickup":true,"canDropoff":true,"openingstijden":null}},{"type":"Feature","geometry":{"type":"Point","coordinates":[7.0044,52.37507]},"properties":{"type":"pakketpunt","locatieNaam":"De Galerie","straatNaam":"Grotestraat 13","straatNr":"","vervoerder":"VintedGo","puntType":"parcel_shop","bezettingsgraad":50,"latitude":52.37507,"longitude":7.0044,"canPickup":true,"canDropoff":true,"openingstijden":null}},{"type":"Feature","geometry":{"type":"Point","coordinates":[7.0341667,52.4025]},"properties":{"type":"pakketpunt","locatieNaam":"Tensundern Supermarket","straatNaam":"Nordhornsestraat 233","straatNr":"","vervoerder":"VintedGo","puntType":"parcel_shop","bezettingsgraad":50,"latitude":52.4025,"longitude":7.0341667,"canPickup":true,"canDropoff":true,"openingstijden":null}},{"type":"Feature","geometry":{"type":"Point","coordinates":[7.0048387,52.3756807]},"properties":{"type":"pakketpunt","locatieNaam":"Lvly Conceptstore ","straatNaam":"Vledderstraat 1-D","straatNr":"","vervoerder":"VintedGo","puntType":"parcel_shop","bezettingsgraad":50,"latitude":52.3756807,"longitude":7.0048387,"canPickup":true,"canDropoff":true,"openingstijden":null}},{"type":"Feature","geometry":{"type":"Point","coordinates":[7.0064077,52.3752281]},"properties":{"type":"pakketpunt","locatieNaam":"Schuurman Schoenen - Denekamp","straatNaam":"Eurowerft 6","straatNr":"","vervoerder":"VintedGo","puntType":"parcel_shop","bezettingsgraad":50,"latitude":52.3752281,"longitude":7.0064077,"canPickup":true,"canDropoff":true,"openingstijden":null}},{"type":"Feature","geometry":{"type":"Point","coordinates":[7.0104494,52.3775187]},"properties":{"type":"pakketpunt","locatieNaam":"Autocleaning Herbie","straatNaam":"Krabbendijk 5","straatNr":"","vervoerder":"VintedGo","puntType":"parcel_shop","bezettingsgraad":50,"latitude":52.3775187,"longitude":7.0104494,"canPickup":true,"canDropoff":true,"openingstijden":null}},{"type":"Feature","geometry":{"type":"Point","coordinates":[6.8547812,52.3505898]},"properties":{"type":"pakketpunt","locatieNaam":"Franke Speelgoed&kadoo","straatNaam":"Sint Remigiusstraat 2","straatNr":"","vervoerder":"VintedGo","puntType":"parcel_shop","bezettingsgraad":50,"latitude":52.3505898,"longitude":6.8547812,"canPickup":true,"canDropoff":true,"openingstijden":null}},{"type":"Feature","geometry":{"type":"Point","coordinates":[6.9055907,52.4051139]},"properties":{"type":"pakketpunt","locatieNaam":"ViaTim en Mark","straatNaam":"Van Bodelswingstraat","straatNr":"30","vervoerder":"ViaTim","puntType":"servicepunt","bezettingsgraad":50,"latitude":52.4051139,"longitude":6.9055907,"canPickup":true,"canDropoff":true,"openingstijden":{"ma":"18:00 - 21:00","di":"gesloten","wo":"18:00 - 21:00","do":"gesloten","vr":"18:00 - 21:00","za":"gesloten","zo":"gesloten"}}},{"type":"Feature","geometry":{"type":"Point","coordinates":[7.003987,52.375959]},"properties":{"type":"pakketpunt","locatieNaam":"FedEx OnSite","straatNaam":"BRINKSTRAAT 1","straatNr":"","vervoerder":"FedEx","puntType":"servicepunt","bezettingsgraad":50,"latitude":52.375959,"longitude":7.003987,"canPickup":true,"canDropoff":true,"openingstijden":{"ma":"13:30 - 18:00","di":"09:00 - 18:00","wo":"09:00 - 18:00","do":"09:00 - 18:00","vr":"09:00 - 18:00","za":"09:00 - 17:00","zo":"gesloten"}}},{"type":"Feature","geometry":{"type":"Point","coordinates":[7.00399,52.37596]},"properties":{"type":"pakketpunt","locatieNaam":"ELECTROWORLD OUDE LASHOF","straatNaam":"BRINKSTRAAT 1","straatNr":"","vervoerder":"InPost","puntType":"servicepunt","bezettingsgraad":50,"latitude":52.37596,"longitude":7.00399,"canPickup":true,"canDropoff":true,"openingstijden":"L 13:30-18,Ma/Me/J/V 9-18,S 9- 17"}},{"type":"Feature","geometry":{"type":"Point","coordinates":[6.90853,52.41219]},"properties":{"type":"pakketpunt","locatieNaam":"KRINGLOOP PUUR GELUK","straatNaam":"De Mors 105","straatNr":"","vervoerder":"InPost","puntType":"servicepunt","bezettingsgraad":50,"latitude":52.41219,"longitude":6.90853,"canPickup":true,"canDropoff":true,"openingstijden":null}},{"type":"Feature","geometry":{"type":"Point","coordinates":[6.85467,52.35058]},"properties":{"type":"pakketpunt","locatieNaam":"FRANKE SPEELGOED & K-DOO","straatNaam":"Sint Remigiusstraat 2","straatNr":"","vervoerder":"InPost","puntType":"servicepunt","bezettingsgraad":50,"latitude":52.35058,"longitude":6.85467,"canPickup":true,"canDropoff":true,"openingstijden":null}},{"type":"Feature","geometry":{"type":"Polygon","coordinates":[[[6.759035,52.332061],[6.759425,52.331897],[6.759516,52.331859],[6.762136,52.330762],[6.762169,52.330675],[6.7622,52.330594],[6.762218,52.330546],[6.762376,52.330128],[6.762831,52.328927],[6.762835,52.32891],[6.762837,52.328903],[6.763052,52.32803],[6.763064,52.327981],[6.763128,52.327722],[6.763184,52.327492],[6.763546,52.327211],[6.763684,52.327104],[6.765204,52.325923],[6.767003,52.324524],[6.767725,52.323962],[6.767821,52.323888],[6.767823,52.323887],[6.767839,52.323874],[6.767863,52.323855],[6.767868,52.323851],[6.768571,52.323305],[6.768584,52.323295],[6.769755,52.322384],[6.769764,52.322377],[6.769766,52.322375],[6.769983,52.322207],[6.770007,52.322188],[6.770071,52.322133],[6.770118,52.322093],[6.770779,52.321528],[6.771028,52.321316],[6.771658,52.320777],[6.771671,52.320765],[6.77174,52.320707],[6.771757,52.320692],[6.772784,52.319811],[6.773172,52.319479],[6.773263,52.319401],[6.773265,52.319402],[6.773316,52.319358],[6.773718,52.319016],[6.773742,52.318996],[6.773769,52.318972],[6.773842,52.318911],[6.774141,52.318835],[6.774485,52.318741],[6.774763,52.318673],[6.77505,52.318623],[6.775249,52.318591],[6.775391,52.318551],[6.77559,52.318468],[6.775687,52.318427],[6.77577,52.318401],[6.775822,52.318392],[6.776005,52.318364],[6.776145,52.318351],[6.776275,52.318362],[6.776304,52.318374],[6.776354,52.318396],[6.77648,52.318466],[6.776514,52.318486],[6.77654,52.318501],[6.776553,52.318508],[6.776634,52.31853],[6.776705,52.318538],[6.776866,52.318534],[6.776911,52.318527],[6.776965,52.318505],[6.777095,52.318425],[6.777133,52.318402],[6.777155,52.318389],[6.777219,52.318382],[6.777254,52.318386],[6.777273,52.318388],[6.77733,52.318389],[6.777354,52.31839],[6.777397,52.318391],[6.77747,52.318384],[6.777532,52.318375],[6.777584,52.318359],[6.777599,52.318354],[6.777641,52.318334],[6.777666,52.318322],[6.777676,52.318316],[6.77778,52.318258],[6.77788,52.318202],[6.777967,52.318157],[6.777971,52.318155],[6.778056,52.318129],[6.77821,52.318085],[6.779059,52.317858],[6.779078,52.317854],[6.779209,52.317822],[6.779219,52.31782],[6.779381,52.317852],[6.779578,52.317926],[6.779684,52.317942],[6.779805,52.317967],[6.77992,52.317996],[6.779992,52.318013],[6.780046,52.318027],[6.780189,52.318067],[6.780277,52.318095],[6.780376,52.318124],[6.780466,52.31814],[6.780496,52.318146],[6.780612,52.318165],[6.780803,52.318189],[6.780944,52.318206],[6.781201,52.318249],[6.781416,52.318294],[6.781539,52.318311],[6.781713,52.318328],[6.78184,52.318336],[6.782047,52.318331],[6.782203,52.318332],[6.782215,52.318332],[6.782574,52.318338],[6.782996,52.318293],[6.783688,52.318289],[6.78414,52.318257],[6.784305,52.318252],[6.784623,52.318249],[6.785903,52.31823],[6.78587,52.318191],[6.785824,52.31814],[6.785623,52.317921],[6.785507,52.317794],[6.785405,52.317673],[6.785272,52.317516],[6.785149,52.31737],[6.785305,52.317344],[6.785701,52.317303],[6.786195,52.317246],[6.786292,52.317236],[6.78634,52.317231],[6.786524,52.317211],[6.786617,52.317201],[6.786659,52.317197],[6.786664,52.317196],[6.786732,52.317189],[6.787292,52.31713],[6.787382,52.317121],[6.787454,52.317113],[6.787468,52.317112],[6.787947,52.317061],[6.788547,52.316931],[6.789535,52.316718],[6.789724,52.316677],[6.790223,52.316568],[6.790491,52.31651],[6.790774,52.316449],[6.792794,52.31601],[6.792942,52.315978],[6.793027,52.31596],[6.79618,52.315275],[6.796334,52.315241],[6.796394,52.315228],[6.797426,52.31509],[6.797661,52.315058],[6.797801,52.315039],[6.800502,52.314676],[6.800546,52.314673],[6.80079,52.314653],[6.801905,52.314562],[6.802129,52.314544],[6.802136,52.314051],[6.802095,52.313804],[6.802058,52.31366],[6.802039,52.313586],[6.802093,52.313559],[6.802158,52.313526],[6.802407,52.313504],[6.802965,52.313459],[6.80323,52.313437],[6.803781,52.313391],[6.803831,52.313384],[6.804164,52.31336],[6.804656,52.313311],[6.80496,52.313285],[6.805107,52.313272],[6.805713,52.313235],[6.806288,52.313195],[6.806594,52.313175],[6.806933,52.313153],[6.806934,52.313153],[6.806965,52.31315],[6.807111,52.313141],[6.807525,52.313113],[6.807699,52.3131],[6.807816,52.313091],[6.807815,52.31298],[6.807818,52.312855],[6.807832,52.312767],[6.807841,52.312698],[6.807859,52.312639],[6.807894,52.312555],[6.807948,52.312449],[6.807986,52.312376],[6.80814,52.312077],[6.8082,52.311998],[6.808212,52.311982],[6.808213,52.311981],[6.809278,52.310445],[6.809324,52.310379],[6.809335,52.310363],[6.809399,52.310377],[6.809639,52.310426],[6.81008,52.310514],[6.810136,52.310525],[6.810376,52.310571],[6.810642,52.310622],[6.811437,52.310775],[6.811821,52.310847],[6.812105,52.3109],[6.81215,52.310897],[6.812251,52.310887],[6.812342,52.31087],[6.81293,52.31076],[6.813522,52.31065],[6.814298,52.310498],[6.814948,52.31037],[6.815106,52.31034],[6.815506,52.310262],[6.816798,52.310017],[6.81727,52.309928],[6.818062,52.309778],[6.818241,52.309745],[6.81854,52.309689],[6.818713,52.309657],[6.819278,52.309545],[6.819285,52.309544],[6.819489,52.309505],[6.819593,52.309485],[6.819676,52.309468],[6.819792,52.309444],[6.819888,52.309426],[6.820071,52.309391],[6.820245,52.309359],[6.820308,52.309346],[6.820616,52.309286],[6.820788,52.309252],[6.820968,52.309218],[6.821313,52.309152],[6.821796,52.309059],[6.82225,52.308973],[6.822441,52.308936],[6.822698,52.308883],[6.822961,52.308832],[6.823083,52.308808],[6.823325,52.308762],[6.823336,52.30876],[6.823339,52.308745],[6.823349,52.308689],[6.82339,52.308562],[6.823407,52.308508],[6.823429,52.308434],[6.823445,52.30838],[6.823467,52.308327],[6.823508,52.308248],[6.823552,52.308193],[6.823617,52.308127],[6.82369,52.308063],[6.823699,52.308055],[6.82389,52.307897],[6.823919,52.307873],[6.824171,52.307667],[6.824221,52.307627],[6.824283,52.307577],[6.824344,52.307527],[6.824357,52.307516],[6.824402,52.307477],[6.82449,52.307403],[6.824631,52.307277],[6.824715,52.307213],[6.824799,52.307149],[6.824882,52.307084],[6.824964,52.307018],[6.825046,52.306953],[6.825126,52.306886],[6.825155,52.306862],[6.825191,52.306832],[6.825306,52.306735],[6.825418,52.306638],[6.825628,52.306456],[6.825681,52.306409],[6.825691,52.3064],[6.825658,52.306358],[6.825014,52.305651],[6.824607,52.305207],[6.824356,52.304933],[6.824304,52.304875],[6.824302,52.304872],[6.824279,52.304846],[6.824155,52.304716],[6.824064,52.304605],[6.824005,52.304542],[6.823973,52.304507],[6.823903,52.304432],[6.823896,52.304424],[6.823926,52.304392],[6.823961,52.304356],[6.824064,52.304249],[6.82345,52.304138],[6.822986,52.303841],[6.82217,52.303318],[6.821825,52.303187],[6.821701,52.303309],[6.821206,52.302536],[6.82117,52.302481],[6.821146,52.302478],[6.821145,52.302428],[6.821079,52.302423],[6.821083,52.302401],[6.82102,52.3024],[6.820928,52.302427],[6.820719,52.302466],[6.820695,52.302417],[6.820609,52.302458],[6.82042,52.302506],[6.820345,52.302506],[6.820266,52.302467],[6.820189,52.302458],[6.820057,52.302444],[6.819994,52.302427],[6.819985,52.302419],[6.819916,52.302236],[6.819814,52.301706],[6.819797,52.301556],[6.81979,52.301488],[6.819421,52.301462],[6.819237,52.301448],[6.819143,52.300839],[6.819334,52.300601],[6.819385,52.300537],[6.819671,52.30015],[6.819853,52.299904],[6.81989,52.29985],[6.820381,52.299145],[6.820428,52.299008],[6.820451,52.298897],[6.820471,52.298806],[6.820502,52.298552],[6.820504,52.298535],[6.820517,52.298428],[6.820574,52.298404],[6.820588,52.298398],[6.820599,52.298392],[6.820671,52.298358],[6.820989,52.298166],[6.821418,52.297932],[6.821899,52.297718],[6.82215,52.297628],[6.822621,52.297348],[6.822623,52.297346],[6.822686,52.297309],[6.822765,52.297261],[6.822892,52.297182],[6.823068,52.297097],[6.823161,52.297062],[6.823162,52.297062],[6.823278,52.29702],[6.823609,52.296913],[6.823789,52.296855],[6.824471,52.296634],[6.825131,52.29642],[6.826969,52.295825],[6.826994,52.295816],[6.827283,52.295724],[6.827596,52.29562],[6.82789,52.295522],[6.828408,52.295351],[6.828359,52.295304],[6.827902,52.294862],[6.829495,52.294434],[6.831186,52.293979],[6.831707,52.294029],[6.833045,52.294156],[6.833827,52.294231],[6.834832,52.29415],[6.834931,52.294142],[6.835375,52.293956],[6.835449,52.29393],[6.83547,52.293916],[6.835757,52.293723],[6.836188,52.293438],[6.836491,52.293237],[6.836635,52.293238],[6.8375,52.293244],[6.8384,52.293369],[6.838558,52.293332],[6.839467,52.293121],[6.83959,52.293304],[6.841312,52.292896],[6.843202,52.292448],[6.843058,52.292208],[6.842547,52.291771],[6.842698,52.291747],[6.846108,52.291202],[6.846294,52.291341],[6.846375,52.291402],[6.84645,52.291335],[6.846639,52.291174],[6.84709,52.290689],[6.847162,52.29062],[6.847487,52.29028],[6.847561,52.290202],[6.847632,52.290128],[6.847719,52.290025],[6.847799,52.289916],[6.847805,52.289908],[6.84787,52.289824],[6.847875,52.289815],[6.84791,52.289771],[6.847905,52.289764],[6.847914,52.289766],[6.847944,52.289741],[6.848035,52.289667],[6.848199,52.289495],[6.848565,52.289106],[6.848941,52.288719],[6.849091,52.288561],[6.849126,52.288524],[6.849162,52.288536],[6.849346,52.288344],[6.849715,52.287956],[6.850083,52.287566],[6.850302,52.287331],[6.850446,52.287177],[6.85068,52.286899],[6.850784,52.286775],[6.850925,52.286606],[6.850928,52.286603],[6.851134,52.286382],[6.851563,52.285924],[6.851586,52.285932],[6.851595,52.285924],[6.851632,52.28589],[6.851641,52.285882],[6.851731,52.28582],[6.851748,52.285807],[6.851791,52.285776],[6.85183,52.285738],[6.851832,52.285736],[6.851864,52.285706],[6.852089,52.285461],[6.852139,52.285479],[6.852194,52.285423],[6.852376,52.285228],[6.852389,52.285201],[6.852377,52.28517],[6.852347,52.285137],[6.852383,52.285084],[6.852493,52.284921],[6.852527,52.284871],[6.852489,52.28487],[6.852313,52.284807],[6.851889,52.284654],[6.851715,52.284594],[6.851355,52.284489],[6.851165,52.284435],[6.851045,52.284399],[6.850611,52.284242],[6.850304,52.284132],[6.850341,52.284093],[6.850586,52.284183],[6.850553,52.284072],[6.850506,52.283932],[6.850718,52.283696],[6.850747,52.283664],[6.851181,52.283207],[6.850645,52.282972],[6.850793,52.282864],[6.850801,52.282855],[6.850807,52.282848],[6.850835,52.282849],[6.850867,52.282788],[6.850921,52.282738],[6.850984,52.282692],[6.851027,52.282663],[6.851078,52.28263],[6.851167,52.282583],[6.851252,52.282548],[6.85137,52.28251],[6.851567,52.282442],[6.851612,52.282408],[6.851704,52.282377],[6.851798,52.28233],[6.851904,52.282254],[6.851972,52.282197],[6.852049,52.28212],[6.852014,52.28206],[6.851972,52.282043],[6.851942,52.282031],[6.851882,52.282008],[6.851722,52.281946],[6.85119,52.281738],[6.850266,52.281625],[6.850022,52.281594],[6.849826,52.281571],[6.84979,52.281566],[6.849753,52.281562],[6.849496,52.28153],[6.849385,52.281267],[6.849288,52.281184],[6.849155,52.28107],[6.848822,52.280942],[6.848534,52.280832],[6.848478,52.280811],[6.847904,52.280601],[6.847862,52.280585],[6.847539,52.280461],[6.847283,52.280362],[6.84721,52.280334],[6.846666,52.28012],[6.846145,52.279919],[6.846083,52.279883],[6.845923,52.279821],[6.845886,52.279807],[6.845761,52.279759],[6.846625,52.279497],[6.846663,52.27946],[6.847027,52.279111],[6.847215,52.278931],[6.847547,52.278613],[6.847553,52.278608],[6.84757,52.278584],[6.846741,52.278316],[6.846109,52.278133],[6.845667,52.278003],[6.844748,52.277702],[6.844587,52.277651],[6.843834,52.277397],[6.843047,52.277164],[6.842452,52.276978],[6.841032,52.27689],[6.841239,52.276691],[6.841251,52.27668],[6.841173,52.27665],[6.841184,52.276638],[6.841209,52.276611],[6.841216,52.276604],[6.841246,52.27657],[6.841237,52.276567],[6.84062,52.276351],[6.840492,52.276311],[6.840954,52.276255],[6.841431,52.276198],[6.841603,52.276177],[6.841745,52.27616],[6.841756,52.276158],[6.843705,52.275922],[6.843778,52.275913],[6.84444,52.275833],[6.847468,52.275466],[6.84806,52.275394],[6.848062,52.275393],[6.84807,52.275393],[6.848679,52.275319],[6.848713,52.275315],[6.851298,52.275001],[6.851306,52.275],[6.851473,52.27498],[6.851491,52.274977],[6.856011,52.274429],[6.856091,52.274419],[6.856148,52.274412],[6.85619,52.274407],[6.858201,52.27416],[6.860056,52.273932],[6.860071,52.27393],[6.860116,52.273925],[6.861487,52.273756],[6.861691,52.273731],[6.861961,52.273698],[6.862546,52.273626],[6.862677,52.27361],[6.864004,52.273447],[6.864277,52.273414],[6.864309,52.27341],[6.864608,52.273376],[6.864724,52.273363],[6.864769,52.273358],[6.865773,52.273246],[6.865902,52.273232],[6.866036,52.273217],[6.866688,52.273143],[6.867113,52.273095],[6.8673,52.273074],[6.867698,52.273029],[6.868327,52.272962],[6.869703,52.273251],[6.870834,52.273489],[6.871011,52.273527],[6.871415,52.273612],[6.871568,52.273644],[6.872019,52.273739],[6.87223,52.273785],[6.873378,52.274036],[6.87411,52.274198],[6.874172,52.274211],[6.876495,52.274725],[6.876837,52.27511],[6.876876,52.275157],[6.876644,52.275246],[6.87677,52.275386],[6.876817,52.275446],[6.877094,52.275767],[6.877352,52.275689],[6.877365,52.275701],[6.877848,52.276235],[6.878405,52.27686],[6.878839,52.277349],[6.879707,52.278322],[6.880261,52.278938],[6.880443,52.279143],[6.880516,52.279227],[6.881242,52.279356],[6.881358,52.279379],[6.881278,52.2795],[6.880972,52.279963],[6.880702,52.280376],[6.88002,52.281404],[6.881628,52.281804],[6.882754,52.282086],[6.883262,52.282213],[6.883246,52.282499],[6.883244,52.282522],[6.883243,52.282541],[6.883207,52.283171],[6.883557,52.283148],[6.884371,52.283097],[6.884597,52.283081],[6.884696,52.283077],[6.884773,52.283075],[6.884853,52.283078],[6.885209,52.283102],[6.885223,52.283104],[6.885773,52.283178],[6.886042,52.283214],[6.887784,52.28345],[6.887811,52.283452],[6.889567,52.280978],[6.890282,52.281749],[6.890216,52.282204],[6.890669,52.282351],[6.891974,52.282772],[6.892021,52.282786],[6.892531,52.282944],[6.893379,52.283212],[6.893792,52.283343],[6.895364,52.283841],[6.895373,52.283827],[6.895456,52.283728],[6.895828,52.283239],[6.897269,52.283479],[6.898085,52.283615],[6.898087,52.283616],[6.898559,52.283712],[6.90283,52.284587],[6.904285,52.284885],[6.9068,52.2854],[6.906985,52.285438],[6.907017,52.285435],[6.910358,52.285143],[6.910771,52.285222],[6.910997,52.285266],[6.912035,52.285471],[6.912089,52.285481],[6.91212,52.285493],[6.912127,52.285506],[6.912049,52.285564],[6.911804,52.285674],[6.91176,52.285697],[6.911455,52.285834],[6.909905,52.286531],[6.908055,52.287343],[6.90805,52.287345],[6.908052,52.287385],[6.9076,52.2876],[6.907268,52.287753],[6.907115,52.287823],[6.906921,52.287912],[6.906253,52.288218],[6.905444,52.288582],[6.905204,52.288691],[6.904862,52.288846],[6.904378,52.289067],[6.904255,52.289123],[6.903819,52.289312],[6.903058,52.289656],[6.902642,52.28984],[6.902252,52.290021],[6.902201,52.290044],[6.901878,52.290187],[6.90142,52.290397],[6.900964,52.290605],[6.900492,52.290825],[6.900279,52.290926],[6.900258,52.290937],[6.90023,52.29095],[6.900085,52.291018],[6.899972,52.291075],[6.899791,52.291157],[6.899285,52.291381],[6.899277,52.291384],[6.89887,52.291569],[6.898493,52.291742],[6.898103,52.291919],[6.897708,52.292099],[6.897346,52.292261],[6.897083,52.292377],[6.896927,52.292446],[6.896581,52.292603],[6.896129,52.292808],[6.895745,52.292981],[6.895379,52.293149],[6.895058,52.29329],[6.894497,52.293538],[6.88948,52.292467],[6.889167,52.292771],[6.888894,52.293037],[6.888253,52.292797],[6.887997,52.292698],[6.887932,52.292762],[6.887861,52.292833],[6.88782,52.292818],[6.887097,52.293007],[6.886839,52.293187],[6.886563,52.293311],[6.886524,52.293329],[6.886204,52.293442],[6.885864,52.293526],[6.885484,52.29362],[6.885147,52.293709],[6.884814,52.293795],[6.884492,52.293864],[6.884099,52.293918],[6.88389,52.293953],[6.883547,52.293945],[6.883234,52.293923],[6.88287,52.293884],[6.882273,52.293796],[6.882138,52.293775],[6.881492,52.293676],[6.881477,52.293673],[6.881114,52.293605],[6.881119,52.293624],[6.881132,52.29368],[6.881121,52.293681],[6.880524,52.293709],[6.880372,52.293692],[6.880297,52.293669],[6.880057,52.293708],[6.879902,52.293719],[6.879641,52.293795],[6.87954,52.293864],[6.87946,52.293881],[6.879401,52.293952],[6.879396,52.293955],[6.879335,52.293989],[6.879366,52.294062],[6.879361,52.294107],[6.879295,52.294121],[6.879273,52.294193],[6.879304,52.294248],[6.879333,52.294318],[6.879465,52.294487],[6.87947,52.294507],[6.879487,52.29457],[6.879499,52.294612],[6.879801,52.29472],[6.879674,52.29484],[6.879534,52.294972],[6.879397,52.294943],[6.879305,52.294933],[6.87926,52.294939],[6.879224,52.294959],[6.879212,52.294947],[6.878839,52.295042],[6.87872,52.295073],[6.8784,52.295239],[6.877458,52.295729],[6.877411,52.295753],[6.876931,52.296001],[6.876847,52.296045],[6.876744,52.296098],[6.875386,52.296582],[6.874931,52.296849],[6.87486,52.296865],[6.87479,52.296881],[6.873201,52.297247],[6.87272,52.297363],[6.872434,52.297405],[6.872184,52.297405],[6.870778,52.297281],[6.869741,52.297188],[6.869738,52.297187],[6.869735,52.297187],[6.869358,52.297141],[6.869061,52.297145],[6.868856,52.297148],[6.867801,52.297164],[6.86583,52.297196],[6.86553,52.297199],[6.865493,52.297224],[6.86535,52.297238],[6.865298,52.297221],[6.864935,52.297297],[6.863982,52.29749],[6.863837,52.29752],[6.863248,52.297642],[6.863137,52.297665],[6.862909,52.297711],[6.862687,52.297776],[6.861802,52.29804],[6.861224,52.298213],[6.86099,52.298283],[6.860086,52.298552],[6.859817,52.298633],[6.859781,52.298674],[6.85998,52.2994],[6.860126,52.299937],[6.86015,52.300024],[6.860348,52.300735],[6.86036,52.300778],[6.860361,52.300781],[6.860393,52.300895],[6.860439,52.30105],[6.860449,52.301105],[6.860442,52.301276],[6.860489,52.30147],[6.860491,52.301482],[6.860564,52.301673],[6.860627,52.301822],[6.860694,52.30198],[6.860729,52.302071],[6.860709,52.302192],[6.860655,52.302487],[6.860614,52.302709],[6.860592,52.302833],[6.860515,52.303281],[6.860536,52.303281],[6.860508,52.30344],[6.860826,52.303526],[6.861046,52.303604],[6.861261,52.303703],[6.861485,52.303999],[6.861518,52.304123],[6.861549,52.304404],[6.861576,52.30464],[6.861586,52.304726],[6.86155,52.304727],[6.861273,52.30474],[6.861349,52.306367],[6.861468,52.306381],[6.86157,52.3064],[6.861712,52.306449],[6.862798,52.306972],[6.86314,52.307138],[6.863475,52.307301],[6.863476,52.307301],[6.863572,52.307348],[6.863667,52.307245],[6.863707,52.307197],[6.864028,52.306959],[6.864103,52.306921],[6.864198,52.30688],[6.864331,52.306846],[6.864552,52.306814],[6.864806,52.306771],[6.864931,52.30678],[6.864997,52.306776],[6.865033,52.306795],[6.865041,52.3068],[6.866029,52.307358],[6.866093,52.307469],[6.866241,52.307448],[6.866242,52.307448],[6.866387,52.307427],[6.86654,52.307416],[6.866522,52.307446],[6.86711,52.308297],[6.86711,52.308297],[6.867108,52.308314],[6.867067,52.308594],[6.86706,52.308645],[6.867035,52.309081],[6.867026,52.309241],[6.86703,52.309333],[6.86705,52.30984],[6.867054,52.309931],[6.867057,52.310007],[6.867057,52.310008],[6.867057,52.310011],[6.867057,52.310015],[6.86705,52.310311],[6.867717,52.310484],[6.867969,52.310549],[6.868363,52.310611],[6.868368,52.310612],[6.868503,52.310659],[6.868525,52.310687],[6.868599,52.310777],[6.868726,52.311172],[6.868727,52.311176],[6.868755,52.311261],[6.868834,52.311507],[6.868877,52.31164],[6.868908,52.311736],[6.868977,52.311829],[6.869175,52.311973],[6.86934,52.312119],[6.869352,52.312118],[6.870933,52.311902],[6.871103,52.311861],[6.871157,52.311847],[6.871176,52.311842],[6.871187,52.311849],[6.871248,52.311887],[6.87127,52.3119],[6.871205,52.311926],[6.871416,52.31206],[6.871436,52.312076],[6.871475,52.312114],[6.871507,52.312159],[6.871747,52.312582],[6.871769,52.312607],[6.871771,52.31261],[6.871795,52.312608],[6.871822,52.312607],[6.873052,52.312526],[6.87597,52.312336],[6.875994,52.312334],[6.876304,52.312314],[6.876511,52.312298],[6.876991,52.312262],[6.877338,52.312236],[6.877586,52.313133],[6.877597,52.313172],[6.877626,52.313279],[6.877701,52.313551],[6.877777,52.313823],[6.877995,52.314614],[6.878217,52.315418],[6.878074,52.315423],[6.879182,52.31764],[6.879187,52.317652],[6.879869,52.319014],[6.880655,52.318904],[6.880673,52.318901],[6.881438,52.318793],[6.881442,52.318793],[6.881444,52.318793],[6.881545,52.318778],[6.882037,52.318714],[6.882127,52.318701],[6.882627,52.318634],[6.883124,52.318566],[6.883126,52.318566],[6.883147,52.318563],[6.883241,52.318551],[6.883689,52.31849],[6.884227,52.318417],[6.884299,52.318407],[6.884332,52.318452],[6.884366,52.318501],[6.884237,52.31852],[6.884573,52.319036],[6.884716,52.319258],[6.885306,52.320147],[6.885363,52.320233],[6.885817,52.320911],[6.885872,52.320994],[6.885812,52.321052],[6.885708,52.321153],[6.885564,52.321184],[6.885605,52.321252],[6.885642,52.321314],[6.885642,52.321315],[6.885788,52.321576],[6.885851,52.321701],[6.886191,52.322297],[6.886192,52.322298],[6.8862,52.322311],[6.886334,52.322282],[6.886378,52.322352],[6.886389,52.322371],[6.886405,52.322396],[6.886403,52.322378],[6.886404,52.322377],[6.886426,52.32236],[6.886948,52.322241],[6.88706,52.322216],[6.887753,52.32206],[6.887779,52.322058],[6.887782,52.322059],[6.887812,52.322073],[6.888028,52.32218],[6.888288,52.322306],[6.888863,52.322592],[6.888873,52.322597],[6.888898,52.32261],[6.889512,52.322915],[6.890157,52.323237],[6.890481,52.323398],[6.89091,52.323539],[6.890947,52.323552],[6.890991,52.323566],[6.891003,52.32357],[6.891094,52.3236],[6.891049,52.323606],[6.891047,52.323606],[6.890906,52.323625],[6.891021,52.3237],[6.891467,52.32399],[6.891482,52.323999],[6.891547,52.32402],[6.892203,52.324288],[6.892773,52.324519],[6.893225,52.324705],[6.893745,52.324917],[6.894226,52.325115],[6.894227,52.325116],[6.894364,52.325172],[6.894709,52.324967],[6.894713,52.324965],[6.89474,52.324954],[6.894755,52.324954],[6.894787,52.324965],[6.894804,52.324977],[6.894806,52.324978],[6.895709,52.325845],[6.89593,52.326086],[6.896106,52.326316],[6.896162,52.326403],[6.89625,52.326539],[6.896352,52.326687],[6.896714,52.327231],[6.896736,52.327263],[6.896864,52.327463],[6.896864,52.327463],[6.89696,52.327646],[6.89716,52.328063],[6.897169,52.328077],[6.897163,52.328103],[6.897157,52.328105],[6.897137,52.328115],[6.897158,52.328213],[6.898097,52.328144],[6.898141,52.328146],[6.898149,52.328148],[6.898163,52.328152],[6.898182,52.328162],[6.898202,52.328179],[6.898327,52.32846],[6.898484,52.329147],[6.8985,52.329222],[6.898563,52.329528],[6.898567,52.329622],[6.898576,52.329743],[6.89858,52.329793],[6.898583,52.329825],[6.898587,52.329879],[6.898593,52.329954],[6.898602,52.33018],[6.898638,52.330358],[6.898673,52.33045],[6.898712,52.33054],[6.898807,52.330714],[6.899018,52.331026],[6.899578,52.331859],[6.900462,52.333184],[6.900465,52.333189],[6.900646,52.33346],[6.900926,52.333395],[6.901419,52.333253],[6.901578,52.333221],[6.90203,52.333168],[6.902152,52.333156],[6.902778,52.333111],[6.903047,52.333097],[6.903535,52.333059],[6.904076,52.333011],[6.904356,52.332972],[6.904619,52.332934],[6.904873,52.332889],[6.9049,52.332884],[6.9049,52.332884],[6.905365,52.332797],[6.905561,52.332755],[6.905562,52.332755],[6.905568,52.332754],[6.906226,52.332611],[6.906715,52.332489],[6.907001,52.332425],[6.907066,52.332408],[6.907076,52.332407],[6.907142,52.332386],[6.907214,52.332354],[6.907268,52.332334],[6.907473,52.332256],[6.908034,52.332035],[6.908266,52.331943],[6.908525,52.33184],[6.90869,52.331775],[6.908846,52.331714],[6.908837,52.331688],[6.909121,52.331589],[6.909128,52.331605],[6.909373,52.331512],[6.909461,52.331484],[6.909435,52.331416],[6.909996,52.331182],[6.910254,52.331086],[6.910511,52.330999],[6.910787,52.330911],[6.911042,52.330838],[6.911147,52.330811],[6.911476,52.330727],[6.911518,52.330719],[6.911664,52.330691],[6.912794,52.330571],[6.913682,52.330477],[6.913938,52.330476],[6.914358,52.330485],[6.914759,52.330513],[6.915441,52.330567],[6.915791,52.3306],[6.915923,52.33061],[6.916177,52.330643],[6.916353,52.330677],[6.91641,52.330706],[6.916464,52.330741],[6.916517,52.330674],[6.916667,52.330685],[6.916993,52.33071],[6.917441,52.330728],[6.91756,52.330734],[6.917627,52.330735],[6.91784,52.330734],[6.9179,52.33076],[6.91798,52.330781],[6.918023,52.33079],[6.918095,52.330798],[6.918189,52.3308],[6.918276,52.330794],[6.918443,52.330773],[6.919235,52.330671],[6.919717,52.330611],[6.919823,52.330598],[6.920115,52.330561],[6.92107,52.330441],[6.921164,52.330429],[6.921688,52.330358],[6.922039,52.330311],[6.922726,52.330225],[6.922949,52.330193],[6.923185,52.330164],[6.924448,52.330009],[6.924599,52.32999],[6.924696,52.329978],[6.925149,52.329926],[6.925434,52.329899],[6.92576,52.329868],[6.926159,52.329827],[6.926212,52.329822],[6.926903,52.329769],[6.927004,52.329765],[6.927633,52.329722],[6.927931,52.3297],[6.928009,52.329696],[6.928748,52.329642],[6.929299,52.329601],[6.929901,52.329558],[6.930219,52.329535],[6.930262,52.329532],[6.930638,52.329497],[6.930936,52.329464],[6.930969,52.32946],[6.931039,52.329503],[6.931123,52.329558],[6.93097,52.329662],[6.930772,52.32979],[6.930687,52.329846],[6.930442,52.330012],[6.931184,52.3306],[6.931829,52.330884],[6.931858,52.330897],[6.932291,52.331196],[6.932261,52.33121],[6.93216,52.331322],[6.932079,52.331345],[6.93201,52.331379],[6.931944,52.331452],[6.931845,52.331474],[6.931776,52.331541],[6.931748,52.331569],[6.931635,52.331616],[6.931652,52.331684],[6.931687,52.332189],[6.931691,52.332247],[6.931763,52.332245],[6.931811,52.332286],[6.931893,52.332693],[6.931894,52.332701],[6.931905,52.332756],[6.931955,52.332756],[6.932919,52.332764],[6.932924,52.332763],[6.933491,52.332767],[6.93355,52.332768],[6.933559,52.332768],[6.933992,52.33276],[6.934032,52.332763],[6.935882,52.332855],[6.935997,52.33286],[6.937243,52.332842],[6.937531,52.332836],[6.937562,52.332836],[6.937904,52.332829],[6.93803,52.332827],[6.938065,52.332826],[6.938091,52.332825],[6.938126,52.332825],[6.938518,52.332817],[6.938556,52.332816],[6.939637,52.332802],[6.93971,52.332801],[6.939804,52.3328],[6.93992,52.332798],[6.941293,52.332779],[6.941932,52.33277],[6.941961,52.332769],[6.942972,52.332755],[6.94298,52.332755],[6.944607,52.332732],[6.944646,52.332732],[6.944808,52.332729],[6.944848,52.332729],[6.945202,52.332724],[6.94836,52.333195],[6.949668,52.33339],[6.952463,52.333806],[6.952541,52.333818],[6.953583,52.333973],[6.952361,52.335968],[6.952311,52.336051],[6.951528,52.337328],[6.951323,52.337663],[6.951141,52.33796],[6.951207,52.338021],[6.951308,52.33819],[6.951542,52.338607],[6.951779,52.33893],[6.952284,52.339589],[6.952593,52.340018],[6.952731,52.340201],[6.952802,52.340299],[6.952843,52.34035],[6.952903,52.340402],[6.953064,52.340538],[6.953735,52.341105],[6.954552,52.341804],[6.954571,52.34182],[6.955311,52.342443],[6.955519,52.342624],[6.95583,52.342895],[6.955863,52.342922],[6.956326,52.343302],[6.956443,52.343398],[6.957009,52.34388],[6.957152,52.344002],[6.957741,52.344512],[6.957886,52.344637],[6.958346,52.345029],[6.958683,52.345321],[6.958764,52.345391],[6.958776,52.345401],[6.958795,52.345415],[6.95887,52.345469],[6.958886,52.34548],[6.95899,52.345554],[6.959212,52.345689],[6.959394,52.345798],[6.959898,52.346101],[6.960141,52.346246],[6.960289,52.346334],[6.960392,52.346395],[6.960921,52.346712],[6.960968,52.34674],[6.961049,52.346783],[6.961104,52.346812],[6.961306,52.346919],[6.961418,52.346978],[6.961638,52.347117],[6.961945,52.347206],[6.961994,52.34722],[6.962815,52.347461],[6.963641,52.347702],[6.964089,52.347832],[6.964982,52.348095],[6.965667,52.348296],[6.965974,52.348386],[6.966441,52.348426],[6.966793,52.348457],[6.967167,52.348489],[6.969125,52.348656],[6.969398,52.348683],[6.969504,52.348693],[6.969939,52.348735],[6.970111,52.348752],[6.970173,52.348758],[6.970259,52.348767],[6.969798,52.350017],[6.969693,52.350259],[6.969505,52.350752],[6.969375,52.351093],[6.969287,52.35124],[6.968994,52.351726],[6.968865,52.351941],[6.96838,52.352746],[6.968342,52.35281],[6.968228,52.352998],[6.968214,52.353022],[6.96719,52.354737],[6.966691,52.355585],[6.966595,52.355756],[6.966361,52.356173],[6.96561,52.357514],[6.96561,52.357515],[6.965569,52.357588],[6.965568,52.357588],[6.965543,52.357633],[6.965263,52.358193],[6.9652,52.358323],[6.965033,52.358671],[6.965007,52.358723],[6.964744,52.35927],[6.96474,52.359279],[6.964727,52.359304],[6.96469,52.359382],[6.964684,52.359395],[6.964641,52.359524],[6.964565,52.359758],[6.96442,52.359986],[6.964419,52.359988],[6.96443,52.359993],[6.964431,52.359994],[6.964445,52.360004],[6.964461,52.360015],[6.964478,52.360025],[6.964537,52.360058],[6.964485,52.36007],[6.964452,52.36008],[6.964409,52.360096],[6.964379,52.360112],[6.964357,52.360129],[6.964116,52.360582],[6.964103,52.360627],[6.964055,52.360701],[6.964031,52.360739],[6.963992,52.360798],[6.963811,52.36114],[6.963661,52.361425],[6.963508,52.361694],[6.963484,52.361735],[6.963451,52.361812],[6.963433,52.361864],[6.963424,52.361888],[6.963424,52.361894],[6.96336,52.36202],[6.963333,52.362074],[6.963299,52.362141],[6.963171,52.362394],[6.962971,52.362789],[6.962959,52.362812],[6.962932,52.362865],[6.962669,52.363387],[6.962709,52.363484],[6.962757,52.363599],[6.96308,52.364379],[6.963088,52.364397],[6.963094,52.364413],[6.963436,52.365239],[6.963513,52.365423],[6.963559,52.365534],[6.963628,52.365702],[6.963662,52.365783],[6.963712,52.365904],[6.963739,52.365968],[6.963745,52.36597],[6.963752,52.365972],[6.963768,52.365975],[6.963785,52.365979],[6.963748,52.36599],[6.963757,52.366012],[6.963769,52.366042],[6.963772,52.366049],[6.963684,52.36607],[6.963622,52.366084],[6.965007,52.368401],[6.965721,52.369594],[6.965723,52.369597],[6.965805,52.369735],[6.965915,52.369918],[6.965919,52.369925],[6.965972,52.370014],[6.965982,52.37003],[6.966925,52.371607],[6.966928,52.371626],[6.966955,52.371708],[6.966972,52.371746],[6.966976,52.371755],[6.967,52.371808],[6.967001,52.37181],[6.967004,52.371817],[6.967023,52.371859],[6.967082,52.371949],[6.967155,52.372062],[6.967176,52.372088],[6.967251,52.372185],[6.967322,52.372293],[6.967316,52.372321],[6.967329,52.372346],[6.967281,52.372378],[6.967322,52.372468],[6.967465,52.37278],[6.967652,52.373191],[6.967667,52.373223],[6.967758,52.373421],[6.967782,52.373473],[6.967884,52.373697],[6.968048,52.374055],[6.968119,52.374211],[6.968127,52.374228],[6.96825,52.374498],[6.968254,52.374506],[6.968405,52.374836],[6.96842,52.374866],[6.968446,52.374921],[6.968535,52.375103],[6.968646,52.375325],[6.968647,52.375326],[6.968741,52.375515],[6.968757,52.375547],[6.968853,52.375738],[6.9699,52.377831],[6.970152,52.378332],[6.970209,52.378447],[6.970297,52.378624],[6.970389,52.378806],[6.97046,52.378947],[6.970692,52.379412],[6.970735,52.379492],[6.970735,52.379492],[6.97075,52.37952],[6.970782,52.379581],[6.97093,52.37986],[6.970962,52.379844],[6.971721,52.379447],[6.972085,52.379253],[6.972417,52.379077],[6.972578,52.378991],[6.973196,52.378668],[6.973643,52.378435],[6.974348,52.378062],[6.974547,52.377955],[6.974997,52.37772],[6.975326,52.377548],[6.975427,52.377494],[6.976089,52.377144],[6.977152,52.376587],[6.977613,52.376344],[6.977771,52.37626],[6.977854,52.376217],[6.97855,52.375851],[6.979352,52.375426],[6.980459,52.374842],[6.981309,52.374401],[6.981758,52.374165],[6.982027,52.374013],[6.982261,52.373888],[6.982387,52.373824],[6.982644,52.37369],[6.982934,52.37354],[6.98392,52.373024],[6.984192,52.372879],[6.984351,52.372796],[6.98476,52.372576],[6.985379,52.372248],[6.985429,52.372224],[6.985559,52.372175],[6.98612,52.371964],[6.986966,52.371645],[6.987775,52.371336],[6.98902,52.370869],[6.989797,52.370574],[6.989916,52.370531],[6.990966,52.370131],[6.992061,52.369721],[6.992257,52.369646],[6.992331,52.369621],[6.993695,52.369101],[6.994087,52.368955],[6.995705,52.368343],[6.995868,52.368281],[6.996056,52.36821],[6.996634,52.36799],[6.996646,52.367986],[6.99666,52.36798],[6.99672,52.367957],[6.997027,52.367839],[6.99775,52.36756],[6.998551,52.367251],[6.998836,52.367139],[6.999937,52.366712],[7.000249,52.366591],[7.000856,52.366354],[7.00136,52.366156],[7.001359,52.366154],[7.001515,52.366095],[7.001987,52.365908],[7.002605,52.365668],[7.002684,52.365638],[7.002961,52.365533],[7.00452,52.36499],[7.00493,52.364845],[7.005678,52.364584],[7.00702,52.364112],[7.007281,52.364019],[7.007762,52.363849],[7.00783,52.363825],[7.008474,52.363885],[7.00853,52.36389],[7.009842,52.364011],[7.010012,52.364025],[7.010099,52.364033],[7.010988,52.364114],[7.011333,52.364172],[7.01295,52.364448],[7.014274,52.364677],[7.01546,52.364882],[7.017039,52.365152],[7.018097,52.365333],[7.018753,52.365447],[7.018981,52.365484],[7.019442,52.365566],[7.019917,52.365645],[7.020842,52.365805],[7.022272,52.366055],[7.022421,52.366081],[7.022735,52.366135],[7.022974,52.366176],[7.023634,52.366292],[7.024015,52.366355],[7.024602,52.366461],[7.024607,52.366462],[7.02633,52.366757],[7.026472,52.366781],[7.027283,52.366925],[7.027977,52.367046],[7.028053,52.367058],[7.028308,52.367104],[7.029284,52.367253],[7.029453,52.367282],[7.031292,52.367596],[7.03179,52.36768],[7.031804,52.367683],[7.031825,52.367686],[7.031861,52.36769],[7.03303,52.367795],[7.033781,52.367863],[7.033938,52.367878],[7.035298,52.368001],[7.035856,52.368051],[7.036809,52.368141],[7.038132,52.368262],[7.038203,52.368268],[7.038358,52.368283],[7.038858,52.368328],[7.03886,52.368329],[7.038951,52.368337],[7.039735,52.368408],[7.040458,52.368501],[7.041026,52.368578],[7.041127,52.368589],[7.041274,52.36861],[7.041743,52.368668],[7.042231,52.36873],[7.042955,52.368824],[7.043723,52.36892],[7.04417,52.368978],[7.04439,52.369007],[7.045005,52.369085],[7.045574,52.369161],[7.0465,52.369283],[7.046676,52.369304],[7.046749,52.369314],[7.04753,52.369418],[7.047567,52.369423],[7.049836,52.369713],[7.050476,52.369798],[7.051383,52.369915],[7.053178,52.370167],[7.053365,52.370195],[7.05497,52.370426],[7.057093,52.370721],[7.057123,52.370725],[7.057632,52.370798],[7.057799,52.370821],[7.058323,52.370893],[7.058908,52.370976],[7.058938,52.37098],[7.059347,52.371039],[7.05942,52.371049],[7.059809,52.371102],[7.060571,52.371213],[7.060843,52.371251],[7.060933,52.371263],[7.061465,52.37134],[7.061583,52.371357],[7.064654,52.371796],[7.064924,52.371832],[7.065314,52.371889],[7.065846,52.371967],[7.066496,52.372062],[7.066786,52.372101],[7.068756,52.37236],[7.071286,52.372692],[7.072033,52.37279],[7.072158,52.372799],[7.072216,52.372803],[7.072183,52.373193],[7.072153,52.373611],[7.071636,52.374674],[7.071579,52.374798],[7.071156,52.375667],[7.070892,52.376218],[7.070557,52.376891],[7.07019,52.377645],[7.069949,52.378131],[7.069323,52.379434],[7.069227,52.379625],[7.069068,52.379967],[7.069009,52.380081],[7.068836,52.380441],[7.068271,52.381592],[7.068028,52.382107],[7.067416,52.383358],[7.066857,52.384492],[7.066674,52.384868],[7.066639,52.384951],[7.066593,52.385041],[7.065574,52.387143],[7.065081,52.388145],[7.064804,52.388723],[7.064306,52.389743],[7.064173,52.390021],[7.064021,52.390328],[7.064003,52.390367],[7.063924,52.390456],[7.061181,52.393417],[7.060735,52.393905],[7.060423,52.394228],[7.059854,52.394846],[7.059456,52.395273],[7.059444,52.395283],[7.058992,52.395776],[7.058936,52.395834],[7.058838,52.395925],[7.058811,52.39595],[7.058518,52.396191],[7.058694,52.396226],[7.05877,52.396258],[7.058825,52.396285],[7.058844,52.396294],[7.058915,52.396347],[7.058937,52.396388],[7.058984,52.39646],[7.059,52.396511],[7.059077,52.39699],[7.059094,52.397113],[7.059083,52.397183],[7.058934,52.397494],[7.058918,52.397558],[7.058925,52.39771],[7.058924,52.397922],[7.058923,52.397975],[7.058944,52.39804],[7.058998,52.398167],[7.059005,52.398198],[7.058809,52.399074],[7.058791,52.399142],[7.058778,52.39921],[7.058736,52.399389],[7.058728,52.39941],[7.058253,52.399615],[7.058108,52.399674],[7.057636,52.399875],[7.056107,52.400518],[7.05597,52.400578],[7.055347,52.401017],[7.05532,52.401034],[7.055281,52.401029],[7.054888,52.400948],[7.0544,52.400846],[7.054215,52.400795],[7.054077,52.40075],[7.053931,52.400705],[7.053849,52.400676],[7.053801,52.400686],[7.053762,52.400688],[7.053414,52.400497],[7.053278,52.400438],[7.053051,52.400348],[7.052889,52.400298],[7.052026,52.400039],[7.051656,52.399925],[7.051583,52.400012],[7.051388,52.400231],[7.051228,52.400402],[7.051184,52.400443],[7.05112,52.400495],[7.050961,52.400636],[7.050892,52.400674],[7.050781,52.400714],[7.050727,52.400723],[7.050656,52.400742],[7.050592,52.400754],[7.050422,52.400775],[7.050348,52.400783],[7.050244,52.400789],[7.050203,52.40079],[7.04999,52.40079],[7.049917,52.40079],[7.049861,52.40079],[7.049759,52.40079],[7.049627,52.40079],[7.049322,52.400789],[7.048833,52.40079],[7.048753,52.40079],[7.048169,52.400787],[7.047984,52.400788],[7.047891,52.400788],[7.047545,52.400787],[7.047047,52.400791],[7.046899,52.400804],[7.046704,52.400838],[7.046499,52.400893],[7.046136,52.401004],[7.045985,52.401054],[7.045898,52.401082],[7.04549,52.401208],[7.044924,52.401384],[7.044541,52.401504],[7.044346,52.401562],[7.044131,52.401631],[7.044088,52.401644],[7.043982,52.401677],[7.043318,52.401883],[7.043052,52.401963],[7.042783,52.402047],[7.042616,52.402107],[7.042507,52.402162],[7.042315,52.402265],[7.042124,52.40235],[7.041929,52.402426],[7.041787,52.402477],[7.041712,52.4025],[7.041534,52.40254],[7.041365,52.402568],[7.041077,52.402597],[7.040972,52.402605],[7.040438,52.402628],[7.0403,52.402633],[7.040228,52.402635],[7.040059,52.402644],[7.039641,52.402663],[7.039228,52.402681],[7.038994,52.40269],[7.038885,52.402696],[7.038695,52.402701],[7.038582,52.402701],[7.03849,52.4027],[7.038312,52.402696],[7.038172,52.402696],[7.038048,52.402694],[7.037828,52.40269],[7.03774,52.402684],[7.03766,52.402676],[7.037569,52.402672],[7.03749,52.402665],[7.037246,52.402639],[7.03669,52.402582],[7.036613,52.402577],[7.036449,52.402573],[7.036323,52.40258],[7.036258,52.402591],[7.036195,52.402611],[7.036074,52.402663],[7.036041,52.402684],[7.035979,52.402725],[7.035868,52.402804],[7.035653,52.402974],[7.03538,52.403193],[7.035367,52.403203],[7.035208,52.403325],[7.035088,52.403417],[7.034981,52.403513],[7.034944,52.403551],[7.034853,52.403644],[7.034803,52.403709],[7.034721,52.403841],[7.034674,52.403918],[7.034652,52.403957],[7.03407,52.405194],[7.033958,52.405425],[7.033885,52.40559],[7.033647,52.406111],[7.03359,52.406214],[7.033549,52.406289],[7.033457,52.406458],[7.033348,52.406617],[7.033292,52.406677],[7.033241,52.406738],[7.033149,52.406827],[7.033096,52.406873],[7.032991,52.406963],[7.032807,52.4071],[7.032689,52.407177],[7.032578,52.407234],[7.032507,52.407334],[7.032405,52.407481],[7.031752,52.408407],[7.03141,52.408901],[7.030926,52.409586],[7.030544,52.410135],[7.030068,52.410807],[7.02996,52.410966],[7.029926,52.411026],[7.029634,52.411437],[7.029355,52.411851],[7.028833,52.412591],[7.02859,52.412941],[7.028126,52.413592],[7.028107,52.413613],[7.028094,52.413629],[7.028083,52.413634],[7.028002,52.413725],[7.027329,52.41471],[7.026687,52.415703],[7.025779,52.41711],[7.024928,52.418443],[7.024503,52.419102],[7.024236,52.419518],[7.023747,52.420278],[7.023699,52.420352],[7.023315,52.420944],[7.023085,52.421296],[7.022653,52.421962],[7.022231,52.42261],[7.02199,52.422984],[7.020807,52.423635],[7.019879,52.424143],[7.019748,52.424215],[7.017961,52.425193],[7.01775,52.425307],[7.017507,52.425443],[7.017144,52.425639],[7.016456,52.426018],[7.01549,52.42655],[7.01511,52.426762],[7.014161,52.427281],[7.012827,52.428015],[7.012249,52.428336],[7.010933,52.429058],[7.010809,52.429131],[7.010782,52.429137],[7.010768,52.429188],[7.009595,52.43262],[7.009432,52.433115],[7.009353,52.433332],[7.009323,52.433431],[7.009227,52.433703],[7.009027,52.434291],[7.008817,52.434882],[7.008735,52.435128],[7.008381,52.436141],[7.007959,52.437352],[7.007916,52.43749],[7.007199,52.439429],[7.006719,52.440745],[7.006678,52.440848],[7.006573,52.441136],[7.006452,52.441452],[7.006338,52.441782],[7.00597,52.442821],[7.005895,52.443038],[7.005737,52.443496],[7.005294,52.444755],[7.005217,52.444961],[7.00512,52.445236],[7.005063,52.445358],[7.004499,52.446419],[7.00364,52.448011],[7.003318,52.448609],[7.002893,52.4494],[7.002804,52.449558],[7.002568,52.449999],[7.002482,52.450154],[7.001556,52.451889],[7.001454,52.45208],[7.001339,52.452282],[7.001252,52.452452],[7.001139,52.452656],[7.000491,52.453859],[7.000248,52.454299],[7.000064,52.454646],[7.000025,52.454711],[6.999639,52.455242],[6.998944,52.456182],[6.998699,52.456522],[6.99863,52.456606],[6.998575,52.456686],[6.998455,52.456848],[6.997905,52.457595],[6.997656,52.457929],[6.997378,52.458314],[6.996851,52.459026],[6.996675,52.459277],[6.996518,52.45949],[6.996195,52.459943],[6.99587,52.460386],[6.995043,52.461494],[6.994646,52.462042],[6.994574,52.462127],[6.994524,52.462376],[6.994498,52.462494],[6.994435,52.462796],[6.99432,52.463418],[6.994278,52.463613],[6.994254,52.46375],[6.994212,52.463942],[6.994186,52.464084],[6.994138,52.464294],[6.993987,52.465057],[6.99397,52.46516],[6.993907,52.465485],[6.993482,52.465874],[6.993007,52.466302],[6.992517,52.466737],[6.992271,52.466962],[6.992219,52.467005],[6.99185,52.467338],[6.991799,52.467376],[6.991608,52.467485],[6.991188,52.467726],[6.991014,52.467829],[6.990435,52.468156],[6.989525,52.468676],[6.989515,52.468682],[6.989413,52.46874],[6.98939,52.468753],[6.987623,52.469767],[6.987164,52.469582],[6.986853,52.46946],[6.986259,52.46922],[6.985563,52.468939],[6.984972,52.468695],[6.984813,52.468634],[6.984614,52.468551],[6.983136,52.467955],[6.983005,52.467903],[6.982222,52.467586],[6.982009,52.467495],[6.98176,52.467395],[6.98082,52.467017],[6.979757,52.466583],[6.979242,52.466376],[6.978526,52.466085],[6.978518,52.466082],[6.977534,52.465681],[6.977536,52.465598],[6.977491,52.465595],[6.977377,52.465376],[6.977348,52.465322],[6.977136,52.464917],[6.976986,52.464639],[6.97688,52.464436],[6.97677,52.464224],[6.976716,52.464125],[6.976708,52.46411],[6.976187,52.46312],[6.97607,52.463151],[6.975996,52.463043],[6.975999,52.462969],[6.976009,52.462957],[6.976064,52.46292],[6.976066,52.462885],[6.976041,52.462829],[6.975882,52.462525],[6.975654,52.462075],[6.975352,52.46148],[6.975228,52.461236],[6.975169,52.46113],[6.975038,52.460871],[6.974429,52.459704],[6.974106,52.459332],[6.973764,52.458937],[6.973653,52.458808],[6.973444,52.458571],[6.972704,52.457704],[6.972495,52.457467],[6.972409,52.457368],[6.971854,52.456734],[6.971403,52.456208],[6.970861,52.455579],[6.970762,52.455464],[6.97062,52.4553],[6.97061,52.455289],[6.970595,52.455272],[6.970125,52.454656],[6.969935,52.454396],[6.969002,52.453003],[6.968767,52.452653],[6.967802,52.451219],[6.967101,52.450173],[6.966937,52.44992],[6.966878,52.449858],[6.966373,52.449324],[6.96571,52.448624],[6.964842,52.447701],[6.964441,52.44728],[6.963302,52.44606],[6.963068,52.445806],[6.962276,52.444968],[6.962037,52.444705],[6.961953,52.444624],[6.962212,52.444251],[6.962024,52.444142],[6.962188,52.443983],[6.961785,52.443624],[6.961728,52.443652],[6.961624,52.443695],[6.961599,52.443719],[6.961591,52.443744],[6.961564,52.443767],[6.961347,52.443827],[6.961234,52.443887],[6.961062,52.443988],[6.960947,52.443923],[6.959001,52.442879],[6.958243,52.442473],[6.957739,52.442199],[6.95715,52.441885],[6.956733,52.441657],[6.956461,52.441513],[6.955792,52.44115],[6.953506,52.439932],[6.951939,52.439102],[6.951483,52.438858],[6.950215,52.438178],[6.948718,52.437381],[6.94864,52.43734],[6.94827,52.437144],[6.947602,52.436784],[6.947453,52.436701],[6.9473,52.436621],[6.947385,52.436447],[6.947895,52.435452],[6.948362,52.434547],[6.948447,52.434383],[6.948795,52.433698],[6.948835,52.43362],[6.948907,52.43348],[6.949056,52.433192],[6.949224,52.432865],[6.949109,52.432864],[6.948976,52.432862],[6.948311,52.432854],[6.947381,52.432839],[6.947361,52.432838],[6.947176,52.432836],[6.94714,52.432835],[6.945704,52.432817],[6.945505,52.432814],[6.94545,52.432813],[6.9445,52.432799],[6.94371,52.43279],[6.943503,52.432787],[6.943096,52.432781],[6.94226,52.432769],[6.941334,52.432757],[6.938819,52.432722],[6.938776,52.432722],[6.938746,52.432725],[6.938557,52.432751],[6.938516,52.432757],[6.938452,52.432766],[6.938019,52.432826],[6.937134,52.432951],[6.935758,52.433145],[6.935563,52.433173],[6.935554,52.433174],[6.93536,52.433201],[6.934382,52.433342],[6.933549,52.433454],[6.93285,52.433551],[6.932689,52.433573],[6.93184,52.433692],[6.931427,52.43375],[6.931256,52.433774],[6.93111,52.433795],[6.930672,52.433854],[6.929731,52.433981],[6.929342,52.434037],[6.928914,52.434095],[6.928698,52.434125],[6.928525,52.434148],[6.928329,52.434146],[6.927809,52.434144],[6.927388,52.43414],[6.926921,52.434136],[6.926684,52.434136],[6.926642,52.434136],[6.926361,52.434134],[6.9249,52.434128],[6.924833,52.434128],[6.924575,52.434127],[6.924521,52.434128],[6.924419,52.434128],[6.924378,52.43413],[6.924375,52.43413],[6.924281,52.434131],[6.923832,52.434105],[6.923444,52.434084],[6.923065,52.434065],[6.922598,52.434044],[6.922496,52.43404],[6.921988,52.434016],[6.921551,52.433994],[6.921054,52.433973],[6.92051,52.433948],[6.920256,52.433937],[6.920074,52.433929],[6.919637,52.43391],[6.919214,52.43389],[6.918882,52.433875],[6.918854,52.433874],[6.918628,52.433864],[6.918594,52.433862],[6.918272,52.433847],[6.91801,52.433835],[6.917647,52.433818],[6.917513,52.433811],[6.91751,52.433811],[6.917078,52.433792],[6.916424,52.433763],[6.915712,52.433723],[6.915343,52.433705],[6.914618,52.433669],[6.914026,52.43364],[6.913422,52.433607],[6.912686,52.433569],[6.912616,52.433565],[6.912436,52.433557],[6.912215,52.433546],[6.912138,52.433542],[6.911728,52.433518],[6.911265,52.433495],[6.911117,52.433487],[6.91038,52.43345],[6.910325,52.433447],[6.909932,52.433426],[6.909524,52.433405],[6.909467,52.433402],[6.909284,52.433392],[6.909231,52.433389],[6.909173,52.433386],[6.908798,52.433367],[6.908726,52.433363],[6.908661,52.43336],[6.908025,52.433326],[6.907929,52.433321],[6.907849,52.433317],[6.907784,52.433314],[6.907718,52.43331],[6.906608,52.433254],[6.905848,52.433215],[6.905202,52.433184],[6.904861,52.433166],[6.904788,52.433163],[6.904786,52.433162],[6.904779,52.433162],[6.904641,52.433155],[6.904636,52.433155],[6.904465,52.433146],[6.903838,52.433117],[6.903212,52.433087],[6.903063,52.433079],[6.902638,52.433058],[6.902517,52.433052],[6.90218,52.433034],[6.901816,52.433018],[6.90147,52.433002],[6.900941,52.432978],[6.899537,52.432918],[6.897116,52.432815],[6.89706,52.432809],[6.897017,52.432803],[6.89691,52.432789],[6.894895,52.432519],[6.892708,52.43223],[6.891494,52.432067],[6.891191,52.432028],[6.889943,52.431867],[6.889675,52.431832],[6.888138,52.43163],[6.8876,52.431559],[6.887022,52.431481],[6.886449,52.431415],[6.884179,52.431153],[6.8835,52.431075],[6.882033,52.430899],[6.880091,52.430666],[6.879693,52.430619],[6.879192,52.430559],[6.879168,52.430557],[6.879167,52.430556],[6.878397,52.430465],[6.876947,52.43029],[6.876536,52.43024],[6.876318,52.430213],[6.875897,52.430163],[6.87486,52.430038],[6.874788,52.43003],[6.874732,52.430023],[6.873636,52.429891],[6.873545,52.42988],[6.873434,52.429867],[6.873353,52.429857],[6.872375,52.42974],[6.871549,52.429631],[6.871535,52.429629],[6.871434,52.429616],[6.871408,52.429612],[6.870468,52.429489],[6.869545,52.42936],[6.869243,52.429318],[6.868794,52.429255],[6.868411,52.429201],[6.868124,52.429161],[6.868097,52.429158],[6.868013,52.429146],[6.867825,52.42912],[6.866995,52.429005],[6.866901,52.428992],[6.866882,52.428989],[6.865083,52.428734],[6.86286,52.428416],[6.862064,52.428298],[6.861599,52.42823],[6.860622,52.428086],[6.860593,52.428082],[6.860592,52.428081],[6.858871,52.42783],[6.858839,52.427826],[6.858109,52.427719],[6.857426,52.427619],[6.856013,52.427418],[6.85437,52.427183],[6.854297,52.427174],[6.854276,52.427171],[6.854199,52.427161],[6.853805,52.427112],[6.853478,52.427071],[6.853411,52.427062],[6.85341,52.427055],[6.853406,52.427031],[6.853349,52.426625],[6.853349,52.426624],[6.853346,52.426604],[6.853331,52.426507],[6.853302,52.426318],[6.8533,52.426301],[6.853271,52.426116],[6.853214,52.425756],[6.853205,52.4257],[6.853201,52.425678],[6.85319,52.425613],[6.853132,52.425248],[6.853102,52.425049],[6.853097,52.425017],[6.853091,52.424983],[6.853073,52.424865],[6.853071,52.424853],[6.853043,52.424727],[6.853006,52.424442],[6.852949,52.424014],[6.852893,52.423614],[6.852882,52.423535],[6.852848,52.423293],[6.852825,52.423121],[6.85282,52.423079],[6.852811,52.422999],[6.852807,52.422973],[6.852799,52.422913],[6.852779,52.422767],[6.852753,52.422578],[6.852752,52.42257],[6.852735,52.422448],[6.852722,52.422359],[6.852719,52.422344],[6.852716,52.422324],[6.852635,52.421762],[6.852586,52.421424],[6.852499,52.420771],[6.852492,52.420727],[6.85247,52.420596],[6.852395,52.420202],[6.852378,52.420096],[6.852362,52.419998],[6.852257,52.419357],[6.852199,52.41902],[6.85218,52.418897],[6.852134,52.418619],[6.852068,52.418209],[6.852058,52.41815],[6.851836,52.416914],[6.851735,52.416285],[6.851721,52.416198],[6.85172,52.416194],[6.851713,52.416147],[6.851707,52.416111],[6.851665,52.415859],[6.851644,52.415733],[6.851527,52.414831],[6.851495,52.414582],[6.851507,52.414572],[6.852053,52.414113],[6.852897,52.413403],[6.8529,52.413401],[6.852911,52.413392],[6.853774,52.412701],[6.853859,52.412634],[6.855174,52.411582],[6.855233,52.411534],[6.855639,52.41121],[6.856083,52.410857],[6.856192,52.41077],[6.856592,52.410451],[6.856985,52.410269],[6.857597,52.40999],[6.85788,52.40986],[6.858366,52.409638],[6.858415,52.409616],[6.858609,52.409527],[6.858751,52.409462],[6.859224,52.409245],[6.859607,52.409069],[6.859748,52.409003],[6.860173,52.408808],[6.860506,52.408655],[6.860673,52.408578],[6.860753,52.408541],[6.86075,52.408539],[6.86103,52.408411],[6.862338,52.407816],[6.862347,52.407656],[6.862359,52.407433],[6.862356,52.407364],[6.862359,52.407297],[6.86259,52.403087],[6.862598,52.402942],[6.862604,52.402823],[6.862621,52.402698],[6.862628,52.402633],[6.862674,52.402248],[6.862681,52.402184],[6.862688,52.402128],[6.86272,52.401038],[6.862722,52.400966],[6.862744,52.400897],[6.862745,52.400845],[6.86275,52.400732],[6.862762,52.400549],[6.862848,52.399244],[6.86285,52.399212],[6.862872,52.398836],[6.862887,52.398601],[6.862888,52.398586],[6.862893,52.398472],[6.862895,52.398441],[6.862914,52.398015],[6.862951,52.397485],[6.863003,52.396732],[6.863057,52.39593],[6.863064,52.395837],[6.863066,52.395811],[6.863067,52.395785],[6.863096,52.395362],[6.863099,52.395323],[6.863131,52.394862],[6.863199,52.393863],[6.863222,52.393524],[6.86324,52.393259],[6.863268,52.392864],[6.863275,52.392764],[6.863276,52.392752],[6.863446,52.39035],[6.863451,52.390278],[6.863487,52.38977],[6.863567,52.388638],[6.863593,52.38832],[6.863615,52.388038],[6.863607,52.387739],[6.863591,52.387112],[6.863584,52.386845],[6.863575,52.386439],[6.863571,52.386325],[6.863571,52.386317],[6.863514,52.384446],[6.863513,52.384417],[6.86351,52.38431],[6.863506,52.384093],[6.863477,52.38325],[6.863466,52.382846],[6.863466,52.382838],[6.863466,52.382837],[6.863428,52.38145],[6.863425,52.381354],[6.863423,52.381281],[6.863418,52.381093],[6.863375,52.379584],[6.863343,52.378536],[6.863342,52.378517],[6.863339,52.378381],[6.863336,52.378315],[6.863336,52.378297],[6.863327,52.378013],[6.863267,52.376299],[6.863252,52.375864],[6.863252,52.375847],[6.863223,52.374986],[6.863213,52.374706],[6.86321,52.374596],[6.863203,52.374403],[6.863204,52.374239],[6.8632,52.374051],[6.863199,52.373927],[6.863186,52.373159],[6.863179,52.372789],[6.863218,52.372325],[6.863221,52.372289],[6.863225,52.372244],[6.86327,52.371784],[6.863295,52.371541],[6.863397,52.37043],[6.863457,52.369729],[6.863466,52.369358],[6.863469,52.369233],[6.863527,52.36672],[6.863528,52.366673],[6.863547,52.365824],[6.863552,52.36562],[6.863569,52.364871],[6.86357,52.364847],[6.863584,52.363731],[6.863253,52.363585],[6.863245,52.363582],[6.861413,52.362778],[6.861192,52.362682],[6.861051,52.36262],[6.860564,52.362407],[6.860277,52.362282],[6.859709,52.362034],[6.857803,52.361201],[6.855674,52.360288],[6.855495,52.360339],[6.855403,52.36037],[6.854908,52.360621],[6.854408,52.360873],[6.854058,52.36105],[6.853985,52.361084],[6.853785,52.361181],[6.853746,52.3612],[6.852857,52.36164],[6.851789,52.362169],[6.851785,52.362169],[6.851219,52.362168],[6.850853,52.36218],[6.850695,52.362182],[6.849472,52.362201],[6.849111,52.362206],[6.849084,52.362209],[6.849057,52.362212],[6.849029,52.362214],[6.849002,52.362215],[6.848974,52.362216],[6.848947,52.362216],[6.848919,52.362215],[6.848747,52.362217],[6.848613,52.36222],[6.847563,52.362241],[6.846288,52.36226],[6.845103,52.362277],[6.844851,52.362281],[6.843913,52.362295],[6.843616,52.362299],[6.84329,52.362306],[6.840926,52.362353],[6.840548,52.362373],[6.839843,52.362409],[6.839702,52.362416],[6.83818,52.362494],[6.836285,52.362592],[6.836231,52.362596],[6.836176,52.362599],[6.836121,52.362602],[6.836012,52.362609],[6.835902,52.362617],[6.835793,52.362625],[6.835663,52.362636],[6.833791,52.362869],[6.832397,52.363043],[6.83114,52.363199],[6.829662,52.363383],[6.828754,52.363496],[6.828555,52.363521],[6.827926,52.363613],[6.827758,52.363637],[6.825451,52.363971],[6.824679,52.364083],[6.823703,52.364225],[6.823586,52.364242],[6.820374,52.364708],[6.818717,52.364948],[6.817721,52.365092],[6.817683,52.365097],[6.817387,52.365019],[6.8173,52.364996],[6.816416,52.364761],[6.812697,52.363774],[6.809232,52.362854],[6.809138,52.362829],[6.809127,52.362826],[6.808994,52.362791],[6.808367,52.362625],[6.808329,52.362614],[6.807691,52.362445],[6.807588,52.362418],[6.807294,52.36234],[6.806833,52.362217],[6.806782,52.362212],[6.806731,52.362207],[6.806198,52.362154],[6.805099,52.362044],[6.803491,52.361884],[6.800832,52.361618],[6.797719,52.361307],[6.797602,52.361297],[6.797602,52.361297],[6.797467,52.361285],[6.797108,52.36125],[6.796766,52.361216],[6.793985,52.360936],[6.793749,52.360912],[6.79364,52.360904],[6.793355,52.360882],[6.793309,52.360878],[6.79302,52.360856],[6.792707,52.360832],[6.79161,52.360747],[6.791249,52.360719],[6.791191,52.360713],[6.790589,52.360667],[6.789775,52.360605],[6.789752,52.360603],[6.788837,52.360533],[6.785241,52.360257],[6.785035,52.360241],[6.783399,52.360116],[6.783394,52.360106],[6.782581,52.35852],[6.782538,52.358435],[6.78233,52.35803],[6.781988,52.357364],[6.781957,52.357302],[6.779818,52.353131],[6.779787,52.35307],[6.77899,52.351515],[6.778322,52.350212],[6.776933,52.349028],[6.776838,52.348947],[6.776357,52.34854],[6.776223,52.348429],[6.774969,52.347388],[6.774929,52.347354],[6.774576,52.347061],[6.774468,52.346972],[6.774166,52.34672],[6.773979,52.346563],[6.77376,52.346503],[6.770326,52.345578],[6.770311,52.345574],[6.770271,52.345564],[6.770248,52.345557],[6.769966,52.345481],[6.769775,52.345429],[6.769379,52.345321],[6.769228,52.34528],[6.7683,52.345027],[6.767554,52.344824],[6.765371,52.344229],[6.765258,52.344202],[6.765247,52.344199],[6.764541,52.343988],[6.76412,52.343864],[6.764106,52.343859],[6.764095,52.343856],[6.763743,52.343751],[6.76343,52.343669],[6.763164,52.343596],[6.762931,52.343533],[6.76278,52.343486],[6.762634,52.343437],[6.762519,52.34337],[6.7624,52.343294],[6.76218,52.343156],[6.76185,52.342942],[6.761552,52.342753],[6.761428,52.342662],[6.761325,52.342576],[6.761106,52.342389],[6.760898,52.342209],[6.760724,52.342059],[6.760577,52.341943],[6.760491,52.341694],[6.760389,52.341397],[6.760381,52.341376],[6.7597,52.339405],[6.759588,52.339081],[6.759558,52.338993],[6.759522,52.338522],[6.759507,52.338325],[6.759408,52.337002],[6.759377,52.336594],[6.759363,52.336414],[6.759335,52.336055],[6.759185,52.334145],[6.759149,52.333687],[6.759143,52.333614],[6.759142,52.333604],[6.759043,52.332165],[6.759036,52.332074],[6.759035,52.332061]]]},"properties":{"type":"boundary","gemeente":"Dinkelland"}}]}