{"type":"FeatureCollection","metadata":{"gemeente":"Druten","slug":"druten","generated_at":"2026-10-05T08:49:43.886829Z","total_points":39,"providers":["Amazon","DeBuren","DHL","DPD","PostNL","VintedGo","ViaTim","FedEx","InPost"],"bounds":[5.57775,51.8531489053767,5.67218133,51.89307]},"features":[{"type":"Feature","geometry":{"type":"Point","coordinates":[5.57781,51.88415]},"properties":{"type":"pakketpunt","locatieNaam":"DHL - Pakketautomaat Karwei Druten","straatNaam":"Energieweg 80","straatNr":"","vervoerder":"Amazon","puntType":"3p","bezettingsgraad":50,"latitude":51.88415,"longitude":5.57781,"canPickup":true,"canDropoff":false,"openingstijden":null}},{"type":"Feature","geometry":{"type":"Point","coordinates":[5.58435,51.88592]},"properties":{"type":"pakketpunt","locatieNaam":"DHL - DeBuren Locker 24-7 TinQ Druten","straatNaam":"Industrieweg 12","straatNr":"","vervoerder":"Amazon","puntType":"3p","bezettingsgraad":50,"latitude":51.88592,"longitude":5.58435,"canPickup":true,"canDropoff":false,"openingstijden":null}},{"type":"Feature","geometry":{"type":"Point","coordinates":[5.60636,51.8832]},"properties":{"type":"pakketpunt","locatieNaam":"DHL - Pakketautomaat AH Druten","straatNaam":"Scharenburg 21","straatNr":"","vervoerder":"Amazon","puntType":"3p","bezettingsgraad":50,"latitude":51.8832,"longitude":5.60636,"canPickup":true,"canDropoff":false,"openingstijden":null}},{"type":"Feature","geometry":{"type":"Point","coordinates":[5.60771126938576,51.8921593050144]},"properties":{"type":"pakketpunt","locatieNaam":"Alia Market","straatNaam":"Kattenburg 48","straatNr":"","vervoerder":"Amazon","puntType":"3p","bezettingsgraad":50,"latitude":51.8921593050144,"longitude":5.60771126938576,"canPickup":true,"canDropoff":false,"openingstijden":null}},{"type":"Feature","geometry":{"type":"Point","coordinates":[5.58435,51.88592]},"properties":{"type":"pakketpunt","locatieNaam":"Druten | Industrieweg | TinQ | Pakketautomaat","straatNaam":"Industrieweg","straatNr":"12","vervoerder":"DeBuren","puntType":"Buitenkluis","bezettingsgraad":50,"latitude":51.88592,"longitude":5.58435,"canPickup":true,"canDropoff":true,"openingstijden":null}},{"type":"Feature","geometry":{"type":"Point","coordinates":[5.57781,51.88415]},"properties":{"type":"pakketpunt","locatieNaam":"Pakketautomaat Karwei Druten","straatNaam":"Energieweg","straatNr":"80","vervoerder":"DHL","puntType":"packStation","bezettingsgraad":50,"latitude":51.88415,"longitude":5.57781,"canPickup":true,"canDropoff":true,"openingstijden":{"ma":"00:00 - 23:59","di":"00:00 - 23:59","wo":"00:00 - 23:59","do":"00:00 - 23:59","vr":"00:00 - 23:59","za":"00:00 - 23:59","zo":"00:00 - 23:59"}}},{"type":"Feature","geometry":{"type":"Point","coordinates":[5.60636,51.8832]},"properties":{"type":"pakketpunt","locatieNaam":"Pakketautomaat AH Druten","straatNaam":"Scharenburg","straatNr":"21","vervoerder":"DHL","puntType":"packStation","bezettingsgraad":50,"latitude":51.8832,"longitude":5.60636,"canPickup":true,"canDropoff":true,"openingstijden":{"ma":"00:00 - 23:59","di":"00:00 - 23:59","wo":"00:00 - 23:59","do":"00:00 - 23:59","vr":"00:00 - 23:59","za":"00:00 - 23:59","zo":"00:00 - 23:59"}}},{"type":"Feature","geometry":{"type":"Point","coordinates":[5.58435,51.88592]},"properties":{"type":"pakketpunt","locatieNaam":"DeBuren Locker 24-7 TinQ Druten","straatNaam":"Industrieweg","straatNr":"12","vervoerder":"DHL","puntType":"packStation","bezettingsgraad":50,"latitude":51.88592,"longitude":5.58435,"canPickup":true,"canDropoff":true,"openingstijden":{"ma":"00:00 - 23:59","di":"00:00 - 23:59","wo":"00:00 - 23:59","do":"00:00 - 23:59","vr":"00:00 - 23:59","za":"00:00 - 23:59","zo":"00:00 - 23:59"}}},{"type":"Feature","geometry":{"type":"Point","coordinates":[5.60613396732308,51.8882033603672]},"properties":{"type":"pakketpunt","locatieNaam":"Pakketautomaat terStal Druten","straatNaam":"Hogestraat","straatNr":"54-Kast","vervoerder":"DHL","puntType":"packStation","bezettingsgraad":50,"latitude":51.8882033603672,"longitude":5.60613396732308,"canPickup":true,"canDropoff":true,"openingstijden":{"ma":"13:00 - 17:30","di":"09:30 - 17:30","wo":"09:30 - 17:30","do":"09:30 - 17:30","vr":"09:30 - 17:30","za":"09:30 - 17:00","zo":"gesloten"}}},{"type":"Feature","geometry":{"type":"Point","coordinates":[5.606567,51.888638]},"properties":{"type":"pakketpunt","locatieNaam":"Primera Druten","straatNaam":"Hogestraat","straatNr":"67-C","vervoerder":"DHL","puntType":"parcelShop","bezettingsgraad":50,"latitude":51.888638,"longitude":5.606567,"canPickup":true,"canDropoff":true,"openingstijden":{"ma":"11:00 - 18:00","di":"09:00 - 18:00","wo":"09:00 - 18:00","do":"09:00 - 18:00","vr":"09:00 - 20:00","za":"09:00 - 17:00","zo":"gesloten"}}},{"type":"Feature","geometry":{"type":"Point","coordinates":[5.607571,51.8889607]},"properties":{"type":"pakketpunt","locatieNaam":"Top 1 Toys Druten","straatNaam":"Margrietstraat","straatNr":"41","vervoerder":"DHL","puntType":"parcelShop","bezettingsgraad":50,"latitude":51.8889607,"longitude":5.607571,"canPickup":true,"canDropoff":true,"openingstijden":{"ma":"11:00 - 18:00","di":"09:00 - 18:00","wo":"09:00 - 18:00","do":"09:00 - 18:00","vr":"09:00 - 20:00","za":"09:00 - 17:00","zo":"gesloten"}}},{"type":"Feature","geometry":{"type":"Point","coordinates":[5.6100925,51.8905068]},"properties":{"type":"pakketpunt","locatieNaam":"Shoeby Druten","straatNaam":"Markt","straatNr":"22","vervoerder":"DHL","puntType":"parcelShop","bezettingsgraad":50,"latitude":51.8905068,"longitude":5.6100925,"canPickup":true,"canDropoff":true,"openingstijden":{"ma":"13:00 - 17:30","di":"10:00 - 17:30","wo":"10:00 - 17:30","do":"10:00 - 17:30","vr":"10:00 - 20:00","za":"10:00 - 17:00","zo":"gesloten"}}},{"type":"Feature","geometry":{"type":"Point","coordinates":[5.66053,51.881491]},"properties":{"type":"pakketpunt","locatieNaam":"Tankstation Driessen Deest","straatNaam":"Deestersteeg","straatNr":"1","vervoerder":"DHL","puntType":"parcelShop","bezettingsgraad":50,"latitude":51.881491,"longitude":5.66053,"canPickup":true,"canDropoff":true,"openingstijden":{"ma":"07:00 - 21:00","di":"07:00 - 21:00","wo":"07:00 - 21:00","do":"07:00 - 21:00","vr":"07:00 - 21:00","za":"08:00 - 20:30","zo":"09:00 - 20:30"}}},{"type":"Feature","geometry":{"type":"Point","coordinates":[5.6074757576,51.888923645]},"properties":{"type":"pakketpunt","locatieNaam":"Top1Toys Druten","straatNaam":"MARGRIETSTRAAT","straatNr":"41","vervoerder":"DPD","puntType":"pickup_point","bezettingsgraad":50,"latitude":51.888923645,"longitude":5.6074757576,"canPickup":true,"canDropoff":true,"openingstijden":{"ma":"11:00 - 18:00","di":"09:00 - 18:00","wo":"09:00 - 18:00","do":"09:00 - 18:00","vr":"09:00 - 20:00","za":"09:00 - 17:00","zo":"gesloten"}}},{"type":"Feature","geometry":{"type":"Point","coordinates":[5.5844832,51.88566]},"properties":{"type":"pakketpunt","locatieNaam":"Pakketautomaat TinQ Industrieweg","straatNaam":"INDUSTRIEWEG","straatNr":"12","vervoerder":"DPD","puntType":"dpd_box","bezettingsgraad":50,"latitude":51.88566,"longitude":5.5844832,"canPickup":true,"canDropoff":true,"openingstijden":{"ma":"00:00 - 23:59","di":"00:00 - 23:59","wo":"00:00 - 23:59","do":"00:00 - 23:59","vr":"00:00 - 23:59","za":"00:00 - 23:59","zo":"00:00 - 23:59"}}},{"type":"Feature","geometry":{"type":"Point","coordinates":[5.6107681,51.8852739]},"properties":{"type":"pakketpunt","locatieNaam":"Pakketautomaat Fitness Club Druten","straatNaam":"KLEPPERHEIDE","straatNr":"17","vervoerder":"DPD","puntType":"dpd_box","bezettingsgraad":50,"latitude":51.8852739,"longitude":5.6107681,"canPickup":true,"canDropoff":true,"openingstijden":{"ma":"06:30 - 22:30","di":"06:30 - 22:30","wo":"06:30 - 22:30","do":"06:30 - 22:30","vr":"06:30 - 22:00","za":"09:00 - 15:00","zo":"09:00 - 15:00"}}},{"type":"Feature","geometry":{"type":"Point","coordinates":[5.60646299425985,51.8834429760643]},"properties":{"type":"pakketpunt","locatieNaam":"Pakketautomaat","straatNaam":"Scharenburg","straatNr":"21PBA","vervoerder":"PostNL","puntType":"automaat","bezettingsgraad":50,"latitude":51.8834429760643,"longitude":5.60646299425985,"canPickup":true,"canDropoff":true,"openingstijden":"00:00 - 23:59"}},{"type":"Feature","geometry":{"type":"Point","coordinates":[5.612992055,51.85315787]},"properties":{"type":"pakketpunt","locatieNaam":"Dagwinkel","straatNaam":"Sportlaan","straatNr":"5","vervoerder":"PostNL","puntType":"servicepunt","bezettingsgraad":50,"latitude":51.85315787,"longitude":5.612992055,"canPickup":true,"canDropoff":true,"openingstijden":"08:30 - 12:15, 13:15 - 18:00 (Na 18:00 open; Zaterdag open)"}},{"type":"Feature","geometry":{"type":"Point","coordinates":[5.61297749546166,51.8531489053767]},"properties":{"type":"pakketpunt","locatieNaam":"Pakketautomaat","straatNaam":"Sportlaan","straatNr":"5PBA","vervoerder":"PostNL","puntType":"automaat","bezettingsgraad":50,"latitude":51.8531489053767,"longitude":5.61297749546166,"canPickup":true,"canDropoff":true,"openingstijden":"00:00 - 23:59"}},{"type":"Feature","geometry":{"type":"Point","coordinates":[5.60423271332967,51.8877884791638]},"properties":{"type":"pakketpunt","locatieNaam":"Pakketautomaat","straatNaam":"Heuvel","straatNr":"10PBA","vervoerder":"PostNL","puntType":"automaat","bezettingsgraad":50,"latitude":51.8877884791638,"longitude":5.60423271332967,"canPickup":true,"canDropoff":true,"openingstijden":"08:00 - 21:00"}},{"type":"Feature","geometry":{"type":"Point","coordinates":[5.611033331,51.89122722]},"properties":{"type":"pakketpunt","locatieNaam":"Bruna","straatNaam":"Markt","straatNr":"9-3","vervoerder":"PostNL","puntType":"servicepunt","bezettingsgraad":50,"latitude":51.89122722,"longitude":5.611033331,"canPickup":true,"canDropoff":true,"openingstijden":"09:00 - 18:00 (Na 18:00 open; Zaterdag open)"}},{"type":"Feature","geometry":{"type":"Point","coordinates":[5.60771126938576,51.8921593050144]},"properties":{"type":"pakketpunt","locatieNaam":"Alia Market","straatNaam":"Kattenburg","straatNr":"48","vervoerder":"PostNL","puntType":"servicepunt","bezettingsgraad":50,"latitude":51.8921593050144,"longitude":5.60771126938576,"canPickup":true,"canDropoff":true,"openingstijden":null}},{"type":"Feature","geometry":{"type":"Point","coordinates":[5.57796903,51.884068]},"properties":{"type":"pakketpunt","locatieNaam":"KARWEI Druten","straatNaam":"Energieweg","straatNr":"80","vervoerder":"PostNL","puntType":"servicepunt","bezettingsgraad":50,"latitude":51.884068,"longitude":5.57796903,"canPickup":true,"canDropoff":true,"openingstijden":"09:00 - 21:00"}},{"type":"Feature","geometry":{"type":"Point","coordinates":[5.57796903,51.884068]},"properties":{"type":"pakketpunt","locatieNaam":"Pakket- en briefautomaat","straatNaam":"Energieweg","straatNr":"80PBA","vervoerder":"PostNL","puntType":"automaat","bezettingsgraad":50,"latitude":51.884068,"longitude":5.57796903,"canPickup":true,"canDropoff":true,"openingstijden":"00:00 - 23:59"}},{"type":"Feature","geometry":{"type":"Point","coordinates":[5.6101728,51.8880084]},"properties":{"type":"pakketpunt","locatieNaam":"T. Hol","straatNaam":"Wilhelminastraat 32","straatNr":"","vervoerder":"VintedGo","puntType":"social","bezettingsgraad":50,"latitude":51.8880084,"longitude":5.6101728,"canPickup":true,"canDropoff":true,"openingstijden":null}},{"type":"Feature","geometry":{"type":"Point","coordinates":[5.60192,51.89299]},"properties":{"type":"pakketpunt","locatieNaam":"P. &. Zo","straatNaam":"Pa Hoeklaan 14","straatNr":"","vervoerder":"VintedGo","puntType":"social","bezettingsgraad":50,"latitude":51.89299,"longitude":5.60192,"canPickup":true,"canDropoff":true,"openingstijden":null}},{"type":"Feature","geometry":{"type":"Point","coordinates":[5.60757,51.88896]},"properties":{"type":"pakketpunt","locatieNaam":"Top1Toys Druten","straatNaam":"Margrietstraat 41","straatNr":"","vervoerder":"VintedGo","puntType":"parcel_shop","bezettingsgraad":50,"latitude":51.88896,"longitude":5.60757,"canPickup":true,"canDropoff":true,"openingstijden":null}},{"type":"Feature","geometry":{"type":"Point","coordinates":[5.612946,51.8531512]},"properties":{"type":"pakketpunt","locatieNaam":"Dagwinkel","straatNaam":"Sportlaan 5","straatNr":"","vervoerder":"VintedGo","puntType":"parcel_shop","bezettingsgraad":50,"latitude":51.8531512,"longitude":5.612946,"canPickup":true,"canDropoff":true,"openingstijden":null}},{"type":"Feature","geometry":{"type":"Point","coordinates":[5.6064756,51.8886557]},"properties":{"type":"pakketpunt","locatieNaam":"Primera Druten","straatNaam":"Hogestraat 67C","straatNr":"","vervoerder":"VintedGo","puntType":"parcel_shop","bezettingsgraad":50,"latitude":51.8886557,"longitude":5.6064756,"canPickup":true,"canDropoff":true,"openingstijden":null}},{"type":"Feature","geometry":{"type":"Point","coordinates":[5.67218133,51.88615448]},"properties":{"type":"pakketpunt","locatieNaam":"ViaTim en Teun & Sophie","straatNaam":"Vriezeweg","straatNr":"40","vervoerder":"ViaTim","puntType":"servicepunt","bezettingsgraad":50,"latitude":51.88615448,"longitude":5.67218133,"canPickup":true,"canDropoff":true,"openingstijden":{"ma":"gesloten","di":"09:00 - 12:00","wo":"gesloten","do":"09:00 - 12:00","vr":"gesloten","za":"gesloten","zo":"gesloten"}}},{"type":"Feature","geometry":{"type":"Point","coordinates":[5.59769847,51.88407439]},"properties":{"type":"pakketpunt","locatieNaam":"ViaTim en Kim","straatNaam":"Frijnheuvel","straatNr":"70","vervoerder":"ViaTim","puntType":"servicepunt","bezettingsgraad":50,"latitude":51.88407439,"longitude":5.59769847,"canPickup":true,"canDropoff":true,"openingstijden":{"ma":"19:00 - 22:00","di":"19:00 - 22:00","wo":"19:00 - 22:00","do":"19:00 - 22:00","vr":"gesloten","za":"gesloten","zo":"gesloten"}}},{"type":"Feature","geometry":{"type":"Point","coordinates":[5.577796768070806,51.88404046029491]},"properties":{"type":"pakketpunt","locatieNaam":"FedEx Ship&Get","straatNaam":"Energieweg 80 PBA","straatNr":"","vervoerder":"FedEx","puntType":"servicepunt","bezettingsgraad":50,"latitude":51.88404046029491,"longitude":5.577796768070806,"canPickup":true,"canDropoff":true,"openingstijden":{"ma":"00:00 - 23:59","di":"00:00 - 23:59","wo":"00:00 - 23:59","do":"00:00 - 23:59","vr":"00:00 - 23:59","za":"00:00 - 23:59","zo":"00:00 - 23:59"}}},{"type":"Feature","geometry":{"type":"Point","coordinates":[5.606474011045091,51.88342440463297]},"properties":{"type":"pakketpunt","locatieNaam":"FedEx Ship&Get","straatNaam":"Scharenburg 21 PBA","straatNr":"","vervoerder":"FedEx","puntType":"servicepunt","bezettingsgraad":50,"latitude":51.88342440463297,"longitude":5.606474011045091,"canPickup":true,"canDropoff":true,"openingstijden":{"ma":"00:00 - 23:59","di":"00:00 - 23:59","wo":"00:00 - 23:59","do":"00:00 - 23:59","vr":"00:00 - 23:59","za":"00:00 - 23:59","zo":"00:00 - 23:59"}}},{"type":"Feature","geometry":{"type":"Point","coordinates":[5.604233,51.887788]},"properties":{"type":"pakketpunt","locatieNaam":"FedEx Ship&Get","straatNaam":"Heuvel 10 PBA","straatNr":"","vervoerder":"FedEx","puntType":"servicepunt","bezettingsgraad":50,"latitude":51.887788,"longitude":5.604233,"canPickup":true,"canDropoff":true,"openingstijden":{"ma":"08:00 - 21:00","di":"08:00 - 21:00","wo":"08:00 - 21:00","do":"08:00 - 21:00","vr":"08:00 - 21:00","za":"08:00 - 21:00","zo":"09:00 - 20:00"}}},{"type":"Feature","geometry":{"type":"Point","coordinates":[5.601886020237741,51.89292248457306]},"properties":{"type":"pakketpunt","locatieNaam":"FedEx OnSite","straatNaam":"PA HOEKLAAN 14","straatNr":"","vervoerder":"FedEx","puntType":"servicepunt","bezettingsgraad":50,"latitude":51.89292248457306,"longitude":5.601886020237741,"canPickup":true,"canDropoff":true,"openingstijden":{"ma":"10:00 - 16:00","di":"10:00 - 16:00","wo":"10:00 - 16:00","do":"10:00 - 16:00","vr":"10:00 - 16:00","za":"gesloten","zo":"gesloten"}}},{"type":"Feature","geometry":{"type":"Point","coordinates":[5.610444,51.890116]},"properties":{"type":"pakketpunt","locatieNaam":"FedEx OnSite","straatNaam":"MARKTPASSAGE 1","straatNr":"","vervoerder":"FedEx","puntType":"servicepunt","bezettingsgraad":50,"latitude":51.890116,"longitude":5.610444,"canPickup":true,"canDropoff":true,"openingstijden":{"ma":"10:30 - 18:00","di":"09:00 - 18:00","wo":"09:00 - 18:00","do":"09:00 - 18:00","vr":"09:00 - 20:00","za":"09:00 - 18:00","zo":"gesloten"}}},{"type":"Feature","geometry":{"type":"Point","coordinates":[5.61044,51.89012]},"properties":{"type":"pakketpunt","locatieNaam":"DOGA MARKET","straatNaam":"Marktpassage 1","straatNr":"","vervoerder":"InPost","puntType":"servicepunt","bezettingsgraad":50,"latitude":51.89012,"longitude":5.61044,"canPickup":true,"canDropoff":true,"openingstijden":null}},{"type":"Feature","geometry":{"type":"Point","coordinates":[5.60195,51.89307]},"properties":{"type":"pakketpunt","locatieNaam":"STICHTING SHEERENLOO","straatNaam":"PA HOEKLAAN 14","straatNr":"","vervoerder":"InPost","puntType":"servicepunt","bezettingsgraad":50,"latitude":51.89307,"longitude":5.60195,"canPickup":true,"canDropoff":true,"openingstijden":"L/Ma/Me/J/V, 10-16"}},{"type":"Feature","geometry":{"type":"Point","coordinates":[5.57775,51.88438]},"properties":{"type":"pakketpunt","locatieNaam":"","straatNaam":"Energieweg","straatNr":"80","vervoerder":"InPost","puntType":"automaat","bezettingsgraad":50,"latitude":51.88438,"longitude":5.57775,"canPickup":true,"canDropoff":true,"openingstijden":"24/7"}},{"type":"Feature","geometry":{"type":"Polygon","coordinates":[[[5.531363,51.894753],[5.531227,51.893559],[5.531204,51.893361],[5.531166,51.893034],[5.531141,51.892812],[5.531121,51.892646],[5.531089,51.892358],[5.531067,51.892168],[5.530981,51.891423],[5.530983,51.891393],[5.531463,51.891417],[5.532461,51.891467],[5.533268,51.891506],[5.534193,51.891552],[5.534279,51.891543],[5.534401,51.89155],[5.535033,51.891597],[5.535487,51.891632],[5.536505,51.891684],[5.537104,51.891728],[5.537546,51.891749],[5.53795,51.891777],[5.538299,51.891797],[5.53863,51.891819],[5.53886,51.891833],[5.538897,51.891835],[5.539135,51.891847],[5.539303,51.891867],[5.539377,51.891875],[5.539499,51.891765],[5.539515,51.891764],[5.539912,51.891364],[5.539883,51.891179],[5.540047,51.890962],[5.540321,51.890629],[5.540616,51.890281],[5.540762,51.890098],[5.540794,51.890058],[5.540961,51.889863],[5.540996,51.88981],[5.541085,51.889684],[5.541155,51.889606],[5.541279,51.889443],[5.541367,51.889357],[5.541494,51.889277],[5.541628,51.889233],[5.541925,51.889132],[5.542261,51.889021],[5.542507,51.88894],[5.54257,51.888918],[5.542802,51.888836],[5.542828,51.888826],[5.542874,51.888808],[5.542984,51.888765],[5.543113,51.888716],[5.543169,51.888705],[5.543161,51.888651],[5.543136,51.888503],[5.543126,51.888439],[5.54312,51.888404],[5.54337,51.888374],[5.543817,51.88828],[5.544306,51.888127],[5.544566,51.888041],[5.544787,51.887996],[5.54484,51.887991],[5.545125,51.887967],[5.545294,51.887963],[5.545539,51.887991],[5.54567,51.888004],[5.545984,51.888042],[5.546493,51.888136],[5.54702,51.888231],[5.547367,51.888262],[5.547812,51.888306],[5.548012,51.888298],[5.54816,51.888278],[5.548216,51.888273],[5.548381,51.888245],[5.548587,51.88821],[5.548922,51.888144],[5.549041,51.888124],[5.54916,51.888103],[5.54923,51.888093],[5.549398,51.888072],[5.549636,51.888056],[5.549732,51.88805],[5.549909,51.888044],[5.5501,51.888037],[5.550285,51.888037],[5.550467,51.888041],[5.550662,51.888048],[5.550825,51.88806],[5.55103,51.888076],[5.551278,51.888105],[5.551494,51.888128],[5.551748,51.888158],[5.55197,51.888184],[5.552091,51.888199],[5.552224,51.888215],[5.552462,51.888251],[5.55262,51.888288],[5.552756,51.888328],[5.553061,51.888426],[5.553242,51.88848],[5.553368,51.888509],[5.55342,51.888518],[5.553559,51.888535],[5.553738,51.888552],[5.553922,51.888566],[5.554074,51.888578],[5.554352,51.888597],[5.554671,51.888617],[5.554823,51.888623],[5.555033,51.888621],[5.555377,51.888629],[5.555624,51.888643],[5.555912,51.888677],[5.556268,51.888729],[5.556539,51.888783],[5.557416,51.888952],[5.557835,51.88904],[5.557941,51.889072],[5.558257,51.889184],[5.558715,51.889366],[5.558937,51.889448],[5.559052,51.889482],[5.559218,51.889531],[5.55931,51.889557],[5.559725,51.889678],[5.560248,51.889822],[5.560666,51.889902],[5.561038,51.889962],[5.56164,51.890061],[5.561927,51.890119],[5.562345,51.890212],[5.563002,51.890348],[5.563894,51.89053],[5.564758,51.890682],[5.565001,51.890696],[5.565173,51.890712],[5.565336,51.890745],[5.565497,51.890756],[5.565751,51.890775],[5.566226,51.890816],[5.566546,51.890857],[5.566846,51.890912],[5.567466,51.891021],[5.567622,51.891047],[5.567807,51.891077],[5.567895,51.891091],[5.568499,51.891191],[5.568995,51.89128],[5.569613,51.8914],[5.570305,51.891544],[5.570326,51.891549],[5.570619,51.891605],[5.571253,51.891728],[5.571322,51.89174],[5.571767,51.89182],[5.57197,51.891856],[5.572475,51.89194],[5.572574,51.891954],[5.572673,51.891968],[5.572771,51.891983],[5.572869,51.891999],[5.572956,51.892014],[5.573042,51.892029],[5.573129,51.892045],[5.573214,51.892061],[5.5733,51.892078],[5.573713,51.892169],[5.573796,51.892188],[5.573879,51.892207],[5.573962,51.892224],[5.574046,51.892241],[5.574183,51.892268],[5.574708,51.892359],[5.575524,51.892481],[5.575579,51.89249],[5.575671,51.892503],[5.575773,51.892512],[5.575873,51.892519],[5.575957,51.892521],[5.576035,51.892521],[5.57613,51.892519],[5.576261,51.892511],[5.576461,51.892486],[5.576536,51.892477],[5.576612,51.892469],[5.576688,51.892461],[5.576764,51.892454],[5.57684,51.892448],[5.576916,51.892442],[5.576993,51.892437],[5.57698,51.892395],[5.576891,51.892179],[5.57683,51.892004],[5.576722,51.891744],[5.576575,51.89139],[5.576404,51.891025],[5.576228,51.890683],[5.576121,51.890498],[5.575641,51.889706],[5.575373,51.889285],[5.575081,51.888823],[5.574903,51.888545],[5.574853,51.888475],[5.57483,51.888438],[5.574787,51.888382],[5.574315,51.887806],[5.573817,51.887206],[5.573628,51.886983],[5.573567,51.88692],[5.573515,51.886871],[5.573416,51.886786],[5.57334,51.88672],[5.573318,51.886703],[5.573114,51.886535],[5.573051,51.886477],[5.572958,51.886397],[5.572676,51.886163],[5.572509,51.886019],[5.572354,51.885885],[5.572291,51.885833],[5.572249,51.885797],[5.572247,51.885793],[5.572246,51.885789],[5.572246,51.885785],[5.572248,51.885781],[5.57225,51.885778],[5.572254,51.885774],[5.572258,51.885772],[5.572263,51.885769],[5.572493,51.885716],[5.572691,51.885666],[5.57263,51.885526],[5.572526,51.88531],[5.572421,51.885096],[5.572311,51.884873],[5.572221,51.884751],[5.572119,51.884636],[5.572046,51.884554],[5.57187,51.884357],[5.571836,51.88432],[5.571681,51.884144],[5.571675,51.884127],[5.571567,51.884019],[5.57146,51.883912],[5.571309,51.884029],[5.57118,51.884126],[5.571041,51.884061],[5.570636,51.88426],[5.57046,51.884348],[5.57045,51.884354],[5.570401,51.884381],[5.570221,51.884483],[5.570027,51.884616],[5.569895,51.884707],[5.569724,51.884825],[5.569585,51.884924],[5.569443,51.884852],[5.56929,51.884775],[5.569147,51.884721],[5.568955,51.884666],[5.568908,51.884678],[5.568834,51.884662],[5.568769,51.884638],[5.568726,51.884617],[5.568711,51.884603],[5.568718,51.884585],[5.568761,51.884524],[5.568796,51.884467],[5.568736,51.884436],[5.568427,51.884341],[5.568107,51.884263],[5.567738,51.884182],[5.566703,51.883992],[5.566438,51.883948],[5.566443,51.883931],[5.566447,51.883915],[5.566493,51.883759],[5.566555,51.883471],[5.566598,51.883277],[5.566644,51.883033],[5.566709,51.882708],[5.566776,51.882386],[5.566785,51.882362],[5.566922,51.88234],[5.566945,51.882289],[5.566948,51.881902],[5.566944,51.881277],[5.566948,51.881255],[5.566996,51.881228],[5.567277,51.881049],[5.567489,51.880923],[5.568199,51.880493],[5.568253,51.880455],[5.568265,51.880447],[5.568268,51.880446],[5.568388,51.880373],[5.568492,51.880308],[5.568509,51.880299],[5.568861,51.880094],[5.569365,51.879779],[5.569408,51.87961],[5.569379,51.879503],[5.56926,51.879282],[5.569153,51.879057],[5.568938,51.878476],[5.568804,51.878049],[5.568724,51.877772],[5.568673,51.877585],[5.568665,51.87755],[5.568656,51.877505],[5.568595,51.877225],[5.568435,51.876545],[5.568038,51.876477],[5.567628,51.876402],[5.567267,51.876335],[5.567197,51.876319],[5.567048,51.876293],[5.566505,51.876195],[5.565925,51.876089],[5.56581,51.876067],[5.565562,51.876022],[5.564922,51.875904],[5.564812,51.875886],[5.563337,51.875611],[5.562426,51.875445],[5.562326,51.875427],[5.561758,51.875325],[5.561355,51.875249],[5.56125,51.87523],[5.560791,51.875144],[5.560256,51.875048],[5.560239,51.874974],[5.560221,51.874866],[5.560116,51.874242],[5.560029,51.873777],[5.559986,51.873539],[5.559942,51.873231],[5.559926,51.873054],[5.559881,51.872915],[5.559901,51.872915],[5.559857,51.872653],[5.559824,51.872404],[5.559768,51.871961],[5.559711,51.871527],[5.55965,51.871035],[5.559619,51.870851],[5.559607,51.870813],[5.559589,51.870703],[5.55959,51.870673],[5.559602,51.870507],[5.559482,51.870505],[5.55946,51.870504],[5.558788,51.870492],[5.55836,51.870483],[5.557991,51.870472],[5.55748,51.870461],[5.556998,51.870452],[5.55696,51.870449],[5.556955,51.870449],[5.556834,51.870447],[5.554954,51.870402],[5.55398,51.870377],[5.553782,51.870372],[5.553825,51.869986],[5.553891,51.869386],[5.554001,51.868236],[5.554066,51.867614],[5.554066,51.867614],[5.554057,51.867561],[5.55405,51.867522],[5.553923,51.866895],[5.553797,51.866229],[5.553791,51.866193],[5.553776,51.866107],[5.553712,51.865719],[5.553645,51.865368],[5.553617,51.865207],[5.553599,51.865107],[5.553593,51.865068],[5.553521,51.864639],[5.553459,51.86427],[5.553315,51.863607],[5.553301,51.863547],[5.553207,51.863115],[5.553142,51.862817],[5.553059,51.862594],[5.553041,51.862544],[5.553038,51.862536],[5.554181,51.862623],[5.556003,51.862758],[5.557882,51.8629],[5.559472,51.863021],[5.560171,51.863069],[5.561223,51.863141],[5.562989,51.863268],[5.564772,51.863392],[5.566176,51.863497],[5.567648,51.86361],[5.567967,51.863641],[5.568656,51.863703],[5.569548,51.863775],[5.570458,51.863844],[5.571145,51.863896],[5.571415,51.863907],[5.571785,51.863919],[5.572611,51.863936],[5.573242,51.863949],[5.573858,51.863955],[5.574007,51.863963],[5.574179,51.863977],[5.574391,51.863993],[5.574514,51.864011],[5.57481,51.864058],[5.575068,51.864096],[5.575828,51.864225],[5.576315,51.864312],[5.576517,51.864347],[5.576693,51.864392],[5.576829,51.864434],[5.577127,51.864544],[5.577273,51.864585],[5.577275,51.864443],[5.577349,51.863815],[5.577447,51.86291],[5.577528,51.862226],[5.577588,51.861646],[5.577663,51.861036],[5.577722,51.860487],[5.57773,51.860388],[5.577733,51.860351],[5.577777,51.860272],[5.577818,51.860198],[5.577852,51.860137],[5.577928,51.860048],[5.57805,51.859912],[5.578073,51.859887],[5.578601,51.859323],[5.578711,51.859205],[5.57886,51.859113],[5.578929,51.859084],[5.579021,51.859055],[5.579144,51.859019],[5.579845,51.858785],[5.58014,51.858689],[5.580806,51.858475],[5.581029,51.858404],[5.581372,51.858293],[5.581422,51.858278],[5.583448,51.857622],[5.584696,51.857228],[5.584854,51.857183],[5.585039,51.85713],[5.585031,51.857113],[5.58501,51.857072],[5.584809,51.856792],[5.584759,51.856737],[5.584501,51.856406],[5.584261,51.856097],[5.584253,51.856084],[5.584245,51.856071],[5.583943,51.855677],[5.583797,51.855484],[5.583697,51.855351],[5.583521,51.85512],[5.58346,51.855039],[5.583432,51.855006],[5.582981,51.854436],[5.582699,51.854068],[5.582651,51.854005],[5.582537,51.853857],[5.582452,51.85374],[5.582061,51.853236],[5.581912,51.853047],[5.58182,51.852922],[5.581682,51.852723],[5.58157,51.852599],[5.581486,51.852478],[5.581414,51.85236],[5.581349,51.852246],[5.581294,51.852137],[5.581241,51.852007],[5.581169,51.851856],[5.581127,51.851725],[5.581107,51.851623],[5.581081,51.85151],[5.581066,51.851423],[5.581057,51.851344],[5.581055,51.851273],[5.581037,51.851147],[5.581042,51.850979],[5.581057,51.850848],[5.581077,51.850706],[5.581105,51.850573],[5.581141,51.85045],[5.581196,51.850287],[5.581236,51.850191],[5.58137,51.849776],[5.581477,51.849529],[5.581523,51.849414],[5.581567,51.849305],[5.581637,51.849165],[5.581928,51.848626],[5.582134,51.848239],[5.582144,51.848223],[5.582263,51.848032],[5.582279,51.847999],[5.582423,51.847681],[5.582687,51.847181],[5.582761,51.847044],[5.582837,51.846894],[5.583081,51.846431],[5.583167,51.84625],[5.583202,51.846198],[5.583393,51.845695],[5.583499,51.845399],[5.583533,51.845303],[5.583585,51.845157],[5.58362,51.845052],[5.583782,51.844602],[5.583906,51.844246],[5.583956,51.844084],[5.58414,51.84359],[5.584199,51.843426],[5.584215,51.843383],[5.584253,51.843124],[5.584267,51.843036],[5.584463,51.842],[5.584505,51.841781],[5.584528,51.841665],[5.584549,51.84156],[5.584546,51.841535],[5.584635,51.841073],[5.584701,51.840731],[5.584839,51.839999],[5.584893,51.83975],[5.585013,51.839107],[5.585354,51.839124],[5.58565,51.839128],[5.58584,51.839128],[5.586179,51.839125],[5.586393,51.839124],[5.586541,51.839127],[5.586965,51.839152],[5.587738,51.839188],[5.58788,51.839193],[5.588148,51.839216],[5.588253,51.839222],[5.588728,51.839261],[5.588883,51.839278],[5.589209,51.8393],[5.589262,51.839301],[5.589333,51.839303],[5.589819,51.839328],[5.590588,51.839375],[5.591781,51.839443],[5.592439,51.839481],[5.593028,51.839517],[5.593443,51.839539],[5.594229,51.839585],[5.594799,51.83962],[5.595007,51.839619],[5.595503,51.839617],[5.596287,51.839605],[5.596608,51.839593],[5.59702,51.839585],[5.597387,51.839576],[5.597978,51.839555],[5.598269,51.839544],[5.598272,51.839515],[5.598329,51.839022],[5.598334,51.838986],[5.598389,51.838576],[5.598494,51.837851],[5.598536,51.837844],[5.599469,51.837727],[5.599593,51.837733],[5.600639,51.837627],[5.601215,51.837565],[5.601933,51.837494],[5.602657,51.837419],[5.60281,51.83741],[5.60284,51.837406],[5.60284,51.837406],[5.60289,51.837399],[5.603156,51.837361],[5.604221,51.83722],[5.604842,51.837135],[5.604959,51.83712],[5.605505,51.837048],[5.606255,51.836945],[5.606297,51.836943],[5.606323,51.836943],[5.606348,51.836955],[5.606366,51.836977],[5.606369,51.83698],[5.606371,51.836985],[5.606633,51.836935],[5.606753,51.836916],[5.607256,51.83682],[5.60776,51.836725],[5.609016,51.836482],[5.609468,51.836393],[5.609727,51.836341],[5.60977,51.836353],[5.609835,51.836274],[5.609859,51.83628],[5.609943,51.836307],[5.610121,51.83636],[5.610329,51.836426],[5.610471,51.836471],[5.610982,51.836635],[5.613692,51.837577],[5.614875,51.837981],[5.617057,51.838732],[5.617404,51.838848],[5.61815,51.839088],[5.618523,51.839212],[5.618945,51.839343],[5.619374,51.839467],[5.619636,51.839508],[5.619735,51.83953],[5.619913,51.839573],[5.620524,51.839747],[5.620857,51.839837],[5.621088,51.839909],[5.621185,51.839943],[5.621253,51.83997],[5.621829,51.84022],[5.622293,51.840409],[5.622466,51.840458],[5.622762,51.840514],[5.623142,51.840469],[5.624734,51.840829],[5.625795,51.841073],[5.628619,51.84171],[5.629214,51.841845],[5.630251,51.84207],[5.631563,51.84236],[5.632109,51.842478],[5.634171,51.842933],[5.634305,51.842964],[5.63601,51.84333],[5.636393,51.843415],[5.637142,51.843573],[5.637894,51.843738],[5.639533,51.844094],[5.64014,51.844228],[5.640588,51.844331],[5.641174,51.844461],[5.642469,51.844757],[5.642665,51.844815],[5.6432,51.844988],[5.643021,51.845071],[5.642913,51.845122],[5.64132,51.845862],[5.641201,51.845922],[5.640439,51.846232],[5.639858,51.846481],[5.639705,51.846539],[5.639574,51.846573],[5.639433,51.846599],[5.639366,51.846609],[5.639192,51.846629],[5.639007,51.846683],[5.638838,51.846733],[5.638089,51.846949],[5.637319,51.847174],[5.636938,51.847282],[5.636864,51.847297],[5.636805,51.847304],[5.636643,51.847344],[5.63587,51.847467],[5.636088,51.847667],[5.63632,51.847841],[5.636556,51.848004],[5.636973,51.84825],[5.637861,51.848771],[5.637708,51.848878],[5.637481,51.849037],[5.637274,51.849176],[5.636871,51.849505],[5.636744,51.849602],[5.636759,51.849615],[5.636328,51.849956],[5.635908,51.850321],[5.63583,51.850372],[5.635176,51.850775],[5.634702,51.851089],[5.634933,51.851101],[5.635098,51.851107],[5.635349,51.851117],[5.635865,51.851143],[5.635966,51.851591],[5.636025,51.851712],[5.63615,51.851916],[5.636208,51.852024],[5.636375,51.852311],[5.636585,51.852677],[5.636628,51.85275],[5.636655,51.852797],[5.636893,51.853258],[5.636948,51.853383],[5.637025,51.853498],[5.637059,51.853551],[5.637194,51.853651],[5.638699,51.854734],[5.638803,51.854817],[5.638827,51.85484],[5.63885,51.854871],[5.639044,51.855051],[5.63946,51.855444],[5.639835,51.85578],[5.64012,51.856033],[5.639885,51.856798],[5.639812,51.857075],[5.639689,51.857571],[5.639664,51.857666],[5.639612,51.85787],[5.639529,51.858174],[5.639507,51.858254],[5.639438,51.85851],[5.639369,51.858775],[5.639177,51.859396],[5.639061,51.859825],[5.63902,51.859862],[5.638979,51.85996],[5.6389,51.860206],[5.638814,51.860413],[5.638672,51.860818],[5.638535,51.861166],[5.63875,51.86136],[5.638929,51.861529],[5.638973,51.861551],[5.639349,51.861914],[5.63947,51.862018],[5.639401,51.862057],[5.638615,51.862666],[5.63814,51.863057],[5.637803,51.863341],[5.63662,51.864362],[5.636566,51.864454],[5.636496,51.864634],[5.636585,51.865078],[5.636627,51.865329],[5.636628,51.865494],[5.636453,51.866262],[5.636209,51.86725],[5.636177,51.867362],[5.636185,51.867362],[5.636232,51.867363],[5.63666,51.867381],[5.637105,51.867397],[5.638228,51.867445],[5.638403,51.867445],[5.638433,51.867446],[5.638911,51.867449],[5.639238,51.867439],[5.639598,51.867425],[5.640551,51.867395],[5.64175,51.867347],[5.641793,51.867343],[5.64185,51.867341],[5.643949,51.867233],[5.644931,51.867181],[5.645019,51.867185],[5.647079,51.867073],[5.647172,51.867067],[5.650151,51.866918],[5.650949,51.866882],[5.651078,51.86688],[5.651853,51.866844],[5.652854,51.8668],[5.653776,51.866754],[5.655049,51.866693],[5.655171,51.866691],[5.657221,51.866593],[5.658229,51.866547],[5.65826,51.866539],[5.658566,51.866514],[5.658792,51.86651],[5.660258,51.866522],[5.660373,51.866521],[5.661106,51.866513],[5.661586,51.866497],[5.661957,51.866481],[5.66224,51.866476],[5.662521,51.866459],[5.662857,51.866447],[5.663009,51.866425],[5.66328,51.866365],[5.663398,51.866338],[5.663648,51.86632],[5.663772,51.866315],[5.664002,51.866326],[5.664117,51.866337],[5.665189,51.866402],[5.665366,51.866409],[5.665539,51.866404],[5.665748,51.86639],[5.665907,51.866383],[5.666227,51.866334],[5.666518,51.866282],[5.666883,51.866197],[5.667281,51.866092],[5.667746,51.865956],[5.667853,51.865927],[5.66794,51.866067],[5.668071,51.866299],[5.668193,51.866456],[5.668357,51.866688],[5.668595,51.866956],[5.669001,51.8674],[5.669408,51.867878],[5.669498,51.867985],[5.669903,51.868444],[5.670911,51.86959],[5.671065,51.869771],[5.671188,51.869922],[5.671212,51.869954],[5.671206,51.869971],[5.671192,51.869986],[5.671183,51.86999],[5.671163,51.870001],[5.67112,51.870011],[5.671014,51.870031],[5.670828,51.870064],[5.671033,51.870336],[5.67136,51.870734],[5.6714,51.870784],[5.671615,51.871045],[5.672368,51.871964],[5.672713,51.872364],[5.672845,51.872518],[5.673024,51.872715],[5.673275,51.872995],[5.673633,51.873356],[5.67373,51.873449],[5.673842,51.873563],[5.673887,51.873608],[5.673964,51.873685],[5.675133,51.874818],[5.675278,51.874967],[5.675566,51.87529],[5.675829,51.875609],[5.676004,51.875885],[5.676197,51.876192],[5.676318,51.876374],[5.676534,51.876745],[5.676679,51.87698],[5.676798,51.877157],[5.67692,51.877333],[5.677189,51.877736],[5.677321,51.87794],[5.67751,51.878247],[5.677709,51.878574],[5.677856,51.878822],[5.678065,51.879198],[5.678259,51.879556],[5.678293,51.87963],[5.678289,51.879657],[5.678398,51.879793],[5.678411,51.879817],[5.678421,51.879838],[5.678646,51.880346],[5.678809,51.88071],[5.678849,51.880796],[5.678963,51.881071],[5.67921,51.88163],[5.679275,51.881788],[5.679575,51.882472],[5.67956,51.882532],[5.680315,51.884472],[5.680455,51.884794],[5.680685,51.885339],[5.680876,51.885793],[5.681214,51.886593],[5.681629,51.887637],[5.681968,51.888398],[5.682045,51.888571],[5.682229,51.889005],[5.68234,51.889266],[5.682471,51.889549],[5.682514,51.889636],[5.682522,51.889657],[5.682518,51.889687],[5.682508,51.889713],[5.682458,51.88978],[5.682526,51.889919],[5.682575,51.890027],[5.682858,51.890654],[5.683104,51.891229],[5.683828,51.89292],[5.6842,51.893777],[5.685014,51.895649],[5.68316,51.8956],[5.682842,51.895595],[5.68152,51.895566],[5.681264,51.895564],[5.68082,51.895552],[5.680012,51.895536],[5.678289,51.895484],[5.677226,51.895449],[5.677024,51.895442],[5.676425,51.895438],[5.675207,51.895443],[5.673989,51.895458],[5.672422,51.895471],[5.671292,51.895502],[5.669784,51.895545],[5.668475,51.895593],[5.666948,51.895671],[5.665475,51.895766],[5.663992,51.895859],[5.66324,51.895907],[5.662676,51.895944],[5.661529,51.896046],[5.660142,51.896184],[5.658585,51.896348],[5.657546,51.896459],[5.656885,51.896525],[5.656142,51.896606],[5.655503,51.896681],[5.654559,51.896814],[5.653769,51.896922],[5.652951,51.897031],[5.652183,51.897137],[5.65128,51.897261],[5.650209,51.897424],[5.649081,51.897597],[5.648398,51.897696],[5.647737,51.897795],[5.647393,51.897846],[5.646952,51.897907],[5.646453,51.897976],[5.645685,51.898084],[5.644917,51.898187],[5.644195,51.898275],[5.643669,51.898341],[5.642908,51.898431],[5.641905,51.898539],[5.641429,51.898592],[5.640871,51.898642],[5.639667,51.898743],[5.638618,51.898829],[5.637794,51.898902],[5.636845,51.898969],[5.635768,51.899048],[5.634861,51.899113],[5.634201,51.899141],[5.633969,51.89915],[5.633693,51.899162],[5.632232,51.899229],[5.63136,51.899266],[5.630176,51.899319],[5.629843,51.899333],[5.628944,51.89937],[5.628107,51.899405],[5.627242,51.8994],[5.625914,51.899397],[5.625298,51.899398],[5.624301,51.899396],[5.623139,51.899392],[5.621352,51.899385],[5.621183,51.899381],[5.619151,51.899354],[5.617014,51.899329],[5.615108,51.899306],[5.613972,51.899296],[5.612871,51.899266],[5.611591,51.899237],[5.608205,51.899107],[5.606636,51.899062],[5.605146,51.899037],[5.605142,51.899037],[5.602772,51.899051],[5.601466,51.899069],[5.599929,51.899105],[5.599087,51.899121],[5.598476,51.899148],[5.598156,51.899163],[5.597024,51.899219],[5.595991,51.899272],[5.595234,51.899313],[5.59436,51.899387],[5.593111,51.899493],[5.591693,51.899621],[5.590328,51.899753],[5.588916,51.899896],[5.587917,51.899992],[5.587466,51.900035],[5.586632,51.900146],[5.585302,51.900322],[5.583922,51.900509],[5.5827,51.900677],[5.581736,51.900814],[5.580789,51.900945],[5.580081,51.901037],[5.57929,51.901149],[5.578902,51.901201],[5.578742,51.901219],[5.578204,51.901269],[5.577777,51.901312],[5.576889,51.901397],[5.576093,51.901466],[5.575831,51.901489],[5.574669,51.901591],[5.573934,51.901658],[5.573602,51.901685],[5.573372,51.901697],[5.572459,51.901718],[5.571641,51.901745],[5.570614,51.901763],[5.569829,51.901779],[5.569299,51.90179],[5.569004,51.901797],[5.568062,51.9018],[5.567322,51.901803],[5.567059,51.901804],[5.565865,51.901775],[5.565272,51.901768],[5.565118,51.901758],[5.563939,51.901689],[5.562991,51.901633],[5.561849,51.901561],[5.560904,51.901505],[5.560159,51.901461],[5.559124,51.901361],[5.558133,51.901267],[5.557129,51.901164],[5.555803,51.901012],[5.554662,51.900875],[5.553907,51.900777],[5.553368,51.900693],[5.552433,51.900546],[5.55238,51.900538],[5.551137,51.90034],[5.549963,51.900152],[5.548588,51.899887],[5.54814,51.8998],[5.547263,51.899623],[5.545883,51.899311],[5.544448,51.899005],[5.542368,51.898431],[5.541163,51.898091],[5.540233,51.897821],[5.53935,51.897559],[5.538666,51.897351],[5.537498,51.896949],[5.536625,51.896652],[5.535937,51.896425],[5.53574,51.896351],[5.535468,51.896248],[5.53493,51.896047],[5.534022,51.895701],[5.533112,51.895357],[5.53307,51.895343],[5.532305,51.895085],[5.531705,51.894878],[5.531363,51.894753]]]},"properties":{"type":"boundary","gemeente":"Druten"}}]}