{"type":"FeatureCollection","metadata":{"gemeente":"Duiven","slug":"duiven","generated_at":"2026-09-28T08:17:42.080328Z","total_points":22,"providers":["Amazon","DHL","DPD","PostNL","GLS","FedEx","Budbee"],"bounds":[5.990589184,51.94129297,6.02529612,51.96784]},"features":[{"type":"Feature","geometry":{"type":"Point","coordinates":[6.02208198732825,51.9494707412011]},"properties":{"type":"pakketpunt","locatieNaam":"Dr. Phone","straatNaam":"Pastoriestraat 8","straatNr":"","vervoerder":"Amazon","puntType":"3p","bezettingsgraad":50,"latitude":51.9494707412011,"longitude":6.02208198732825,"canPickup":true,"canDropoff":false,"openingstijden":null}},{"type":"Feature","geometry":{"type":"Point","coordinates":[5.99234,51.96784]},"properties":{"type":"pakketpunt","locatieNaam":"Pakketautomaat MediaMarkt Duiven","straatNaam":"Cartograaf","straatNr":"3","vervoerder":"DHL","puntType":"packStation","bezettingsgraad":50,"latitude":51.96784,"longitude":5.99234,"canPickup":true,"canDropoff":true,"openingstijden":{"ma":"10:00 - 21:00","di":"10:00 - 21:00","wo":"10:00 - 21:00","do":"10:00 - 21:00","vr":"10:00 - 21:00","za":"10:00 - 19:00","zo":"10:00 - 18:00"}}},{"type":"Feature","geometry":{"type":"Point","coordinates":[6.023711697109768,51.94900301130695]},"properties":{"type":"pakketpunt","locatieNaam":"Pakketautomaat Lidl Duiven","straatNaam":"Kastanjelaan","straatNr":"2","vervoerder":"DHL","puntType":"packStation","bezettingsgraad":50,"latitude":51.94900301130695,"longitude":6.023711697109768,"canPickup":true,"canDropoff":true,"openingstijden":{"ma":"08:00 - 21:00","di":"08:00 - 21:00","wo":"08:00 - 21:00","do":"08:00 - 21:00","vr":"08:00 - 21:00","za":"08:00 - 21:00","zo":"09:00 - 20:00"}}},{"type":"Feature","geometry":{"type":"Point","coordinates":[6.022371,51.94926]},"properties":{"type":"pakketpunt","locatieNaam":"Electro World Duiven","straatNaam":"Pastoriestraat","straatNr":"9-11","vervoerder":"DHL","puntType":"parcelShop","bezettingsgraad":50,"latitude":51.94926,"longitude":6.022371,"canPickup":true,"canDropoff":true,"openingstijden":{"ma":"gesloten","di":"09:00 - 18:00","wo":"09:00 - 18:00","do":"09:00 - 18:00","vr":"09:00 - 18:00","za":"09:00 - 17:00","zo":"gesloten"}}},{"type":"Feature","geometry":{"type":"Point","coordinates":[6.022243,51.9497238]},"properties":{"type":"pakketpunt","locatieNaam":"Marskramer & Top 1 Toys Duiven","straatNaam":"'t Buske","straatNr":"1","vervoerder":"DHL","puntType":"parcelShop","bezettingsgraad":50,"latitude":51.9497238,"longitude":6.022243,"canPickup":true,"canDropoff":true,"openingstijden":{"ma":"10:00 - 18:00","di":"09:00 - 18:00","wo":"09:00 - 18:00","do":"09:00 - 18:00","vr":"09:00 - 18:00","za":"09:00 - 17:00","zo":"gesloten"}}},{"type":"Feature","geometry":{"type":"Point","coordinates":[6.0215771,51.9486235]},"properties":{"type":"pakketpunt","locatieNaam":"Pakketautomaat terStal Duiven","straatNaam":"Elshofpassage","straatNr":"56-Kast","vervoerder":"DHL","puntType":"packStation","bezettingsgraad":50,"latitude":51.9486235,"longitude":6.0215771,"canPickup":true,"canDropoff":true,"openingstijden":{"ma":"11:00 - 18:00","di":"09:30 - 18:00","wo":"09:30 - 18:00","do":"09:30 - 18:00","vr":"09:30 - 18:00","za":"09:30 - 17:00","zo":"gesloten"}}},{"type":"Feature","geometry":{"type":"Point","coordinates":[6.0223464,51.9494558]},"properties":{"type":"pakketpunt","locatieNaam":"Phone Connect Duiven","straatNaam":"PASTORIESTRAAT","straatNr":"13","vervoerder":"DPD","puntType":"pickup_point","bezettingsgraad":50,"latitude":51.9494558,"longitude":6.0223464,"canPickup":true,"canDropoff":true,"openingstijden":{"ma":"13:00 - 18:00","di":"09:30 - 18:00","wo":"09:30 - 18:00","do":"09:30 - 18:00","vr":"09:30 - 18:00","za":"09:30 - 17:00","zo":"gesloten"}}},{"type":"Feature","geometry":{"type":"Point","coordinates":[6.0182791,51.9637579]},"properties":{"type":"pakketpunt","locatieNaam":"Deurklink24","straatNaam":"IMPACT","straatNr":"71B","vervoerder":"DPD","puntType":"pickup_point","bezettingsgraad":50,"latitude":51.9637579,"longitude":6.0182791,"canPickup":true,"canDropoff":true,"openingstijden":{"ma":"10:00 - 16:00","di":"10:00 - 16:00","wo":"10:00 - 16:00","do":"10:00 - 16:00","vr":"10:00 - 16:00","za":"gesloten","zo":"gesloten"}}},{"type":"Feature","geometry":{"type":"Point","coordinates":[6.021877908,51.94841121]},"properties":{"type":"pakketpunt","locatieNaam":"Primera","straatNaam":"Elshofpassage","straatNr":"42","vervoerder":"PostNL","puntType":"servicepunt","bezettingsgraad":50,"latitude":51.94841121,"longitude":6.021877908,"canPickup":true,"canDropoff":true,"openingstijden":"09:30 - 18:00 (Na 18:00 open; Zaterdag open)"}},{"type":"Feature","geometry":{"type":"Point","coordinates":[6.02208198732825,51.9494707412011]},"properties":{"type":"pakketpunt","locatieNaam":"Dr. Phone","straatNaam":"Pastoriestraat","straatNr":"8","vervoerder":"PostNL","puntType":"servicepunt","bezettingsgraad":50,"latitude":51.9494707412011,"longitude":6.02208198732825,"canPickup":true,"canDropoff":true,"openingstijden":"10:00 - 18:00"}},{"type":"Feature","geometry":{"type":"Point","coordinates":[6.022790704,51.95021295]},"properties":{"type":"pakketpunt","locatieNaam":"Pakket- en briefautomaat","straatNaam":"Pastoriestraat","straatNr":"2PBA","vervoerder":"PostNL","puntType":"automaat","bezettingsgraad":50,"latitude":51.95021295,"longitude":6.022790704,"canPickup":true,"canDropoff":true,"openingstijden":"00:00 - 23:59"}},{"type":"Feature","geometry":{"type":"Point","coordinates":[6.009304258,51.95006039]},"properties":{"type":"pakketpunt","locatieNaam":"Pakket- en briefautomaat","straatNaam":"Mondriaanstraat","straatNr":"13PBA","vervoerder":"PostNL","puntType":"automaat","bezettingsgraad":50,"latitude":51.95006039,"longitude":6.009304258,"canPickup":true,"canDropoff":true,"openingstijden":"00:00 - 23:59"}},{"type":"Feature","geometry":{"type":"Point","coordinates":[6.009304258,51.95006039]},"properties":{"type":"pakketpunt","locatieNaam":"Plus Vandaag Duiven","straatNaam":"Mondriaanstraat","straatNr":"13","vervoerder":"PostNL","puntType":"servicepunt","bezettingsgraad":50,"latitude":51.95006039,"longitude":6.009304258,"canPickup":true,"canDropoff":true,"openingstijden":"08:00 - 20:00"}},{"type":"Feature","geometry":{"type":"Point","coordinates":[6.02529612,51.94129297]},"properties":{"type":"pakketpunt","locatieNaam":"Bluecarry Logistics","straatNaam":"'t Holland","straatNr":"10A","vervoerder":"PostNL","puntType":"servicepunt","bezettingsgraad":50,"latitude":51.94129297,"longitude":6.02529612,"canPickup":true,"canDropoff":true,"openingstijden":"09:00 - 17:30"}},{"type":"Feature","geometry":{"type":"Point","coordinates":[6.00634820270186,51.941393159598]},"properties":{"type":"pakketpunt","locatieNaam":"Pakket- en briefautomaat","straatNaam":"Eilandplein","straatNr":"508PBA","vervoerder":"PostNL","puntType":"automaat","bezettingsgraad":50,"latitude":51.941393159598,"longitude":6.00634820270186,"canPickup":true,"canDropoff":true,"openingstijden":"00:00 - 23:59"}},{"type":"Feature","geometry":{"type":"Point","coordinates":[5.990589184,51.9645574]},"properties":{"type":"pakketpunt","locatieNaam":"My Parts Automaterialen","straatNaam":"Fotograaf","straatNr":"10-24","vervoerder":"PostNL","puntType":"servicepunt","bezettingsgraad":50,"latitude":51.9645574,"longitude":5.990589184,"canPickup":true,"canDropoff":true,"openingstijden":"08:00 - 17:30 (Zaterdag open)"}},{"type":"Feature","geometry":{"type":"Point","coordinates":[6.00930425,51.9500603]},"properties":{"type":"pakketpunt","locatieNaam":"Pakketautomaat","straatNaam":"Mondriaanstraat","straatNr":"13","vervoerder":"GLS","puntType":"locker","bezettingsgraad":50,"latitude":51.9500603,"longitude":6.00930425,"canPickup":true,"canDropoff":true,"openingstijden":{"ma":"00:00 - 23:59","di":"00:00 - 23:59","wo":"00:00 - 23:59","do":"00:00 - 23:59","vr":"00:00 - 23:59","za":"00:00 - 23:59","zo":"00:00 - 23:59"}}},{"type":"Feature","geometry":{"type":"Point","coordinates":[6.0063482,51.9413931]},"properties":{"type":"pakketpunt","locatieNaam":"Pakketautomaat","straatNaam":"Eilandplein","straatNr":"508","vervoerder":"GLS","puntType":"locker","bezettingsgraad":50,"latitude":51.9413931,"longitude":6.0063482,"canPickup":true,"canDropoff":true,"openingstijden":{"ma":"00:00 - 23:59","di":"00:00 - 23:59","wo":"00:00 - 23:59","do":"00:00 - 23:59","vr":"00:00 - 23:59","za":"00:00 - 23:59","zo":"00:00 - 23:59"}}},{"type":"Feature","geometry":{"type":"Point","coordinates":[6.006392592730663,51.9413757301179]},"properties":{"type":"pakketpunt","locatieNaam":"FedEx Ship&Get","straatNaam":"Eilandplein 508 PBA","straatNr":"","vervoerder":"FedEx","puntType":"servicepunt","bezettingsgraad":50,"latitude":51.9413757301179,"longitude":6.006392592730663,"canPickup":true,"canDropoff":true,"openingstijden":{"ma":"00:00 - 23:59","di":"00:00 - 23:59","wo":"00:00 - 23:59","do":"00:00 - 23:59","vr":"00:00 - 23:59","za":"00:00 - 23:59","zo":"00:00 - 23:59"}}},{"type":"Feature","geometry":{"type":"Point","coordinates":[6.01034627149756,51.949930775725285]},"properties":{"type":"pakketpunt","locatieNaam":"FedEx Ship&Get","straatNaam":"Mondriaanstraat 13 PBA","straatNr":"","vervoerder":"FedEx","puntType":"servicepunt","bezettingsgraad":50,"latitude":51.949930775725285,"longitude":6.01034627149756,"canPickup":true,"canDropoff":true,"openingstijden":{"ma":"00:00 - 23:59","di":"00:00 - 23:59","wo":"00:00 - 23:59","do":"00:00 - 23:59","vr":"00:00 - 23:59","za":"00:00 - 23:59","zo":"00:00 - 23:59"}}},{"type":"Feature","geometry":{"type":"Point","coordinates":[6.022791658895481,51.95021432341568]},"properties":{"type":"pakketpunt","locatieNaam":"FedEx Ship&Get","straatNaam":"Pastoriestraat 2 PBA","straatNr":"","vervoerder":"FedEx","puntType":"servicepunt","bezettingsgraad":50,"latitude":51.95021432341568,"longitude":6.022791658895481,"canPickup":true,"canDropoff":true,"openingstijden":{"ma":"00:00 - 23:59","di":"00:00 - 23:59","wo":"00:00 - 23:59","do":"00:00 - 23:59","vr":"00:00 - 23:59","za":"00:00 - 23:59","zo":"00:00 - 23:59"}}},{"type":"Feature","geometry":{"type":"Point","coordinates":[6.0209552,51.9484411]},"properties":{"type":"pakketpunt","locatieNaam":"Budbee","straatNaam":"","straatNr":"","vervoerder":"Budbee","puntType":"automaat","bezettingsgraad":50,"latitude":51.9484411,"longitude":6.0209552,"canPickup":true,"canDropoff":true,"openingstijden":null}},{"type":"Feature","geometry":{"type":"Polygon","coordinates":[[[5.965776,51.938768],[5.96585,51.938582],[5.965922,51.938377],[5.966003,51.938144],[5.966042,51.938032],[5.966119,51.937809],[5.966235,51.937515],[5.96624,51.937502],[5.966251,51.937474],[5.966254,51.937466],[5.966261,51.937425],[5.966264,51.937408],[5.966291,51.937324],[5.966405,51.937008],[5.966504,51.936758],[5.966529,51.936676],[5.966593,51.936467],[5.966677,51.936132],[5.966693,51.936069],[5.966731,51.935911],[5.966771,51.935728],[5.966782,51.935697],[5.966821,51.935604],[5.967157,51.935123],[5.967188,51.93508],[5.967418,51.934787],[5.967455,51.93474],[5.967456,51.934739],[5.967545,51.934631],[5.967626,51.934534],[5.967815,51.934315],[5.967932,51.934198],[5.96806,51.934095],[5.968175,51.934015],[5.968318,51.933925],[5.968473,51.933844],[5.96871,51.933748],[5.968951,51.933645],[5.969084,51.93358],[5.969185,51.933528],[5.969288,51.933447],[5.969383,51.933352],[5.969535,51.933159],[5.969544,51.933127],[5.969551,51.933114],[5.969656,51.932981],[5.969697,51.93292],[5.969732,51.932867],[5.969783,51.932789],[5.969806,51.932741],[5.969841,51.932687],[5.969862,51.932638],[5.969879,51.932598],[5.9699,51.932543],[5.96992,51.932505],[5.96994,51.932468],[5.969963,51.932433],[5.970002,51.932369],[5.970065,51.932295],[5.970101,51.932254],[5.970147,51.932202],[5.9702,51.932151],[5.970241,51.932117],[5.970283,51.932083],[5.970286,51.932082],[5.970347,51.932043],[5.970403,51.932003],[5.970455,51.931972],[5.97051,51.931935],[5.97058,51.931887],[5.970777,51.931748],[5.970818,51.931719],[5.970837,51.931705],[5.97105,51.931584],[5.971258,51.931503],[5.971663,51.931347],[5.971869,51.93119],[5.972051,51.931037],[5.972102,51.930974],[5.972156,51.93091],[5.972331,51.930742],[5.972424,51.930548],[5.972481,51.930439],[5.972516,51.930382],[5.972543,51.930348],[5.972567,51.930317],[5.972599,51.930089],[5.972638,51.929989],[5.972672,51.929912],[5.972696,51.929848],[5.972887,51.929187],[5.972883,51.929151],[5.972863,51.929116],[5.972823,51.929083],[5.972764,51.929051],[5.972707,51.929029],[5.972605,51.929012],[5.972556,51.929003],[5.972489,51.928992],[5.972057,51.928955],[5.971475,51.929017],[5.971213,51.929045],[5.971216,51.929018],[5.971239,51.928834],[5.971266,51.928736],[5.971294,51.928665],[5.9715,51.928439],[5.971311,51.928435],[5.970676,51.92842],[5.970508,51.928392],[5.96985,51.928342],[5.969779,51.928337],[5.968613,51.928212],[5.970192,51.927195],[5.971626,51.926369],[5.972955,51.925607],[5.97395,51.924994],[5.974976,51.924335],[5.97566,51.92387],[5.97588,51.923721],[5.977088,51.922866],[5.977099,51.922857],[5.978645,51.921681],[5.979998,51.920492],[5.980162,51.920327],[5.980505,51.919983],[5.981046,51.919442],[5.98184,51.918562],[5.982667,51.917585],[5.983146,51.917035],[5.98351,51.916617],[5.984487,51.915624],[5.98547,51.914679],[5.986561,51.913721],[5.987063,51.913314],[5.988343,51.913903],[5.988661,51.913975],[5.988782,51.913978],[5.988921,51.913965],[5.988996,51.913939],[5.989137,51.91384],[5.989609,51.913357],[5.989729,51.913252],[5.989847,51.91319],[5.990018,51.913142],[5.990616,51.913097],[5.990807,51.913073],[5.990964,51.913042],[5.99126,51.91296],[5.992252,51.912486],[5.992578,51.912371],[5.992756,51.912334],[5.993009,51.912347],[5.993415,51.912428],[5.993759,51.912483],[5.993962,51.912498],[5.994478,51.912512],[5.994801,51.912556],[5.995228,51.912671],[5.996197,51.913008],[5.996523,51.913065],[5.997279,51.913072],[5.998951,51.913108],[5.99947,51.91314],[6.000233,51.913225],[6.000874,51.913355],[6.001343,51.913467],[6.002649,51.91385],[6.003224,51.913963],[6.006452,51.914763],[6.006748,51.914875],[6.007088,51.915041],[6.007336,51.915185],[6.007841,51.915512],[6.008063,51.915602],[6.008202,51.915642],[6.00846,51.91569],[6.008876,51.915728],[6.009607,51.915719],[6.009918,51.915726],[6.010154,51.915747],[6.010445,51.915793],[6.011025,51.915926],[6.011459,51.91601],[6.011679,51.916045],[6.012736,51.916173],[6.013713,51.916343],[6.013911,51.91639],[6.014155,51.916471],[6.014564,51.916643],[6.014747,51.916743],[6.014882,51.9168],[6.015199,51.916916],[6.015334,51.916947],[6.015493,51.916955],[6.015619,51.916935],[6.016368,51.916654],[6.016826,51.916509],[6.017122,51.916444],[6.017306,51.916423],[6.019432,51.916317],[6.020075,51.916264],[6.020292,51.916243],[6.020782,51.916249],[6.021062,51.91627],[6.021539,51.916324],[6.022634,51.916495],[6.023794,51.916568],[6.024847,51.916588],[6.025687,51.916584],[6.026836,51.916533],[6.027195,51.916489],[6.027329,51.916462],[6.027443,51.916419],[6.028484,51.915885],[6.029348,51.915483],[6.030083,51.915099],[6.030901,51.914766],[6.031301,51.914639],[6.031596,51.914569],[6.031962,51.914518],[6.032401,51.914492],[6.032892,51.91439],[6.033239,51.914292],[6.034281,51.913954],[6.034522,51.913887],[6.034724,51.913846],[6.034989,51.913845],[6.035401,51.91392],[6.035911,51.913947],[6.037129,51.913972],[6.037457,51.913962],[6.037707,51.914406],[6.037855,51.914637],[6.037897,51.914719],[6.037902,51.914739],[6.03791,51.914766],[6.037972,51.914872],[6.037948,51.914875],[6.038843,51.91634],[6.039906,51.916103],[6.041092,51.915819],[6.041234,51.915796],[6.041294,51.915818],[6.041842,51.916952],[6.04294,51.916809],[6.043022,51.916802],[6.043062,51.916815],[6.043321,51.917306],[6.043464,51.917461],[6.04352,51.917553],[6.043875,51.918227],[6.044244,51.918998],[6.044734,51.920086],[6.044736,51.920101],[6.044713,51.920116],[6.044207,51.920331],[6.043972,51.920446],[6.043513,51.920747],[6.043501,51.920774],[6.043515,51.920804],[6.04372,51.921003],[6.044738,51.921946],[6.045003,51.922233],[6.045105,51.922379],[6.045441,51.92264],[6.046089,51.923244],[6.046076,51.923269],[6.045996,51.923305],[6.045409,51.923524],[6.04539,51.923543],[6.045446,51.923712],[6.045378,51.924061],[6.045399,51.924091],[6.04617,51.924657],[6.046993,51.9253],[6.046995,51.925328],[6.046276,51.926906],[6.044343,51.927162],[6.043895,51.927242],[6.043634,51.927305],[6.042875,51.927538],[6.04287,51.927587],[6.042722,51.927632],[6.042358,51.927772],[6.045724,51.930401],[6.046504,51.929931],[6.046757,51.929745],[6.047526,51.930456],[6.047546,51.930474],[6.047879,51.930782],[6.048418,51.931305],[6.048506,51.931614],[6.048592,51.931615],[6.048615,51.931612],[6.048741,51.931593],[6.050166,51.931307],[6.051561,51.930973],[6.051796,51.931751],[6.052226,51.931709],[6.051889,51.932636],[6.051651,51.933476],[6.051628,51.933865],[6.05165,51.934174],[6.051714,51.934638],[6.052039,51.93635],[6.052562,51.938835],[6.05281,51.939728],[6.052995,51.94024],[6.053027,51.940328],[6.054805,51.939936],[6.054993,51.940227],[6.055865,51.941417],[6.055934,51.941486],[6.056457,51.94223],[6.056466,51.942245],[6.056667,51.94251],[6.056858,51.942735],[6.057366,51.943137],[6.058419,51.943883],[6.059547,51.944603],[6.061042,51.945604],[6.061086,51.945656],[6.060382,51.945881],[6.063447,51.949286],[6.052665,51.952698],[6.053616,51.953635],[6.053643,51.953624],[6.055389,51.955361],[6.058462,51.958309],[6.058933,51.96001],[6.059092,51.960517],[6.0597,51.962244],[6.059772,51.962235],[6.059702,51.962268],[6.05971,51.962316],[6.059989,51.963241],[6.060166,51.964662],[6.060367,51.967046],[6.060573,51.970567],[6.060839,51.974483],[6.060937,51.974534],[6.061813,51.974737],[6.063098,51.974952],[6.066103,51.974965],[6.067372,51.974982],[6.067283,51.975227],[6.067269,51.975309],[6.067521,51.976335],[6.067701,51.976659],[6.067734,51.977039],[6.067871,51.977409],[6.067899,51.978083],[6.067932,51.978287],[6.068196,51.978974],[6.068498,51.979667],[6.068853,51.980401],[6.068822,51.980411],[6.06863,51.980476],[6.068497,51.980481],[6.066628,51.980741],[6.066388,51.980782],[6.065985,51.980874],[6.065931,51.980878],[6.065661,51.980876],[6.065386,51.980856],[6.06477,51.980788],[6.06339,51.980674],[6.062932,51.980623],[6.062602,51.980545],[6.062393,51.980567],[6.062148,51.980739],[6.06111,51.981763],[6.061031,51.981809],[6.060975,51.981847],[6.060772,51.981859],[6.060626,51.981852],[6.059965,51.981759],[6.058843,51.981647],[6.055273,51.981405],[6.052838,51.981195],[6.051637,51.981084],[6.048332,51.980755],[6.046945,51.980602],[6.046782,51.980578],[6.045812,51.98037],[6.044623,51.980055],[6.044487,51.979986],[6.044455,51.980011],[6.044443,51.980008],[6.043663,51.979735],[6.043329,51.979596],[6.043097,51.979478],[6.042248,51.97901],[6.042969,51.97868],[6.041149,51.977156],[6.036801,51.973469],[6.034306,51.971353],[6.034081,51.971326],[6.031188,51.971097],[6.026889,51.970893],[6.021818,51.978203],[6.018121,51.97834],[6.012305,51.978608],[6.011994,51.978627],[6.011185,51.978703],[6.008473,51.979044],[6.007932,51.979065],[6.005827,51.979106],[6.005545,51.979067],[6.005143,51.978934],[6.002069,51.977621],[6.001867,51.977543],[6.001733,51.977552],[6.001701,51.977438],[6.00165,51.977261],[6.001649,51.977256],[6.001596,51.977164],[6.001533,51.977075],[6.001293,51.976864],[6.001086,51.976686],[6.000858,51.976499],[6.000765,51.976427],[6.000426,51.976168],[6.000313,51.976079],[6.000148,51.975949],[5.999833,51.975694],[5.999705,51.975611],[5.999697,51.975606],[5.99941,51.97543],[5.999159,51.975286],[5.999132,51.975271],[5.99899,51.975181],[5.998979,51.975174],[5.998781,51.975058],[5.998672,51.974998],[5.998568,51.974949],[5.998395,51.974865],[5.998166,51.974761],[5.998055,51.974712],[5.997945,51.974669],[5.997859,51.974629],[5.997784,51.974593],[5.997709,51.97456],[5.997525,51.974483],[5.99735,51.974418],[5.997159,51.974357],[5.996999,51.974304],[5.996867,51.974257],[5.996772,51.974225],[5.996697,51.974196],[5.996625,51.974166],[5.996596,51.97415],[5.996571,51.974123],[5.99653,51.974109],[5.996399,51.974062],[5.996337,51.974138],[5.996186,51.974094],[5.996204,51.974069],[5.99622,51.974049],[5.996227,51.974036],[5.996192,51.973956],[5.996093,51.97393],[5.995969,51.973895],[5.995769,51.973844],[5.995596,51.973796],[5.995331,51.973732],[5.995131,51.973677],[5.994975,51.973625],[5.994836,51.973571],[5.994632,51.973491],[5.994495,51.973439],[5.994377,51.973398],[5.994297,51.973373],[5.994197,51.973347],[5.9941,51.973328],[5.993866,51.973275],[5.993616,51.973219],[5.993356,51.973158],[5.993122,51.973106],[5.992895,51.973042],[5.99268,51.972984],[5.992609,51.972968],[5.992526,51.97295],[5.992322,51.972908],[5.992041,51.972823],[5.991821,51.972751],[5.991552,51.972663],[5.991354,51.972595],[5.991144,51.972525],[5.991116,51.972516],[5.991052,51.972496],[5.990882,51.972436],[5.990735,51.972391],[5.990679,51.97237],[5.99062,51.972351],[5.990556,51.972335],[5.990435,51.972313],[5.990397,51.972306],[5.990347,51.972297],[5.990277,51.972285],[5.990231,51.972279],[5.990198,51.972273],[5.990168,51.97227],[5.990135,51.972269],[5.990119,51.972271],[5.990103,51.972274],[5.990088,51.97228],[5.990072,51.972288],[5.99006,51.972296],[5.99005,51.972303],[5.990018,51.972327],[5.989974,51.972366],[5.989881,51.972453],[5.989842,51.972481],[5.989809,51.972503],[5.989777,51.972521],[5.989748,51.972537],[5.98972,51.972549],[5.9897,51.972556],[5.989665,51.972563],[5.989413,51.972595],[5.989274,51.972621],[5.989159,51.97264],[5.989029,51.972671],[5.988905,51.972696],[5.988697,51.972734],[5.98851,51.972769],[5.988404,51.972783],[5.988329,51.972791],[5.988252,51.972799],[5.988103,51.972792],[5.987982,51.972788],[5.987869,51.972783],[5.987807,51.972775],[5.987708,51.97276],[5.987627,51.97274],[5.98753,51.972706],[5.987446,51.972674],[5.987355,51.972633],[5.987245,51.972597],[5.987158,51.972573],[5.987034,51.972549],[5.986937,51.972526],[5.986807,51.972483],[5.986702,51.972447],[5.986582,51.972395],[5.986545,51.972483],[5.986459,51.972485],[5.986382,51.972486],[5.986293,51.972486],[5.986214,51.972482],[5.986106,51.972484],[5.986057,51.972481],[5.985985,51.972477],[5.985864,51.97246],[5.985766,51.972444],[5.985648,51.972423],[5.985473,51.97241],[5.985351,51.972406],[5.985199,51.972409],[5.985093,51.972414],[5.984946,51.972432],[5.984756,51.972456],[5.984695,51.972458],[5.984632,51.972451],[5.984573,51.97245],[5.984532,51.972447],[5.984467,51.97244],[5.984392,51.97243],[5.984322,51.972421],[5.984226,51.972418],[5.984132,51.972418],[5.98406,51.972422],[5.984035,51.972418],[5.984019,51.972411],[5.984,51.9724],[5.983993,51.972387],[5.983988,51.972374],[5.98399,51.972358],[5.984013,51.97225],[5.984043,51.972153],[5.984091,51.972027],[5.984137,51.971905],[5.98422,51.971681],[5.984337,51.971523],[5.984485,51.971329],[5.98466,51.971091],[5.984798,51.970902],[5.984945,51.970732],[5.985001,51.970665],[5.985056,51.970601],[5.985097,51.970554],[5.985192,51.970441],[5.985239,51.970385],[5.985352,51.970218],[5.985362,51.970203],[5.985652,51.969838],[5.985688,51.96979],[5.985816,51.969623],[5.985914,51.969493],[5.985947,51.969448],[5.986125,51.969244],[5.986321,51.969018],[5.986337,51.969],[5.986396,51.968936],[5.986516,51.968745],[5.986561,51.968674],[5.986584,51.96862],[5.986636,51.9685],[5.986634,51.968393],[5.98662,51.968333],[5.986605,51.968261],[5.986581,51.968158],[5.986555,51.968032],[5.986465,51.967649],[5.986375,51.967343],[5.986301,51.967091],[5.986296,51.967076],[5.986144,51.966592],[5.986142,51.966587],[5.986075,51.966378],[5.985943,51.965967],[5.985846,51.965667],[5.985781,51.965478],[5.985705,51.96525],[5.985582,51.964891],[5.985571,51.964858],[5.98557,51.964856],[5.985526,51.964725],[5.985396,51.964344],[5.985264,51.96396],[5.986439,51.963538],[5.987167,51.963275],[5.987767,51.963063],[5.987732,51.962972],[5.987706,51.962926],[5.987698,51.962911],[5.98767,51.962861],[5.987649,51.962836],[5.987616,51.962803],[5.987582,51.96277],[5.987554,51.96274],[5.987514,51.962706],[5.987461,51.962668],[5.987414,51.962637],[5.987368,51.962608],[5.987299,51.962575],[5.98723,51.962542],[5.98715,51.96251],[5.98707,51.962473],[5.987026,51.962453],[5.986982,51.962431],[5.986944,51.962412],[5.986919,51.962393],[5.986898,51.962376],[5.986885,51.962361],[5.986873,51.962345],[5.986859,51.962318],[5.986853,51.962296],[5.986841,51.962268],[5.986834,51.962238],[5.986831,51.96221],[5.98683,51.962182],[5.986837,51.962113],[5.98684,51.962077],[5.986842,51.962055],[5.986848,51.961984],[5.986866,51.961776],[5.986898,51.96152],[5.986918,51.961356],[5.986938,51.961244],[5.986953,51.961143],[5.986996,51.960882],[5.987042,51.960669],[5.987111,51.960368],[5.987104,51.960337],[5.987102,51.96033],[5.987055,51.960137],[5.987054,51.960135],[5.98705,51.960119],[5.987043,51.960087],[5.987035,51.960056],[5.987,51.959912],[5.986923,51.9596],[5.986855,51.959308],[5.986782,51.959001],[5.986711,51.958707],[5.986625,51.958348],[5.986582,51.958171],[5.986543,51.958013],[5.986466,51.957668],[5.986394,51.957372],[5.986363,51.957247],[5.986336,51.95716],[5.986313,51.957083],[5.98605,51.956447],[5.98579,51.955793],[5.985563,51.955224],[5.985551,51.955193],[5.985484,51.955025],[5.98548,51.955015],[5.985454,51.95495],[5.985417,51.954858],[5.985399,51.95483],[5.985384,51.954795],[5.985131,51.954222],[5.985027,51.953972],[5.984985,51.95389],[5.984965,51.953826],[5.984944,51.953702],[5.98491,51.95328],[5.984909,51.953273],[5.984907,51.95324],[5.984879,51.952872],[5.984879,51.95287],[5.984878,51.952856],[5.984877,51.952852],[5.984875,51.952821],[5.984859,51.952612],[5.984845,51.952424],[5.984835,51.952306],[5.984833,51.952273],[5.984854,51.952185],[5.984855,51.952185],[5.984831,51.952136],[5.984828,51.95198],[5.984826,51.95181],[5.984826,51.951801],[5.984826,51.95176],[5.984836,51.951682],[5.984854,51.951677],[5.985061,51.951614],[5.985569,51.951405],[5.986029,51.951193],[5.986619,51.950922],[5.987229,51.950623],[5.987305,51.950586],[5.987317,51.95058],[5.987334,51.950571],[5.987462,51.950502],[5.987529,51.950466],[5.987577,51.950441],[5.987025,51.949797],[5.986305,51.948959],[5.985307,51.947821],[5.985279,51.947788],[5.98493,51.947373],[5.984795,51.9472],[5.984517,51.946843],[5.984488,51.946807],[5.986096,51.946383],[5.986168,51.946364],[5.986166,51.946344],[5.986157,51.946285],[5.986016,51.945339],[5.985989,51.945232],[5.985943,51.94511],[5.985854,51.944988],[5.985751,51.944869],[5.985096,51.944194],[5.984795,51.943884],[5.984752,51.943842],[5.984719,51.943795],[5.984376,51.943048],[5.984375,51.943046],[5.984374,51.943043],[5.984364,51.943021],[5.984306,51.943027],[5.983943,51.943067],[5.983507,51.943087],[5.983179,51.943096],[5.982743,51.943088],[5.981873,51.943043],[5.981095,51.943018],[5.980811,51.943009],[5.980453,51.943007],[5.980309,51.943001],[5.979983,51.942937],[5.979694,51.942823],[5.978955,51.942537],[5.978861,51.942504],[5.978719,51.942475],[5.978324,51.942396],[5.977744,51.942281],[5.976967,51.942113],[5.976506,51.942005],[5.976089,51.941912],[5.975771,51.941843],[5.975565,51.9418],[5.975379,51.941758],[5.975241,51.941723],[5.975073,51.941674],[5.97491,51.94162],[5.974669,51.941529],[5.974466,51.941442],[5.974263,51.94135],[5.974069,51.941259],[5.973921,51.941175],[5.973811,51.94111],[5.973612,51.940976],[5.973484,51.940883],[5.973365,51.940802],[5.973242,51.940721],[5.973099,51.940627],[5.972977,51.940557],[5.972836,51.940475],[5.97268,51.940383],[5.972528,51.940296],[5.972356,51.940197],[5.972307,51.940169],[5.972155,51.940092],[5.972046,51.94004],[5.972025,51.940031],[5.971771,51.939916],[5.971499,51.939797],[5.971457,51.939779],[5.971263,51.939698],[5.970957,51.939572],[5.97069,51.939463],[5.97046,51.939369],[5.970441,51.939361],[5.970357,51.939328],[5.970352,51.939326],[5.970232,51.93929],[5.970091,51.93925],[5.969968,51.93921],[5.969875,51.939182],[5.969786,51.939155],[5.969771,51.939153],[5.969732,51.939149],[5.96958,51.939135],[5.969518,51.939129],[5.969527,51.939257],[5.96953,51.939517],[5.969527,51.939595],[5.969469,51.939597],[5.969325,51.939574],[5.969274,51.939561],[5.969234,51.939552],[5.969214,51.939545],[5.96919,51.939537],[5.969162,51.939527],[5.969132,51.939516],[5.969099,51.939505],[5.969068,51.939492],[5.96902,51.939467],[5.968955,51.939431],[5.968884,51.939396],[5.968797,51.939354],[5.968577,51.939245],[5.968189,51.93906],[5.967674,51.938824],[5.96758,51.938784],[5.967531,51.938761],[5.967298,51.938733],[5.96714,51.938718],[5.967013,51.938707],[5.96693,51.938699],[5.966777,51.938688],[5.966648,51.93868],[5.966591,51.938676],[5.966549,51.938675],[5.966497,51.93868],[5.966427,51.938689],[5.966361,51.938699],[5.966256,51.938714],[5.966232,51.938719],[5.966191,51.938727],[5.966142,51.938741],[5.966115,51.938752],[5.966098,51.938759],[5.966072,51.938767],[5.966028,51.938768],[5.965776,51.938768]]]},"properties":{"type":"boundary","gemeente":"Duiven"}}]}