{"type":"FeatureCollection","metadata":{"gemeente":"Eersel","slug":"eersel","generated_at":"2026-10-05T08:50:20.369633Z","total_points":38,"providers":["Amazon","DeBuren","DHL","DPD","PostNL","VintedGo","FedEx","InPost"],"bounds":[5.28734535,51.338992,5.354082377,51.4423706]},"features":[{"type":"Feature","geometry":{"type":"Point","coordinates":[5.3132923,51.3611093]},"properties":{"type":"pakketpunt","locatieNaam":"DHL - Pakketautomaat Lidl Eersel","straatNaam":"Nieuwstraat 25","straatNr":"","vervoerder":"Amazon","puntType":"3p","bezettingsgraad":50,"latitude":51.3611093,"longitude":5.3132923,"canPickup":true,"canDropoff":false,"openingstijden":null}},{"type":"Feature","geometry":{"type":"Point","coordinates":[5.336095333099365,51.35749053955078]},"properties":{"type":"pakketpunt","locatieNaam":"DHL - DeBuren Locker 24-7 Lukoil Eersel","straatNaam":"Schadewijkstraat 70","straatNr":"","vervoerder":"Amazon","puntType":"3p","bezettingsgraad":50,"latitude":51.35749053955078,"longitude":5.336095333099365,"canPickup":true,"canDropoff":false,"openingstijden":null}},{"type":"Feature","geometry":{"type":"Point","coordinates":[5.32400750710878,51.36398498222303]},"properties":{"type":"pakketpunt","locatieNaam":"DHL - Pakketautomaat GAMMA Eersel","straatNaam":"Kuilenhurk 7","straatNr":"","vervoerder":"Amazon","puntType":"3p","bezettingsgraad":50,"latitude":51.36398498222303,"longitude":5.32400750710878,"canPickup":true,"canDropoff":false,"openingstijden":null}},{"type":"Feature","geometry":{"type":"Point","coordinates":[5.3392547,51.4423706]},"properties":{"type":"pakketpunt","locatieNaam":"DHL - Pakketautomaat Coop Wintelre","straatNaam":"Willibrordusstraat 36","straatNr":"","vervoerder":"Amazon","puntType":"3p","bezettingsgraad":50,"latitude":51.4423706,"longitude":5.3392547,"canPickup":true,"canDropoff":false,"openingstijden":null}},{"type":"Feature","geometry":{"type":"Point","coordinates":[5.33633482,51.35760001]},"properties":{"type":"pakketpunt","locatieNaam":"Eersel | Schadewijkstraat | Lukoil | Pakketautomaat","straatNaam":"Schadewijkstraat","straatNr":"70","vervoerder":"DeBuren","puntType":"Buitenkluis","bezettingsgraad":50,"latitude":51.35760001,"longitude":5.33633482,"canPickup":true,"canDropoff":true,"openingstijden":null}},{"type":"Feature","geometry":{"type":"Point","coordinates":[5.336095333099365,51.35749053955078]},"properties":{"type":"pakketpunt","locatieNaam":"DeBuren Locker 24-7 Lukoil Eersel","straatNaam":"Schadewijkstraat","straatNr":"70","vervoerder":"DHL","puntType":"packStation","bezettingsgraad":50,"latitude":51.35749053955078,"longitude":5.336095333099365,"canPickup":true,"canDropoff":true,"openingstijden":{"ma":"00:00 - 23:59","di":"00:00 - 23:59","wo":"00:00 - 23:59","do":"00:00 - 23:59","vr":"00:00 - 23:59","za":"00:00 - 23:59","zo":"00:00 - 23:59"}}},{"type":"Feature","geometry":{"type":"Point","coordinates":[5.32400750710878,51.36398498222303]},"properties":{"type":"pakketpunt","locatieNaam":"Pakketautomaat GAMMA Eersel","straatNaam":"Kuilenhurk","straatNr":"7","vervoerder":"DHL","puntType":"packStation","bezettingsgraad":50,"latitude":51.36398498222303,"longitude":5.32400750710878,"canPickup":true,"canDropoff":true,"openingstijden":{"ma":"00:00 - 23:59","di":"00:00 - 23:59","wo":"00:00 - 23:59","do":"00:00 - 23:59","vr":"00:00 - 23:59","za":"00:00 - 23:59","zo":"00:00 - 23:59"}}},{"type":"Feature","geometry":{"type":"Point","coordinates":[5.316364,51.361548]},"properties":{"type":"pakketpunt","locatieNaam":"Jumbo X tra Jan Daris Eersel","straatNaam":"Willibrorduslaan","straatNr":"8","vervoerder":"DHL","puntType":"parcelShop","bezettingsgraad":50,"latitude":51.361548,"longitude":5.316364,"canPickup":true,"canDropoff":true,"openingstijden":{"ma":"08:30 - 20:30","di":"08:30 - 20:30","wo":"08:30 - 20:30","do":"08:30 - 20:30","vr":"08:30 - 20:30","za":"08:30 - 20:30","zo":"09:30 - 18:30"}}},{"type":"Feature","geometry":{"type":"Point","coordinates":[5.3132923,51.3611093]},"properties":{"type":"pakketpunt","locatieNaam":"Pakketautomaat Lidl Eersel","straatNaam":"Nieuwstraat","straatNr":"25","vervoerder":"DHL","puntType":"packStation","bezettingsgraad":50,"latitude":51.3611093,"longitude":5.3132923,"canPickup":true,"canDropoff":true,"openingstijden":{"ma":"00:00 - 23:59","di":"00:00 - 23:59","wo":"00:00 - 23:59","do":"00:00 - 23:59","vr":"00:00 - 23:59","za":"00:00 - 23:59","zo":"00:00 - 23:59"}}},{"type":"Feature","geometry":{"type":"Point","coordinates":[5.311105,51.360699]},"properties":{"type":"pakketpunt","locatieNaam":"PLUS Van de Huijgevoort Eersel","straatNaam":"Nieuwstraat","straatNr":"9","vervoerder":"DHL","puntType":"parcelShop","bezettingsgraad":50,"latitude":51.360699,"longitude":5.311105,"canPickup":true,"canDropoff":true,"openingstijden":{"ma":"08:00 - 21:00","di":"08:00 - 21:00","wo":"08:00 - 21:00","do":"08:00 - 21:00","vr":"08:00 - 21:00","za":"08:00 - 21:00","zo":"10:00 - 20:00"}}},{"type":"Feature","geometry":{"type":"Point","coordinates":[5.3100102,51.36091]},"properties":{"type":"pakketpunt","locatieNaam":"Pakketautomaat terStal Eersel","straatNaam":"Nieuwstraat","straatNr":"12-Kast","vervoerder":"DHL","puntType":"packStation","bezettingsgraad":50,"latitude":51.36091,"longitude":5.3100102,"canPickup":true,"canDropoff":true,"openingstijden":{"ma":"09:30 - 18:00","di":"09:30 - 18:00","wo":"09:30 - 18:00","do":"09:30 - 18:00","vr":"09:30 - 18:00","za":"09:30 - 17:00","zo":"gesloten"}}},{"type":"Feature","geometry":{"type":"Point","coordinates":[5.3184247,51.3658305]},"properties":{"type":"pakketpunt","locatieNaam":"DESTIL Eersel","straatNaam":"Kerver","straatNr":"5","vervoerder":"DHL","puntType":"parcelShop","bezettingsgraad":50,"latitude":51.3658305,"longitude":5.3184247,"canPickup":true,"canDropoff":true,"openingstijden":{"ma":"07:30 - 17:00","di":"07:30 - 17:00","wo":"07:30 - 17:00","do":"07:30 - 17:00","vr":"07:30 - 17:00","za":"gesloten","zo":"gesloten"}}},{"type":"Feature","geometry":{"type":"Point","coordinates":[5.2948478,51.3797356]},"properties":{"type":"pakketpunt","locatieNaam":"MaJa Koi","straatNaam":"De weege","straatNr":"2","vervoerder":"DHL","puntType":"parcelShop","bezettingsgraad":50,"latitude":51.3797356,"longitude":5.2948478,"canPickup":true,"canDropoff":true,"openingstijden":{"ma":"09:00 - 17:00","di":"09:00 - 17:00","wo":"09:00 - 17:00","do":"09:00 - 17:00","vr":"09:00 - 17:00","za":"gesloten","zo":"gesloten"}}},{"type":"Feature","geometry":{"type":"Point","coordinates":[5.3392547,51.4423706]},"properties":{"type":"pakketpunt","locatieNaam":"Pakketautomaat Coop Wintelre","straatNaam":"Willibrordusstraat","straatNr":"36","vervoerder":"DHL","puntType":"packStation","bezettingsgraad":50,"latitude":51.4423706,"longitude":5.3392547,"canPickup":true,"canDropoff":true,"openingstijden":{"ma":"00:00 - 23:59","di":"00:00 - 23:59","wo":"00:00 - 23:59","do":"00:00 - 23:59","vr":"00:00 - 23:59","za":"00:00 - 23:59","zo":"00:00 - 23:59"}}},{"type":"Feature","geometry":{"type":"Point","coordinates":[5.3166787,51.3615057]},"properties":{"type":"pakketpunt","locatieNaam":"Jumbo X-TRA Eersel","straatNaam":"WILLIBRORDUSLAAN","straatNr":"8","vervoerder":"DPD","puntType":"pickup_point","bezettingsgraad":50,"latitude":51.3615057,"longitude":5.3166787,"canPickup":true,"canDropoff":true,"openingstijden":{"ma":"08:30 - 20:30","di":"08:30 - 20:30","wo":"08:30 - 20:30","do":"08:30 - 20:30","vr":"08:30 - 20:30","za":"08:30 - 20:30","zo":"09:30 - 19:30"}}},{"type":"Feature","geometry":{"type":"Point","coordinates":[5.332504,51.338992]},"properties":{"type":"pakketpunt","locatieNaam":"Hondencentrum Fikkie","straatNaam":"LAGE HEIDE","straatNr":"8a","vervoerder":"DPD","puntType":"pickup_point","bezettingsgraad":50,"latitude":51.338992,"longitude":5.332504,"canPickup":true,"canDropoff":true,"openingstijden":{"ma":"08:00 - 17:00","di":"08:00 - 17:00","wo":"08:00 - 17:00","do":"08:00 - 17:00","vr":"08:00 - 17:00","za":"gesloten","zo":"gesloten"}}},{"type":"Feature","geometry":{"type":"Point","coordinates":[5.339576,51.442284]},"properties":{"type":"pakketpunt","locatieNaam":"Pakketautomaat Coop Tholen","straatNaam":"WILLIBRORDUSSTRAAT","straatNr":"36A","vervoerder":"DPD","puntType":"dpd_box","bezettingsgraad":50,"latitude":51.442284,"longitude":5.339576,"canPickup":true,"canDropoff":true,"openingstijden":{"ma":"00:00 - 23:59","di":"00:00 - 23:59","wo":"00:00 - 23:59","do":"00:00 - 23:59","vr":"00:00 - 23:59","za":"00:00 - 23:59","zo":"00:00 - 23:59"}}},{"type":"Feature","geometry":{"type":"Point","coordinates":[5.33636,51.35742]},"properties":{"type":"pakketpunt","locatieNaam":"Pakketautomaat Lukoil Schadewijkstr","straatNaam":"SCHADEWIJKSTRAAT","straatNr":"70","vervoerder":"DPD","puntType":"dpd_box","bezettingsgraad":50,"latitude":51.35742,"longitude":5.33636,"canPickup":true,"canDropoff":true,"openingstijden":{"ma":"00:01 - 23:59","di":"00:01 - 23:59","wo":"00:01 - 23:59","do":"00:01 - 23:59","vr":"00:01 - 23:59","za":"00:01 - 23:59","zo":"00:01 - 23:59"}}},{"type":"Feature","geometry":{"type":"Point","coordinates":[5.354082377,51.37720254]},"properties":{"type":"pakketpunt","locatieNaam":"Gemeensschapshuis Steensel","straatNaam":"Korte Kerkstraat","straatNr":"7A","vervoerder":"PostNL","puntType":"servicepunt","bezettingsgraad":50,"latitude":51.37720254,"longitude":5.354082377,"canPickup":true,"canDropoff":true,"openingstijden":"08:45 - 12:00, 13:00 - 23:45 (Na 18:00 open)"}},{"type":"Feature","geometry":{"type":"Point","coordinates":[5.324039219,51.36391384]},"properties":{"type":"pakketpunt","locatieNaam":"Pakket- en briefautomaat","straatNaam":"Kuilenhurk","straatNr":"7PBA","vervoerder":"PostNL","puntType":"automaat","bezettingsgraad":50,"latitude":51.36391384,"longitude":5.324039219,"canPickup":true,"canDropoff":true,"openingstijden":"00:00 - 23:59"}},{"type":"Feature","geometry":{"type":"Point","coordinates":[5.324039219,51.36391384]},"properties":{"type":"pakketpunt","locatieNaam":"GAMMA Eersel","straatNaam":"Kuilenhurk","straatNr":"7","vervoerder":"PostNL","puntType":"servicepunt","bezettingsgraad":50,"latitude":51.36391384,"longitude":5.324039219,"canPickup":true,"canDropoff":true,"openingstijden":"09:00 - 21:00"}},{"type":"Feature","geometry":{"type":"Point","coordinates":[5.28968795866823,51.4202493940922]},"properties":{"type":"pakketpunt","locatieNaam":"Pakketautomaat","straatNaam":"Kuilenhurk","straatNr":"1PBA","vervoerder":"PostNL","puntType":"automaat","bezettingsgraad":50,"latitude":51.4202493940922,"longitude":5.28968795866823,"canPickup":true,"canDropoff":true,"openingstijden":"08:00 - 20:00"}},{"type":"Feature","geometry":{"type":"Point","coordinates":[5.28734535,51.41990584]},"properties":{"type":"pakketpunt","locatieNaam":"Super Service Henst","straatNaam":"Wilhelminalaan","straatNr":"5","vervoerder":"PostNL","puntType":"servicepunt","bezettingsgraad":50,"latitude":51.41990584,"longitude":5.28734535,"canPickup":true,"canDropoff":true,"openingstijden":"08:30 - 18:00 (Na 18:00 open; Zaterdag open)"}},{"type":"Feature","geometry":{"type":"Point","coordinates":[5.314623386,51.36172411]},"properties":{"type":"pakketpunt","locatieNaam":"Primera","straatNaam":"Nieuwstraat","straatNr":"35B","vervoerder":"PostNL","puntType":"servicepunt","bezettingsgraad":50,"latitude":51.36172411,"longitude":5.314623386,"canPickup":true,"canDropoff":true,"openingstijden":"09:00 - 18:00"}},{"type":"Feature","geometry":{"type":"Point","coordinates":[5.31667692577361,51.3615006487695]},"properties":{"type":"pakketpunt","locatieNaam":"Pakket- en briefautomaat","straatNaam":"Willibrorduslaan","straatNr":"8PBA","vervoerder":"PostNL","puntType":"automaat","bezettingsgraad":50,"latitude":51.3615006487695,"longitude":5.31667692577361,"canPickup":true,"canDropoff":true,"openingstijden":"00:00 - 23:59"}},{"type":"Feature","geometry":{"type":"Point","coordinates":[5.30991533,51.3609121]},"properties":{"type":"pakketpunt","locatieNaam":"Bruna Eersel","straatNaam":"Nieuwstraat","straatNr":"10","vervoerder":"PostNL","puntType":"servicepunt","bezettingsgraad":50,"latitude":51.3609121,"longitude":5.30991533,"canPickup":true,"canDropoff":true,"openingstijden":"09:00 - 18:00 (Na 18:00 open; Zaterdag open)"}},{"type":"Feature","geometry":{"type":"Point","coordinates":[5.31102123523367,51.3606971002476]},"properties":{"type":"pakketpunt","locatieNaam":"Pakketautomaat","straatNaam":"Nieuwstraat","straatNr":"9PBA","vervoerder":"PostNL","puntType":"automaat","bezettingsgraad":50,"latitude":51.3606971002476,"longitude":5.31102123523367,"canPickup":true,"canDropoff":true,"openingstijden":"08:00 - 21:00"}},{"type":"Feature","geometry":{"type":"Point","coordinates":[5.339580009,51.44228466]},"properties":{"type":"pakketpunt","locatieNaam":"Pakket- en briefautomaat","straatNaam":"Willibrordusstraat","straatNr":"36PBA","vervoerder":"PostNL","puntType":"automaat","bezettingsgraad":50,"latitude":51.44228466,"longitude":5.339580009,"canPickup":true,"canDropoff":true,"openingstijden":"00:00 - 23:59"}},{"type":"Feature","geometry":{"type":"Point","coordinates":[5.339580009,51.44228466]},"properties":{"type":"pakketpunt","locatieNaam":"Gewoon Coop","straatNaam":"Willibrordusstraat","straatNr":"36A","vervoerder":"PostNL","puntType":"servicepunt","bezettingsgraad":50,"latitude":51.44228466,"longitude":5.339580009,"canPickup":true,"canDropoff":true,"openingstijden":"08:00 - 20:00 (Na 18:00 open; Zaterdag open; Zondag open)"}},{"type":"Feature","geometry":{"type":"Point","coordinates":[5.31668144,51.36150777]},"properties":{"type":"pakketpunt","locatieNaam":"Jumbo Jan Daris Eersel","straatNaam":"Willibrorduslaan 8","straatNr":"","vervoerder":"VintedGo","puntType":"parcel_shop","bezettingsgraad":50,"latitude":51.36150777,"longitude":5.31668144,"canPickup":true,"canDropoff":true,"openingstijden":null}},{"type":"Feature","geometry":{"type":"Point","coordinates":[5.3395066,51.4420917]},"properties":{"type":"pakketpunt","locatieNaam":"Boon's Market Wintelre","straatNaam":"Willibrordusstraat 36A","straatNr":"","vervoerder":"VintedGo","puntType":"locker","bezettingsgraad":50,"latitude":51.4420917,"longitude":5.3395066,"canPickup":true,"canDropoff":true,"openingstijden":null}},{"type":"Feature","geometry":{"type":"Point","coordinates":[5.289679269383858,51.420227740026846]},"properties":{"type":"pakketpunt","locatieNaam":"FedEx Ship&Get","straatNaam":"Kuilenhurk 1 PBA","straatNr":"","vervoerder":"FedEx","puntType":"servicepunt","bezettingsgraad":50,"latitude":51.420227740026846,"longitude":5.289679269383858,"canPickup":true,"canDropoff":true,"openingstijden":{"ma":"08:00 - 20:00","di":"08:00 - 20:00","wo":"08:00 - 20:00","do":"08:00 - 20:00","vr":"08:00 - 20:00","za":"08:00 - 20:00","zo":"10:00 - 18:00"}}},{"type":"Feature","geometry":{"type":"Point","coordinates":[5.3110318877315565,51.360654129654726]},"properties":{"type":"pakketpunt","locatieNaam":"FedEx Ship&Get","straatNaam":"Nieuwstraat 9 PBA","straatNr":"","vervoerder":"FedEx","puntType":"servicepunt","bezettingsgraad":50,"latitude":51.360654129654726,"longitude":5.3110318877315565,"canPickup":true,"canDropoff":true,"openingstijden":{"ma":"08:00 - 21:00","di":"08:00 - 21:00","wo":"08:00 - 21:00","do":"08:00 - 21:00","vr":"08:00 - 21:00","za":"08:00 - 21:00","zo":"08:00 - 20:00"}}},{"type":"Feature","geometry":{"type":"Point","coordinates":[5.316402,51.361566]},"properties":{"type":"pakketpunt","locatieNaam":"FedEx OnSite","straatNaam":"WILLIBRORDUSLAAN 8","straatNr":"","vervoerder":"FedEx","puntType":"servicepunt","bezettingsgraad":50,"latitude":51.361566,"longitude":5.316402,"canPickup":true,"canDropoff":true,"openingstijden":{"ma":"08:30 - 20:30","di":"08:30 - 20:30","wo":"08:30 - 20:30","do":"08:30 - 20:30","vr":"08:30 - 20:30","za":"08:30 - 20:30","zo":"09:30 - 19:30"}}},{"type":"Feature","geometry":{"type":"Point","coordinates":[5.316608625148573,51.36156239912596]},"properties":{"type":"pakketpunt","locatieNaam":"FedEx Ship&Get","straatNaam":"Willibrorduslaan 8 PBA","straatNr":"","vervoerder":"FedEx","puntType":"servicepunt","bezettingsgraad":50,"latitude":51.36156239912596,"longitude":5.316608625148573,"canPickup":true,"canDropoff":true,"openingstijden":{"ma":"00:00 - 23:59","di":"00:00 - 23:59","wo":"00:00 - 23:59","do":"00:00 - 23:59","vr":"00:00 - 23:59","za":"00:00 - 23:59","zo":"00:00 - 23:59"}}},{"type":"Feature","geometry":{"type":"Point","coordinates":[5.323812205198997,51.36380997792269]},"properties":{"type":"pakketpunt","locatieNaam":"FedEx Ship&Get","straatNaam":"Kuilenhurk 7 PBA","straatNr":"","vervoerder":"FedEx","puntType":"servicepunt","bezettingsgraad":50,"latitude":51.36380997792269,"longitude":5.323812205198997,"canPickup":true,"canDropoff":true,"openingstijden":{"ma":"00:00 - 23:59","di":"00:00 - 23:59","wo":"00:00 - 23:59","do":"00:00 - 23:59","vr":"00:00 - 23:59","za":"00:00 - 23:59","zo":"00:00 - 23:59"}}},{"type":"Feature","geometry":{"type":"Point","coordinates":[5.339265855190667,51.44232612817353]},"properties":{"type":"pakketpunt","locatieNaam":"FedEx Ship&Get","straatNaam":"Willibrordusstraat 36 PBA","straatNr":"","vervoerder":"FedEx","puntType":"servicepunt","bezettingsgraad":50,"latitude":51.44232612817353,"longitude":5.339265855190667,"canPickup":true,"canDropoff":true,"openingstijden":{"ma":"00:00 - 23:59","di":"00:00 - 23:59","wo":"00:00 - 23:59","do":"00:00 - 23:59","vr":"00:00 - 23:59","za":"00:00 - 23:59","zo":"00:00 - 23:59"}}},{"type":"Feature","geometry":{"type":"Point","coordinates":[5.3164,51.36157]},"properties":{"type":"pakketpunt","locatieNaam":"JUMBO X-TRA EERSEL","straatNaam":"Willibrorduslaan 8","straatNr":"","vervoerder":"InPost","puntType":"servicepunt","bezettingsgraad":50,"latitude":51.36157,"longitude":5.3164,"canPickup":true,"canDropoff":true,"openingstijden":null}},{"type":"Feature","geometry":{"type":"Polygon","coordinates":[[[5.237705,51.428559],[5.237713,51.428587],[5.237712,51.428601],[5.237711,51.42862],[5.237656,51.429635],[5.237603,51.430623],[5.237603,51.430628],[5.237598,51.430714],[5.239171,51.43096],[5.23917,51.430991],[5.239149,51.431515],[5.239063,51.43367],[5.241344,51.434399],[5.241347,51.434404],[5.242308,51.434711],[5.24339,51.435057],[5.246401,51.436019],[5.246582,51.436076],[5.25113,51.437529],[5.251123,51.437522],[5.251114,51.437492],[5.251119,51.437474],[5.251235,51.437511],[5.252388,51.437877],[5.252452,51.437905],[5.252482,51.437939],[5.25249,51.437971],[5.252483,51.438011],[5.251416,51.439486],[5.251386,51.439527],[5.251355,51.43957],[5.250678,51.440518],[5.250569,51.440671],[5.24882,51.443082],[5.248872,51.443102],[5.24887,51.443113],[5.24851,51.44501],[5.248414,51.445511],[5.248396,51.445631],[5.248925,51.445706],[5.250999,51.446002],[5.252885,51.446271],[5.257737,51.446962],[5.258874,51.447125],[5.26038,51.447995],[5.260459,51.448041],[5.260454,51.448097],[5.260451,51.448132],[5.260443,51.448235],[5.260636,51.448267],[5.260675,51.448274],[5.261736,51.44845],[5.262635,51.448596],[5.264942,51.448973],[5.265073,51.448994],[5.26509,51.448997],[5.265302,51.44901],[5.267197,51.449107],[5.268023,51.449151],[5.270698,51.449284],[5.270855,51.449292],[5.270915,51.449295],[5.27096,51.44918],[5.27102,51.449033],[5.272117,51.449191],[5.274237,51.449497],[5.274484,51.449532],[5.274537,51.44954],[5.274707,51.449564],[5.278699,51.450139],[5.279119,51.4502],[5.279254,51.450219],[5.279285,51.45024],[5.279293,51.450246],[5.279333,51.450272],[5.279806,51.450587],[5.280424,51.451],[5.280631,51.451137],[5.280622,51.451155],[5.281255,51.451581],[5.28225,51.45225],[5.282968,51.452733],[5.283816,51.453303],[5.284847,51.453997],[5.284855,51.454002],[5.284885,51.454022],[5.284896,51.45403],[5.284905,51.454036],[5.284909,51.454039],[5.285018,51.454112],[5.285039,51.4541],[5.285083,51.454105],[5.286491,51.454282],[5.293846,51.455202],[5.294498,51.455284],[5.296074,51.454045],[5.29614,51.453993],[5.29723,51.453138],[5.297293,51.453089],[5.297774,51.454047],[5.29803,51.454554],[5.298068,51.454626],[5.299566,51.455787],[5.300873,51.456799],[5.301373,51.457186],[5.303126,51.458545],[5.303178,51.458585],[5.303133,51.458972],[5.303097,51.459149],[5.303234,51.459169],[5.308652,51.459963],[5.311452,51.460373],[5.314252,51.460781],[5.315078,51.461372],[5.315254,51.461377],[5.31624,51.461406],[5.318804,51.461481],[5.320273,51.460879],[5.320424,51.460868],[5.323179,51.462219],[5.324205,51.462722],[5.325565,51.462846],[5.325707,51.462859],[5.325896,51.462877],[5.325886,51.463053],[5.32584,51.463792],[5.326751,51.463754],[5.326799,51.463759],[5.328042,51.464226],[5.32964,51.464104],[5.330017,51.464075],[5.330512,51.463841],[5.33071,51.46371],[5.331371,51.463056],[5.331598,51.462832],[5.332058,51.462848],[5.334599,51.462935],[5.334595,51.46294],[5.334502,51.463058],[5.334456,51.463115],[5.334303,51.463308],[5.334186,51.463456],[5.334153,51.463498],[5.334035,51.463646],[5.334022,51.463663],[5.333755,51.463999],[5.332728,51.465295],[5.332627,51.465422],[5.334536,51.465833],[5.334637,51.465855],[5.334678,51.465864],[5.334728,51.465875],[5.334674,51.466222],[5.33462,51.466488],[5.334576,51.466865],[5.334602,51.466876],[5.33458,51.46703],[5.334515,51.46748],[5.334491,51.467552],[5.334461,51.467639],[5.334352,51.467806],[5.333817,51.468537],[5.336454,51.46781],[5.336691,51.467744],[5.336692,51.467744],[5.337372,51.467553],[5.340425,51.466696],[5.340426,51.466695],[5.340513,51.466671],[5.340514,51.466671],[5.341255,51.466463],[5.344029,51.465683],[5.344519,51.465546],[5.344519,51.465546],[5.346653,51.464946],[5.346654,51.464946],[5.34886,51.464326],[5.350107,51.463976],[5.353324,51.463065],[5.354052,51.462858],[5.354552,51.462717],[5.355954,51.462328],[5.356002,51.462315],[5.356384,51.463065],[5.356555,51.463401],[5.356708,51.463704],[5.357222,51.464718],[5.357918,51.466087],[5.358389,51.467015],[5.358419,51.467011],[5.36091,51.466628],[5.363256,51.466268],[5.363857,51.466178],[5.364172,51.466127],[5.366134,51.465826],[5.368061,51.46553],[5.369447,51.465317],[5.369446,51.465315],[5.369411,51.465225],[5.368794,51.463628],[5.368771,51.463569],[5.368576,51.463068],[5.368309,51.462386],[5.368291,51.46234],[5.368285,51.462324],[5.367927,51.461395],[5.367719,51.460857],[5.367705,51.460821],[5.367694,51.460791],[5.36744,51.460134],[5.367429,51.460106],[5.367238,51.45961],[5.367169,51.459431],[5.36716,51.459433],[5.366891,51.459505],[5.366461,51.45962],[5.366434,51.459627],[5.36598,51.459748],[5.365618,51.459844],[5.365323,51.459923],[5.363952,51.460286],[5.363892,51.460302],[5.363852,51.460311],[5.363834,51.460314],[5.363816,51.460317],[5.363788,51.460318],[5.363757,51.46032],[5.363707,51.460319],[5.363653,51.460312],[5.363605,51.460302],[5.363583,51.460294],[5.363558,51.460286],[5.363531,51.460274],[5.363488,51.46025],[5.36345,51.460219],[5.363419,51.460184],[5.363113,51.459736],[5.36308,51.459688],[5.362751,51.459208],[5.362317,51.458573],[5.361615,51.457545],[5.361599,51.457522],[5.361583,51.457499],[5.361568,51.457478],[5.361485,51.457356],[5.361423,51.457265],[5.361126,51.456997],[5.361105,51.456978],[5.361073,51.456949],[5.361034,51.456914],[5.360974,51.456863],[5.360349,51.456325],[5.360165,51.456166],[5.360125,51.456132],[5.359865,51.455908],[5.359849,51.455894],[5.359841,51.455888],[5.359836,51.455883],[5.359788,51.455842],[5.359776,51.455831],[5.35952,51.455611],[5.359507,51.4556],[5.359274,51.4554],[5.358426,51.454671],[5.358245,51.454515],[5.357808,51.454139],[5.357726,51.454077],[5.357697,51.454055],[5.357694,51.454053],[5.357693,51.454052],[5.357613,51.453998],[5.357282,51.453803],[5.357283,51.453802],[5.357295,51.453781],[5.357163,51.453734],[5.357112,51.453715],[5.357062,51.453711],[5.357019,51.453719],[5.35697,51.453729],[5.356949,51.453718],[5.356912,51.453699],[5.356906,51.453695],[5.356846,51.453664],[5.356734,51.453606],[5.356718,51.453598],[5.356731,51.453591],[5.356824,51.453542],[5.356841,51.453534],[5.356906,51.4535],[5.356912,51.453497],[5.356929,51.453488],[5.356933,51.453486],[5.356938,51.453483],[5.356941,51.453482],[5.356984,51.453459],[5.357021,51.45344],[5.357238,51.453296],[5.357274,51.453272],[5.357277,51.453268],[5.357455,51.453062],[5.357479,51.453034],[5.357486,51.453026],[5.35749,51.453021],[5.357465,51.453012],[5.357471,51.453004],[5.35756,51.452883],[5.357809,51.452518],[5.357844,51.452468],[5.358059,51.452155],[5.35816,51.452031],[5.358216,51.451969],[5.358345,51.451841],[5.358417,51.451775],[5.358472,51.45173],[5.35851,51.451699],[5.359195,51.451156],[5.359934,51.450568],[5.359962,51.450546],[5.359981,51.450531],[5.360125,51.450418],[5.36017,51.45038],[5.360219,51.450341],[5.360266,51.450298],[5.360309,51.450257],[5.36035,51.450219],[5.360398,51.450167],[5.360431,51.450131],[5.36047,51.450087],[5.360501,51.450047],[5.360537,51.450001],[5.360564,51.449964],[5.360565,51.449964],[5.360594,51.44992],[5.360615,51.449891],[5.360639,51.449852],[5.360671,51.449798],[5.360916,51.449363],[5.361024,51.449172],[5.361036,51.449152],[5.361045,51.449134],[5.361054,51.449116],[5.361065,51.449095],[5.361075,51.449073],[5.361086,51.449051],[5.361097,51.449028],[5.361104,51.449008],[5.361113,51.44899],[5.361121,51.448969],[5.361131,51.448941],[5.361139,51.448919],[5.361146,51.448896],[5.361147,51.448893],[5.361156,51.448867],[5.361161,51.448849],[5.361179,51.44879],[5.361193,51.448728],[5.361206,51.448654],[5.361213,51.448588],[5.361218,51.448518],[5.36122,51.44846],[5.361224,51.447987],[5.361225,51.44777],[5.361229,51.447145],[5.361228,51.447104],[5.361229,51.447099],[5.361225,51.446992],[5.361151,51.445965],[5.361087,51.445079],[5.361083,51.445012],[5.361082,51.445009],[5.360992,51.443762],[5.360986,51.443672],[5.36098,51.443595],[5.360956,51.443475],[5.360925,51.443348],[5.360884,51.443242],[5.36083,51.443119],[5.360764,51.442993],[5.360688,51.442878],[5.360625,51.442802],[5.36056,51.442725],[5.360494,51.442647],[5.360492,51.442645],[5.360416,51.442575],[5.360344,51.442509],[5.357743,51.440233],[5.357696,51.440195],[5.35762,51.440124],[5.357551,51.440052],[5.357477,51.439967],[5.357399,51.439873],[5.35734,51.43979],[5.357289,51.439711],[5.357241,51.439626],[5.357201,51.439548],[5.357133,51.439392],[5.357109,51.439315],[5.35706,51.439117],[5.356991,51.438619],[5.356982,51.438554],[5.356917,51.438204],[5.356821,51.437685],[5.356692,51.437169],[5.356588,51.436761],[5.356469,51.436442],[5.356375,51.436221],[5.35633,51.436099],[5.356253,51.435895],[5.356161,51.43568],[5.356023,51.435305],[5.355995,51.435271],[5.355959,51.43525],[5.355695,51.435152],[5.355681,51.435139],[5.355664,51.435113],[5.355696,51.434926],[5.35571,51.434804],[5.355733,51.434692],[5.355786,51.434575],[5.355873,51.434406],[5.355893,51.434351],[5.355894,51.434311],[5.355877,51.434253],[5.355851,51.4342],[5.355795,51.43411],[5.35572,51.434018],[5.355598,51.433889],[5.355442,51.433737],[5.355324,51.433634],[5.355191,51.433533],[5.355048,51.43344],[5.354358,51.433066],[5.354289,51.433034],[5.354194,51.433],[5.353924,51.43294],[5.353871,51.432936],[5.353816,51.43294],[5.353653,51.432957],[5.353532,51.432961],[5.353365,51.432952],[5.353187,51.43293],[5.353101,51.432916],[5.353,51.432899],[5.352861,51.432828],[5.352752,51.432756],[5.352663,51.432676],[5.352577,51.432604],[5.352195,51.432332],[5.35205,51.432244],[5.351908,51.432144],[5.351792,51.432053],[5.351679,51.431958],[5.351559,51.431866],[5.351319,51.431678],[5.35119,51.431591],[5.351048,51.431514],[5.350899,51.43144],[5.350732,51.431359],[5.350557,51.43128],[5.350361,51.431186],[5.350298,51.431167],[5.350225,51.431181],[5.350204,51.431185],[5.350153,51.431197],[5.35015,51.431198],[5.350094,51.431197],[5.350031,51.431173],[5.349731,51.431019],[5.349481,51.430893],[5.349232,51.43076],[5.349195,51.43074],[5.348914,51.430601],[5.348667,51.430495],[5.34846,51.430406],[5.348436,51.430396],[5.348416,51.430384],[5.348384,51.430366],[5.348331,51.4303],[5.34824,51.430243],[5.348209,51.430228],[5.348096,51.430182],[5.348058,51.430152],[5.348023,51.430106],[5.347847,51.429868],[5.347768,51.42976],[5.34769,51.429651],[5.347485,51.42942],[5.347438,51.429366],[5.347376,51.429328],[5.347288,51.429303],[5.347093,51.429256],[5.347061,51.429248],[5.346845,51.429207],[5.346819,51.429201],[5.346748,51.429181],[5.346659,51.429152],[5.346543,51.429109],[5.346527,51.429101],[5.346431,51.429052],[5.346353,51.429012],[5.346284,51.428974],[5.346255,51.428956],[5.346239,51.428963],[5.346191,51.428983],[5.346141,51.429004],[5.34572,51.429181],[5.345677,51.429581],[5.345651,51.429826],[5.345624,51.430081],[5.345594,51.43037],[5.345572,51.430576],[5.34554,51.430879],[5.345536,51.430911],[5.345535,51.430922],[5.345419,51.430925],[5.344684,51.430946],[5.344061,51.430965],[5.344042,51.430965],[5.343369,51.430984],[5.343048,51.430988],[5.34302,51.430989],[5.34283,51.430992],[5.342671,51.431016],[5.342662,51.431019],[5.342523,51.431054],[5.342422,51.431086],[5.342363,51.431104],[5.342369,51.431065],[5.342403,51.430867],[5.342525,51.430056],[5.342532,51.430011],[5.342596,51.42957],[5.342837,51.428896],[5.342883,51.428766],[5.343101,51.428166],[5.343231,51.427806],[5.343258,51.427734],[5.34337,51.427436],[5.342259,51.427106],[5.342008,51.427031],[5.341975,51.427022],[5.341455,51.426665],[5.341137,51.426446],[5.340702,51.426148],[5.340602,51.42608],[5.339842,51.425558],[5.339477,51.425533],[5.339466,51.425532],[5.339446,51.42553],[5.339316,51.425519],[5.339315,51.425519],[5.338263,51.425428],[5.338056,51.42541],[5.334558,51.425108],[5.329689,51.424687],[5.319371,51.423795],[5.319565,51.422601],[5.319618,51.422268],[5.319744,51.421494],[5.3198,51.421146],[5.319967,51.420109],[5.319997,51.419928],[5.319974,51.419925],[5.319165,51.419818],[5.318126,51.41968],[5.31609,51.419409],[5.316222,51.419217],[5.315808,51.418956],[5.315896,51.418911],[5.31598,51.41842],[5.315981,51.418415],[5.316034,51.418104],[5.316125,51.417577],[5.316228,51.416978],[5.316231,51.416959],[5.316238,51.416923],[5.316549,51.416902],[5.31675,51.416888],[5.316922,51.416037],[5.317149,51.414914],[5.317168,51.41482],[5.317178,51.414806],[5.317294,51.414655],[5.317354,51.414573],[5.318083,51.413611],[5.318388,51.413206],[5.318857,51.412582],[5.31943,51.41182],[5.320087,51.410946],[5.320114,51.41091],[5.320724,51.410099],[5.321461,51.409119],[5.321645,51.408874],[5.321701,51.408798],[5.321711,51.408787],[5.32179,51.408692],[5.321794,51.408687],[5.323084,51.406959],[5.323664,51.406187],[5.323783,51.406189],[5.32379,51.406189],[5.324076,51.406192],[5.329713,51.406262],[5.331446,51.406284],[5.331525,51.406285],[5.331593,51.406286],[5.33163,51.406297],[5.331741,51.406332],[5.334607,51.407235],[5.334746,51.407279],[5.335066,51.40738],[5.335137,51.407403],[5.335253,51.407411],[5.338361,51.407645],[5.338459,51.407652],[5.340595,51.407813],[5.342476,51.407944],[5.344086,51.408055],[5.346551,51.40823],[5.346659,51.408236],[5.346739,51.408243],[5.34984,51.408463],[5.354363,51.408783],[5.355959,51.407732],[5.356191,51.40758],[5.356933,51.407091],[5.357117,51.406969],[5.357258,51.406877],[5.358457,51.406087],[5.360653,51.40464],[5.36155,51.404049],[5.361663,51.403975],[5.362737,51.403267],[5.362887,51.403168],[5.363435,51.402808],[5.363504,51.402762],[5.366041,51.401103],[5.366381,51.40088],[5.367442,51.400186],[5.367502,51.400147],[5.369923,51.398562],[5.370041,51.398485],[5.370279,51.398322],[5.370961,51.397864],[5.370213,51.397622],[5.370841,51.396171],[5.370849,51.396152],[5.371065,51.395653],[5.371505,51.394639],[5.371526,51.394591],[5.371649,51.394292],[5.37176,51.394019],[5.371889,51.393709],[5.372198,51.39295],[5.372211,51.392917],[5.372235,51.392858],[5.372352,51.392571],[5.372685,51.391755],[5.372815,51.391438],[5.372833,51.391393],[5.372929,51.391159],[5.373681,51.389315],[5.373743,51.389166],[5.373947,51.38863],[5.374035,51.388565],[5.374354,51.388304],[5.374495,51.388189],[5.375367,51.387476],[5.375538,51.387336],[5.37636,51.386665],[5.376833,51.386278],[5.377095,51.386064],[5.379151,51.384413],[5.381913,51.382171],[5.383651,51.380767],[5.384858,51.379792],[5.385519,51.379258],[5.386813,51.378212],[5.387201,51.377899],[5.387475,51.377677],[5.388583,51.376778],[5.388667,51.376653],[5.388849,51.376507],[5.388907,51.37646],[5.388904,51.376456],[5.388604,51.375873],[5.388549,51.375775],[5.388457,51.375638],[5.388369,51.375539],[5.388318,51.37549],[5.388197,51.375391],[5.388075,51.375301],[5.388027,51.375268],[5.38791,51.375198],[5.387859,51.375174],[5.387665,51.375095],[5.387405,51.375001],[5.387201,51.374926],[5.3868,51.374778],[5.3862,51.374559],[5.386103,51.374522],[5.385777,51.374398],[5.385433,51.374241],[5.385398,51.374226],[5.38391,51.373488],[5.383515,51.373287],[5.383305,51.373182],[5.3828,51.372932],[5.382701,51.372881],[5.382606,51.372831],[5.382469,51.372743],[5.38235,51.372646],[5.382257,51.372537],[5.382185,51.37244],[5.381587,51.371608],[5.381454,51.371422],[5.381421,51.371388],[5.381404,51.37137],[5.381245,51.371216],[5.381133,51.371131],[5.380962,51.371017],[5.380841,51.370943],[5.380753,51.370907],[5.380639,51.370862],[5.380434,51.370797],[5.38034,51.370771],[5.380067,51.370692],[5.379888,51.370633],[5.379758,51.370574],[5.379706,51.370541],[5.379614,51.370477],[5.379588,51.370456],[5.379411,51.370311],[5.37934,51.370257],[5.379309,51.370233],[5.379231,51.370172],[5.378867,51.369877],[5.378725,51.369763],[5.378397,51.369496],[5.378329,51.369447],[5.378312,51.369439],[5.378274,51.369423],[5.378212,51.369394],[5.378167,51.36938],[5.378161,51.369379],[5.378107,51.369363],[5.37807,51.369353],[5.378062,51.369351],[5.377349,51.369162],[5.377217,51.369127],[5.377125,51.369102],[5.376019,51.368809],[5.375798,51.368769],[5.375791,51.368767],[5.375638,51.368763],[5.375565,51.368768],[5.375385,51.368821],[5.375297,51.36887],[5.374923,51.369097],[5.374372,51.369432],[5.374343,51.369447],[5.374311,51.369464],[5.374195,51.369511],[5.374067,51.369528],[5.373889,51.369534],[5.373754,51.369517],[5.373677,51.369506],[5.373375,51.369461],[5.373187,51.369437],[5.373117,51.369428],[5.372935,51.369425],[5.37284,51.369431],[5.372241,51.369474],[5.371952,51.369494],[5.371754,51.369504],[5.371684,51.369505],[5.371609,51.369506],[5.371535,51.369503],[5.371518,51.369499],[5.371326,51.369463],[5.371186,51.369447],[5.371122,51.369437],[5.370923,51.369407],[5.370921,51.369407],[5.370715,51.369368],[5.370611,51.369345],[5.370496,51.369311],[5.370292,51.369232],[5.369862,51.369065],[5.369775,51.369017],[5.36974,51.368992],[5.369716,51.36897],[5.369707,51.368962],[5.369527,51.368762],[5.369464,51.368708],[5.36944,51.368687],[5.36943,51.368678],[5.369401,51.368656],[5.369364,51.368636],[5.369289,51.368594],[5.369252,51.368579],[5.369153,51.368539],[5.368804,51.368442],[5.368766,51.368432],[5.368684,51.368407],[5.368635,51.368391],[5.368533,51.368356],[5.368449,51.368324],[5.368358,51.368291],[5.368319,51.368275],[5.368056,51.368167],[5.367989,51.36814],[5.36788,51.368103],[5.367383,51.367927],[5.36729,51.367894],[5.367094,51.367819],[5.366961,51.367785],[5.366926,51.367777],[5.36653,51.367655],[5.366046,51.367512],[5.365658,51.367399],[5.365076,51.367233],[5.364743,51.367134],[5.364493,51.367053],[5.364422,51.367021],[5.364322,51.366976],[5.364178,51.366878],[5.364057,51.366777],[5.363919,51.366652],[5.363914,51.366647],[5.363736,51.366491],[5.36356,51.366355],[5.363528,51.366322],[5.363363,51.366179],[5.363253,51.366087],[5.363098,51.365951],[5.362989,51.365878],[5.362953,51.365854],[5.362757,51.365752],[5.361865,51.365374],[5.361616,51.365277],[5.361482,51.365227],[5.361453,51.365219],[5.361398,51.365204],[5.361293,51.365175],[5.361175,51.365137],[5.36104,51.365093],[5.360933,51.365052],[5.360459,51.3649],[5.36003,51.364762],[5.359954,51.364737],[5.359717,51.364653],[5.35952,51.364574],[5.35897,51.364314],[5.358954,51.364307],[5.358824,51.364225],[5.358777,51.36419],[5.358734,51.36416],[5.358732,51.364158],[5.358643,51.364086],[5.358483,51.36393],[5.35838,51.363829],[5.358352,51.363805],[5.358315,51.363775],[5.358252,51.363723],[5.358159,51.36367],[5.358147,51.363664],[5.358017,51.363595],[5.357892,51.363527],[5.357842,51.363503],[5.357496,51.363338],[5.357269,51.36323],[5.357071,51.363136],[5.35631,51.362774],[5.355977,51.362618],[5.355829,51.362554],[5.355752,51.362532],[5.355696,51.362515],[5.355505,51.362477],[5.355376,51.36246],[5.35519,51.362452],[5.355033,51.362435],[5.354973,51.362425],[5.354606,51.362356],[5.354319,51.362302],[5.354274,51.362293],[5.35398,51.362233],[5.353863,51.362211],[5.353585,51.362153],[5.35335,51.362095],[5.353036,51.362006],[5.35255,51.361855],[5.352451,51.361821],[5.352392,51.361784],[5.352374,51.361771],[5.352322,51.361713],[5.352273,51.361648],[5.352015,51.36122],[5.351921,51.361094],[5.351738,51.360871],[5.351706,51.360833],[5.351649,51.360762],[5.351582,51.360703],[5.351471,51.360631],[5.351403,51.360595],[5.351076,51.360423],[5.350924,51.360346],[5.350773,51.360288],[5.350591,51.360231],[5.350493,51.360202],[5.349861,51.360051],[5.348796,51.359787],[5.348442,51.3597],[5.348417,51.359693],[5.348358,51.359676],[5.348281,51.359632],[5.348231,51.359577],[5.348197,51.359526],[5.348045,51.359239],[5.348032,51.359213],[5.347955,51.359096],[5.347886,51.359025],[5.347844,51.35899],[5.34779,51.358945],[5.347674,51.358863],[5.34716,51.358497],[5.346962,51.358356],[5.346899,51.358317],[5.346465,51.358103],[5.346284,51.358026],[5.346151,51.357945],[5.346101,51.357901],[5.345965,51.357738],[5.345902,51.357666],[5.345802,51.35755],[5.345774,51.357517],[5.345733,51.357465],[5.345649,51.35736],[5.345612,51.357313],[5.34555,51.357225],[5.345498,51.357147],[5.345305,51.356825],[5.345151,51.356538],[5.345136,51.356505],[5.345114,51.35645],[5.345101,51.356411],[5.345097,51.356398],[5.345082,51.356262],[5.345072,51.356206],[5.345067,51.356086],[5.345061,51.355958],[5.345067,51.355917],[5.345065,51.355862],[5.345063,51.355815],[5.345063,51.355815],[5.34506,51.355736],[5.345017,51.355561],[5.344944,51.355339],[5.344911,51.355229],[5.344898,51.355198],[5.344836,51.355049],[5.344745,51.354908],[5.344649,51.354775],[5.344591,51.35469],[5.344519,51.354588],[5.344292,51.354278],[5.34422,51.354175],[5.344202,51.354149],[5.344176,51.354121],[5.344151,51.354094],[5.344134,51.354076],[5.344131,51.354073],[5.344044,51.354003],[5.344013,51.353977],[5.343873,51.353859],[5.343836,51.353835],[5.343696,51.353747],[5.343655,51.353722],[5.343391,51.353565],[5.343334,51.35353],[5.343208,51.353451],[5.34318,51.353422],[5.343096,51.353337],[5.34308,51.353313],[5.343065,51.353285],[5.343035,51.353241],[5.343019,51.353208],[5.342996,51.353133],[5.342992,51.353073],[5.342989,51.35303],[5.34297,51.352965],[5.342956,51.352938],[5.342897,51.352858],[5.342858,51.352816],[5.342844,51.352804],[5.342801,51.352775],[5.342734,51.352736],[5.342588,51.352672],[5.342625,51.352626],[5.342684,51.352553],[5.342818,51.352393],[5.343148,51.352008],[5.343386,51.351734],[5.343458,51.351652],[5.343806,51.35125],[5.344137,51.350869],[5.344166,51.350835],[5.344282,51.350703],[5.344757,51.350163],[5.344963,51.349923],[5.34544,51.349373],[5.34571,51.349063],[5.345974,51.348758],[5.346098,51.348613],[5.346409,51.348282],[5.346836,51.347823],[5.34696,51.347689],[5.346989,51.347657],[5.346646,51.347421],[5.346082,51.347033],[5.344884,51.346209],[5.344142,51.345698],[5.343441,51.345215],[5.342481,51.344554],[5.342373,51.34448],[5.342137,51.344318],[5.341993,51.344219],[5.341992,51.344218],[5.342129,51.344037],[5.342225,51.343911],[5.342675,51.343317],[5.34309,51.34277],[5.343482,51.342253],[5.343891,51.341714],[5.344146,51.341378],[5.34496,51.340305],[5.345414,51.339705],[5.345554,51.339521],[5.345668,51.339371],[5.346715,51.337989],[5.346801,51.337875],[5.347121,51.337453],[5.346658,51.337359],[5.346494,51.337325],[5.346222,51.337259],[5.346113,51.337221],[5.34576,51.337094],[5.345502,51.336991],[5.345198,51.336887],[5.344893,51.336789],[5.344223,51.336584],[5.34415,51.336564],[5.344065,51.33654],[5.344003,51.336524],[5.341605,51.335784],[5.340864,51.335589],[5.340404,51.335489],[5.339968,51.335406],[5.339538,51.335312],[5.339243,51.33524],[5.339147,51.335212],[5.338882,51.335134],[5.338759,51.335099],[5.337839,51.334804],[5.33701,51.334539],[5.337003,51.334554],[5.334542,51.333779],[5.332321,51.333198],[5.332203,51.333165],[5.331547,51.333616],[5.331481,51.333601],[5.330174,51.333309],[5.329804,51.333227],[5.329626,51.333187],[5.328434,51.332903],[5.328477,51.332864],[5.327198,51.332718],[5.326354,51.332622],[5.326142,51.331896],[5.325767,51.332073],[5.325656,51.332125],[5.325538,51.332181],[5.324404,51.332716],[5.32401,51.332903],[5.323923,51.332844],[5.323821,51.332779],[5.323721,51.332716],[5.323712,51.33271],[5.323614,51.332656],[5.323587,51.332642],[5.32337,51.332502],[5.323222,51.332402],[5.322945,51.332201],[5.322726,51.331985],[5.322585,51.331819],[5.322541,51.331767],[5.32251,51.331722],[5.322474,51.33166],[5.322472,51.331598],[5.322483,51.331519],[5.322466,51.331443],[5.322446,51.331384],[5.322392,51.331309],[5.322337,51.33123],[5.322312,51.331192],[5.322222,51.331046],[5.322174,51.330966],[5.322146,51.330911],[5.322173,51.330867],[5.322198,51.33083],[5.322246,51.330767],[5.322321,51.330661],[5.322377,51.330578],[5.322374,51.330514],[5.322362,51.330478],[5.322346,51.330426],[5.322328,51.330365],[5.322291,51.330306],[5.322256,51.330275],[5.322218,51.330259],[5.32201,51.330183],[5.32196,51.330164],[5.321765,51.33001],[5.321568,51.329861],[5.321514,51.329819],[5.32142,51.32975],[5.321177,51.329582],[5.321159,51.329569],[5.321255,51.3295],[5.321321,51.329453],[5.321435,51.329391],[5.32157,51.329313],[5.321629,51.329285],[5.321791,51.329226],[5.32189,51.329187],[5.32219,51.329077],[5.32225,51.329045],[5.322325,51.329012],[5.322379,51.328993],[5.322824,51.328871],[5.322917,51.328848],[5.322964,51.328828],[5.322981,51.328809],[5.322973,51.328743],[5.322952,51.328692],[5.322913,51.328634],[5.322811,51.328519],[5.322624,51.32829],[5.322542,51.328221],[5.322456,51.328148],[5.322325,51.328059],[5.322097,51.327873],[5.321703,51.327672],[5.321358,51.327454],[5.321102,51.327251],[5.320891,51.326915],[5.320812,51.326806],[5.320691,51.326664],[5.320377,51.326356],[5.32003,51.32602],[5.319659,51.325667],[5.319586,51.325596],[5.31938,51.32537],[5.319112,51.325074],[5.318877,51.324855],[5.318645,51.32468],[5.3182,51.324424],[5.317708,51.32414],[5.317627,51.324085],[5.317323,51.323881],[5.317106,51.323724],[5.316733,51.323454],[5.316672,51.323389],[5.316228,51.32365],[5.316168,51.323684],[5.315471,51.323215],[5.314991,51.322892],[5.314936,51.322915],[5.314767,51.322864],[5.314585,51.322817],[5.314346,51.322765],[5.314125,51.322702],[5.313974,51.322669],[5.313797,51.322635],[5.31359,51.322607],[5.313441,51.322572],[5.31319,51.322513],[5.313007,51.322482],[5.312836,51.322427],[5.312747,51.322413],[5.312691,51.322393],[5.312635,51.322361],[5.312413,51.322309],[5.312208,51.322299],[5.31174,51.322178],[5.311513,51.322129],[5.311216,51.32206],[5.311127,51.32201],[5.31053,51.321801],[5.310439,51.321735],[5.310323,51.321665],[5.310211,51.321635],[5.310139,51.321587],[5.309993,51.321515],[5.309859,51.321412],[5.309821,51.321334],[5.309793,51.3213],[5.309721,51.32123],[5.309693,51.32115],[5.309614,51.321021],[5.309552,51.321049],[5.309437,51.321109],[5.308056,51.321828],[5.307948,51.321804],[5.307873,51.321787],[5.307828,51.321777],[5.304334,51.320987],[5.304092,51.320932],[5.303227,51.320737],[5.302982,51.320681],[5.301397,51.320323],[5.301131,51.320262],[5.29837,51.319638],[5.296701,51.319261],[5.296596,51.319237],[5.296499,51.319215],[5.296367,51.319185],[5.292174,51.318238],[5.29125,51.31827],[5.2883,51.318374],[5.28679,51.318429],[5.285554,51.318474],[5.272444,51.318951],[5.270958,51.319005],[5.270784,51.319012],[5.267696,51.319118],[5.2668,51.319148],[5.265676,51.319187],[5.265338,51.319199],[5.265208,51.319203],[5.265179,51.319204],[5.263894,51.319238],[5.263554,51.319254],[5.263411,51.319282],[5.263487,51.319341],[5.26352,51.319366],[5.263553,51.319391],[5.265371,51.320785],[5.265542,51.320915],[5.266119,51.321351],[5.266259,51.321457],[5.269205,51.323685],[5.269604,51.323987],[5.272426,51.326121],[5.272995,51.326551],[5.273753,51.327124],[5.273871,51.327213],[5.275159,51.328185],[5.279084,51.331145],[5.281114,51.332676],[5.281126,51.332685],[5.282397,51.333643],[5.285843,51.336241],[5.285973,51.336339],[5.285931,51.336443],[5.285893,51.336536],[5.285631,51.337184],[5.284249,51.340601],[5.283814,51.341676],[5.282457,51.345032],[5.282332,51.345343],[5.281997,51.346169],[5.281803,51.346649],[5.281746,51.346791],[5.281571,51.347223],[5.281527,51.347331],[5.280923,51.348825],[5.280783,51.349171],[5.280619,51.349575],[5.280437,51.350026],[5.28018,51.350662],[5.280102,51.350854],[5.279438,51.352496],[5.279407,51.352571],[5.279273,51.352904],[5.278923,51.353769],[5.275299,51.362723],[5.276295,51.365536],[5.277465,51.36884],[5.278048,51.370458],[5.279275,51.373861],[5.279766,51.375329],[5.279831,51.375426],[5.280772,51.376827],[5.281675,51.378166],[5.282115,51.378821],[5.284335,51.382126],[5.285915,51.38447],[5.287509,51.38538],[5.287582,51.385393],[5.287591,51.385439],[5.287624,51.385455],[5.290324,51.38613],[5.290372,51.386127],[5.290408,51.386107],[5.290339,51.386286],[5.29031,51.386331],[5.28994,51.387183],[5.289845,51.387367],[5.289512,51.388137],[5.289284,51.388659],[5.289256,51.388755],[5.289239,51.388852],[5.28924,51.388908],[5.298886,51.389688],[5.299104,51.389756],[5.302712,51.390711],[5.306284,51.390959],[5.306368,51.390637],[5.30655,51.390632],[5.3071,51.390617],[5.308213,51.390587],[5.308938,51.390624],[5.310808,51.390714],[5.310866,51.390715],[5.310833,51.391135],[5.31075,51.392191],[5.310586,51.394308],[5.310496,51.395629],[5.310474,51.395939],[5.310444,51.396055],[5.311046,51.396682],[5.311066,51.396702],[5.311275,51.396925],[5.311699,51.397375],[5.312026,51.397722],[5.31365,51.399441],[5.312925,51.400125],[5.31256,51.400469],[5.311961,51.401038],[5.311109,51.401844],[5.310631,51.402301],[5.310261,51.402651],[5.308918,51.403921],[5.308403,51.404617],[5.307295,51.406114],[5.307197,51.406252],[5.30715,51.406283],[5.307107,51.406299],[5.307083,51.406308],[5.304456,51.407153],[5.304303,51.407196],[5.303988,51.407269],[5.303825,51.407311],[5.303398,51.407406],[5.302987,51.407501],[5.302847,51.407531],[5.302788,51.407539],[5.302437,51.407573],[5.301888,51.407621],[5.301412,51.407669],[5.301145,51.407691],[5.300966,51.407706],[5.300777,51.407722],[5.300398,51.407755],[5.300027,51.407793],[5.299968,51.407789],[5.299666,51.407684],[5.299302,51.407562],[5.299124,51.407499],[5.298721,51.407369],[5.298359,51.407257],[5.298054,51.407159],[5.298028,51.40715],[5.298022,51.407154],[5.297745,51.407333],[5.297677,51.40737],[5.297582,51.407423],[5.297571,51.407429],[5.297421,51.407507],[5.29742,51.407508],[5.297397,51.407518],[5.29722,51.407591],[5.296861,51.407671],[5.296582,51.40773],[5.296487,51.407742],[5.296306,51.40775],[5.296254,51.407752],[5.296116,51.407729],[5.295867,51.407626],[5.295524,51.407472],[5.295404,51.407414],[5.295139,51.407282],[5.294772,51.407095],[5.294652,51.407035],[5.294408,51.406894],[5.294304,51.406825],[5.294275,51.406791],[5.293958,51.406487],[5.293786,51.406328],[5.293637,51.406214],[5.293588,51.40618],[5.293529,51.406154],[5.293202,51.40604],[5.293179,51.406032],[5.293125,51.406012],[5.293023,51.405967],[5.292986,51.405939],[5.292793,51.405784],[5.292637,51.405661],[5.292578,51.40562],[5.292458,51.405543],[5.292324,51.405451],[5.291878,51.405025],[5.291698,51.404854],[5.291658,51.404821],[5.291593,51.404801],[5.291474,51.404759],[5.291389,51.404698],[5.291279,51.404612],[5.291267,51.404604],[5.291171,51.40454],[5.291121,51.404513],[5.291087,51.404494],[5.291026,51.404459],[5.290978,51.404434],[5.290824,51.404378],[5.290737,51.404346],[5.290616,51.404306],[5.290582,51.404249],[5.290579,51.404245],[5.290557,51.404221],[5.290538,51.404208],[5.290437,51.404165],[5.29033,51.404126],[5.290149,51.404081],[5.289737,51.404047],[5.28971,51.404042],[5.289618,51.404024],[5.289388,51.404021],[5.289325,51.404029],[5.288876,51.404122],[5.288821,51.404127],[5.288751,51.404127],[5.288583,51.40412],[5.288515,51.40412],[5.288259,51.404174],[5.288196,51.40421],[5.288182,51.404239],[5.288176,51.404261],[5.288172,51.404269],[5.288157,51.404309],[5.288135,51.404323],[5.288082,51.40435],[5.28802,51.404356],[5.287959,51.404352],[5.287852,51.404337],[5.287846,51.404337],[5.287794,51.404334],[5.287748,51.40434],[5.287689,51.404364],[5.287649,51.404386],[5.2876,51.404403],[5.287287,51.404523],[5.287181,51.40455],[5.287016,51.40459],[5.28699,51.4046],[5.286964,51.40461],[5.286762,51.404694],[5.286618,51.404751],[5.2866,51.404755],[5.286526,51.404773],[5.286454,51.404783],[5.286394,51.404785],[5.286344,51.404788],[5.286155,51.404793],[5.286029,51.404784],[5.285959,51.404772],[5.285846,51.404743],[5.28575,51.404716],[5.285508,51.404638],[5.285397,51.404599],[5.285289,51.404561],[5.285055,51.404475],[5.284944,51.404448],[5.284823,51.404419],[5.284752,51.404431],[5.284577,51.404598],[5.284519,51.404653],[5.284486,51.404685],[5.284407,51.404712],[5.28395,51.404705],[5.283842,51.404703],[5.283718,51.404738],[5.283575,51.404826],[5.283487,51.404878],[5.283484,51.404879],[5.28345,51.4049],[5.283395,51.40492],[5.283347,51.404931],[5.283307,51.404929],[5.283267,51.404923],[5.283264,51.404921],[5.283241,51.404909],[5.283217,51.404897],[5.283188,51.404882],[5.283082,51.404835],[5.283054,51.404823],[5.282921,51.404765],[5.282697,51.404668],[5.282507,51.404596],[5.282426,51.404565],[5.282163,51.404467],[5.282144,51.40446],[5.282007,51.40441],[5.282007,51.404409],[5.281898,51.40437],[5.281879,51.404418],[5.281848,51.404467],[5.281798,51.404533],[5.281747,51.404594],[5.281745,51.404595],[5.28169,51.404652],[5.281629,51.404716],[5.281593,51.404758],[5.281459,51.404949],[5.281416,51.40501],[5.281362,51.405124],[5.280839,51.4057],[5.280735,51.405805],[5.280686,51.405882],[5.280395,51.406256],[5.280198,51.406508],[5.280146,51.406554],[5.280087,51.406607],[5.2799,51.406824],[5.279757,51.407001],[5.2797,51.407077],[5.279655,51.407155],[5.279589,51.407271],[5.279567,51.407299],[5.279515,51.407381],[5.27949,51.407419],[5.27945,51.407486],[5.279345,51.407659],[5.279222,51.40786],[5.279093,51.408004],[5.27903,51.408077],[5.279008,51.408114],[5.278962,51.408196],[5.278855,51.408341],[5.278778,51.408328],[5.278706,51.408406],[5.278656,51.408458],[5.27864,51.408475],[5.278387,51.40865],[5.278341,51.408674],[5.278219,51.408729],[5.27791,51.408834],[5.277168,51.409086],[5.276393,51.409348],[5.276156,51.409357],[5.275243,51.409388],[5.274483,51.409415],[5.274251,51.409423],[5.272904,51.40947],[5.272216,51.409843],[5.270905,51.410555],[5.270685,51.410674],[5.269082,51.411544],[5.268763,51.411717],[5.265351,51.413568],[5.262834,51.414934],[5.259415,51.416789],[5.259407,51.416792],[5.25782,51.417653],[5.257082,51.418054],[5.257018,51.418089],[5.256961,51.418119],[5.256034,51.418622],[5.255767,51.418767],[5.255494,51.418915],[5.255338,51.418999],[5.254149,51.419644],[5.253908,51.419775],[5.251322,51.421177],[5.248902,51.422489],[5.248811,51.422539],[5.248776,51.422558],[5.249447,51.422954],[5.244783,51.426254],[5.24342,51.425504],[5.243381,51.425483],[5.243355,51.425496],[5.241253,51.426636],[5.241185,51.426673],[5.240539,51.427023],[5.239181,51.427759],[5.237705,51.428559]]]},"properties":{"type":"boundary","gemeente":"Eersel"}}]}