{"type":"FeatureCollection","metadata":{"gemeente":"Gilze en Rijen","slug":"gilze-en-rijen","generated_at":"2026-09-28T08:19:27.437444Z","total_points":29,"providers":["Amazon","DHL","DPD","PostNL","VintedGo","GLS","ViaTim","FedEx","InPost"],"bounds":[4.9118409,51.543998,4.94937519114875,51.5896403758025]},"features":[{"type":"Feature","geometry":{"type":"Point","coordinates":[4.94937519114875,51.5451676404459]},"properties":{"type":"pakketpunt","locatieNaam":"Goldlight verlichting","straatNaam":"Burgemeester Krollaan 7","straatNr":"","vervoerder":"Amazon","puntType":"3p","bezettingsgraad":50,"latitude":51.5451676404459,"longitude":4.94937519114875,"canPickup":true,"canDropoff":false,"openingstijden":null}},{"type":"Feature","geometry":{"type":"Point","coordinates":[4.91902027083643,51.5880070999904]},"properties":{"type":"pakketpunt","locatieNaam":"Phone House Rijen","straatNaam":"Wilhelminaplein 30","straatNr":"","vervoerder":"Amazon","puntType":"3p","bezettingsgraad":50,"latitude":51.5880070999904,"longitude":4.91902027083643,"canPickup":true,"canDropoff":false,"openingstijden":null}},{"type":"Feature","geometry":{"type":"Point","coordinates":[4.918607809,51.58882342]},"properties":{"type":"pakketpunt","locatieNaam":"Refuro","straatNaam":"Hoofdstraat 7 A","straatNr":"","vervoerder":"Amazon","puntType":"3p","bezettingsgraad":50,"latitude":51.58882342,"longitude":4.918607809,"canPickup":true,"canDropoff":false,"openingstijden":null}},{"type":"Feature","geometry":{"type":"Point","coordinates":[4.9416505,51.5440887]},"properties":{"type":"pakketpunt","locatieNaam":"DA ReadShop Thuis bij Hapers","straatNaam":"Nieuwstraat","straatNr":"30","vervoerder":"DHL","puntType":"parcelShop","bezettingsgraad":50,"latitude":51.5440887,"longitude":4.9416505,"canPickup":true,"canDropoff":true,"openingstijden":{"ma":"09:00 - 18:00","di":"09:00 - 18:00","wo":"09:00 - 18:00","do":"09:00 - 18:00","vr":"09:00 - 18:00","za":"09:00 - 17:00","zo":"gesloten"}}},{"type":"Feature","geometry":{"type":"Point","coordinates":[4.9289521,51.5795961]},"properties":{"type":"pakketpunt","locatieNaam":"DHL Pakketpunt Rijen","straatNaam":"Haansbergseweg","straatNr":"14","vervoerder":"DHL","puntType":"parcelShop","bezettingsgraad":50,"latitude":51.5795961,"longitude":4.9289521,"canPickup":true,"canDropoff":true,"openingstijden":{"ma":"11:00 - 19:00","di":"11:00 - 19:00","wo":"11:00 - 19:00","do":"11:00 - 19:00","vr":"11:00 - 19:00","za":"11:00 - 17:00","zo":"gesloten"}}},{"type":"Feature","geometry":{"type":"Point","coordinates":[4.927959878081018,51.584751649715116]},"properties":{"type":"pakketpunt","locatieNaam":"Pakketautomaat Praxis Rijen","straatNaam":"Mary Zeldenrustlaan","straatNr":"20","vervoerder":"DHL","puntType":"packStation","bezettingsgraad":50,"latitude":51.584751649715116,"longitude":4.927959878081018,"canPickup":true,"canDropoff":true,"openingstijden":{"ma":"00:00 - 23:59","di":"00:00 - 23:59","wo":"00:00 - 23:59","do":"00:00 - 23:59","vr":"00:00 - 23:59","za":"00:00 - 23:59","zo":"00:00 - 23:59"}}},{"type":"Feature","geometry":{"type":"Point","coordinates":[4.920607,51.587721]},"properties":{"type":"pakketpunt","locatieNaam":"Pakketautomaat Lidl Rijen","straatNaam":"A.Vlaminckxplein","straatNr":"3","vervoerder":"DHL","puntType":"packStation","bezettingsgraad":50,"latitude":51.587721,"longitude":4.920607,"canPickup":true,"canDropoff":true,"openingstijden":{"ma":"08:00 - 21:00","di":"08:00 - 21:00","wo":"08:00 - 21:00","do":"08:00 - 21:00","vr":"08:00 - 21:00","za":"08:00 - 21:00","zo":"08:00 - 20:00"}}},{"type":"Feature","geometry":{"type":"Point","coordinates":[4.9184474,51.5882886]},"properties":{"type":"pakketpunt","locatieNaam":"Shoeby Rijen","straatNaam":"Wilhelminaplein","straatNr":"22","vervoerder":"DHL","puntType":"parcelShop","bezettingsgraad":50,"latitude":51.5882886,"longitude":4.9184474,"canPickup":true,"canDropoff":true,"openingstijden":{"ma":"13:00 - 18:00","di":"09:30 - 18:00","wo":"09:30 - 18:00","do":"09:30 - 18:00","vr":"09:30 - 18:00","za":"09:30 - 17:00","zo":"gesloten"}}},{"type":"Feature","geometry":{"type":"Point","coordinates":[4.92011,51.58741]},"properties":{"type":"pakketpunt","locatieNaam":"Dierenspeciaalzaak Rijen","straatNaam":"STATIONSTRAAT","straatNr":"75","vervoerder":"DPD","puntType":"pickup_point","bezettingsgraad":50,"latitude":51.58741,"longitude":4.92011,"canPickup":true,"canDropoff":true,"openingstijden":{"ma":"13:00 - 18:00","di":"09:00 - 18:00","wo":"09:00 - 18:00","do":"09:00 - 18:00","vr":"09:00 - 18:00","za":"09:00 - 17:00","zo":"gesloten"}}},{"type":"Feature","geometry":{"type":"Point","coordinates":[4.942854,51.5485289]},"properties":{"type":"pakketpunt","locatieNaam":"Hier in Gilze","straatNaam":"NIEUWSTRAAT","straatNr":"116a","vervoerder":"DPD","puntType":"pickup_point","bezettingsgraad":50,"latitude":51.5485289,"longitude":4.942854,"canPickup":true,"canDropoff":true,"openingstijden":{"ma":"gesloten","di":"09:00 - 17:00","wo":"09:00 - 17:00","do":"09:00 - 17:00","vr":"09:00 - 17:00","za":"09:00 - 17:00","zo":"gesloten"}}},{"type":"Feature","geometry":{"type":"Point","coordinates":[4.91902027083643,51.5880070999904]},"properties":{"type":"pakketpunt","locatieNaam":"Phone House Rijen","straatNaam":"Wilhelminaplein","straatNr":"30","vervoerder":"PostNL","puntType":"servicepunt","bezettingsgraad":50,"latitude":51.5880070999904,"longitude":4.91902027083643,"canPickup":true,"canDropoff":true,"openingstijden":null}},{"type":"Feature","geometry":{"type":"Point","coordinates":[4.918583591,51.58837389]},"properties":{"type":"pakketpunt","locatieNaam":"Bruna Rijen","straatNaam":"Wilhelminaplein","straatNr":"6","vervoerder":"PostNL","puntType":"servicepunt","bezettingsgraad":50,"latitude":51.58837389,"longitude":4.918583591,"canPickup":true,"canDropoff":true,"openingstijden":"09:00 - 18:00"}},{"type":"Feature","geometry":{"type":"Point","coordinates":[4.918607809,51.58882342]},"properties":{"type":"pakketpunt","locatieNaam":"Refuro","straatNaam":"Hoofdstraat","straatNr":"7A","vervoerder":"PostNL","puntType":"servicepunt","bezettingsgraad":50,"latitude":51.58882342,"longitude":4.918607809,"canPickup":true,"canDropoff":true,"openingstijden":"12:00 - 17:30 (Zaterdag open)"}},{"type":"Feature","geometry":{"type":"Point","coordinates":[4.91835405930051,51.5896403758025]},"properties":{"type":"pakketpunt","locatieNaam":"Polski Market Rijen","straatNaam":"Hoofdstraat","straatNr":"21","vervoerder":"PostNL","puntType":"servicepunt","bezettingsgraad":50,"latitude":51.5896403758025,"longitude":4.91835405930051,"canPickup":true,"canDropoff":true,"openingstijden":"13:00 - 21:00"}},{"type":"Feature","geometry":{"type":"Point","coordinates":[4.941724827,51.54469829]},"properties":{"type":"pakketpunt","locatieNaam":"Bakkerij Vromans Gilze BV","straatNaam":"Nieuwstraat","straatNr":"44","vervoerder":"PostNL","puntType":"servicepunt","bezettingsgraad":50,"latitude":51.54469829,"longitude":4.941724827,"canPickup":true,"canDropoff":true,"openingstijden":null}},{"type":"Feature","geometry":{"type":"Point","coordinates":[4.94937519114875,51.5451676404459]},"properties":{"type":"pakketpunt","locatieNaam":"Goldlight verlichting","straatNaam":"Burgemeester Krollaan","straatNr":"7","vervoerder":"PostNL","puntType":"servicepunt","bezettingsgraad":50,"latitude":51.5451676404459,"longitude":4.94937519114875,"canPickup":true,"canDropoff":true,"openingstijden":"08:00 - 17:00"}},{"type":"Feature","geometry":{"type":"Point","coordinates":[4.9419166,51.5485823]},"properties":{"type":"pakketpunt","locatieNaam":"DA-Readshop-Thuis bij Hapers","straatNaam":"Nieuwstraat 30","straatNr":"","vervoerder":"VintedGo","puntType":"parcel_shop","bezettingsgraad":50,"latitude":51.5485823,"longitude":4.9419166,"canPickup":true,"canDropoff":true,"openingstijden":null}},{"type":"Feature","geometry":{"type":"Point","coordinates":[4.94263,51.54656]},"properties":{"type":"pakketpunt","locatieNaam":"Broenen Top 1 Toys","straatNaam":"Nieuwstraat 74","straatNr":"","vervoerder":"VintedGo","puntType":"parcel_shop","bezettingsgraad":50,"latitude":51.54656,"longitude":4.94263,"canPickup":true,"canDropoff":true,"openingstijden":null}},{"type":"Feature","geometry":{"type":"Point","coordinates":[4.9118409,51.5894974]},"properties":{"type":"pakketpunt","locatieNaam":"Lekkernijen Bakkerij","straatNaam":"Raadhuisplein 10","straatNr":"","vervoerder":"VintedGo","puntType":"parcel_shop","bezettingsgraad":50,"latitude":51.5894974,"longitude":4.9118409,"canPickup":true,"canDropoff":true,"openingstijden":null}},{"type":"Feature","geometry":{"type":"Point","coordinates":[4.9429666,51.5485443]},"properties":{"type":"pakketpunt","locatieNaam":"Hier In Gilze","straatNaam":"Nieuwstraat 116A","straatNr":"","vervoerder":"VintedGo","puntType":"parcel_shop","bezettingsgraad":50,"latitude":51.5485443,"longitude":4.9429666,"canPickup":true,"canDropoff":true,"openingstijden":null}},{"type":"Feature","geometry":{"type":"Point","coordinates":[4.9289521,51.5795961]},"properties":{"type":"pakketpunt","locatieNaam":"K&r Pakket Service","straatNaam":"Haansbergseweg 14","straatNr":"","vervoerder":"VintedGo","puntType":"parcel_shop","bezettingsgraad":50,"latitude":51.5795961,"longitude":4.9289521,"canPickup":true,"canDropoff":true,"openingstijden":null}},{"type":"Feature","geometry":{"type":"Point","coordinates":[4.9187492,51.5888601]},"properties":{"type":"pakketpunt","locatieNaam":"Refuro","straatNaam":"Hoofdstraat 7A","straatNr":"","vervoerder":"VintedGo","puntType":"parcel_shop","bezettingsgraad":50,"latitude":51.5888601,"longitude":4.9187492,"canPickup":true,"canDropoff":true,"openingstijden":null}},{"type":"Feature","geometry":{"type":"Point","coordinates":[4.9413545,51.543998]},"properties":{"type":"pakketpunt","locatieNaam":"DA-The Read Shop-Thuis bij Hapers","straatNaam":"Nieuwstraat","straatNr":"30","vervoerder":"GLS","puntType":"parcel_shop","bezettingsgraad":50,"latitude":51.543998,"longitude":4.9413545,"canPickup":true,"canDropoff":true,"openingstijden":{"ma":"09:00 - 18:00","di":"09:00 - 18:00","wo":"09:00 - 18:00","do":"09:00 - 18:00","vr":"09:00 - 18:00","za":"09:00 - 17:00","zo":"00:00 - 00:00"}}},{"type":"Feature","geometry":{"type":"Point","coordinates":[4.9201357,51.5873486]},"properties":{"type":"pakketpunt","locatieNaam":"Dierenspeciaalzaak Rijen","straatNaam":"Stationsstraat","straatNr":"75","vervoerder":"GLS","puntType":"parcel_shop","bezettingsgraad":50,"latitude":51.5873486,"longitude":4.9201357,"canPickup":true,"canDropoff":true,"openingstijden":{"ma":"13:00 - 18:00","di":"09:00 - 18:00","wo":"09:00 - 18:00","do":"09:00 - 18:00","vr":"09:00 - 18:00","za":"09:00 - 17:00","zo":"00:00 - 00:00"}}},{"type":"Feature","geometry":{"type":"Point","coordinates":[4.92951481,51.57974582]},"properties":{"type":"pakketpunt","locatieNaam":"ViaTim en K & R Pakketservice ","straatNaam":"Haansbergseweg","straatNr":"14","vervoerder":"ViaTim","puntType":"servicepunt","bezettingsgraad":50,"latitude":51.57974582,"longitude":4.92951481,"canPickup":true,"canDropoff":true,"openingstijden":{"ma":"11:00 - 19:00","di":"11:00 - 19:00","wo":"11:00 - 19:00","do":"11:00 - 19:00","vr":"11:00 - 19:00","za":"11:00 - 17:00","zo":"gesloten"}}},{"type":"Feature","geometry":{"type":"Point","coordinates":[4.941309,51.545688]},"properties":{"type":"pakketpunt","locatieNaam":"FedEx OnSite","straatNaam":"NIEUWSTRAAT 49","straatNr":"","vervoerder":"FedEx","puntType":"servicepunt","bezettingsgraad":50,"latitude":51.545688,"longitude":4.941309,"canPickup":true,"canDropoff":true,"openingstijden":{"ma":"08:30 - 18:00","di":"08:30 - 18:00","wo":"08:30 - 18:00","do":"08:30 - 18:00","vr":"08:30 - 20:00","za":"08:30 - 17:00","zo":"gesloten"}}},{"type":"Feature","geometry":{"type":"Point","coordinates":[4.914951440053761,51.58940353550361]},"properties":{"type":"pakketpunt","locatieNaam":"FedEx Ship&Get","straatNaam":"Pastoor Gillisstraat 50","straatNr":"","vervoerder":"FedEx","puntType":"servicepunt","bezettingsgraad":50,"latitude":51.58940353550361,"longitude":4.914951440053761,"canPickup":true,"canDropoff":true,"openingstijden":{"ma":"gesloten","di":"gesloten","wo":"gesloten","do":"gesloten","vr":"gesloten","za":"gesloten","zo":"gesloten"}}},{"type":"Feature","geometry":{"type":"Point","coordinates":[4.94131,51.54569]},"properties":{"type":"pakketpunt","locatieNaam":"BLOEMSIERKUNST DE ROOZELAAR","straatNaam":"Nieuwstraat 49","straatNr":"","vervoerder":"InPost","puntType":"servicepunt","bezettingsgraad":50,"latitude":51.54569,"longitude":4.94131,"canPickup":true,"canDropoff":true,"openingstijden":null}},{"type":"Feature","geometry":{"type":"Point","coordinates":[4.94297,51.54854]},"properties":{"type":"pakketpunt","locatieNaam":"HIER IN GILZE","straatNaam":"Nieuwstraat 116A","straatNr":"","vervoerder":"InPost","puntType":"servicepunt","bezettingsgraad":50,"latitude":51.54854,"longitude":4.94297,"canPickup":true,"canDropoff":true,"openingstijden":null}},{"type":"Feature","geometry":{"type":"Polygon","coordinates":[[[4.829766,51.527859],[4.82976,51.527868],[4.829671,51.52789],[4.829577,51.527936],[4.829426,51.528064],[4.82939,51.528144],[4.829391,51.528209],[4.829447,51.528221],[4.82957,51.528197],[4.82965,51.528193],[4.829679,51.528197],[4.829707,51.528218],[4.829708,51.528244],[4.829653,51.528363],[4.829607,51.528401],[4.829479,51.528436],[4.829446,51.528466],[4.829396,51.528622],[4.829393,51.528706],[4.829553,51.528923],[4.829527,51.528938],[4.829316,51.528952],[4.829268,51.528965],[4.829201,51.529],[4.829145,51.52905],[4.829104,51.529065],[4.829085,51.5291],[4.829123,51.529126],[4.82923,51.529159],[4.829269,51.529218],[4.829289,51.529287],[4.829288,51.529379],[4.82926,51.52941],[4.829231,51.529418],[4.829111,51.529424],[4.829113,51.52944],[4.8292,51.529506],[4.829231,51.529645],[4.829261,51.529689],[4.8293,51.529701],[4.829546,51.529634],[4.829682,51.529558],[4.83068,51.529387],[4.830846,51.529387],[4.831325,51.529473],[4.832232,51.52989],[4.832267,51.529972],[4.832321,51.530036],[4.832477,51.530132],[4.832486,51.530165],[4.832428,51.530304],[4.832386,51.530345],[4.832305,51.530473],[4.832302,51.530514],[4.832334,51.530604],[4.832462,51.530756],[4.832739,51.53099],[4.832839,51.531152],[4.832876,51.531189],[4.833103,51.53128],[4.833354,51.531329],[4.834838,51.531132],[4.834955,51.531172],[4.835113,51.531292],[4.83547,51.53142],[4.835704,51.531527],[4.836038,51.531765],[4.836214,51.531943],[4.836501,51.532438],[4.836696,51.532639],[4.836795,51.532771],[4.836807,51.532807],[4.836783,51.532838],[4.836561,51.53302],[4.836444,51.533204],[4.836441,51.533229],[4.836446,51.533278],[4.836526,51.533455],[4.836663,51.533715],[4.836716,51.53392],[4.836814,51.534197],[4.836816,51.53424],[4.83676,51.53428],[4.836113,51.534466],[4.835905,51.534546],[4.835618,51.534676],[4.835223,51.5349],[4.834617,51.535148],[4.834703,51.535434],[4.834403,51.537937],[4.83441,51.538115],[4.835089,51.538085],[4.835092,51.538183],[4.835028,51.538541],[4.835017,51.538585],[4.834992,51.538608],[4.834958,51.53862],[4.834744,51.538615],[4.834606,51.5386],[4.835375,51.538903],[4.838665,51.540238],[4.841084,51.540595],[4.841323,51.540643],[4.841286,51.540717],[4.848469,51.543019],[4.851819,51.544684],[4.851972,51.544774],[4.852706,51.545212],[4.852713,51.545217],[4.85357,51.545723],[4.8538,51.545859],[4.85441,51.546219],[4.854449,51.546243],[4.856195,51.547285],[4.856313,51.547355],[4.857319,51.547953],[4.857433,51.548021],[4.857862,51.548276],[4.857922,51.548311],[4.857926,51.548314],[4.858488,51.548646],[4.859725,51.549379],[4.860362,51.549756],[4.860363,51.549756],[4.861345,51.550346],[4.861387,51.550371],[4.861958,51.550714],[4.861981,51.550728],[4.862018,51.55075],[4.862586,51.55109],[4.863746,51.551784],[4.864005,51.551939],[4.864035,51.551947],[4.864041,51.551948],[4.864201,51.552042],[4.864261,51.55202],[4.864271,51.552064],[4.86437,51.552488],[4.864373,51.552643],[4.864375,51.552721],[4.864457,51.552837],[4.864515,51.553433],[4.864545,51.553503],[4.864256,51.554192],[4.863019,51.557184],[4.863013,51.557199],[4.862985,51.55727],[4.862902,51.557921],[4.862899,51.557992],[4.862899,51.557997],[4.862904,51.558039],[4.86291,51.558056],[4.862952,51.558108],[4.862991,51.558149],[4.863136,51.558276],[4.863499,51.558591],[4.86352,51.558583],[4.863741,51.558769],[4.86376,51.558795],[4.863779,51.558821],[4.864087,51.559315],[4.864124,51.55935],[4.864151,51.559403],[4.865949,51.559096],[4.867311,51.558865],[4.867485,51.559462],[4.867884,51.559692],[4.868057,51.559795],[4.868278,51.559926],[4.868664,51.560795],[4.868667,51.5608],[4.868713,51.560956],[4.869019,51.561961],[4.868807,51.561961],[4.868801,51.561992],[4.868708,51.562465],[4.868597,51.562931],[4.86856,51.563066],[4.86835,51.563412],[4.868297,51.563499],[4.868215,51.563606],[4.868011,51.563855],[4.867931,51.563951],[4.86769,51.564194],[4.867553,51.564343],[4.86751,51.564388],[4.867457,51.56481],[4.86745,51.564935],[4.867998,51.56501],[4.869005,51.565148],[4.869005,51.565165],[4.868887,51.566052],[4.868451,51.566868],[4.869105,51.566762],[4.869242,51.566736],[4.869457,51.566691],[4.86965,51.566641],[4.869718,51.566786],[4.869723,51.566798],[4.870296,51.566854],[4.870965,51.566938],[4.87112,51.566956],[4.871362,51.566964],[4.87143,51.566977],[4.871508,51.567001],[4.8716,51.56703],[4.871672,51.567066],[4.871685,51.56711],[4.87167,51.567157],[4.871515,51.567527],[4.871354,51.567896],[4.871189,51.568271],[4.870805,51.569163],[4.870652,51.569522],[4.870535,51.569792],[4.870496,51.569884],[4.870145,51.570693],[4.870106,51.570776],[4.870085,51.570819],[4.869982,51.570716],[4.869939,51.570675],[4.869915,51.570665],[4.869823,51.570676],[4.868702,51.570982],[4.867927,51.571199],[4.866674,51.571548],[4.866085,51.571709],[4.865761,51.571912],[4.865295,51.572194],[4.865327,51.57286],[4.86537,51.572917],[4.86599,51.57373],[4.866428,51.574268],[4.866766,51.574683],[4.865413,51.574571],[4.86538,51.574568],[4.864588,51.57768],[4.864548,51.57782],[4.864321,51.578753],[4.864239,51.579089],[4.865628,51.578796],[4.866942,51.578513],[4.86704,51.578495],[4.867304,51.578467],[4.867416,51.578455],[4.86764,51.578445],[4.867727,51.578442],[4.86784,51.578446],[4.86874,51.578471],[4.868922,51.578475],[4.869001,51.578469],[4.869171,51.578442],[4.869181,51.578466],[4.869252,51.57865],[4.869281,51.578725],[4.869269,51.578792],[4.867889,51.580905],[4.867949,51.580895],[4.868017,51.581043],[4.86804,51.581093],[4.868876,51.581014],[4.868881,51.581013],[4.868966,51.581002],[4.869943,51.581377],[4.871032,51.581791],[4.871722,51.582051],[4.871834,51.582093],[4.872565,51.582368],[4.874144,51.582964],[4.875187,51.583355],[4.876398,51.583811],[4.876499,51.583849],[4.877154,51.584098],[4.878177,51.584487],[4.878788,51.584718],[4.879353,51.584932],[4.879439,51.584964],[4.880248,51.585285],[4.880788,51.585488],[4.8812,51.585644],[4.881348,51.5857],[4.881699,51.585833],[4.882344,51.586073],[4.882472,51.586121],[4.882773,51.586234],[4.884232,51.586779],[4.884358,51.586826],[4.88446,51.586864],[4.885662,51.587317],[4.885664,51.587317],[4.885667,51.587318],[4.885804,51.58737],[4.885805,51.58737],[4.88612,51.587489],[4.886122,51.58749],[4.886245,51.587536],[4.887301,51.587936],[4.888004,51.5882],[4.888122,51.588245],[4.889508,51.588767],[4.88958,51.588797],[4.889621,51.588811],[4.89001,51.588951],[4.890038,51.588962],[4.89007,51.588973],[4.890402,51.589092],[4.890424,51.5891],[4.890444,51.589107],[4.89048,51.58912],[4.890512,51.589132],[4.890637,51.589193],[4.890663,51.589202],[4.891573,51.589545],[4.892244,51.589797],[4.89364,51.59032],[4.895453,51.591],[4.896098,51.591243],[4.896423,51.591365],[4.896565,51.591418],[4.898113,51.592],[4.899712,51.592602],[4.900133,51.592748],[4.907607,51.595621],[4.907719,51.595664],[4.907747,51.595633],[4.908175,51.595808],[4.908603,51.595982],[4.909941,51.596525],[4.909944,51.596527],[4.911562,51.597184],[4.912662,51.597631],[4.913061,51.597794],[4.913198,51.597849],[4.913646,51.598031],[4.913786,51.59809],[4.91371,51.59816],[4.913528,51.598327],[4.91352,51.598334],[4.913291,51.598545],[4.913066,51.598752],[4.913002,51.598811],[4.912121,51.599621],[4.911635,51.600067],[4.912338,51.600296],[4.912366,51.600266],[4.913113,51.600397],[4.913132,51.600378],[4.913275,51.600234],[4.913556,51.599952],[4.913562,51.599947],[4.913775,51.599707],[4.91502,51.599862],[4.916269,51.600016],[4.916256,51.600296],[4.916241,51.600623],[4.916243,51.600672],[4.916245,51.600701],[4.916249,51.600728],[4.916279,51.600776],[4.916392,51.600842],[4.916464,51.600882],[4.916565,51.600932],[4.916754,51.601027],[4.917077,51.601177],[4.917121,51.601198],[4.917457,51.60134],[4.917488,51.601342],[4.918152,51.601377],[4.918292,51.601374],[4.918496,51.601368],[4.918499,51.601367],[4.918526,51.60145],[4.918557,51.601449],[4.918573,51.601558],[4.918579,51.601588],[4.918617,51.601771],[4.918615,51.60183],[4.918611,51.60183],[4.91861,51.601856],[4.918598,51.601856],[4.918615,51.602622],[4.918617,51.602824],[4.918617,51.602874],[4.918632,51.602873],[4.918634,51.602947],[4.918614,51.602948],[4.918608,51.60306],[4.918605,51.603334],[4.918597,51.60354],[4.918588,51.603682],[4.918587,51.603693],[4.918573,51.603881],[4.918543,51.604148],[4.918529,51.60425],[4.918526,51.604307],[4.918506,51.604433],[4.918428,51.604819],[4.918406,51.604913],[4.918405,51.604916],[4.918374,51.60502],[4.918318,51.605206],[4.918294,51.605275],[4.918265,51.605349],[4.918175,51.60561],[4.918073,51.605928],[4.918055,51.605976],[4.91785,51.606528],[4.917882,51.606543],[4.917808,51.606723],[4.917774,51.606866],[4.917758,51.606941],[4.917724,51.607158],[4.917682,51.607424],[4.917668,51.607525],[4.917583,51.608078],[4.917492,51.608423],[4.917443,51.608541],[4.917424,51.608575],[4.917404,51.608616],[4.917357,51.60871],[4.917096,51.609128],[4.916557,51.609959],[4.916494,51.610056],[4.91646,51.610099],[4.916194,51.610456],[4.91594,51.610799],[4.915534,51.611345],[4.915331,51.611624],[4.915184,51.611786],[4.914952,51.612041],[4.914645,51.612334],[4.914559,51.612347],[4.913917,51.613056],[4.913548,51.613459],[4.913508,51.613508],[4.913467,51.61356],[4.913488,51.613571],[4.913213,51.613876],[4.912866,51.614263],[4.91256,51.61461],[4.91223,51.614988],[4.911882,51.615399],[4.911963,51.615411],[4.912019,51.615419],[4.912073,51.615427],[4.912312,51.615461],[4.913412,51.61562],[4.918081,51.616295],[4.91812,51.616275],[4.918802,51.615931],[4.919228,51.615773],[4.919698,51.615602],[4.920393,51.615348],[4.921323,51.615005],[4.921476,51.614949],[4.92245,51.614593],[4.922742,51.614486],[4.922814,51.61446],[4.923547,51.614192],[4.923765,51.614111],[4.923981,51.614032],[4.924436,51.61386],[4.924962,51.61365],[4.925183,51.613589],[4.925516,51.613497],[4.925753,51.613433],[4.926285,51.613278],[4.926438,51.613234],[4.926665,51.613179],[4.926859,51.613138],[4.926979,51.613113],[4.92724,51.61307],[4.927519,51.613021],[4.927835,51.612982],[4.928127,51.612974],[4.92903,51.612818],[4.92958,51.612723],[4.930494,51.612566],[4.930828,51.612509],[4.931547,51.612384],[4.932152,51.612279],[4.932327,51.612249],[4.932364,51.612243],[4.932488,51.612221],[4.932542,51.612212],[4.932707,51.612185],[4.93335,51.612078],[4.935332,51.611737],[4.935547,51.611701],[4.936543,51.611529],[4.936763,51.611491],[4.937314,51.611397],[4.937041,51.611021],[4.937817,51.610888],[4.937828,51.610886],[4.939037,51.610551],[4.939663,51.610378],[4.940312,51.610198],[4.941504,51.610137],[4.943591,51.610029],[4.943717,51.610541],[4.943879,51.611203],[4.943906,51.611313],[4.943945,51.611471],[4.94442,51.611389],[4.945288,51.611245],[4.945848,51.611153],[4.946572,51.6111],[4.947271,51.611106],[4.947613,51.611123],[4.947789,51.611159],[4.947846,51.61117],[4.948267,51.610886],[4.94829,51.610871],[4.948311,51.610856],[4.948403,51.61079],[4.948449,51.610761],[4.948491,51.610694],[4.948534,51.610591],[4.948546,51.61056],[4.948557,51.61053],[4.948576,51.610504],[4.948605,51.610475],[4.948654,51.610442],[4.948698,51.61042],[4.948808,51.610377],[4.953664,51.608704],[4.954117,51.608552],[4.958506,51.607065],[4.958515,51.607064],[4.958509,51.607042],[4.958996,51.606887],[4.959413,51.606754],[4.960048,51.606538],[4.960693,51.606333],[4.96099,51.60624],[4.961165,51.606178],[4.961315,51.606113],[4.961367,51.60609],[4.961757,51.605917],[4.961885,51.605853],[4.961946,51.605823],[4.961976,51.605806],[4.962643,51.605475],[4.963328,51.605135],[4.964336,51.604631],[4.964497,51.604547],[4.965244,51.604172],[4.965991,51.603799],[4.966213,51.603689],[4.966916,51.60334],[4.967253,51.603173],[4.967412,51.603098],[4.967522,51.603046],[4.967673,51.602965],[4.967775,51.602905],[4.967844,51.602859],[4.967872,51.602835],[4.967924,51.602791],[4.967976,51.602754],[4.968172,51.602582],[4.968338,51.602425],[4.968612,51.602173],[4.968737,51.602058],[4.96866,51.601682],[4.96865,51.601645],[4.968622,51.601534],[4.968618,51.601517],[4.968481,51.600853],[4.968301,51.599973],[4.967989,51.598551],[4.967839,51.597862],[4.967808,51.597822],[4.967774,51.597685],[4.968244,51.59765],[4.968654,51.59762],[4.969062,51.597589],[4.969891,51.597528],[4.970785,51.597462],[4.971986,51.597371],[4.972547,51.597333],[4.97286,51.597306],[4.972874,51.597165],[4.972985,51.596113],[4.972991,51.596116],[4.973023,51.595831],[4.973106,51.595083],[4.973137,51.59484],[4.973172,51.594496],[4.973203,51.594161],[4.973343,51.592673],[4.973408,51.591982],[4.973275,51.591368],[4.972826,51.589311],[4.972732,51.588893],[4.972727,51.588847],[4.972718,51.588751],[4.972659,51.588176],[4.972589,51.5875],[4.972353,51.58521],[4.972319,51.585064],[4.972087,51.584068],[4.971997,51.583679],[4.971713,51.582455],[4.971544,51.58173],[4.971515,51.581602],[4.971316,51.581625],[4.971219,51.581212],[4.971027,51.5804],[4.970883,51.579789],[4.97074,51.57918],[4.970699,51.579009],[4.970494,51.578137],[4.97029,51.577273],[4.970275,51.577224],[4.969238,51.577375],[4.969175,51.577212],[4.969171,51.5772],[4.969154,51.577156],[4.968847,51.576704],[4.967776,51.57513],[4.967466,51.574674],[4.96678,51.573664],[4.966779,51.573662],[4.968051,51.573173],[4.967478,51.57233],[4.967752,51.57214],[4.967855,51.572056],[4.96875,51.571454],[4.968853,51.571399],[4.968896,51.57137],[4.96899,51.571305],[4.968946,51.571207],[4.968898,51.5711],[4.968825,51.570936],[4.968803,51.570887],[4.968488,51.570184],[4.968142,51.569414],[4.968028,51.569158],[4.968009,51.569116],[4.967832,51.568722],[4.966748,51.567862],[4.966736,51.567879],[4.966568,51.567828],[4.966722,51.56763],[4.966709,51.567625],[4.966715,51.567618],[4.966914,51.567364],[4.966954,51.567311],[4.966908,51.567241],[4.966872,51.567241],[4.96651,51.567226],[4.965595,51.567182],[4.965586,51.567182],[4.964496,51.565675],[4.964183,51.565243],[4.962152,51.564625],[4.959659,51.563862],[4.954558,51.5623],[4.954481,51.562277],[4.954419,51.562258],[4.954298,51.562248],[4.952152,51.561135],[4.951668,51.560884],[4.951525,51.560893],[4.951463,51.560897],[4.951145,51.560918],[4.951124,51.560802],[4.951075,51.56044],[4.951045,51.560071],[4.951043,51.559729],[4.951061,51.559357],[4.951126,51.558631],[4.95118,51.558048],[4.951307,51.557038],[4.951387,51.557025],[4.951565,51.556639],[4.951631,51.556494],[4.951888,51.556027],[4.952143,51.555565],[4.952292,51.555274],[4.95244,51.554958],[4.952828,51.553969],[4.952861,51.553889],[4.952931,51.553659],[4.952982,51.553413],[4.952975,51.553358],[4.952848,51.55292],[4.952766,51.552329],[4.952774,51.552328],[4.952744,51.552149],[4.952738,51.552112],[4.953104,51.552083],[4.952991,51.551566],[4.953611,51.551511],[4.953528,51.55112],[4.953449,51.550675],[4.953424,51.550532],[4.953479,51.550528],[4.953612,51.550518],[4.95373,51.55051],[4.953805,51.550504],[4.954413,51.550458],[4.954671,51.550448],[4.955161,51.550428],[4.955886,51.550419],[4.956798,51.550427],[4.956989,51.550413],[4.958295,51.550465],[4.959008,51.550408],[4.959594,51.55035],[4.95972,51.550337],[4.96043,51.550266],[4.96078,51.550232],[4.961139,51.550198],[4.961852,51.550128],[4.961934,51.55012],[4.962215,51.55009],[4.96256,51.550054],[4.963088,51.549998],[4.964085,51.549916],[4.964128,51.549912],[4.965118,51.549813],[4.965569,51.549754],[4.966437,51.549614],[4.96686,51.549539],[4.967339,51.549442],[4.96789,51.54933],[4.968205,51.549256],[4.968419,51.549202],[4.969065,51.54904],[4.969102,51.54903],[4.969236,51.548994],[4.9696,51.548896],[4.969787,51.548838],[4.97031,51.54868],[4.970529,51.548597],[4.970584,51.548578],[4.971262,51.548347],[4.971868,51.548123],[4.972459,51.547886],[4.972829,51.547727],[4.973039,51.547637],[4.973581,51.54739],[4.973609,51.547377],[4.97417,51.547107],[4.97472,51.546827],[4.975532,51.546402],[4.975658,51.546385],[4.975717,51.546398],[4.975835,51.546403],[4.976328,51.546128],[4.976497,51.546036],[4.976623,51.545952],[4.976606,51.545901],[4.976626,51.545856],[4.976637,51.545843],[4.977634,51.545282],[4.978537,51.544768],[4.978571,51.544734],[4.978618,51.54472],[4.978688,51.544689],[4.979565,51.544202],[4.979309,51.543981],[4.978418,51.543253],[4.978119,51.543008],[4.97809,51.54299],[4.978047,51.542971],[4.977982,51.542945],[4.977803,51.542884],[4.977498,51.542814],[4.977406,51.542784],[4.977282,51.542728],[4.977062,51.542622],[4.976819,51.542506],[4.976666,51.542418],[4.976423,51.542159],[4.976286,51.541906],[4.976285,51.541902],[4.976282,51.541897],[4.97602,51.541417],[4.975901,51.541168],[4.975737,51.540792],[4.975533,51.540289],[4.975467,51.540148],[4.97546,51.540133],[4.975427,51.540031],[4.975419,51.539997],[4.975398,51.539909],[4.974843,51.539879],[4.974752,51.539874],[4.974136,51.53984],[4.973776,51.539404],[4.973396,51.538947],[4.97233,51.537663],[4.971086,51.536155],[4.970407,51.535338],[4.969893,51.534719],[4.969329,51.534051],[4.96924,51.533946],[4.969151,51.53384],[4.968973,51.53363],[4.968677,51.533279],[4.968645,51.533241],[4.968446,51.533005],[4.967883,51.532318],[4.967415,51.531746],[4.966048,51.530092],[4.966029,51.530069],[4.966002,51.530034],[4.965996,51.530027],[4.96591,51.529922],[4.962686,51.526011],[4.962592,51.525897],[4.962578,51.52588],[4.962573,51.525864],[4.962272,51.525499],[4.961971,51.525133],[4.961642,51.524734],[4.961313,51.524334],[4.961195,51.524191],[4.961078,51.524048],[4.960823,51.523739],[4.960569,51.52343],[4.960254,51.523048],[4.95994,51.522666],[4.959596,51.522248],[4.959252,51.52183],[4.959189,51.521754],[4.959126,51.521677],[4.958957,51.521472],[4.958788,51.521267],[4.958355,51.520741],[4.957923,51.520215],[4.956713,51.51876],[4.956678,51.518718],[4.956644,51.518677],[4.956638,51.518676],[4.956633,51.518675],[4.956541,51.518658],[4.956448,51.518641],[4.956438,51.518639],[4.956427,51.518637],[4.956394,51.518631],[4.956361,51.518625],[4.956324,51.518618],[4.956286,51.518611],[4.955775,51.518515],[4.955263,51.518419],[4.955001,51.518369],[4.954738,51.51832],[4.95422,51.518223],[4.953702,51.518126],[4.953293,51.518049],[4.952884,51.517972],[4.952227,51.517849],[4.951571,51.517726],[4.951506,51.517713],[4.951441,51.517701],[4.950972,51.517613],[4.950503,51.517525],[4.950035,51.517436],[4.949567,51.517347],[4.949515,51.517337],[4.949464,51.517327],[4.94945,51.517325],[4.949437,51.517322],[4.947826,51.51702],[4.946214,51.516719],[4.944621,51.51642],[4.943027,51.516122],[4.943013,51.516119],[4.942999,51.516117],[4.942074,51.515942],[4.941149,51.515768],[4.940959,51.515732],[4.940768,51.515696],[4.940719,51.515687],[4.94067,51.515678],[4.940455,51.515639],[4.94024,51.5156],[4.940146,51.515582],[4.940052,51.515565],[4.939938,51.515544],[4.939824,51.515524],[4.938198,51.515227],[4.936572,51.51493],[4.936472,51.514902],[4.936373,51.514874],[4.936366,51.514873],[4.936359,51.514871],[4.935918,51.514788],[4.935478,51.514705],[4.935284,51.514669],[4.93509,51.514632],[4.935035,51.514622],[4.93498,51.514611],[4.933653,51.514361],[4.932326,51.514111],[4.932272,51.5141],[4.932218,51.51409],[4.931806,51.514012],[4.931354,51.513927],[4.931146,51.513888],[4.930938,51.513849],[4.930682,51.513801],[4.930425,51.513752],[4.930337,51.513735],[4.930248,51.513719],[4.929442,51.513566],[4.929183,51.513517],[4.928925,51.513468],[4.92831,51.513351],[4.927695,51.513235],[4.92558,51.512834],[4.923465,51.512433],[4.923248,51.512392],[4.922748,51.512297],[4.922159,51.512185],[4.920503,51.511871],[4.91986,51.51175],[4.919218,51.511628],[4.918882,51.511564],[4.918546,51.5115],[4.91767,51.511334],[4.916794,51.511168],[4.916427,51.511099],[4.915746,51.51097],[4.915065,51.51084],[4.914829,51.510796],[4.914594,51.510751],[4.913734,51.510588],[4.912875,51.510425],[4.912818,51.510414],[4.912762,51.510404],[4.911973,51.510254],[4.911185,51.510104],[4.911164,51.510101],[4.911143,51.510096],[4.911103,51.510089],[4.911063,51.510081],[4.909965,51.510769],[4.902524,51.515415],[4.891273,51.522339],[4.888909,51.523793],[4.887941,51.524421],[4.877486,51.531021],[4.876213,51.531717],[4.868973,51.53631],[4.866232,51.538067],[4.860633,51.536076],[4.855375,51.534225],[4.854564,51.533927],[4.854469,51.533911],[4.854036,51.533885],[4.852487,51.533866],[4.852284,51.533861],[4.85194,51.533852],[4.851799,51.533849],[4.851588,51.533833],[4.85151,51.534046],[4.851375,51.534327],[4.851226,51.534285],[4.851197,51.534251],[4.851194,51.534192],[4.851169,51.534163],[4.851051,51.534102],[4.851049,51.534061],[4.851079,51.533997],[4.851065,51.533959],[4.850835,51.533958],[4.850414,51.533928],[4.850332,51.533936],[4.850201,51.533969],[4.849984,51.533937],[4.849727,51.533937],[4.84902,51.533874],[4.848405,51.5338],[4.847844,51.533749],[4.847359,51.533682],[4.847165,51.533665],[4.846741,51.533596],[4.846618,51.533568],[4.84659,51.533551],[4.846624,51.533483],[4.846619,51.533454],[4.846594,51.533415],[4.846574,51.533285],[4.846542,51.533268],[4.846501,51.533283],[4.846442,51.533288],[4.846272,51.533278],[4.845528,51.533273],[4.845425,51.533287],[4.84504,51.533292],[4.844929,51.533284],[4.844739,51.533328],[4.84473,51.533317],[4.84471,51.533292],[4.844729,51.533295],[4.844421,51.532895],[4.844465,51.532606],[4.844545,51.532413],[4.844942,51.531672],[4.8454,51.530721],[4.845382,51.530522],[4.845236,51.529717],[4.845206,51.529406],[4.845061,51.528481],[4.844959,51.528403],[4.844239,51.527935],[4.843476,51.527408],[4.843467,51.527353],[4.843356,51.527148],[4.843318,51.527107],[4.843253,51.52709],[4.843142,51.527102],[4.842992,51.527039],[4.842784,51.526987],[4.842352,51.526845],[4.842122,51.526806],[4.841952,51.526713],[4.841897,51.526705],[4.841738,51.526719],[4.841672,51.526707],[4.8415,51.526704],[4.841328,51.526679],[4.841101,51.526679],[4.840915,51.526716],[4.840721,51.526733],[4.840659,51.526757],[4.840617,51.526798],[4.84049,51.52688],[4.839701,51.527272],[4.839604,51.527291],[4.839465,51.527375],[4.839431,51.527373],[4.839413,51.527359],[4.839382,51.527266],[4.839354,51.527245],[4.839127,51.527249],[4.839056,51.527232],[4.838925,51.52717],[4.838608,51.527138],[4.8385,51.527078],[4.838188,51.526986],[4.838073,51.526973],[4.837893,51.527005],[4.837821,51.527005],[4.837484,51.52691],[4.837394,51.526898],[4.837362,51.526938],[4.837362,51.526989],[4.837405,51.527068],[4.837378,51.527096],[4.837135,51.52709],[4.83695,51.527127],[4.836847,51.52711],[4.836779,51.527069],[4.836473,51.527098],[4.836483,51.52714],[4.836544,51.527167],[4.836559,51.527208],[4.836538,51.527238],[4.836371,51.527293],[4.83629,51.527347],[4.836347,51.527448],[4.836353,51.527547],[4.83632,51.527563],[4.836245,51.527545],[4.836187,51.527493],[4.836073,51.527428],[4.835999,51.527443],[4.835974,51.527474],[4.835975,51.527499],[4.836023,51.527574],[4.836076,51.527616],[4.836103,51.527661],[4.836074,51.527679],[4.835906,51.527694],[4.835734,51.527743],[4.835261,51.527796],[4.835209,51.527789],[4.835122,51.527747],[4.835042,51.527732],[4.834998,51.527755],[4.834982,51.527791],[4.835037,51.527899],[4.834891,51.527946],[4.834797,51.527887],[4.8347,51.527892],[4.83467,51.527887],[4.834646,51.527865],[4.83462,51.52782],[4.834723,51.527785],[4.834551,51.527679],[4.834493,51.527577],[4.834409,51.527507],[4.834534,51.527346],[4.834531,51.52731],[4.834484,51.527275],[4.834364,51.527263],[4.834225,51.527289],[4.834052,51.527293],[4.834045,51.527334],[4.834065,51.527413],[4.834031,51.527452],[4.833997,51.527463],[4.833928,51.527467],[4.833789,51.527431],[4.833765,51.527442],[4.833748,51.527541],[4.83372,51.527568],[4.833617,51.527803],[4.833563,51.527839],[4.833475,51.527758],[4.833222,51.527723],[4.833202,51.527701],[4.833248,51.527621],[4.833237,51.527543],[4.833227,51.52753],[4.833174,51.527514],[4.833112,51.527529],[4.833058,51.527572],[4.832875,51.527627],[4.832774,51.527702],[4.83273,51.527703],[4.832645,51.527668],[4.83253,51.527667],[4.832345,51.527683],[4.832218,51.52766],[4.832035,51.527606],[4.831881,51.527581],[4.831811,51.527542],[4.831752,51.527462],[4.831607,51.527452],[4.831521,51.527482],[4.831477,51.527655],[4.831316,51.527772],[4.831264,51.527753],[4.831229,51.527716],[4.831104,51.527724],[4.830775,51.527603],[4.830495,51.527565],[4.830333,51.527639],[4.830226,51.527725],[4.830129,51.527841],[4.830066,51.527866],[4.829858,51.527852],[4.829766,51.527859]]]},"properties":{"type":"boundary","gemeente":"Gilze en Rijen"}}]}