{"type":"FeatureCollection","metadata":{"gemeente":"Goeree-Overflakkee","slug":"goeree-overflakkee","generated_at":"2026-09-28T08:19:33.432713Z","total_points":77,"providers":["Amazon","DHL","DPD","PostNL","VintedGo","ViaTim","FedEx","InPost"],"bounds":[3.9346517,51.678779,4.346911055,51.81303024291992]},"features":[{"type":"Feature","geometry":{"type":"Point","coordinates":[4.06633547010005,51.7701203007217]},"properties":{"type":"pakketpunt","locatieNaam":"Coop supermarkt Melissant","straatNaam":"Voorstraat 21","straatNr":"","vervoerder":"Amazon","puntType":"3p","bezettingsgraad":50,"latitude":51.7701203007217,"longitude":4.06633547010005,"canPickup":true,"canDropoff":false,"openingstijden":null}},{"type":"Feature","geometry":{"type":"Point","coordinates":[3.934880837,51.80945058]},"properties":{"type":"pakketpunt","locatieNaam":"Bruna Ouddorp","straatNaam":"Hoenderdijk 19","straatNr":"","vervoerder":"Amazon","puntType":"3p","bezettingsgraad":50,"latitude":51.80945058,"longitude":3.934880837,"canPickup":true,"canDropoff":false,"openingstijden":null}},{"type":"Feature","geometry":{"type":"Point","coordinates":[4.211849,51.690969]},"properties":{"type":"pakketpunt","locatieNaam":"Drogisterij van Loon","straatNaam":"Kerkring","straatNr":"62","vervoerder":"DHL","puntType":"parcelShop","bezettingsgraad":50,"latitude":51.690969,"longitude":4.211849,"canPickup":true,"canDropoff":true,"openingstijden":{"ma":"08:00 - 12:00, 13:00 - 18:00","di":"08:00 - 12:00, 13:00 - 18:00","wo":"08:00 - 12:00, 13:00 - 18:00","do":"08:00 - 12:00, 13:00 - 18:00","vr":"08:00 - 12:00, 13:00 - 18:00","za":"08:00 - 16:00","zo":"gesloten"}}},{"type":"Feature","geometry":{"type":"Point","coordinates":[4.222339104415136,51.69582042302421]},"properties":{"type":"pakketpunt","locatieNaam":"Pakketautomaat Praxis Oude Tonge","straatNaam":"Tramweg","straatNr":"9","vervoerder":"DHL","puntType":"packStation","bezettingsgraad":50,"latitude":51.69582042302421,"longitude":4.222339104415136,"canPickup":true,"canDropoff":true,"openingstijden":{"ma":"00:00 - 23:59","di":"00:00 - 23:59","wo":"00:00 - 23:59","do":"00:00 - 23:59","vr":"00:00 - 23:59","za":"00:00 - 23:59","zo":"00:00 - 23:59"}}},{"type":"Feature","geometry":{"type":"Point","coordinates":[4.337375164031982,51.679473876953125]},"properties":{"type":"pakketpunt","locatieNaam":"Firma J & J van Gurp","straatNaam":"Oudedijk","straatNr":"14","vervoerder":"DHL","puntType":"parcelShop","bezettingsgraad":50,"latitude":51.679473876953125,"longitude":4.337375164031982,"canPickup":true,"canDropoff":true,"openingstijden":{"ma":"08:30 - 12:00, 13:00 - 17:30","di":"08:30 - 12:00, 13:00 - 17:30","wo":"08:30 - 12:00, 13:00 - 17:30","do":"08:30 - 12:00, 13:00 - 17:30","vr":"08:30 - 12:00, 13:00 - 17:30","za":"08:30 - 12:00, 13:00 - 15:00","zo":"gesloten"}}},{"type":"Feature","geometry":{"type":"Point","coordinates":[4.089831352233887,51.708412170410156]},"properties":{"type":"pakketpunt","locatieNaam":"DHL Buurtpunt ViaTim & Lianne","straatNaam":"Han de Lignieplein","straatNr":"39","vervoerder":"DHL","puntType":"parcelShop","bezettingsgraad":50,"latitude":51.708412170410156,"longitude":4.089831352233887,"canPickup":true,"canDropoff":true,"openingstijden":{"ma":"16:00 - 21:00","di":"16:00 - 21:00","wo":"16:00 - 21:00","do":"16:00 - 21:00","vr":"16:00 - 21:00","za":"gesloten","zo":"gesloten"}}},{"type":"Feature","geometry":{"type":"Point","coordinates":[4.066621,51.770084]},"properties":{"type":"pakketpunt","locatieNaam":"Pakketautomaat Melissant","straatNaam":"Voorstraat","straatNr":"21","vervoerder":"DHL","puntType":"packStation","bezettingsgraad":50,"latitude":51.770084,"longitude":4.066621,"canPickup":true,"canDropoff":true,"openingstijden":{"ma":"08:00 - 19:00","di":"08:00 - 19:00","wo":"08:00 - 19:00","do":"08:00 - 19:00","vr":"08:00 - 19:00","za":"gesloten","zo":"gesloten"}}},{"type":"Feature","geometry":{"type":"Point","coordinates":[4.0714156,51.7733647]},"properties":{"type":"pakketpunt","locatieNaam":"De FietsWerkplaats Goeree","straatNaam":"Ruijgenhil","straatNr":"9-A","vervoerder":"DHL","puntType":"parcelShop","bezettingsgraad":50,"latitude":51.7733647,"longitude":4.0714156,"canPickup":true,"canDropoff":true,"openingstijden":{"ma":"gesloten","di":"09:00 - 17:00","wo":"09:00 - 17:00","do":"09:00 - 17:00","vr":"09:00 - 17:00","za":"08:00 - 12:00","zo":"gesloten"}}},{"type":"Feature","geometry":{"type":"Point","coordinates":[4.1097178,51.7426058]},"properties":{"type":"pakketpunt","locatieNaam":"Kwekerij van Prooijen","straatNaam":"Boomvliet","straatNr":"9","vervoerder":"DHL","puntType":"parcelShop","bezettingsgraad":50,"latitude":51.7426058,"longitude":4.1097178,"canPickup":true,"canDropoff":true,"openingstijden":{"ma":"08:30 - 12:00, 13:00 - 17:00","di":"08:30 - 12:00, 13:00 - 17:00","wo":"08:30 - 12:00, 13:00 - 17:00","do":"08:30 - 12:00, 13:00 - 17:00","vr":"08:30 - 12:00, 13:00 - 17:00","za":"08:30 - 12:00, 13:00 - 17:00","zo":"gesloten"}}},{"type":"Feature","geometry":{"type":"Point","coordinates":[4.022689342498779,51.804874420166016]},"properties":{"type":"pakketpunt","locatieNaam":"DHL Buurtpunt ViaTim & Angelique","straatNaam":"Dahliapad","straatNr":"20","vervoerder":"DHL","puntType":"parcelShop","bezettingsgraad":50,"latitude":51.804874420166016,"longitude":4.022689342498779,"canPickup":true,"canDropoff":true,"openingstijden":{"ma":"16:00 - 21:00","di":"16:00 - 21:00","wo":"16:00 - 21:00","do":"16:00 - 21:00","vr":"16:00 - 21:00","za":"gesloten","zo":"gesloten"}}},{"type":"Feature","geometry":{"type":"Point","coordinates":[4.16311194232895,51.71565242627369]},"properties":{"type":"pakketpunt","locatieNaam":"Pakketautomaat SPAR Nieuwe Tonge","straatNaam":"Westdijk","straatNr":"14","vervoerder":"DHL","puntType":"packStation","bezettingsgraad":50,"latitude":51.71565242627369,"longitude":4.16311194232895,"canPickup":true,"canDropoff":true,"openingstijden":{"ma":"07:30 - 20:00","di":"07:30 - 20:00","wo":"07:30 - 20:00","do":"07:30 - 20:00","vr":"07:30 - 20:00","za":"07:30 - 20:00","zo":"07:30 - 20:00"}}},{"type":"Feature","geometry":{"type":"Point","coordinates":[4.1729614,51.7532004]},"properties":{"type":"pakketpunt","locatieNaam":"Pakketautomaat Lidl Middelharnis","straatNaam":"De Hofjes","straatNr":"2","vervoerder":"DHL","puntType":"packStation","bezettingsgraad":50,"latitude":51.7532004,"longitude":4.1729614,"canPickup":true,"canDropoff":true,"openingstijden":{"ma":"07:30 - 21:00","di":"07:30 - 21:00","wo":"07:30 - 21:00","do":"07:30 - 21:00","vr":"07:30 - 21:00","za":"07:30 - 21:00","zo":"gesloten"}}},{"type":"Feature","geometry":{"type":"Point","coordinates":[4.149249,51.748707]},"properties":{"type":"pakketpunt","locatieNaam":"Tuincentrum Graka","straatNaam":"Staverseweg","straatNr":"2","vervoerder":"DHL","puntType":"parcelShop","bezettingsgraad":50,"latitude":51.748707,"longitude":4.149249,"canPickup":true,"canDropoff":true,"openingstijden":{"ma":"09:00 - 17:30","di":"09:00 - 17:30","wo":"09:00 - 17:30","do":"09:00 - 17:30","vr":"09:00 - 17:30","za":"09:00 - 17:00","zo":"gesloten"}}},{"type":"Feature","geometry":{"type":"Point","coordinates":[4.172724723815918,51.75600814819336]},"properties":{"type":"pakketpunt","locatieNaam":"DHL Buurtpunt ViaTim & de Boed","straatNaam":"Prinsesmargrietstraat","straatNr":"12","vervoerder":"DHL","puntType":"parcelShop","bezettingsgraad":50,"latitude":51.75600814819336,"longitude":4.172724723815918,"canPickup":true,"canDropoff":true,"openingstijden":{"ma":"12:00 - 21:00","di":"12:00 - 21:00","wo":"12:00 - 21:00","do":"13:00 - 20:00","vr":"13:00 - 20:00","za":"gesloten","zo":"gesloten"}}},{"type":"Feature","geometry":{"type":"Point","coordinates":[4.16365,51.75946]},"properties":{"type":"pakketpunt","locatieNaam":"Pakketautomaat PLUS Middelharnis","straatNaam":"Kerkepad","straatNr":"7","vervoerder":"DHL","puntType":"packStation","bezettingsgraad":50,"latitude":51.75946,"longitude":4.16365,"canPickup":true,"canDropoff":true,"openingstijden":{"ma":"00:00 - 23:59","di":"00:00 - 23:59","wo":"00:00 - 23:59","do":"00:00 - 23:59","vr":"00:00 - 23:59","za":"00:00 - 23:59","zo":"00:00 - 23:59"}}},{"type":"Feature","geometry":{"type":"Point","coordinates":[4.1646594,51.7598805]},"properties":{"type":"pakketpunt","locatieNaam":"Intertoys Middelharnis","straatNaam":"Westdijk","straatNr":"14","vervoerder":"DHL","puntType":"parcelShop","bezettingsgraad":50,"latitude":51.7598805,"longitude":4.1646594,"canPickup":true,"canDropoff":true,"openingstijden":{"ma":"12:00 - 17:30","di":"09:30 - 17:30","wo":"09:30 - 17:30","do":"09:30 - 17:30","vr":"09:30 - 20:00","za":"09:30 - 17:00","zo":"gesloten"}}},{"type":"Feature","geometry":{"type":"Point","coordinates":[4.1641764640808105,51.759910583496094]},"properties":{"type":"pakketpunt","locatieNaam":"Pakketautomaat terStal Middelharn","straatNaam":"Westdijk","straatNr":"4-Kast","vervoerder":"DHL","puntType":"packStation","bezettingsgraad":50,"latitude":51.759910583496094,"longitude":4.1641764640808105,"canPickup":true,"canDropoff":true,"openingstijden":{"ma":"13:00 - 17:30","di":"09:30 - 17:30","wo":"09:30 - 17:30","do":"09:30 - 17:30","vr":"09:30 - 17:30","za":"09:00 - 17:00","zo":"gesloten"}}},{"type":"Feature","geometry":{"type":"Point","coordinates":[4.2439022,51.737353]},"properties":{"type":"pakketpunt","locatieNaam":"DHL Buurtpunt ViaTim & Linda","straatNaam":"Oranjelaan","straatNr":"3","vervoerder":"DHL","puntType":"parcelShop","bezettingsgraad":50,"latitude":51.737353,"longitude":4.2439022,"canPickup":true,"canDropoff":true,"openingstijden":{"ma":"14:15 - 21:00","di":"09:00 - 12:30, 14:15 - 21:00","wo":"14:15 - 21:00","do":"09:00 - 12:30, 14:15 - 21:00","vr":"14:15 - 21:00","za":"gesloten","zo":"gesloten"}}},{"type":"Feature","geometry":{"type":"Point","coordinates":[4.156294,51.7605899]},"properties":{"type":"pakketpunt","locatieNaam":"Shoeby Middelharnis","straatNaam":"Beneden Zandpad","straatNr":"19-A","vervoerder":"DHL","puntType":"parcelShop","bezettingsgraad":50,"latitude":51.7605899,"longitude":4.156294,"canPickup":true,"canDropoff":true,"openingstijden":{"ma":"13:00 - 18:00","di":"09:30 - 18:00","wo":"09:30 - 18:00","do":"09:30 - 18:00","vr":"09:30 - 21:00","za":"09:30 - 17:00","zo":"gesloten"}}},{"type":"Feature","geometry":{"type":"Point","coordinates":[4.1558956,51.7608696]},"properties":{"type":"pakketpunt","locatieNaam":"By Flora","straatNaam":"Zandpad","straatNr":"11","vervoerder":"DHL","puntType":"parcelShop","bezettingsgraad":50,"latitude":51.7608696,"longitude":4.1558956,"canPickup":true,"canDropoff":true,"openingstijden":{"ma":"gesloten","di":"09:30 - 17:00","wo":"09:30 - 17:00","do":"09:30 - 17:00","vr":"09:30 - 18:00","za":"10:00 - 16:00","zo":"gesloten"}}},{"type":"Feature","geometry":{"type":"Point","coordinates":[4.15316,51.762864]},"properties":{"type":"pakketpunt","locatieNaam":"DHL Pakketpunt Sommelsdijk","straatNaam":"Gerard walschapstraat","straatNr":"2","vervoerder":"DHL","puntType":"parcelShop","bezettingsgraad":50,"latitude":51.762864,"longitude":4.15316,"canPickup":true,"canDropoff":true,"openingstijden":{"ma":"09:00 - 19:00","di":"09:00 - 19:00","wo":"09:00 - 19:00","do":"09:00 - 19:00","vr":"09:00 - 19:00","za":"09:00 - 17:00","zo":"gesloten"}}},{"type":"Feature","geometry":{"type":"Point","coordinates":[4.2796099,51.7194749]},"properties":{"type":"pakketpunt","locatieNaam":"VoTra Zand- en Grindhandel","straatNaam":"Kade","straatNr":"15","vervoerder":"DHL","puntType":"parcelShop","bezettingsgraad":50,"latitude":51.7194749,"longitude":4.2796099,"canPickup":true,"canDropoff":true,"openingstijden":{"ma":"08:00 - 17:00","di":"08:00 - 17:00","wo":"08:00 - 17:00","do":"08:00 - 17:00","vr":"08:00 - 17:00","za":"08:00 - 12:00","zo":"gesloten"}}},{"type":"Feature","geometry":{"type":"Point","coordinates":[3.9346517,51.8099272]},"properties":{"type":"pakketpunt","locatieNaam":"Jouw Marktraam Ouddorp","straatNaam":"Molenblok","straatNr":"6-8","vervoerder":"DHL","puntType":"parcelShop","bezettingsgraad":50,"latitude":51.8099272,"longitude":3.9346517,"canPickup":true,"canDropoff":true,"openingstijden":{"ma":"10:00 - 17:00","di":"10:00 - 17:00","wo":"10:00 - 17:00","do":"10:00 - 17:00","vr":"10:00 - 17:00","za":"10:00 - 17:00","zo":"gesloten"}}},{"type":"Feature","geometry":{"type":"Point","coordinates":[3.939755916595459,51.81303024291992]},"properties":{"type":"pakketpunt","locatieNaam":"Pakketautomaat De Haan Ouddorp","straatNaam":"Oosterweg","straatNr":"2","vervoerder":"DHL","puntType":"packStation","bezettingsgraad":50,"latitude":51.81303024291992,"longitude":3.939755916595459,"canPickup":true,"canDropoff":true,"openingstijden":{"ma":"00:00 - 23:59","di":"00:00 - 23:59","wo":"00:00 - 23:59","do":"00:00 - 23:59","vr":"00:00 - 23:59","za":"00:00 - 23:59","zo":"00:00 - 23:59"}}},{"type":"Feature","geometry":{"type":"Point","coordinates":[4.1097178,51.7426058]},"properties":{"type":"pakketpunt","locatieNaam":"V.O.F. Van Prooijen van der Valk","straatNaam":"BOOMVLIET","straatNr":"9","vervoerder":"DPD","puntType":"pickup_point","bezettingsgraad":50,"latitude":51.7426058,"longitude":4.1097178,"canPickup":true,"canDropoff":true,"openingstijden":{"ma":"08:30 - 17:00","di":"08:30 - 17:00","wo":"08:30 - 17:00","do":"08:30 - 17:00","vr":"08:30 - 17:00","za":"08:30 - 17:00","zo":"gesloten"}}},{"type":"Feature","geometry":{"type":"Point","coordinates":[4.2796099,51.7194749]},"properties":{"type":"pakketpunt","locatieNaam":"Votra B.V.","straatNaam":"KADE","straatNr":"15","vervoerder":"DPD","puntType":"pickup_point","bezettingsgraad":50,"latitude":51.7194749,"longitude":4.2796099,"canPickup":true,"canDropoff":true,"openingstijden":{"ma":"08:00 - 17:00","di":"08:00 - 17:00","wo":"08:00 - 17:00","do":"08:00 - 17:00","vr":"08:00 - 17:00","za":"08:00 - 12:00","zo":"gesloten"}}},{"type":"Feature","geometry":{"type":"Point","coordinates":[4.3329787,51.678779]},"properties":{"type":"pakketpunt","locatieNaam":"Tuin en klus van Gurp","straatNaam":"OUDEDIJK","straatNr":"14","vervoerder":"DPD","puntType":"pickup_point","bezettingsgraad":50,"latitude":51.678779,"longitude":4.3329787,"canPickup":true,"canDropoff":true,"openingstijden":{"ma":"08:30 - 12:00, 13:00 - 17:30","di":"08:30 - 12:00, 13:00 - 17:30","wo":"08:30 - 12:00, 13:00 - 17:30","do":"08:30 - 12:00, 13:00 - 17:30","vr":"08:30 - 12:00, 13:00 - 17:30","za":"08:30 - 12:00, 13:00 - 15:00","zo":"gesloten"}}},{"type":"Feature","geometry":{"type":"Point","coordinates":[4.0225324,51.8050666]},"properties":{"type":"pakketpunt","locatieNaam":"ViaTim & Angeliqueop","straatNaam":"DAHLIAPAD","straatNr":"20","vervoerder":"DPD","puntType":"pickup_point","bezettingsgraad":50,"latitude":51.8050666,"longitude":4.0225324,"canPickup":true,"canDropoff":true,"openingstijden":{"ma":"16:00 - 21:00","di":"16:00 - 21:00","wo":"16:00 - 21:00","do":"16:00 - 21:00","vr":"16:00 - 21:00","za":"gesloten","zo":"gesloten"}}},{"type":"Feature","geometry":{"type":"Point","coordinates":[4.172701,51.755898]},"properties":{"type":"pakketpunt","locatieNaam":"ViaTim & buurtpunt de Boed","straatNaam":"PRINSES MARGRIETSTRAAT","straatNr":"12","vervoerder":"DPD","puntType":"pickup_point","bezettingsgraad":50,"latitude":51.755898,"longitude":4.172701,"canPickup":true,"canDropoff":true,"openingstijden":{"ma":"12:00 - 21:00","di":"12:00 - 21:00","wo":"12:00 - 21:00","do":"13:00 - 20:00","vr":"13:00 - 20:00","za":"gesloten","zo":"gesloten"}}},{"type":"Feature","geometry":{"type":"Point","coordinates":[4.2439022,51.737353]},"properties":{"type":"pakketpunt","locatieNaam":"ViaTim & Linda","straatNaam":"ORANJELAAN","straatNr":"3","vervoerder":"DPD","puntType":"pickup_point","bezettingsgraad":50,"latitude":51.737353,"longitude":4.2439022,"canPickup":true,"canDropoff":true,"openingstijden":{"ma":"14:15 - 21:00","di":"09:00 - 12:30, 14:15 - 21:00","wo":"14:15 - 21:00","do":"09:00 - 12:30, 14:15 - 21:00","vr":"14:15 - 21:00","za":"gesloten","zo":"gesloten"}}},{"type":"Feature","geometry":{"type":"Point","coordinates":[4.1864547,51.7665992]},"properties":{"type":"pakketpunt","locatieNaam":"Pakketautomaat MSV & AV Flakkee","straatNaam":"OOSTPLAATSEWEG","straatNr":"1","vervoerder":"DPD","puntType":"dpd_box","bezettingsgraad":50,"latitude":51.7665992,"longitude":4.1864547,"canPickup":true,"canDropoff":true,"openingstijden":{"ma":"00:01 - 23:59","di":"00:01 - 23:59","wo":"00:01 - 23:59","do":"00:01 - 23:59","vr":"00:01 - 23:59","za":"00:01 - 23:59","zo":"gesloten"}}},{"type":"Feature","geometry":{"type":"Point","coordinates":[4.066333,51.770118]},"properties":{"type":"pakketpunt","locatieNaam":"Pakketautomaat Supermarkt Voorstraa","straatNaam":"VOORSTRAAT","straatNr":"21","vervoerder":"DPD","puntType":"dpd_box","bezettingsgraad":50,"latitude":51.770118,"longitude":4.066333,"canPickup":true,"canDropoff":true,"openingstijden":{"ma":"08:00 - 19:00","di":"08:00 - 19:00","wo":"08:00 - 19:00","do":"08:00 - 19:00","vr":"08:00 - 19:00","za":"08:00 - 18:00","zo":"gesloten"}}},{"type":"Feature","geometry":{"type":"Point","coordinates":[4.16372,51.75933]},"properties":{"type":"pakketpunt","locatieNaam":"Pakketautomaat Plus Slingerland","straatNaam":"KERKEPAD","straatNr":"7","vervoerder":"DPD","puntType":"dpd_box","bezettingsgraad":50,"latitude":51.75933,"longitude":4.16372,"canPickup":true,"canDropoff":true,"openingstijden":{"ma":"00:01 - 23:59","di":"00:01 - 23:59","wo":"00:01 - 23:59","do":"00:01 - 23:59","vr":"00:01 - 23:59","za":"00:01 - 23:59","zo":"00:01 - 23:59"}}},{"type":"Feature","geometry":{"type":"Point","coordinates":[3.9349,51.81014]},"properties":{"type":"pakketpunt","locatieNaam":"Jouw Marktkraam Ouddorp","straatNaam":"MOLENBLOK","straatNr":"6","vervoerder":"DPD","puntType":"pickup_point","bezettingsgraad":50,"latitude":51.81014,"longitude":3.9349,"canPickup":true,"canDropoff":true,"openingstijden":{"ma":"10:00 - 17:00","di":"10:00 - 17:00","wo":"10:00 - 17:00","do":"10:00 - 17:00","vr":"10:00 - 17:00","za":"10:00 - 17:00","zo":"gesloten"}}},{"type":"Feature","geometry":{"type":"Point","coordinates":[4.10583246522423,51.7475448397271]},"properties":{"type":"pakketpunt","locatieNaam":"Pakketautomaat","straatNaam":"Boomvliet","straatNr":"4PBA","vervoerder":"PostNL","puntType":"automaat","bezettingsgraad":50,"latitude":51.7475448397271,"longitude":4.10583246522423,"canPickup":true,"canDropoff":true,"openingstijden":"08:00 - 21:00"}},{"type":"Feature","geometry":{"type":"Point","coordinates":[4.06633547010005,51.7701203007217]},"properties":{"type":"pakketpunt","locatieNaam":"Coop supermarkt Melissant","straatNaam":"Voorstraat","straatNr":"21","vervoerder":"PostNL","puntType":"servicepunt","bezettingsgraad":50,"latitude":51.7701203007217,"longitude":4.06633547010005,"canPickup":true,"canDropoff":true,"openingstijden":"08:00 - 19:00 (Na 18:00 open; Zaterdag open)"}},{"type":"Feature","geometry":{"type":"Point","coordinates":[4.07146191549972,51.7731983887688]},"properties":{"type":"pakketpunt","locatieNaam":"Pakketautomaat","straatNaam":"Ruijgenhil","straatNr":"9PBA","vervoerder":"PostNL","puntType":"automaat","bezettingsgraad":50,"latitude":51.7731983887688,"longitude":4.07146191549972,"canPickup":true,"canDropoff":true,"openingstijden":"00:00 - 23:59"}},{"type":"Feature","geometry":{"type":"Point","coordinates":[4.15919290443001,51.7511103689505]},"properties":{"type":"pakketpunt","locatieNaam":"Pakket- en briefautomaat","straatNaam":"Langeweg","straatNr":"113PBA","vervoerder":"PostNL","puntType":"automaat","bezettingsgraad":50,"latitude":51.7511103689505,"longitude":4.15919290443001,"canPickup":true,"canDropoff":true,"openingstijden":"00:00 - 23:59"}},{"type":"Feature","geometry":{"type":"Point","coordinates":[4.157678758,51.76044339]},"properties":{"type":"pakketpunt","locatieNaam":"Primera","straatNaam":"Beneden Zandpad","straatNr":"15A","vervoerder":"PostNL","puntType":"servicepunt","bezettingsgraad":50,"latitude":51.76044339,"longitude":4.157678758,"canPickup":true,"canDropoff":true,"openingstijden":"08:00 - 18:00 (Na 18:00 open; Zaterdag open)"}},{"type":"Feature","geometry":{"type":"Point","coordinates":[4.16372067596977,51.7593289991101]},"properties":{"type":"pakketpunt","locatieNaam":"Pakketautomaat","straatNaam":"Kerkepad","straatNr":"7PBA","vervoerder":"PostNL","puntType":"automaat","bezettingsgraad":50,"latitude":51.7593289991101,"longitude":4.16372067596977,"canPickup":true,"canDropoff":true,"openingstijden":"00:00 - 23:59"}},{"type":"Feature","geometry":{"type":"Point","coordinates":[4.17337167226932,51.7527322939195]},"properties":{"type":"pakketpunt","locatieNaam":"Pakketautomaat","straatNaam":"De Hofjes","straatNr":"6PBA","vervoerder":"PostNL","puntType":"automaat","bezettingsgraad":50,"latitude":51.7527322939195,"longitude":4.17337167226932,"canPickup":true,"canDropoff":true,"openingstijden":"00:00 - 23:59"}},{"type":"Feature","geometry":{"type":"Point","coordinates":[4.173371672,51.75273229]},"properties":{"type":"pakketpunt","locatieNaam":"GAMMA Middelharnis","straatNaam":"De Hofjes","straatNr":"6-8","vervoerder":"PostNL","puntType":"servicepunt","bezettingsgraad":50,"latitude":51.75273229,"longitude":4.173371672,"canPickup":true,"canDropoff":true,"openingstijden":"08:00 - 21:00"}},{"type":"Feature","geometry":{"type":"Point","coordinates":[4.16302679,51.71546282]},"properties":{"type":"pakketpunt","locatieNaam":"Spar Nieuwe-Tonge","straatNaam":"Westdijk","straatNr":"14","vervoerder":"PostNL","puntType":"servicepunt","bezettingsgraad":50,"latitude":51.71546282,"longitude":4.16302679,"canPickup":true,"canDropoff":true,"openingstijden":"08:00 - 20:00 (Na 18:00 open; Zaterdag open)"}},{"type":"Feature","geometry":{"type":"Point","coordinates":[4.16301256534782,51.7154536779165]},"properties":{"type":"pakketpunt","locatieNaam":"Pakketautomaat","straatNaam":"Westdijk","straatNr":"14PBA","vervoerder":"PostNL","puntType":"automaat","bezettingsgraad":50,"latitude":51.7154536779165,"longitude":4.16301256534782,"canPickup":true,"canDropoff":true,"openingstijden":"00:00 - 23:59"}},{"type":"Feature","geometry":{"type":"Point","coordinates":[4.02506879065331,51.806145489536]},"properties":{"type":"pakketpunt","locatieNaam":"Tabac and Gifts Stellendam","straatNaam":"Oranjeplein","straatNr":"8","vervoerder":"PostNL","puntType":"servicepunt","bezettingsgraad":50,"latitude":51.806145489536,"longitude":4.02506879065331,"canPickup":true,"canDropoff":true,"openingstijden":"08:00 - 18:00 (Na 18:00 open; Zaterdag open)"}},{"type":"Feature","geometry":{"type":"Point","coordinates":[4.213562699,51.68977618]},"properties":{"type":"pakketpunt","locatieNaam":"Bruna","straatNaam":"Dabbehof","straatNr":"42","vervoerder":"PostNL","puntType":"servicepunt","bezettingsgraad":50,"latitude":51.68977618,"longitude":4.213562699,"canPickup":true,"canDropoff":true,"openingstijden":"08:30 - 17:30 (Zaterdag open)"}},{"type":"Feature","geometry":{"type":"Point","coordinates":[3.934880837,51.80945058]},"properties":{"type":"pakketpunt","locatieNaam":"Bruna Ouddorp","straatNaam":"Hoenderdijk","straatNr":"19","vervoerder":"PostNL","puntType":"servicepunt","bezettingsgraad":50,"latitude":51.80945058,"longitude":3.934880837,"canPickup":true,"canDropoff":true,"openingstijden":"08:30 - 17:30 (Zaterdag open)"}},{"type":"Feature","geometry":{"type":"Point","coordinates":[4.3467325,51.6823036]},"properties":{"type":"pakketpunt","locatieNaam":"Pakket- en briefautomaat","straatNaam":"Weespad","straatNr":"33PBA","vervoerder":"PostNL","puntType":"automaat","bezettingsgraad":50,"latitude":51.6823036,"longitude":4.3467325,"canPickup":true,"canDropoff":true,"openingstijden":"00:00 - 23:59"}},{"type":"Feature","geometry":{"type":"Point","coordinates":[4.346911055,51.68231713]},"properties":{"type":"pakketpunt","locatieNaam":"Plus van den Houten","straatNaam":"Weespad","straatNr":"33","vervoerder":"PostNL","puntType":"servicepunt","bezettingsgraad":50,"latitude":51.68231713,"longitude":4.346911055,"canPickup":true,"canDropoff":true,"openingstijden":"08:00 - 20:00 (Na 18:00 open; Zaterdag open)"}},{"type":"Feature","geometry":{"type":"Point","coordinates":[4.1727008,51.7558975]},"properties":{"type":"pakketpunt","locatieNaam":"B. D. boed","straatNaam":"Prinses Margrietstraat 12","straatNr":"","vervoerder":"VintedGo","puntType":"social","bezettingsgraad":50,"latitude":51.7558975,"longitude":4.1727008,"canPickup":true,"canDropoff":true,"openingstijden":null}},{"type":"Feature","geometry":{"type":"Point","coordinates":[3.9348172,51.8091087]},"properties":{"type":"pakketpunt","locatieNaam":"Boekhandel Akershoek ","straatNaam":"Hoenderdijk 9","straatNr":"","vervoerder":"VintedGo","puntType":"parcel_shop","bezettingsgraad":50,"latitude":51.8091087,"longitude":3.9348172,"canPickup":true,"canDropoff":true,"openingstijden":null}},{"type":"Feature","geometry":{"type":"Point","coordinates":[4.33298,51.67878]},"properties":{"type":"pakketpunt","locatieNaam":"Tuin en Klus Van Gurp ","straatNaam":"Oudedijk 14","straatNr":"","vervoerder":"VintedGo","puntType":"parcel_shop","bezettingsgraad":50,"latitude":51.67878,"longitude":4.33298,"canPickup":true,"canDropoff":true,"openingstijden":null}},{"type":"Feature","geometry":{"type":"Point","coordinates":[4.02253,51.80507]},"properties":{"type":"pakketpunt","locatieNaam":"A. V. Os","straatNaam":"Dahliapad 20","straatNr":"","vervoerder":"VintedGo","puntType":"social","bezettingsgraad":50,"latitude":51.80507,"longitude":4.02253,"canPickup":true,"canDropoff":true,"openingstijden":null}},{"type":"Feature","geometry":{"type":"Point","coordinates":[4.21029,51.69537]},"properties":{"type":"pakketpunt","locatieNaam":"Serviceteam Ebbe En Vloed","straatNaam":"'t Getij 3","straatNr":"","vervoerder":"VintedGo","puntType":"parcel_shop","bezettingsgraad":50,"latitude":51.69537,"longitude":4.21029,"canPickup":true,"canDropoff":true,"openingstijden":null}},{"type":"Feature","geometry":{"type":"Point","coordinates":[4.1559,51.76087]},"properties":{"type":"pakketpunt","locatieNaam":"Flora’s Baby & Gifts","straatNaam":"Zandpad 11","straatNr":"","vervoerder":"VintedGo","puntType":"parcel_shop","bezettingsgraad":50,"latitude":51.76087,"longitude":4.1559,"canPickup":true,"canDropoff":true,"openingstijden":null}},{"type":"Feature","geometry":{"type":"Point","coordinates":[4.16402,51.75996]},"properties":{"type":"pakketpunt","locatieNaam":"Beau-tique Betsy ","straatNaam":"Westdijk 30","straatNr":"","vervoerder":"VintedGo","puntType":"parcel_shop","bezettingsgraad":50,"latitude":51.75996,"longitude":4.16402,"canPickup":true,"canDropoff":true,"openingstijden":null}},{"type":"Feature","geometry":{"type":"Point","coordinates":[4.10972,51.74261]},"properties":{"type":"pakketpunt","locatieNaam":"Vof van Prooijen van der Valk","straatNaam":"Boomvliet 9","straatNr":"","vervoerder":"VintedGo","puntType":"parcel_shop","bezettingsgraad":50,"latitude":51.74261,"longitude":4.10972,"canPickup":true,"canDropoff":true,"openingstijden":null}},{"type":"Feature","geometry":{"type":"Point","coordinates":[4.1636971,51.7594105]},"properties":{"type":"pakketpunt","locatieNaam":"Plus Slingerland Middelharnis","straatNaam":"kerkepad 7","straatNr":"","vervoerder":"VintedGo","puntType":"locker","bezettingsgraad":50,"latitude":51.7594105,"longitude":4.1636971,"canPickup":true,"canDropoff":true,"openingstijden":null}},{"type":"Feature","geometry":{"type":"Point","coordinates":[4.118942,51.750091]},"properties":{"type":"pakketpunt","locatieNaam":"Wirenet B.v.","straatNaam":"Watertoren 41E","straatNr":"","vervoerder":"VintedGo","puntType":"locker","bezettingsgraad":50,"latitude":51.750091,"longitude":4.118942,"canPickup":true,"canDropoff":true,"openingstijden":null}},{"type":"Feature","geometry":{"type":"Point","coordinates":[4.06578265,51.77085802]},"properties":{"type":"pakketpunt","locatieNaam":"ViaTim en Baruti Creations ","straatNaam":"Molendijk","straatNr":"88","vervoerder":"ViaTim","puntType":"servicepunt","bezettingsgraad":50,"latitude":51.77085802,"longitude":4.06578265,"canPickup":true,"canDropoff":true,"openingstijden":{"ma":"12:00 - 15:00","di":"gesloten","wo":"18:00 - 21:00","do":"gesloten","vr":"gesloten","za":"gesloten","zo":"gesloten"}}},{"type":"Feature","geometry":{"type":"Point","coordinates":[4.08723151,51.71058538]},"properties":{"type":"pakketpunt","locatieNaam":"ViaTim en Peuterdijk","straatNaam":"Peuterdijk","straatNr":"2","vervoerder":"ViaTim","puntType":"servicepunt","bezettingsgraad":50,"latitude":51.71058538,"longitude":4.08723151,"canPickup":true,"canDropoff":true,"openingstijden":{"ma":"18:00 - 22:00","di":"gesloten","wo":"18:00 - 22:00","do":"gesloten","vr":"gesloten","za":"gesloten","zo":"gesloten"}}},{"type":"Feature","geometry":{"type":"Point","coordinates":[4.243902164110924,51.737353028623396]},"properties":{"type":"pakketpunt","locatieNaam":"ViaTim en Linda","straatNaam":"Oranjelaan","straatNr":"3","vervoerder":"ViaTim","puntType":"servicepunt","bezettingsgraad":50,"latitude":51.737353028623396,"longitude":4.243902164110924,"canPickup":true,"canDropoff":true,"openingstijden":{"ma":"14:15 - 21:00","di":"09:00 - 12:30","wo":"14:15 - 21:00","do":"09:00 - 12:30","vr":"gesloten","za":"gesloten","zo":"gesloten"}}},{"type":"Feature","geometry":{"type":"Point","coordinates":[4.09003080501154,51.70864282403942]},"properties":{"type":"pakketpunt","locatieNaam":"ViaTim & Lianne","straatNaam":"Han de Lignieplein","straatNr":"39","vervoerder":"ViaTim","puntType":"servicepunt","bezettingsgraad":50,"latitude":51.70864282403942,"longitude":4.09003080501154,"canPickup":true,"canDropoff":true,"openingstijden":{"ma":"16:00 - 21:00","di":"16:00 - 21:00","wo":"16:00 - 21:00","do":"16:00 - 21:00","vr":"16:00 - 21:00","za":"gesloten","zo":"gesloten"}}},{"type":"Feature","geometry":{"type":"Point","coordinates":[4.17270069631217,51.7558974496604]},"properties":{"type":"pakketpunt","locatieNaam":"ViaTim en buurtpunt de Boed","straatNaam":"Prinses Margrietstraat","straatNr":"12","vervoerder":"ViaTim","puntType":"servicepunt","bezettingsgraad":50,"latitude":51.7558974496604,"longitude":4.17270069631217,"canPickup":true,"canDropoff":true,"openingstijden":{"ma":"12:00 - 21:00","di":"12:00 - 21:00","wo":"12:00 - 21:00","do":"13:00 - 20:00","vr":"13:00 - 20:00","za":"00:00 - 00:00","zo":"00:00 - 00:00"}}},{"type":"Feature","geometry":{"type":"Point","coordinates":[4.02253246886737,51.8050665642776]},"properties":{"type":"pakketpunt","locatieNaam":"ViaTim & Angelique","straatNaam":"Dahliapad","straatNr":"20","vervoerder":"ViaTim","puntType":"servicepunt","bezettingsgraad":50,"latitude":51.8050665642776,"longitude":4.02253246886737,"canPickup":true,"canDropoff":true,"openingstijden":{"ma":"16:00 - 21:00","di":"16:00 - 21:00","wo":"16:00 - 21:00","do":"16:00 - 21:00","vr":"16:00 - 21:00","za":"gesloten","zo":"gesloten"}}},{"type":"Feature","geometry":{"type":"Point","coordinates":[4.3467669205711434,51.68226843801367]},"properties":{"type":"pakketpunt","locatieNaam":"FedEx Ship&Get","straatNaam":"Weespad 33 PBA","straatNr":"","vervoerder":"FedEx","puntType":"servicepunt","bezettingsgraad":50,"latitude":51.68226843801367,"longitude":4.3467669205711434,"canPickup":true,"canDropoff":true,"openingstijden":{"ma":"00:00 - 23:59","di":"00:00 - 23:59","wo":"00:00 - 23:59","do":"00:00 - 23:59","vr":"00:00 - 23:59","za":"00:00 - 23:59","zo":"00:00 - 23:59"}}},{"type":"Feature","geometry":{"type":"Point","coordinates":[4.163013,51.715454]},"properties":{"type":"pakketpunt","locatieNaam":"FedEx Ship&Get","straatNaam":"Westdijk 14 PBA","straatNr":"","vervoerder":"FedEx","puntType":"servicepunt","bezettingsgraad":50,"latitude":51.715454,"longitude":4.163013,"canPickup":true,"canDropoff":true,"openingstijden":{"ma":"00:00 - 23:59","di":"00:00 - 23:59","wo":"00:00 - 23:59","do":"00:00 - 23:59","vr":"00:00 - 23:59","za":"00:00 - 23:59","zo":"00:00 - 23:59"}}},{"type":"Feature","geometry":{"type":"Point","coordinates":[4.149722,51.748889]},"properties":{"type":"pakketpunt","locatieNaam":"FedEx OnSite","straatNaam":"STAVERSEWEG 2","straatNr":"","vervoerder":"FedEx","puntType":"servicepunt","bezettingsgraad":50,"latitude":51.748889,"longitude":4.149722,"canPickup":true,"canDropoff":true,"openingstijden":{"ma":"09:00 - 17:30","di":"09:00 - 17:30","wo":"09:00 - 17:30","do":"09:00 - 17:30","vr":"09:00 - 17:30","za":"09:00 - 17:00","zo":"gesloten"}}},{"type":"Feature","geometry":{"type":"Point","coordinates":[4.159124031935111,51.751033232037315]},"properties":{"type":"pakketpunt","locatieNaam":"FedEx Ship&Get","straatNaam":"Langeweg 113 PBA","straatNr":"","vervoerder":"FedEx","puntType":"servicepunt","bezettingsgraad":50,"latitude":51.751033232037315,"longitude":4.159124031935111,"canPickup":true,"canDropoff":true,"openingstijden":{"ma":"00:00 - 23:59","di":"00:00 - 23:59","wo":"00:00 - 23:59","do":"00:00 - 23:59","vr":"00:00 - 23:59","za":"00:00 - 23:59","zo":"00:00 - 23:59"}}},{"type":"Feature","geometry":{"type":"Point","coordinates":[4.071462,51.773198]},"properties":{"type":"pakketpunt","locatieNaam":"FedEx Ship&Get","straatNaam":"Ruijgenhil 9 PBA","straatNr":"","vervoerder":"FedEx","puntType":"servicepunt","bezettingsgraad":50,"latitude":51.773198,"longitude":4.071462,"canPickup":true,"canDropoff":true,"openingstijden":{"ma":"00:00 - 23:59","di":"00:00 - 23:59","wo":"00:00 - 23:59","do":"00:00 - 23:59","vr":"00:00 - 23:59","za":"00:00 - 23:59","zo":"00:00 - 23:59"}}},{"type":"Feature","geometry":{"type":"Point","coordinates":[3.934852,51.80911]},"properties":{"type":"pakketpunt","locatieNaam":"FedEx OnSite","straatNaam":"HOENDERDIJK 9","straatNr":"","vervoerder":"FedEx","puntType":"servicepunt","bezettingsgraad":50,"latitude":51.80911,"longitude":3.934852,"canPickup":true,"canDropoff":true,"openingstijden":{"ma":"09:00 - 12:00, 13:00 - 17:00","di":"09:00 - 12:00","wo":"09:00 - 12:00, 13:00 - 17:00","do":"09:00 - 12:00, 13:00 - 17:00","vr":"09:00 - 12:00, 13:00 - 17:00","za":"09:00 - 16:00","zo":"gesloten"}}},{"type":"Feature","geometry":{"type":"Point","coordinates":[3.93485,51.80911]},"properties":{"type":"pakketpunt","locatieNaam":"BOEKHANDEL AKERSHOEK","straatNaam":"Hoenderdijk 9","straatNr":"","vervoerder":"InPost","puntType":"servicepunt","bezettingsgraad":50,"latitude":51.80911,"longitude":3.93485,"canPickup":true,"canDropoff":true,"openingstijden":null}},{"type":"Feature","geometry":{"type":"Point","coordinates":[4.14972,51.74889]},"properties":{"type":"pakketpunt","locatieNaam":"TUINCENTRUM GRAKA","straatNaam":"STAVERSEWEG 2","straatNr":"","vervoerder":"InPost","puntType":"servicepunt","bezettingsgraad":50,"latitude":51.74889,"longitude":4.14972,"canPickup":true,"canDropoff":true,"openingstijden":"L/Ma/Me/J/V 9-17:30,S 9-17"}},{"type":"Feature","geometry":{"type":"Point","coordinates":[4.06648,51.77017]},"properties":{"type":"pakketpunt","locatieNaam":"","straatNaam":"Voorstraat","straatNr":"21","vervoerder":"InPost","puntType":"automaat","bezettingsgraad":50,"latitude":51.77017,"longitude":4.06648,"canPickup":true,"canDropoff":true,"openingstijden":"MON|08:30-18:00|-;TUE|08:30-18:00|-;WED|08:30-18:00|-;THU|08:30-18:00|-;FRI|08:30-18:00|-;SAT|08:30-17:00|-;SUN|-|-;"}},{"type":"Feature","geometry":{"type":"Point","coordinates":[4.15591,51.76087]},"properties":{"type":"pakketpunt","locatieNaam":"FLORA BABY & GIFTS","straatNaam":"Zandpad 11","straatNr":"","vervoerder":"InPost","puntType":"servicepunt","bezettingsgraad":50,"latitude":51.76087,"longitude":4.15591,"canPickup":true,"canDropoff":true,"openingstijden":null}},{"type":"Feature","geometry":{"type":"Point","coordinates":[4.28929,51.71409]},"properties":{"type":"pakketpunt","locatieNaam":"","straatNaam":"Schaapsweg","straatNr":"34","vervoerder":"InPost","puntType":"automaat","bezettingsgraad":50,"latitude":51.71409,"longitude":4.28929,"canPickup":true,"canDropoff":true,"openingstijden":"24/7"}},{"type":"Feature","geometry":{"type":"Point","coordinates":[4.18872,51.76587]},"properties":{"type":"pakketpunt","locatieNaam":"","straatNaam":"Oostplaatseweg","straatNr":"1","vervoerder":"InPost","puntType":"automaat","bezettingsgraad":50,"latitude":51.76587,"longitude":4.18872,"canPickup":true,"canDropoff":true,"openingstijden":"24/7"}},{"type":"Feature","geometry":{"type":"Polygon","coordinates":[[[3.773675,51.78152],[3.826213,51.765841],[3.826412,51.765724],[3.839218,51.758232],[3.841658,51.756785],[3.847428,51.753401],[3.852022,51.75248],[3.869794,51.748916],[3.875894,51.747692],[3.886171,51.749358],[3.895058,51.757413],[3.897557,51.759218],[3.905057,51.764634],[3.921444,51.770745],[3.94033,51.7738],[3.95277,51.772686],[3.958938,51.772133],[3.960051,51.771537],[3.969008,51.766739],[3.974491,51.763801],[3.996936,51.761035],[4.001352,51.760491],[4.01114,51.759283],[4.013336,51.759012],[4.015836,51.751672],[4.018885,51.742718],[4.026258,51.738309],[4.035038,51.730194],[4.035789,51.724935],[4.036426,51.720472],[4.036704,51.711029],[4.040037,51.702697],[4.047813,51.694364],[4.053421,51.693751],[4.060589,51.692976],[4.066297,51.692853],[4.06973,51.692779],[4.073643,51.692698],[4.086419,51.691587],[4.098084,51.690476],[4.107932,51.687728],[4.110027,51.687143],[4.12308,51.685754],[4.129079,51.685643],[4.138078,51.685476],[4.151825,51.685233],[4.152317,51.684989],[4.155371,51.683473],[4.163164,51.679604],[4.177372,51.672546],[4.187407,51.66756],[4.193764,51.664399],[4.193873,51.664355],[4.202701,51.660764],[4.242786,51.647063],[4.244416,51.646717],[4.245212,51.646547],[4.247464,51.646093],[4.249017,51.645802],[4.251104,51.645562],[4.253289,51.645412],[4.255345,51.645243],[4.257589,51.645067],[4.25979,51.644891],[4.260243,51.644856],[4.261874,51.644731],[4.264104,51.644564],[4.266314,51.644397],[4.266336,51.644395],[4.268345,51.644245],[4.270531,51.644077],[4.272688,51.6439],[4.275003,51.643778],[4.277076,51.644076],[4.279845,51.64452],[4.28125,51.644745],[4.285396,51.645377],[4.287454,51.645702],[4.289613,51.646037],[4.291672,51.646344],[4.293745,51.646669],[4.295904,51.646995],[4.297545,51.647251],[4.298107,51.647339],[4.299389,51.647513],[4.300997,51.64795],[4.302576,51.648351],[4.303552,51.648639],[4.305203,51.649113],[4.307111,51.649697],[4.309106,51.650246],[4.311262,51.650742],[4.313377,51.651112],[4.314199,51.651232],[4.315552,51.651429],[4.31767,51.651673],[4.318399,51.651741],[4.319805,51.651872],[4.321967,51.652098],[4.324086,51.652333],[4.326248,51.652578],[4.328321,51.65292],[4.330464,51.653326],[4.332205,51.653679],[4.332291,51.653697],[4.33255,51.653749],[4.334476,51.654207],[4.336646,51.65473],[4.337809,51.655029],[4.338743,51.65527],[4.340668,51.655782],[4.34275,51.656358],[4.344775,51.656924],[4.345767,51.657226],[4.346598,51.65748],[4.348664,51.658145],[4.352393,51.659392],[4.354343,51.660065],[4.356221,51.660756],[4.358084,51.661446],[4.359961,51.662191],[4.361693,51.662917],[4.361822,51.662979],[4.363495,51.663795],[4.365038,51.664591],[4.366223,51.665356],[4.366519,51.665548],[4.367986,51.666549],[4.369437,51.667595],[4.370788,51.668596],[4.372196,51.669606],[4.373355,51.670812],[4.374456,51.671999],[4.37547,51.673185],[4.376484,51.674389],[4.376519,51.674435],[4.377412,51.675584],[4.378193,51.676858],[4.378843,51.678167],[4.379249,51.679438],[4.379493,51.680824],[4.379505,51.682245],[4.37944,51.683423],[4.379431,51.683575],[4.379431,51.683592],[4.393621,51.693296],[4.398831,51.696114],[4.398906,51.696154],[4.398914,51.696159],[4.400071,51.696784],[4.400164,51.696835],[4.401847,51.697745],[4.402311,51.697996],[4.403474,51.698625],[4.403638,51.698713],[4.41269,51.703606],[4.42355,51.709475],[4.422143,51.709574],[4.404759,51.710795],[4.398718,51.711219],[4.398271,51.711325],[4.398046,51.711378],[4.397821,51.711432],[4.397366,51.71154],[4.387401,51.71075],[4.380489,51.710201],[4.372703,51.709583],[4.369986,51.709651],[4.367635,51.709726],[4.365413,51.709793],[4.365236,51.709796],[4.365041,51.709804],[4.364495,51.709819],[4.36416,51.709832],[4.362566,51.709879],[4.359813,51.70998],[4.358662,51.710035],[4.357862,51.710082],[4.357005,51.710147],[4.35605,51.710231],[4.355315,51.710302],[4.354592,51.710381],[4.35428,51.71042],[4.353427,51.71052],[4.352734,51.710606],[4.352357,51.710649],[4.351222,51.710791],[4.34623,51.711446],[4.342104,51.712],[4.340938,51.712165],[4.339692,51.712347],[4.338282,51.712567],[4.337231,51.712736],[4.335432,51.713034],[4.333837,51.71331],[4.332535,51.713545],[4.330604,51.713902],[4.329359,51.714142],[4.328246,51.714361],[4.327986,51.714417],[4.326507,51.714703],[4.32429,51.715143],[4.320585,51.715905],[4.318481,51.716338],[4.318013,51.716428],[4.317694,51.716495],[4.317424,51.716547],[4.316965,51.716644],[4.316543,51.716735],[4.316414,51.716769],[4.316347,51.716782],[4.316322,51.716787],[4.315633,51.716966],[4.315368,51.717044],[4.315211,51.717089],[4.315109,51.717123],[4.314761,51.717231],[4.314647,51.717269],[4.314093,51.717458],[4.313994,51.717495],[4.313906,51.717524],[4.31385,51.717551],[4.313607,51.717638],[4.313414,51.717714],[4.312965,51.717898],[4.312625,51.718045],[4.312494,51.718095],[4.312186,51.718237],[4.311893,51.718365],[4.311708,51.718455],[4.311619,51.718494],[4.311236,51.718684],[4.310352,51.719127],[4.308999,51.719827],[4.308648,51.720015],[4.3077,51.720516],[4.306561,51.721135],[4.30526,51.721834],[4.304961,51.721999],[4.304666,51.722169],[4.304277,51.72243],[4.303722,51.722842],[4.303207,51.723253],[4.302792,51.723554],[4.302431,51.7238],[4.302081,51.724029],[4.30186,51.724161],[4.30158,51.724316],[4.301133,51.724541],[4.300667,51.724766],[4.300149,51.725006],[4.300003,51.725069],[4.299845,51.725144],[4.299536,51.725283],[4.299137,51.725451],[4.298214,51.725815],[4.297777,51.725985],[4.297219,51.726192],[4.296125,51.726589],[4.295546,51.726792],[4.293299,51.727561],[4.291676,51.728111],[4.289258,51.728921],[4.288477,51.72918],[4.288335,51.729231],[4.288299,51.729245],[4.288057,51.729323],[4.287945,51.729364],[4.28593,51.730046],[4.285246,51.73028],[4.284937,51.730382],[4.284165,51.730647],[4.282925,51.731068],[4.282483,51.731222],[4.282335,51.731271],[4.279972,51.732078],[4.279477,51.73225],[4.278392,51.732633],[4.277861,51.732836],[4.277671,51.732912],[4.276766,51.733262],[4.275404,51.733824],[4.273904,51.734485],[4.273331,51.734729],[4.272474,51.735089],[4.271744,51.735514],[4.271089,51.735889],[4.269545,51.736761],[4.268204,51.737609],[4.267337,51.7382],[4.26727,51.738247],[4.265861,51.739233],[4.265121,51.73981],[4.264678,51.740213],[4.264379,51.740496],[4.26404,51.740829],[4.263635,51.741227],[4.262894,51.742007],[4.262264,51.742691],[4.26138,51.743663],[4.26073,51.744392],[4.259944,51.745284],[4.259916,51.745316],[4.259171,51.746214],[4.25843,51.747165],[4.257754,51.748048],[4.257453,51.748452],[4.256741,51.749476],[4.256524,51.749829],[4.256192,51.750354],[4.256087,51.750505],[4.255689,51.751112],[4.255456,51.75146],[4.255094,51.75197],[4.254672,51.752553],[4.254603,51.752633],[4.254399,51.752885],[4.253927,51.753477],[4.253294,51.754209],[4.253178,51.754343],[4.252717,51.754829],[4.251689,51.755874],[4.25095,51.756517],[4.250203,51.757207],[4.249442,51.757868],[4.248724,51.758461],[4.247243,51.759666],[4.245768,51.760831],[4.244095,51.762002],[4.243467,51.762437],[4.242821,51.762878],[4.242526,51.763094],[4.241343,51.76396],[4.23987,51.765113],[4.238387,51.766312],[4.236908,51.767556],[4.236175,51.768121],[4.235434,51.768658],[4.234889,51.76901],[4.234583,51.769193],[4.234004,51.769539],[4.23396,51.769565],[4.233221,51.769979],[4.232494,51.770351],[4.231767,51.770735],[4.231429,51.770941],[4.231025,51.77118],[4.23028,51.7718],[4.230114,51.771961],[4.229533,51.772524],[4.228054,51.774022],[4.226563,51.775466],[4.225109,51.776807],[4.223596,51.778063],[4.222124,51.77921],[4.220643,51.780291],[4.219847,51.780848],[4.218244,51.781972],[4.213266,51.785255],[4.213247,51.785267],[4.21021,51.787201],[4.208411,51.787944],[4.206307,51.788347],[4.202957,51.788812],[4.197856,51.789587],[4.197748,51.789616],[4.195437,51.790232],[4.194056,51.790638],[4.192632,51.791113],[4.192165,51.791263],[4.190248,51.791719],[4.188152,51.792135],[4.186276,51.792494],[4.184081,51.79266],[4.184066,51.792661],[4.181692,51.792551],[4.179457,51.792278],[4.17737,51.791945],[4.175183,51.791739],[4.173115,51.792234],[4.17134,51.792988],[4.169633,51.793922],[4.168076,51.794734],[4.166375,51.795572],[4.165013,51.796269],[4.163038,51.797283],[4.161468,51.798125],[4.161265,51.798229],[4.159849,51.798956],[4.158207,51.799856],[4.156566,51.800728],[4.154865,51.801596],[4.154843,51.801607],[4.153511,51.802268],[4.153327,51.802379],[4.153008,51.802572],[4.152847,51.802669],[4.152435,51.802918],[4.151177,51.80404],[4.150283,51.805018],[4.149326,51.805563],[4.147107,51.806199],[4.144851,51.806598],[4.142161,51.807017],[4.141967,51.807048],[4.140779,51.807139],[4.139567,51.807233],[4.137837,51.8073],[4.135863,51.807362],[4.133487,51.80733],[4.131472,51.807213],[4.129419,51.806873],[4.127847,51.806527],[4.125574,51.80639],[4.123433,51.80651],[4.121554,51.806874],[4.1198,51.807494],[4.118745,51.807919],[4.116117,51.809008],[4.115823,51.80914],[4.112492,51.810628],[4.1106,51.811416],[4.108734,51.812091],[4.106742,51.812668],[4.102511,51.813585],[4.098387,51.814372],[4.096052,51.814737],[4.091941,51.815292],[4.08792,51.816022],[4.087337,51.816126],[4.083192,51.816865],[4.080671,51.817315],[4.079598,51.817494],[4.076689,51.817979],[4.072571,51.818762],[4.070471,51.819289],[4.068722,51.819817],[4.064656,51.821109],[4.062654,51.82192],[4.060972,51.822879],[4.059543,51.823743],[4.058029,51.824722],[4.057042,51.825435],[4.056657,51.82572],[4.055745,51.826421],[4.054226,51.827612],[4.053836,51.827917],[4.052865,51.828636],[4.052728,51.828738],[4.052426,51.828967],[4.050997,51.830051],[4.049503,51.83124],[4.048255,51.832362],[4.047694,51.832945],[4.046923,51.833746],[4.046154,51.834603],[4.044751,51.836224],[4.04246,51.838689],[4.041436,51.839904],[4.041218,51.840191],[4.039835,51.842114],[4.035203,51.858598],[3.995153,51.858125],[3.995152,51.858125],[3.95558,51.857654],[3.954725,51.854974],[3.953344,51.85065],[3.953147,51.850032],[3.950694,51.84946],[3.934262,51.845629],[3.914201,51.840948],[3.901252,51.837924],[3.894233,51.836284],[3.89089,51.835502],[3.890166,51.835333],[3.888911,51.83504],[3.887804,51.834781],[3.887324,51.834669],[3.886015,51.834363],[3.869204,51.830432],[3.863918,51.829195],[3.860367,51.828364],[3.83055,51.812286],[3.826273,51.80996],[3.80174,51.796703],[3.773675,51.78152]]]},"properties":{"type":"boundary","gemeente":"Goeree-Overflakkee"}}]}