{"type":"FeatureCollection","metadata":{"gemeente":"Haarlem","slug":"haarlem","generated_at":"2026-10-05T08:52:21.554936Z","total_points":116,"providers":["Amazon","DeBuren","DHL","DPD","PostNL","VintedGo","ViaTim","FedEx","InPost","Budbee"],"bounds":[4.611075,52.35531583,4.6679856,52.42111121738764]},"features":[{"type":"Feature","geometry":{"type":"Point","coordinates":[4.611075,52.38855]},"properties":{"type":"pakketpunt","locatieNaam":"DHL - Pakketautomaat Basic-Fit Bijdorpln","straatNaam":"Bijdorplaan 15","straatNr":"","vervoerder":"Amazon","puntType":"3p","bezettingsgraad":50,"latitude":52.38855,"longitude":4.611075,"canPickup":true,"canDropoff":false,"openingstijden":null}},{"type":"Feature","geometry":{"type":"Point","coordinates":[4.611510753631592,52.381046295166016]},"properties":{"type":"pakketpunt","locatieNaam":"DHL - Pakketautomaat Total Vlaamseweg","straatNaam":"Vlaamseweg 2","straatNr":"","vervoerder":"Amazon","puntType":"3p","bezettingsgraad":50,"latitude":52.381046295166016,"longitude":4.611510753631592,"canPickup":true,"canDropoff":false,"openingstijden":null}},{"type":"Feature","geometry":{"type":"Point","coordinates":[4.64248727275483,52.3954708924679]},"properties":{"type":"pakketpunt","locatieNaam":"Used Products","straatNaam":"Generaal Cronjestraat 130","straatNr":"","vervoerder":"Amazon","puntType":"3p","bezettingsgraad":50,"latitude":52.3954708924679,"longitude":4.64248727275483,"canPickup":true,"canDropoff":false,"openingstijden":null}},{"type":"Feature","geometry":{"type":"Point","coordinates":[4.634309761,52.38473261]},"properties":{"type":"pakketpunt","locatieNaam":"Roads Print en Pixels","straatNaam":"Nassauplein 4","straatNr":"","vervoerder":"Amazon","puntType":"3p","bezettingsgraad":50,"latitude":52.38473261,"longitude":4.634309761,"canPickup":true,"canDropoff":false,"openingstijden":null}},{"type":"Feature","geometry":{"type":"Point","coordinates":[4.613670349121094,52.36936569213867]},"properties":{"type":"pakketpunt","locatieNaam":"DHL - Pakketautomaat Stephensonstraat","straatNaam":"Stephensonstraat 50","straatNr":"","vervoerder":"Amazon","puntType":"3p","bezettingsgraad":50,"latitude":52.36936569213867,"longitude":4.613670349121094,"canPickup":true,"canDropoff":false,"openingstijden":null}},{"type":"Feature","geometry":{"type":"Point","coordinates":[4.63701116088379,52.3865473318432]},"properties":{"type":"pakketpunt","locatieNaam":"Suny Tele Technics PpP","straatNaam":"Lange Herenstraat 4","straatNr":"","vervoerder":"Amazon","puntType":"3p","bezettingsgraad":50,"latitude":52.3865473318432,"longitude":4.63701116088379,"canPickup":true,"canDropoff":false,"openingstijden":null}},{"type":"Feature","geometry":{"type":"Point","coordinates":[4.651662735912717,52.42111121738764]},"properties":{"type":"pakketpunt","locatieNaam":"DHL - Pakketautomaat Basic-Fit Haarlem","straatNaam":"Vondelweg 540","straatNr":"","vervoerder":"Amazon","puntType":"3p","bezettingsgraad":50,"latitude":52.42111121738764,"longitude":4.651662735912717,"canPickup":true,"canDropoff":false,"openingstijden":null}},{"type":"Feature","geometry":{"type":"Point","coordinates":[4.654046839,52.35836017]},"properties":{"type":"pakketpunt","locatieNaam":"Fiets-Safe","straatNaam":"Rivieradreef 41 A","straatNr":"","vervoerder":"Amazon","puntType":"3p","bezettingsgraad":50,"latitude":52.35836017,"longitude":4.654046839,"canPickup":true,"canDropoff":false,"openingstijden":null}},{"type":"Feature","geometry":{"type":"Point","coordinates":[4.61438798,52.3695439]},"properties":{"type":"pakketpunt","locatieNaam":"Haarlem | Stephensonstraat | Winkelcentrum | Pakketautomaat","straatNaam":"Stephensonstraat ","straatNr":"50","vervoerder":"DeBuren","puntType":"Afhaalpunt","bezettingsgraad":50,"latitude":52.3695439,"longitude":4.61438798,"canPickup":true,"canDropoff":true,"openingstijden":null}},{"type":"Feature","geometry":{"type":"Point","coordinates":[4.66367551,52.35531583]},"properties":{"type":"pakketpunt","locatieNaam":"Haarlem | Leonardo Da Vinciplein | Winkelcentrum | Pakketautomaat","straatNaam":"Leonardo da Vinciplein","straatNr":"4","vervoerder":"DeBuren","puntType":"Afhaalpunt","bezettingsgraad":50,"latitude":52.35531583,"longitude":4.66367551,"canPickup":true,"canDropoff":true,"openingstijden":null}},{"type":"Feature","geometry":{"type":"Point","coordinates":[4.64852734,52.39146016]},"properties":{"type":"pakketpunt","locatieNaam":"Haarlem | Paul Krugerkade | WC Spaarneboog | Pakketautomaat","straatNaam":"Paul Krugerkade","straatNr":"26","vervoerder":"DeBuren","puntType":"Afhaalpunt","bezettingsgraad":50,"latitude":52.39146016,"longitude":4.64852734,"canPickup":true,"canDropoff":true,"openingstijden":null}},{"type":"Feature","geometry":{"type":"Point","coordinates":[4.611510753631592,52.381046295166016]},"properties":{"type":"pakketpunt","locatieNaam":"Pakketautomaat Total Vlaamseweg","straatNaam":"Vlaamseweg","straatNr":"2","vervoerder":"DHL","puntType":"packStation","bezettingsgraad":50,"latitude":52.381046295166016,"longitude":4.611510753631592,"canPickup":true,"canDropoff":true,"openingstijden":{"ma":"00:00 - 23:59","di":"00:00 - 23:59","wo":"00:00 - 23:59","do":"00:00 - 23:59","vr":"00:00 - 23:59","za":"00:00 - 23:59","zo":"00:00 - 23:59"}}},{"type":"Feature","geometry":{"type":"Point","coordinates":[4.613670349121094,52.36936569213867]},"properties":{"type":"pakketpunt","locatieNaam":"Pakketautomaat Stephensonstraat","straatNaam":"Stephensonstraat","straatNr":"50","vervoerder":"DHL","puntType":"packStation","bezettingsgraad":50,"latitude":52.36936569213867,"longitude":4.613670349121094,"canPickup":true,"canDropoff":true,"openingstijden":{"ma":"07:00 - 22:00","di":"07:00 - 22:00","wo":"07:00 - 22:00","do":"07:00 - 22:00","vr":"07:00 - 22:00","za":"07:00 - 22:00","zo":"07:00 - 22:00"}}},{"type":"Feature","geometry":{"type":"Point","coordinates":[4.615921009864547,52.375505335477364]},"properties":{"type":"pakketpunt","locatieNaam":"Pakketautomaat Karwei Haarlem Z","straatNaam":"Eysinkweg","straatNr":"63","vervoerder":"DHL","puntType":"packStation","bezettingsgraad":50,"latitude":52.375505335477364,"longitude":4.615921009864547,"canPickup":true,"canDropoff":true,"openingstijden":{"ma":"09:00 - 21:00","di":"09:00 - 21:00","wo":"09:00 - 21:00","do":"09:00 - 21:00","vr":"09:00 - 21:00","za":"09:00 - 18:00","zo":"10:00 - 17:00"}}},{"type":"Feature","geometry":{"type":"Point","coordinates":[4.611075,52.38855]},"properties":{"type":"pakketpunt","locatieNaam":"Pakketautomaat Basic-Fit Bijdorpln","straatNaam":"Bijdorplaan","straatNr":"15","vervoerder":"DHL","puntType":"packStation","bezettingsgraad":50,"latitude":52.38855,"longitude":4.611075,"canPickup":true,"canDropoff":true,"openingstijden":{"ma":"00:00 - 23:59","di":"00:00 - 23:59","wo":"00:00 - 23:59","do":"00:00 - 23:59","vr":"00:00 - 23:59","za":"00:00 - 23:59","zo":"00:00 - 23:59"}}},{"type":"Feature","geometry":{"type":"Point","coordinates":[4.6181860924002605,52.378694017393535]},"properties":{"type":"pakketpunt","locatieNaam":"Pakketautomaat Maxi Zoo Haarlem","straatNaam":"Menno Simonszplein","straatNr":"1","vervoerder":"DHL","puntType":"packStation","bezettingsgraad":50,"latitude":52.378694017393535,"longitude":4.6181860924002605,"canPickup":true,"canDropoff":true,"openingstijden":{"ma":"09:00 - 18:00","di":"09:00 - 18:00","wo":"09:00 - 18:00","do":"09:00 - 21:00","vr":"09:00 - 18:00","za":"09:00 - 17:00","zo":"12:00 - 17:00"}}},{"type":"Feature","geometry":{"type":"Point","coordinates":[4.6239332,52.3852405]},"properties":{"type":"pakketpunt","locatieNaam":"Pakketautomaat Polski Sklep Haarle","straatNaam":"Zijlweg","straatNr":"100","vervoerder":"DHL","puntType":"packStation","bezettingsgraad":50,"latitude":52.3852405,"longitude":4.6239332,"canPickup":true,"canDropoff":true,"openingstijden":{"ma":"09:00 - 20:00","di":"09:00 - 20:00","wo":"09:00 - 20:00","do":"09:00 - 20:00","vr":"09:00 - 20:00","za":"09:00 - 20:00","zo":"10:00 - 18:00"}}},{"type":"Feature","geometry":{"type":"Point","coordinates":[4.628152370452881,52.383975982666016]},"properties":{"type":"pakketpunt","locatieNaam":"Telefoon Wereld","straatNaam":"Zijlweg","straatNr":"24","vervoerder":"DHL","puntType":"parcelShop","bezettingsgraad":50,"latitude":52.383975982666016,"longitude":4.628152370452881,"canPickup":true,"canDropoff":true,"openingstijden":{"ma":"10:00 - 18:00","di":"09:30 - 18:00","wo":"09:30 - 18:00","do":"09:30 - 18:00","vr":"09:30 - 18:00","za":"10:00 - 17:00","zo":"gesloten"}}},{"type":"Feature","geometry":{"type":"Point","coordinates":[4.626483635341265,52.389908810310416]},"properties":{"type":"pakketpunt","locatieNaam":"Pakketautomaat Karwei Haarlem","straatNaam":"Verspronckweg","straatNr":"63","vervoerder":"DHL","puntType":"packStation","bezettingsgraad":50,"latitude":52.389908810310416,"longitude":4.626483635341265,"canPickup":true,"canDropoff":true,"openingstijden":{"ma":"09:00 - 21:00","di":"09:00 - 21:00","wo":"09:00 - 21:00","do":"09:00 - 21:00","vr":"09:00 - 21:00","za":"09:00 - 18:00","zo":"10:00 - 17:00"}}},{"type":"Feature","geometry":{"type":"Point","coordinates":[4.633312,52.379332]},"properties":{"type":"pakketpunt","locatieNaam":"Pakketautomaat HEMA Haarlem C","straatNaam":"Grote Houtstraat","straatNr":"70-Kast","vervoerder":"DHL","puntType":"packStation","bezettingsgraad":50,"latitude":52.379332,"longitude":4.633312,"canPickup":true,"canDropoff":true,"openingstijden":{"ma":"09:00 - 18:00","di":"09:00 - 18:00","wo":"09:00 - 18:00","do":"09:00 - 21:00","vr":"09:00 - 18:00","za":"09:00 - 18:00","zo":"12:00 - 18:00"}}},{"type":"Feature","geometry":{"type":"Point","coordinates":[4.6354429,52.3809045]},"properties":{"type":"pakketpunt","locatieNaam":"Intertoys Haarlem Houtstraat","straatNaam":"Grote Houtstraat","straatNr":"8","vervoerder":"DHL","puntType":"parcelShop","bezettingsgraad":50,"latitude":52.3809045,"longitude":4.6354429,"canPickup":true,"canDropoff":true,"openingstijden":{"ma":"12:00 - 18:00","di":"09:30 - 18:00","wo":"09:30 - 18:00","do":"09:30 - 18:00","vr":"09:30 - 18:00","za":"09:30 - 17:00","zo":"12:00 - 17:00"}}},{"type":"Feature","geometry":{"type":"Point","coordinates":[4.636316268457072,52.38646857984303]},"properties":{"type":"pakketpunt","locatieNaam":"Pakketautomaat Walk2Shop","straatNaam":"Kruisweg","straatNr":"66","vervoerder":"DHL","puntType":"packStation","bezettingsgraad":50,"latitude":52.38646857984303,"longitude":4.636316268457072,"canPickup":true,"canDropoff":true,"openingstijden":{"ma":"12:00 - 20:00","di":"12:00 - 20:00","wo":"12:00 - 20:00","do":"12:00 - 20:00","vr":"12:00 - 21:00","za":"12:00 - 21:00","zo":"gesloten"}}},{"type":"Feature","geometry":{"type":"Point","coordinates":[4.637016,52.386487]},"properties":{"type":"pakketpunt","locatieNaam":"Suny Tele Technics","straatNaam":"Lange Herenstraat","straatNr":"4","vervoerder":"DHL","puntType":"parcelShop","bezettingsgraad":50,"latitude":52.386487,"longitude":4.637016,"canPickup":true,"canDropoff":true,"openingstijden":{"ma":"11:00 - 20:00","di":"11:00 - 20:00","wo":"11:00 - 20:00","do":"11:00 - 20:00","vr":"11:00 - 20:00","za":"11:00 - 20:00","zo":"gesloten"}}},{"type":"Feature","geometry":{"type":"Point","coordinates":[4.641606,52.393577]},"properties":{"type":"pakketpunt","locatieNaam":"Tabakshop Haarlem","straatNaam":"Generaal Cronjéstraat","straatNr":"48","vervoerder":"DHL","puntType":"parcelShop","bezettingsgraad":50,"latitude":52.393577,"longitude":4.641606,"canPickup":true,"canDropoff":true,"openingstijden":{"ma":"10:00 - 14:00, 14:30 - 18:00","di":"10:00 - 14:00, 14:30 - 18:00","wo":"10:00 - 14:00, 14:30 - 18:00","do":"10:00 - 14:00, 14:30 - 18:00","vr":"10:00 - 14:00, 14:30 - 18:00","za":"11:00 - 14:00, 14:30 - 18:00","zo":"12:00 - 18:00"}}},{"type":"Feature","geometry":{"type":"Point","coordinates":[4.647807,52.379404]},"properties":{"type":"pakketpunt","locatieNaam":"DA Drogisterij van den Brand","straatNaam":"Amsterdamstraat","straatNr":"25","vervoerder":"DHL","puntType":"parcelShop","bezettingsgraad":50,"latitude":52.379404,"longitude":4.647807,"canPickup":true,"canDropoff":true,"openingstijden":{"ma":"11:00 - 17:30","di":"10:00 - 17:30","wo":"10:00 - 17:30","do":"10:00 - 17:30","vr":"10:00 - 17:30","za":"10:00 - 16:30","zo":"gesloten"}}},{"type":"Feature","geometry":{"type":"Point","coordinates":[4.64794921875,52.37903594970703]},"properties":{"type":"pakketpunt","locatieNaam":"Mobile Service Point","straatNaam":"Amsterdamstraat","straatNr":"47","vervoerder":"DHL","puntType":"parcelShop","bezettingsgraad":50,"latitude":52.37903594970703,"longitude":4.64794921875,"canPickup":true,"canDropoff":true,"openingstijden":{"ma":"12:00 - 18:00","di":"11:00 - 18:00","wo":"11:00 - 18:00","do":"11:00 - 18:00","vr":"11:00 - 18:00","za":"11:00 - 17:00","zo":"gesloten"}}},{"type":"Feature","geometry":{"type":"Point","coordinates":[4.637075,52.400895]},"properties":{"type":"pakketpunt","locatieNaam":"IJzerhandel Toornend","straatNaam":"Marnixstraat","straatNr":"136","vervoerder":"DHL","puntType":"parcelShop","bezettingsgraad":50,"latitude":52.400895,"longitude":4.637075,"canPickup":true,"canDropoff":true,"openingstijden":{"ma":"12:00 - 18:00","di":"09:00 - 18:00","wo":"09:00 - 18:00","do":"09:00 - 18:00","vr":"09:00 - 18:00","za":"09:00 - 17:00","zo":"gesloten"}}},{"type":"Feature","geometry":{"type":"Point","coordinates":[4.649423,52.361704]},"properties":{"type":"pakketpunt","locatieNaam":"Selek Interieur","straatNaam":"Italielaan","straatNr":"157","vervoerder":"DHL","puntType":"parcelShop","bezettingsgraad":50,"latitude":52.361704,"longitude":4.649423,"canPickup":true,"canDropoff":true,"openingstijden":{"ma":"13:00 - 18:00","di":"09:30 - 18:00","wo":"09:30 - 18:00","do":"09:30 - 18:00","vr":"09:30 - 18:00","za":"10:00 - 17:00","zo":"gesloten"}}},{"type":"Feature","geometry":{"type":"Point","coordinates":[4.648902,52.390827]},"properties":{"type":"pakketpunt","locatieNaam":"Pakketautomaat WKC Spaarneboog","straatNaam":"Paul Krugerkade","straatNr":"26","vervoerder":"DHL","puntType":"packStation","bezettingsgraad":50,"latitude":52.390827,"longitude":4.648902,"canPickup":true,"canDropoff":true,"openingstijden":{"ma":"07:00 - 23:00","di":"07:00 - 23:00","wo":"07:00 - 23:00","do":"07:00 - 23:00","vr":"07:00 - 23:00","za":"08:00 - 21:00","zo":"08:00 - 18:00"}}},{"type":"Feature","geometry":{"type":"Point","coordinates":[4.65374,52.35913]},"properties":{"type":"pakketpunt","locatieNaam":"Pakketautomaat HEMA Schalkwijk","straatNaam":"Rivieradreef","straatNr":"24-Kast","vervoerder":"DHL","puntType":"packStation","bezettingsgraad":50,"latitude":52.35913,"longitude":4.65374,"canPickup":true,"canDropoff":true,"openingstijden":{"ma":"09:00 - 18:00","di":"09:00 - 18:00","wo":"09:00 - 18:00","do":"09:00 - 20:00","vr":"09:00 - 18:00","za":"09:00 - 17:00","zo":"12:00 - 17:00"}}},{"type":"Feature","geometry":{"type":"Point","coordinates":[4.654161497290674,52.35938881125251]},"properties":{"type":"pakketpunt","locatieNaam":"Hippe boefjes","straatNaam":"Rivieradreef","straatNr":"25","vervoerder":"DHL","puntType":"parcelShop","bezettingsgraad":50,"latitude":52.35938881125251,"longitude":4.654161497290674,"canPickup":true,"canDropoff":true,"openingstijden":{"ma":"12:00 - 18:00","di":"10:00 - 18:00","wo":"10:00 - 18:00","do":"10:00 - 18:00","vr":"10:00 - 18:00","za":"10:00 - 17:00","zo":"gesloten"}}},{"type":"Feature","geometry":{"type":"Point","coordinates":[4.654553,52.358593]},"properties":{"type":"pakketpunt","locatieNaam":"Intertoys Schalkwijk","straatNaam":"Nice Passage","straatNr":"4","vervoerder":"DHL","puntType":"parcelShop","bezettingsgraad":50,"latitude":52.358593,"longitude":4.654553,"canPickup":true,"canDropoff":true,"openingstijden":{"ma":"11:00 - 18:00","di":"09:00 - 18:00","wo":"09:00 - 18:00","do":"09:00 - 18:00","vr":"09:00 - 18:00","za":"09:00 - 17:00","zo":"12:00 - 17:00"}}},{"type":"Feature","geometry":{"type":"Point","coordinates":[4.65501594543457,52.359764099121094]},"properties":{"type":"pakketpunt","locatieNaam":"Tabakszaak Schalkwijk","straatNaam":"Menton passage","straatNr":"9","vervoerder":"DHL","puntType":"parcelShop","bezettingsgraad":50,"latitude":52.359764099121094,"longitude":4.65501594543457,"canPickup":true,"canDropoff":true,"openingstijden":{"ma":"11:00 - 17:30","di":"09:00 - 17:30","wo":"09:00 - 17:30","do":"09:00 - 17:30","vr":"09:00 - 17:30","za":"09:00 - 17:00","zo":"gesloten"}}},{"type":"Feature","geometry":{"type":"Point","coordinates":[4.6580891,52.3642868]},"properties":{"type":"pakketpunt","locatieNaam":"CK Rijwielhandel","straatNaam":"Floris van adrichemlaan","straatNr":"84","vervoerder":"DHL","puntType":"parcelShop","bezettingsgraad":50,"latitude":52.3642868,"longitude":4.6580891,"canPickup":true,"canDropoff":true,"openingstijden":{"ma":"13:00 - 18:00","di":"11:00 - 18:00","wo":"11:00 - 17:00","do":"11:00 - 19:00","vr":"11:00 - 17:00","za":"11:00 - 17:00","zo":"gesloten"}}},{"type":"Feature","geometry":{"type":"Point","coordinates":[4.653331199938169,52.39336108583603]},"properties":{"type":"pakketpunt","locatieNaam":"Pakketautomaat GAMMA Haarlem","straatNaam":"Heringaweg","straatNr":"6","vervoerder":"DHL","puntType":"packStation","bezettingsgraad":50,"latitude":52.39336108583603,"longitude":4.653331199938169,"canPickup":true,"canDropoff":true,"openingstijden":{"ma":"08:00 - 21:00","di":"08:00 - 21:00","wo":"08:00 - 21:00","do":"08:00 - 21:00","vr":"08:00 - 21:00","za":"08:00 - 20:00","zo":"10:00 - 18:00"}}},{"type":"Feature","geometry":{"type":"Point","coordinates":[4.663653,52.3555537]},"properties":{"type":"pakketpunt","locatieNaam":"Pakketautomaat Vomar Da Vinciplein","straatNaam":"Leonarde Da Vinciplein","straatNr":"4","vervoerder":"DHL","puntType":"packStation","bezettingsgraad":50,"latitude":52.3555537,"longitude":4.663653,"canPickup":true,"canDropoff":true,"openingstijden":{"ma":"08:00 - 21:00","di":"08:00 - 21:00","wo":"08:00 - 21:00","do":"08:00 - 21:00","vr":"08:00 - 21:00","za":"08:00 - 20:00","zo":"10:00 - 20:00"}}},{"type":"Feature","geometry":{"type":"Point","coordinates":[4.6662182,52.3868813]},"properties":{"type":"pakketpunt","locatieNaam":"Joepie Food & Drinks","straatNaam":"Oudeweg","straatNr":"147","vervoerder":"DHL","puntType":"parcelShop","bezettingsgraad":50,"latitude":52.3868813,"longitude":4.6662182,"canPickup":true,"canDropoff":true,"openingstijden":{"ma":"09:00 - 18:00","di":"09:00 - 18:00","wo":"09:00 - 18:00","do":"09:00 - 18:00","vr":"09:00 - 18:00","za":"09:00 - 18:00","zo":"12:00 - 17:00"}}},{"type":"Feature","geometry":{"type":"Point","coordinates":[4.6679856,52.3887914]},"properties":{"type":"pakketpunt","locatieNaam":"La Moni","straatNaam":"Hulswitweg","straatNr":"49","vervoerder":"DHL","puntType":"parcelShop","bezettingsgraad":50,"latitude":52.3887914,"longitude":4.6679856,"canPickup":true,"canDropoff":true,"openingstijden":{"ma":"10:00 - 19:00","di":"10:00 - 19:00","wo":"10:00 - 19:00","do":"10:00 - 19:00","vr":"10:00 - 19:00","za":"10:00 - 17:00","zo":"gesloten"}}},{"type":"Feature","geometry":{"type":"Point","coordinates":[4.651662735912717,52.42111121738764]},"properties":{"type":"pakketpunt","locatieNaam":"Pakketautomaat Basic-Fit Haarlem","straatNaam":"Vondelweg","straatNr":"540","vervoerder":"DHL","puntType":"packStation","bezettingsgraad":50,"latitude":52.42111121738764,"longitude":4.651662735912717,"canPickup":true,"canDropoff":true,"openingstijden":{"ma":"00:00 - 23:59","di":"00:00 - 23:59","wo":"00:00 - 23:59","do":"00:00 - 23:59","vr":"00:00 - 23:59","za":"00:00 - 23:59","zo":"00:00 - 23:59"}}},{"type":"Feature","geometry":{"type":"Point","coordinates":[4.6338023,52.3790154]},"properties":{"type":"pakketpunt","locatieNaam":"Krokodil","straatNaam":"GEDEMPTE OUDE GRACHT","straatNr":"84","vervoerder":"DPD","puntType":"pickup_point","bezettingsgraad":50,"latitude":52.3790154,"longitude":4.6338023,"canPickup":true,"canDropoff":true,"openingstijden":{"ma":"13:00 - 17:30","di":"10:00 - 17:30","wo":"10:00 - 17:30","do":"10:00 - 17:30","vr":"10:00 - 17:30","za":"10:00 - 17:00","zo":"12:00 - 17:00"}}},{"type":"Feature","geometry":{"type":"Point","coordinates":[4.6416061,52.3935768]},"properties":{"type":"pakketpunt","locatieNaam":"Tabakshop Haarlem","straatNaam":"GENERAAL CRONJÉSTRAAT","straatNr":"48","vervoerder":"DPD","puntType":"pickup_point","bezettingsgraad":50,"latitude":52.3935768,"longitude":4.6416061,"canPickup":true,"canDropoff":true,"openingstijden":{"ma":"10:00 - 14:00, 14:30 - 18:00","di":"10:00 - 14:00, 14:30 - 18:00","wo":"10:00 - 14:00, 14:30 - 18:00","do":"10:00 - 14:00, 14:30 - 18:00","vr":"10:00 - 14:00, 14:30 - 18:00","za":"11:00 - 14:00, 14:30 - 18:00","zo":"12:00 - 18:00"}}},{"type":"Feature","geometry":{"type":"Point","coordinates":[4.64852734,52.39146016]},"properties":{"type":"pakketpunt","locatieNaam":"Pakketautomaat Winkelcentrum Spaarn","straatNaam":"PAUL KRUGERKADE","straatNr":"26","vervoerder":"DPD","puntType":"dpd_box","bezettingsgraad":50,"latitude":52.39146016,"longitude":4.64852734,"canPickup":true,"canDropoff":true,"openingstijden":{"ma":"07:00 - 23:00","di":"07:00 - 23:00","wo":"07:00 - 23:00","do":"07:00 - 23:00","vr":"07:00 - 23:00","za":"08:00 - 21:00","zo":"08:00 - 18:00"}}},{"type":"Feature","geometry":{"type":"Point","coordinates":[4.61438798,52.3695439]},"properties":{"type":"pakketpunt","locatieNaam":"Pakketautomaat Winkelcentrum Stephe","straatNaam":"STEPHENSONSTRAAT","straatNr":"50","vervoerder":"DPD","puntType":"dpd_box","bezettingsgraad":50,"latitude":52.3695439,"longitude":4.61438798,"canPickup":true,"canDropoff":true,"openingstijden":{"ma":"07:30 - 22:00","di":"07:30 - 22:00","wo":"07:30 - 22:00","do":"07:30 - 22:00","vr":"07:30 - 22:00","za":"07:30 - 22:00","zo":"08:00 - 22:00"}}},{"type":"Feature","geometry":{"type":"Point","coordinates":[4.66367551,52.35531583]},"properties":{"type":"pakketpunt","locatieNaam":"Pakketautomaat Winkelcentrum Leonar","straatNaam":"LEONARDO DA VINCIPLEIN","straatNr":"4","vervoerder":"DPD","puntType":"dpd_box","bezettingsgraad":50,"latitude":52.35531583,"longitude":4.66367551,"canPickup":true,"canDropoff":true,"openingstijden":{"ma":"08:00 - 21:00","di":"08:00 - 21:00","wo":"08:00 - 21:00","do":"08:00 - 21:00","vr":"08:00 - 21:00","za":"08:00 - 20:00","zo":"10:00 - 20:00"}}},{"type":"Feature","geometry":{"type":"Point","coordinates":[4.6363265,52.3863166]},"properties":{"type":"pakketpunt","locatieNaam":"Pakketautomaat Walk2Shop Kruisweg","straatNaam":"KRUISWEG","straatNr":"66 A","vervoerder":"DPD","puntType":"dpd_box","bezettingsgraad":50,"latitude":52.3863166,"longitude":4.6363265,"canPickup":true,"canDropoff":true,"openingstijden":{"ma":"12:00 - 20:00","di":"12:00 - 20:00","wo":"12:00 - 20:00","do":"12:00 - 20:00","vr":"12:00 - 20:00","za":"12:00 - 20:00","zo":"gesloten"}}},{"type":"Feature","geometry":{"type":"Point","coordinates":[4.6320974,52.3788675]},"properties":{"type":"pakketpunt","locatieNaam":"Steen Tabakshop","straatNaam":"GIERSTRAAT","straatNr":"37","vervoerder":"DPD","puntType":"pickup_point","bezettingsgraad":50,"latitude":52.3788675,"longitude":4.6320974,"canPickup":true,"canDropoff":true,"openingstijden":{"ma":"12:00 - 18:00","di":"12:00 - 18:00","wo":"12:00 - 18:00","do":"12:00 - 18:00","vr":"12:00 - 18:00","za":"12:00 - 18:00","zo":"12:00 - 18:00"}}},{"type":"Feature","geometry":{"type":"Point","coordinates":[4.6580891,52.3642868]},"properties":{"type":"pakketpunt","locatieNaam":"CK Rijwielhandel","straatNaam":"FLORIS VAN ADRICHEMLAAN","straatNr":"84","vervoerder":"DPD","puntType":"pickup_point","bezettingsgraad":50,"latitude":52.3642868,"longitude":4.6580891,"canPickup":true,"canDropoff":true,"openingstijden":{"ma":"09:00 - 18:00","di":"09:00 - 18:00","wo":"09:00 - 18:00","do":"09:00 - 18:00","vr":"09:00 - 17:00","za":"09:00 - 17:00","zo":"gesloten"}}},{"type":"Feature","geometry":{"type":"Point","coordinates":[4.6541725,52.3592746]},"properties":{"type":"pakketpunt","locatieNaam":"Pakketautomaat Hippe Boefjes","straatNaam":"RIVERADREEF","straatNr":"25","vervoerder":"DPD","puntType":"dpd_box","bezettingsgraad":50,"latitude":52.3592746,"longitude":4.6541725,"canPickup":true,"canDropoff":true,"openingstijden":{"ma":"10:00 - 18:00","di":"10:00 - 18:00","wo":"10:00 - 18:00","do":"10:00 - 18:00","vr":"10:00 - 18:00","za":"10:00 - 18:00","zo":"gesloten"}}},{"type":"Feature","geometry":{"type":"Point","coordinates":[4.6679856,52.3887914]},"properties":{"type":"pakketpunt","locatieNaam":"Business Point - La Moni BV","straatNaam":"HULSWITWEG","straatNr":"49","vervoerder":"DPD","puntType":"pickup_point","bezettingsgraad":50,"latitude":52.3887914,"longitude":4.6679856,"canPickup":true,"canDropoff":true,"openingstijden":{"ma":"10:00 - 19:00","di":"10:00 - 19:00","wo":"10:00 - 19:00","do":"10:00 - 19:00","vr":"10:00 - 19:00","za":"10:00 - 17:00","zo":"gesloten"}}},{"type":"Feature","geometry":{"type":"Point","coordinates":[4.645682,52.402462]},"properties":{"type":"pakketpunt","locatieNaam":"VI098 Pakketautomaat Budbee","straatNaam":"RIJKSSTRAATWEG","straatNr":"67","vervoerder":"DPD","puntType":"dpd_box","bezettingsgraad":50,"latitude":52.402462,"longitude":4.645682,"canPickup":true,"canDropoff":false,"openingstijden":{"ma":"09:00 - 17:00","di":"09:00 - 17:00","wo":"09:00 - 17:00","do":"09:00 - 17:00","vr":"09:00 - 17:00","za":"09:00 - 17:00","zo":"09:00 - 17:00"}}},{"type":"Feature","geometry":{"type":"Point","coordinates":[4.63804,52.37316]},"properties":{"type":"pakketpunt","locatieNaam":"Indeave","straatNaam":"BAKKERSTRAAT","straatNr":"2 A","vervoerder":"DPD","puntType":"pickup_point","bezettingsgraad":50,"latitude":52.37316,"longitude":4.63804,"canPickup":true,"canDropoff":true,"openingstijden":{"ma":"12:00 - 17:00","di":"gesloten","wo":"11:00 - 18:00","do":"11:00 - 18:00","vr":"11:00 - 18:00","za":"11:00 - 18:00","zo":"12:00 - 17:00"}}},{"type":"Feature","geometry":{"type":"Point","coordinates":[4.65418,52.35927]},"properties":{"type":"pakketpunt","locatieNaam":"Pakketpunt Hippe Boefjes","straatNaam":"RIVIERADREEF","straatNr":"25","vervoerder":"DPD","puntType":"pickup_point","bezettingsgraad":50,"latitude":52.35927,"longitude":4.65418,"canPickup":true,"canDropoff":true,"openingstijden":{"ma":"12:00 - 18:00","di":"10:00 - 18:00","wo":"10:00 - 18:00","do":"10:00 - 18:00","vr":"10:00 - 18:00","za":"10:00 - 18:00","zo":"gesloten"}}},{"type":"Feature","geometry":{"type":"Point","coordinates":[4.63701116088379,52.3865473318432]},"properties":{"type":"pakketpunt","locatieNaam":"Suny Tele Technics PpP","straatNaam":"Lange Herenstraat","straatNr":"4","vervoerder":"PostNL","puntType":"servicepunt","bezettingsgraad":50,"latitude":52.3865473318432,"longitude":4.63701116088379,"canPickup":true,"canDropoff":true,"openingstijden":"11:00 - 20:00"}},{"type":"Feature","geometry":{"type":"Point","coordinates":[4.634309761,52.38473261]},"properties":{"type":"pakketpunt","locatieNaam":"Roads Print en Pixels","straatNaam":"Nassauplein","straatNr":"4","vervoerder":"PostNL","puntType":"servicepunt","bezettingsgraad":50,"latitude":52.38473261,"longitude":4.634309761,"canPickup":true,"canDropoff":true,"openingstijden":"09:00 - 17:00"}},{"type":"Feature","geometry":{"type":"Point","coordinates":[4.635214142,52.3781772]},"properties":{"type":"pakketpunt","locatieNaam":"Doctor Mobile Haarlem","straatNaam":"Gedempte Oude Gracht","straatNr":"114","vervoerder":"PostNL","puntType":"servicepunt","bezettingsgraad":50,"latitude":52.3781772,"longitude":4.635214142,"canPickup":true,"canDropoff":true,"openingstijden":"11:00 - 18:00"}},{"type":"Feature","geometry":{"type":"Point","coordinates":[4.6303726101305,52.3830447536727]},"properties":{"type":"pakketpunt","locatieNaam":"Pakketautomaat","straatNaam":"Zijlstraat","straatNr":"10PBA","vervoerder":"PostNL","puntType":"automaat","bezettingsgraad":50,"latitude":52.3830447536727,"longitude":4.6303726101305,"canPickup":true,"canDropoff":true,"openingstijden":"09:00 - 18:00"}},{"type":"Feature","geometry":{"type":"Point","coordinates":[4.630870023,52.3814391]},"properties":{"type":"pakketpunt","locatieNaam":"Bruna 8299 Haarlem","straatNaam":"Drossestraat","straatNr":"22B","vervoerder":"PostNL","puntType":"servicepunt","bezettingsgraad":50,"latitude":52.3814391,"longitude":4.630870023,"canPickup":true,"canDropoff":true,"openingstijden":"10:00 - 18:00 (Na 18:00 open; Zaterdag open; Zondag open)"}},{"type":"Feature","geometry":{"type":"Point","coordinates":[4.62748655019582,52.3843205276443]},"properties":{"type":"pakketpunt","locatieNaam":"Pakketautomaat","straatNaam":"Zijlweg","straatNr":"35PBA","vervoerder":"PostNL","puntType":"automaat","bezettingsgraad":50,"latitude":52.3843205276443,"longitude":4.62748655019582,"canPickup":true,"canDropoff":true,"openingstijden":"09:00 - 17:30"}},{"type":"Feature","geometry":{"type":"Point","coordinates":[4.64969012755832,52.3926039023282]},"properties":{"type":"pakketpunt","locatieNaam":"Pakketautomaat","straatNaam":"Spaarndamseweg","straatNr":"214PBA","vervoerder":"PostNL","puntType":"automaat","bezettingsgraad":50,"latitude":52.3926039023282,"longitude":4.64969012755832,"canPickup":true,"canDropoff":true,"openingstijden":"09:00 - 18:00"}},{"type":"Feature","geometry":{"type":"Point","coordinates":[4.63146199850698,52.3906554571958]},"properties":{"type":"pakketpunt","locatieNaam":"DA Drogisterij Haarlem Kleverpark","straatNaam":"Kleverparkweg","straatNr":"1A","vervoerder":"PostNL","puntType":"servicepunt","bezettingsgraad":50,"latitude":52.3906554571958,"longitude":4.63146199850698,"canPickup":true,"canDropoff":true,"openingstijden":"09:00 - 18:00"}},{"type":"Feature","geometry":{"type":"Point","coordinates":[4.631352185,52.37641795]},"properties":{"type":"pakketpunt","locatieNaam":"Post & Presents","straatNaam":"Grote Houtstraat","straatNr":"185","vervoerder":"PostNL","puntType":"servicepunt","bezettingsgraad":50,"latitude":52.37641795,"longitude":4.631352185,"canPickup":true,"canDropoff":true,"openingstijden":"09:00 - 18:00 (Na 18:00 open; Zaterdag open; Zondag open)"}},{"type":"Feature","geometry":{"type":"Point","coordinates":[4.63818647890286,52.3734953746146]},"properties":{"type":"pakketpunt","locatieNaam":"De Roos","straatNaam":"Tybautstraat","straatNr":"1","vervoerder":"PostNL","puntType":"servicepunt","bezettingsgraad":50,"latitude":52.3734953746146,"longitude":4.63818647890286,"canPickup":true,"canDropoff":true,"openingstijden":"09:30 - 16:00"}},{"type":"Feature","geometry":{"type":"Point","coordinates":[4.64192566766924,52.3947932706488]},"properties":{"type":"pakketpunt","locatieNaam":"Living decorations and more","straatNaam":"Generaal Cronjestraat","straatNr":"81","vervoerder":"PostNL","puntType":"servicepunt","bezettingsgraad":50,"latitude":52.3947932706488,"longitude":4.64192566766924,"canPickup":true,"canDropoff":true,"openingstijden":null}},{"type":"Feature","geometry":{"type":"Point","coordinates":[4.626761132,52.38978949]},"properties":{"type":"pakketpunt","locatieNaam":"Pakket- en briefautomaat","straatNaam":"Verspronckweg","straatNr":"63PBA","vervoerder":"PostNL","puntType":"automaat","bezettingsgraad":50,"latitude":52.38978949,"longitude":4.626761132,"canPickup":true,"canDropoff":true,"openingstijden":"09:00 - 21:00"}},{"type":"Feature","geometry":{"type":"Point","coordinates":[4.64248727275483,52.3954708924679]},"properties":{"type":"pakketpunt","locatieNaam":"Used Products","straatNaam":"Generaal Cronjestraat","straatNr":"130","vervoerder":"PostNL","puntType":"servicepunt","bezettingsgraad":50,"latitude":52.3954708924679,"longitude":4.64248727275483,"canPickup":true,"canDropoff":true,"openingstijden":"10:00 - 18:00"}},{"type":"Feature","geometry":{"type":"Point","coordinates":[4.642487273,52.39547089]},"properties":{"type":"pakketpunt","locatieNaam":"Dierenspeciaalzaak Hoeben","straatNaam":"Generaal Cronjéstraat","straatNr":"140-144","vervoerder":"PostNL","puntType":"servicepunt","bezettingsgraad":50,"latitude":52.39547089,"longitude":4.642487273,"canPickup":true,"canDropoff":true,"openingstijden":"08:30 - 18:00"}},{"type":"Feature","geometry":{"type":"Point","coordinates":[4.64248727275483,52.3954708924679]},"properties":{"type":"pakketpunt","locatieNaam":"Pakketautomaat","straatNaam":"Generaal Cronjestraat","straatNr":"130PBA","vervoerder":"PostNL","puntType":"automaat","bezettingsgraad":50,"latitude":52.3954708924679,"longitude":4.64248727275483,"canPickup":true,"canDropoff":true,"openingstijden":"10:00 - 18:00"}},{"type":"Feature","geometry":{"type":"Point","coordinates":[4.62656879,52.38986915]},"properties":{"type":"pakketpunt","locatieNaam":"KARWEI Haarlem","straatNaam":"Verspronckweg","straatNr":"63A","vervoerder":"PostNL","puntType":"servicepunt","bezettingsgraad":50,"latitude":52.38986915,"longitude":4.62656879,"canPickup":true,"canDropoff":true,"openingstijden":"09:00 - 18:00"}},{"type":"Feature","geometry":{"type":"Point","coordinates":[4.654567877,52.39347904]},"properties":{"type":"pakketpunt","locatieNaam":"GAMMA Haarlem","straatNaam":"Heringaweg","straatNr":"6","vervoerder":"PostNL","puntType":"servicepunt","bezettingsgraad":50,"latitude":52.39347904,"longitude":4.654567877,"canPickup":true,"canDropoff":true,"openingstijden":"08:00 - 21:00"}},{"type":"Feature","geometry":{"type":"Point","coordinates":[4.65456787711697,52.3934790357889]},"properties":{"type":"pakketpunt","locatieNaam":"Pakketautomaat","straatNaam":"Heringaweg","straatNr":"6PBA","vervoerder":"PostNL","puntType":"automaat","bezettingsgraad":50,"latitude":52.3934790357889,"longitude":4.65456787711697,"canPickup":true,"canDropoff":true,"openingstijden":"08:00 - 21:00"}},{"type":"Feature","geometry":{"type":"Point","coordinates":[4.64231380706902,52.3716968720245]},"properties":{"type":"pakketpunt","locatieNaam":"Pakketautomaat","straatNaam":"Schalkwijkerstraat","straatNr":"149PBA","vervoerder":"PostNL","puntType":"automaat","bezettingsgraad":50,"latitude":52.3716968720245,"longitude":4.64231380706902,"canPickup":true,"canDropoff":true,"openingstijden":"07:30 - 20:00"}},{"type":"Feature","geometry":{"type":"Point","coordinates":[4.662204697,52.3783815]},"properties":{"type":"pakketpunt","locatieNaam":"Tabakspeciaalzaak Ebbeling","straatNaam":"Prinses Beatrixplein","straatNr":"37","vervoerder":"PostNL","puntType":"servicepunt","bezettingsgraad":50,"latitude":52.3783815,"longitude":4.662204697,"canPickup":true,"canDropoff":true,"openingstijden":"09:00 - 16:30"}},{"type":"Feature","geometry":{"type":"Point","coordinates":[4.647629314,52.37083141]},"properties":{"type":"pakketpunt","locatieNaam":"Buurtwinkel Hof van Leijh","straatNaam":"Merovingenstraat","straatNr":"79","vervoerder":"PostNL","puntType":"servicepunt","bezettingsgraad":50,"latitude":52.37083141,"longitude":4.647629314,"canPickup":true,"canDropoff":true,"openingstijden":"09:00 - 16:30"}},{"type":"Feature","geometry":{"type":"Point","coordinates":[4.66217815876007,52.396952801955]},"properties":{"type":"pakketpunt","locatieNaam":"Scolair V.O.F.","straatNaam":"Bingerweg","straatNr":"2","vervoerder":"PostNL","puntType":"servicepunt","bezettingsgraad":50,"latitude":52.396952801955,"longitude":4.66217815876007,"canPickup":true,"canDropoff":true,"openingstijden":"08:00 - 18:30 (Na 18:00 open; Zaterdag open)"}},{"type":"Feature","geometry":{"type":"Point","coordinates":[4.615998128,52.37514151]},"properties":{"type":"pakketpunt","locatieNaam":"KARWEI Haarlem-Zuid","straatNaam":"Eysinkweg","straatNr":"63-65","vervoerder":"PostNL","puntType":"servicepunt","bezettingsgraad":50,"latitude":52.37514151,"longitude":4.615998128,"canPickup":true,"canDropoff":true,"openingstijden":"09:00 - 21:00"}},{"type":"Feature","geometry":{"type":"Point","coordinates":[4.615998128,52.37514151]},"properties":{"type":"pakketpunt","locatieNaam":"Pakket- en briefautomaat","straatNaam":"Eysinkweg","straatNr":"63PBA","vervoerder":"PostNL","puntType":"automaat","bezettingsgraad":50,"latitude":52.37514151,"longitude":4.615998128,"canPickup":true,"canDropoff":true,"openingstijden":"09:00 - 20:00"}},{"type":"Feature","geometry":{"type":"Point","coordinates":[4.648206828,52.40402719]},"properties":{"type":"pakketpunt","locatieNaam":"Cigo Timmy","straatNaam":"Rijksstraatweg","straatNr":"108","vervoerder":"PostNL","puntType":"servicepunt","bezettingsgraad":50,"latitude":52.40402719,"longitude":4.648206828,"canPickup":true,"canDropoff":true,"openingstijden":"08:00 - 17:30 (Zaterdag open)"}},{"type":"Feature","geometry":{"type":"Point","coordinates":[4.6535946484561,52.3617368211429]},"properties":{"type":"pakketpunt","locatieNaam":"Pakketautomaat","straatNaam":"Grenadapad","straatNr":"2PBA","vervoerder":"PostNL","puntType":"automaat","bezettingsgraad":50,"latitude":52.3617368211429,"longitude":4.6535946484561,"canPickup":true,"canDropoff":true,"openingstijden":"07:00 - 22:00"}},{"type":"Feature","geometry":{"type":"Point","coordinates":[4.653940648,52.35945604]},"properties":{"type":"pakketpunt","locatieNaam":"Bruna 2060","straatNaam":"Rivieradreef","straatNr":"14","vervoerder":"PostNL","puntType":"servicepunt","bezettingsgraad":50,"latitude":52.35945604,"longitude":4.653940648,"canPickup":true,"canDropoff":true,"openingstijden":"12:00 - 18:00 (Na 18:00 open; Zaterdag open)"}},{"type":"Feature","geometry":{"type":"Point","coordinates":[4.65417862786881,52.3592687647054]},"properties":{"type":"pakketpunt","locatieNaam":"Pakketautomaat","straatNaam":"Rivieradreef","straatNr":"25PBA","vervoerder":"PostNL","puntType":"automaat","bezettingsgraad":50,"latitude":52.3592687647054,"longitude":4.65417862786881,"canPickup":true,"canDropoff":true,"openingstijden":"12:00 - 18:00"}},{"type":"Feature","geometry":{"type":"Point","coordinates":[4.650093394,52.40899124]},"properties":{"type":"pakketpunt","locatieNaam":"Primera Planetenlaan 47002","straatNaam":"Rijksstraatweg","straatNr":"283","vervoerder":"PostNL","puntType":"servicepunt","bezettingsgraad":50,"latitude":52.40899124,"longitude":4.650093394,"canPickup":true,"canDropoff":true,"openingstijden":"09:00 - 21:00"}},{"type":"Feature","geometry":{"type":"Point","coordinates":[4.654046839,52.35836017]},"properties":{"type":"pakketpunt","locatieNaam":"Fiets-Safe","straatNaam":"Rivieradreef","straatNr":"41A","vervoerder":"PostNL","puntType":"servicepunt","bezettingsgraad":50,"latitude":52.35836017,"longitude":4.654046839,"canPickup":true,"canDropoff":true,"openingstijden":"12:00 - 18:00"}},{"type":"Feature","geometry":{"type":"Point","coordinates":[4.647818898,52.41670659]},"properties":{"type":"pakketpunt","locatieNaam":"Bruna","straatNaam":"Marsmanplein","straatNr":"14","vervoerder":"PostNL","puntType":"servicepunt","bezettingsgraad":50,"latitude":52.41670659,"longitude":4.647818898,"canPickup":true,"canDropoff":true,"openingstijden":"09:00 - 18:00 (Na 18:00 open; Zaterdag open)"}},{"type":"Feature","geometry":{"type":"Point","coordinates":[4.6527078,52.404184]},"properties":{"type":"pakketpunt","locatieNaam":"M. V. Dijk","straatNaam":"Kedoestraat 4","straatNr":"","vervoerder":"VintedGo","puntType":"social","bezettingsgraad":50,"latitude":52.404184,"longitude":4.6527078,"canPickup":true,"canDropoff":true,"openingstijden":null}},{"type":"Feature","geometry":{"type":"Point","coordinates":[4.66345,52.37861]},"properties":{"type":"pakketpunt","locatieNaam":"Appfix","straatNaam":"Van Loghemstraat 18","straatNr":"","vervoerder":"VintedGo","puntType":"parcel_shop","bezettingsgraad":50,"latitude":52.37861,"longitude":4.66345,"canPickup":true,"canDropoff":true,"openingstijden":null}},{"type":"Feature","geometry":{"type":"Point","coordinates":[4.64217,52.3948]},"properties":{"type":"pakketpunt","locatieNaam":"Oodles and pinches","straatNaam":"Generaal Cronjéstraat 96","straatNr":"","vervoerder":"VintedGo","puntType":"parcel_shop","bezettingsgraad":50,"latitude":52.3948,"longitude":4.64217,"canPickup":true,"canDropoff":true,"openingstijden":null}},{"type":"Feature","geometry":{"type":"Point","coordinates":[4.62423,52.37125]},"properties":{"type":"pakketpunt","locatieNaam":"De Kookstoof","straatNaam":"Wagenweg 27A","straatNr":"","vervoerder":"VintedGo","puntType":"parcel_shop","bezettingsgraad":50,"latitude":52.37125,"longitude":4.62423,"canPickup":true,"canDropoff":true,"openingstijden":null}},{"type":"Feature","geometry":{"type":"Point","coordinates":[4.66622,52.38688]},"properties":{"type":"pakketpunt","locatieNaam":"Joepie Food & Drinks","straatNaam":"Oudeweg 147","straatNr":"","vervoerder":"VintedGo","puntType":"parcel_shop","bezettingsgraad":50,"latitude":52.38688,"longitude":4.66622,"canPickup":true,"canDropoff":true,"openingstijden":null}},{"type":"Feature","geometry":{"type":"Point","coordinates":[4.64161,52.39358]},"properties":{"type":"pakketpunt","locatieNaam":"Tabakshop Haarlem","straatNaam":"Generaal Cronjéstraat 48","straatNr":"","vervoerder":"VintedGo","puntType":"parcel_shop","bezettingsgraad":50,"latitude":52.39358,"longitude":4.64161,"canPickup":true,"canDropoff":true,"openingstijden":null}},{"type":"Feature","geometry":{"type":"Point","coordinates":[4.64114,52.3931]},"properties":{"type":"pakketpunt","locatieNaam":"Happy Mug Studio ","straatNaam":"Generaal Cronjéstraat 19","straatNr":"","vervoerder":"VintedGo","puntType":"parcel_shop","bezettingsgraad":50,"latitude":52.3931,"longitude":4.64114,"canPickup":true,"canDropoff":true,"openingstijden":null}},{"type":"Feature","geometry":{"type":"Point","coordinates":[4.64781,52.41724]},"properties":{"type":"pakketpunt","locatieNaam":"Ton Chase","straatNaam":"Marsmanplein 39","straatNr":"","vervoerder":"VintedGo","puntType":"parcel_shop","bezettingsgraad":50,"latitude":52.41724,"longitude":4.64781,"canPickup":true,"canDropoff":true,"openingstijden":null}},{"type":"Feature","geometry":{"type":"Point","coordinates":[4.642575,52.3954621]},"properties":{"type":"pakketpunt","locatieNaam":"Used Products Haarlem","straatNaam":"Generaal Cronjéstraat 130-132","straatNr":"","vervoerder":"VintedGo","puntType":"locker","bezettingsgraad":50,"latitude":52.3954621,"longitude":4.642575,"canPickup":true,"canDropoff":true,"openingstijden":null}},{"type":"Feature","geometry":{"type":"Point","coordinates":[4.6541615,52.3592709]},"properties":{"type":"pakketpunt","locatieNaam":"Hippe Boefjes","straatNaam":"Rivièradreef 25","straatNr":"","vervoerder":"VintedGo","puntType":"parcel_shop","bezettingsgraad":50,"latitude":52.3592709,"longitude":4.6541615,"canPickup":true,"canDropoff":true,"openingstijden":null}},{"type":"Feature","geometry":{"type":"Point","coordinates":[4.6679846,52.3887918]},"properties":{"type":"pakketpunt","locatieNaam":"La' Moni Bv","straatNaam":"Hulswitweg 49","straatNr":"","vervoerder":"VintedGo","puntType":"parcel_shop","bezettingsgraad":50,"latitude":52.3887918,"longitude":4.6679846,"canPickup":true,"canDropoff":true,"openingstijden":null}},{"type":"Feature","geometry":{"type":"Point","coordinates":[4.6311095,52.3905776]},"properties":{"type":"pakketpunt","locatieNaam":"Dierenspeciaalzaak Kleverpark (inname en uitgifte tot 15 min voor sluit!) ","straatNaam":"Van Ostadestraat 10","straatNr":"","vervoerder":"VintedGo","puntType":"parcel_shop","bezettingsgraad":50,"latitude":52.3905776,"longitude":4.6311095,"canPickup":true,"canDropoff":true,"openingstijden":null}},{"type":"Feature","geometry":{"type":"Point","coordinates":[4.6371287,52.3732712]},"properties":{"type":"pakketpunt","locatieNaam":"Indeave","straatNaam":"Bakkerstraat 2A","straatNr":"","vervoerder":"VintedGo","puntType":"parcel_shop","bezettingsgraad":50,"latitude":52.3732712,"longitude":4.6371287,"canPickup":true,"canDropoff":true,"openingstijden":null}},{"type":"Feature","geometry":{"type":"Point","coordinates":[4.627513,52.38437]},"properties":{"type":"pakketpunt","locatieNaam":"Kluswijs Haarlem (pakketten inleveren/afhalen uiterlijk tot 17:30!)","straatNaam":"Zijlweg 35","straatNr":"","vervoerder":"VintedGo","puntType":"locker","bezettingsgraad":50,"latitude":52.38437,"longitude":4.627513,"canPickup":true,"canDropoff":true,"openingstijden":null}},{"type":"Feature","geometry":{"type":"Point","coordinates":[4.636369,52.3863562]},"properties":{"type":"pakketpunt","locatieNaam":"Walk2shop","straatNaam":"Kruisweg 66 A","straatNr":"","vervoerder":"VintedGo","puntType":"locker","bezettingsgraad":50,"latitude":52.3863562,"longitude":4.636369,"canPickup":true,"canDropoff":true,"openingstijden":null}},{"type":"Feature","geometry":{"type":"Point","coordinates":[4.6481381,52.3789274]},"properties":{"type":"pakketpunt","locatieNaam":"Yucca Tabakshop","straatNaam":"Amsterdamstraat 13","straatNr":"","vervoerder":"VintedGo","puntType":"parcel_shop","bezettingsgraad":50,"latitude":52.3789274,"longitude":4.6481381,"canPickup":true,"canDropoff":true,"openingstijden":null}},{"type":"Feature","geometry":{"type":"Point","coordinates":[4.64809497,52.35964707]},"properties":{"type":"pakketpunt","locatieNaam":"ViaTim en Nathalie","straatNaam":"Laan van Angers","straatNr":"89","vervoerder":"ViaTim","puntType":"servicepunt","bezettingsgraad":50,"latitude":52.35964707,"longitude":4.64809497,"canPickup":true,"canDropoff":true,"openingstijden":{"ma":"13:00 - 16:00","di":"gesloten","wo":"13:00 - 16:00","do":"gesloten","vr":"gesloten","za":"16:00 - 18:00","zo":"gesloten"}}},{"type":"Feature","geometry":{"type":"Point","coordinates":[4.64173662,52.39361735]},"properties":{"type":"pakketpunt","locatieNaam":"ViaTim en Van Rijssel","straatNaam":"Generaal Cronjéstraat","straatNr":"50e","vervoerder":"ViaTim","puntType":"servicepunt","bezettingsgraad":50,"latitude":52.39361735,"longitude":4.64173662,"canPickup":true,"canDropoff":true,"openingstijden":{"ma":"12:00 - 15:00","di":"gesloten","wo":"gesloten","do":"gesloten","vr":"gesloten","za":"16:00 - 21:00","zo":"gesloten"}}},{"type":"Feature","geometry":{"type":"Point","coordinates":[4.64309051,52.37952353]},"properties":{"type":"pakketpunt","locatieNaam":"ViaTim en Steef","straatNaam":"Leliestraat","straatNr":"2","vervoerder":"ViaTim","puntType":"servicepunt","bezettingsgraad":50,"latitude":52.37952353,"longitude":4.64309051,"canPickup":true,"canDropoff":true,"openingstijden":{"ma":"10:00 - 13:00","di":"10:00 - 13:00","wo":"10:00 - 13:00","do":"gesloten","vr":"10:00 - 13:00","za":"12:00 - 15:00","zo":"gesloten"}}},{"type":"Feature","geometry":{"type":"Point","coordinates":[4.64360544,52.41419334]},"properties":{"type":"pakketpunt","locatieNaam":"ViaTim en Marchano","straatNaam":"Nico van Suchtelenstraat","straatNr":"2","vervoerder":"ViaTim","puntType":"servicepunt","bezettingsgraad":50,"latitude":52.41419334,"longitude":4.64360544,"canPickup":true,"canDropoff":true,"openingstijden":{"ma":"15:00 - 21:00","di":"gesloten","wo":"15:00 - 21:00","do":"gesloten","vr":"gesloten","za":"gesloten","zo":"gesloten"}}},{"type":"Feature","geometry":{"type":"Point","coordinates":[4.65416834110449,52.35926962390589]},"properties":{"type":"pakketpunt","locatieNaam":"FedEx OnSite","straatNaam":"RIVIERADREEF 25","straatNr":"","vervoerder":"FedEx","puntType":"servicepunt","bezettingsgraad":50,"latitude":52.35926962390589,"longitude":4.65416834110449,"canPickup":true,"canDropoff":true,"openingstijden":{"ma":"12:00 - 18:00","di":"10:00 - 18:00","wo":"10:00 - 18:00","do":"10:00 - 18:00","vr":"10:00 - 18:00","za":"12:00 - 17:00","zo":"gesloten"}}},{"type":"Feature","geometry":{"type":"Point","coordinates":[4.653513703786696,52.36192602212382]},"properties":{"type":"pakketpunt","locatieNaam":"FedEx Ship&Get","straatNaam":"Grenadapad 2 PBA","straatNr":"","vervoerder":"FedEx","puntType":"servicepunt","bezettingsgraad":50,"latitude":52.36192602212382,"longitude":4.653513703786696,"canPickup":true,"canDropoff":true,"openingstijden":{"ma":"07:00 - 22:00","di":"07:00 - 22:00","wo":"07:00 - 22:00","do":"07:00 - 22:00","vr":"07:00 - 22:00","za":"07:00 - 22:00","zo":"07:00 - 22:00"}}},{"type":"Feature","geometry":{"type":"Point","coordinates":[4.642314,52.371697]},"properties":{"type":"pakketpunt","locatieNaam":"FedEx Ship&Get","straatNaam":"Schalkwijkerstraat 149 PBA","straatNr":"","vervoerder":"FedEx","puntType":"servicepunt","bezettingsgraad":50,"latitude":52.371697,"longitude":4.642314,"canPickup":true,"canDropoff":true,"openingstijden":{"ma":"07:30 - 20:00","di":"07:30 - 20:00","wo":"07:30 - 20:00","do":"07:30 - 20:00","vr":"07:30 - 20:00","za":"07:30 - 20:00","zo":"10:00 - 20:00"}}},{"type":"Feature","geometry":{"type":"Point","coordinates":[4.616181109871564,52.37536231810242]},"properties":{"type":"pakketpunt","locatieNaam":"FedEx Ship&Get","straatNaam":"Eysinkweg 63 PBA","straatNr":"","vervoerder":"FedEx","puntType":"servicepunt","bezettingsgraad":50,"latitude":52.37536231810242,"longitude":4.616181109871564,"canPickup":true,"canDropoff":true,"openingstijden":{"ma":"09:00 - 20:00","di":"09:00 - 20:00","wo":"09:00 - 20:00","do":"09:00 - 20:00","vr":"09:00 - 20:00","za":"09:00 - 18:00","zo":"10:00 - 17:00"}}},{"type":"Feature","geometry":{"type":"Point","coordinates":[4.643568,52.383728]},"properties":{"type":"pakketpunt","locatieNaam":"FedEx OnSite","straatNaam":"Schoterweg 44","straatNr":"","vervoerder":"FedEx","puntType":"servicepunt","bezettingsgraad":50,"latitude":52.383728,"longitude":4.643568,"canPickup":true,"canDropoff":true,"openingstijden":{"ma":"09:00 - 19:00","di":"09:00 - 19:00","wo":"09:00 - 19:00","do":"09:00 - 19:00","vr":"09:00 - 19:00","za":"09:00 - 19:00","zo":"09:00 - 19:00"}}},{"type":"Feature","geometry":{"type":"Point","coordinates":[4.6265112072517,52.38986453364908]},"properties":{"type":"pakketpunt","locatieNaam":"FedEx Ship&Get","straatNaam":"Verspronckweg 63 PBA","straatNr":"","vervoerder":"FedEx","puntType":"servicepunt","bezettingsgraad":50,"latitude":52.38986453364908,"longitude":4.6265112072517,"canPickup":true,"canDropoff":true,"openingstijden":{"ma":"09:00 - 21:00","di":"09:00 - 21:00","wo":"09:00 - 21:00","do":"09:00 - 21:00","vr":"09:00 - 21:00","za":"09:00 - 18:00","zo":"10:00 - 17:00"}}},{"type":"Feature","geometry":{"type":"Point","coordinates":[4.667985,52.388792]},"properties":{"type":"pakketpunt","locatieNaam":"FedEx OnSite","straatNaam":"HULSWITWEG 49","straatNr":"","vervoerder":"FedEx","puntType":"servicepunt","bezettingsgraad":50,"latitude":52.388792,"longitude":4.667985,"canPickup":true,"canDropoff":true,"openingstijden":{"ma":"10:00 - 19:00","di":"10:00 - 19:00","wo":"10:00 - 19:00","do":"10:00 - 19:00","vr":"10:00 - 19:00","za":"10:00 - 17:00","zo":"gesloten"}}},{"type":"Feature","geometry":{"type":"Point","coordinates":[4.642406066864768,52.395255961086875]},"properties":{"type":"pakketpunt","locatieNaam":"FedEx OnSite","straatNaam":"Generaal Cronjestraat 120","straatNr":"","vervoerder":"FedEx","puntType":"servicepunt","bezettingsgraad":50,"latitude":52.395255961086875,"longitude":4.642406066864768,"canPickup":true,"canDropoff":true,"openingstijden":{"ma":"gesloten","di":"gesloten","wo":"gesloten","do":"gesloten","vr":"gesloten","za":"gesloten","zo":"gesloten"}}},{"type":"Feature","geometry":{"type":"Point","coordinates":[4.65416,52.35927]},"properties":{"type":"pakketpunt","locatieNaam":"HIPPE BOEFJES","straatNaam":"Rivièradreef 25","straatNr":"","vervoerder":"InPost","puntType":"servicepunt","bezettingsgraad":50,"latitude":52.35927,"longitude":4.65416,"canPickup":true,"canDropoff":true,"openingstijden":null}},{"type":"Feature","geometry":{"type":"Point","coordinates":[4.66798,52.38879]},"properties":{"type":"pakketpunt","locatieNaam":"LA' MONI BV","straatNaam":"Hulswitweg 49","straatNr":"","vervoerder":"InPost","puntType":"servicepunt","bezettingsgraad":50,"latitude":52.38879,"longitude":4.66798,"canPickup":true,"canDropoff":true,"openingstijden":null}},{"type":"Feature","geometry":{"type":"Point","coordinates":[4.64871,52.39018]},"properties":{"type":"pakketpunt","locatieNaam":"","straatNaam":"Werfstraat","straatNr":"10b","vervoerder":"InPost","puntType":"automaat","bezettingsgraad":50,"latitude":52.39018,"longitude":4.64871,"canPickup":true,"canDropoff":true,"openingstijden":"24/7"}},{"type":"Feature","geometry":{"type":"Point","coordinates":[4.645682,52.402462]},"properties":{"type":"pakketpunt","locatieNaam":"VI098 Pakketautomaat Budbee","straatNaam":"RIJKSSTRAATWEG","straatNr":"67","vervoerder":"Budbee","puntType":"automaat","bezettingsgraad":50,"latitude":52.402462,"longitude":4.645682,"canPickup":true,"canDropoff":true,"openingstijden":null}},{"type":"Feature","geometry":{"type":"Point","coordinates":[4.6278914,52.3838535]},"properties":{"type":"pakketpunt","locatieNaam":"Budbee","straatNaam":"","straatNr":"","vervoerder":"Budbee","puntType":"automaat","bezettingsgraad":50,"latitude":52.3838535,"longitude":4.6278914,"canPickup":true,"canDropoff":true,"openingstijden":null}},{"type":"Feature","geometry":{"type":"Polygon","coordinates":[[[4.601251,52.375357],[4.601237,52.375152],[4.601243,52.375009],[4.601252,52.374907],[4.601259,52.374748],[4.60126,52.374341],[4.601263,52.374242],[4.60127,52.37417],[4.601286,52.373983],[4.601297,52.373902],[4.601316,52.373767],[4.601336,52.373633],[4.601355,52.373497],[4.601379,52.373308],[4.601421,52.372965],[4.601473,52.372643],[4.601526,52.372278],[4.601812,52.372192],[4.603268,52.371756],[4.603358,52.371727],[4.603834,52.371584],[4.60426,52.371454],[4.604472,52.37139],[4.604586,52.371355],[4.604567,52.371321],[4.604439,52.371077],[4.604404,52.370978],[4.60435,52.370806],[4.604265,52.370501],[4.60416,52.370202],[4.604108,52.370022],[4.604025,52.369758],[4.603997,52.369674],[4.603956,52.369496],[4.60384,52.369094],[4.603785,52.368913],[4.603773,52.368857],[4.603785,52.368816],[4.603802,52.368795],[4.603862,52.368733],[4.603959,52.368656],[4.60407,52.368563],[4.604133,52.368496],[4.604206,52.368401],[4.604248,52.368325],[4.604271,52.368266],[4.60427,52.368264],[4.604297,52.368175],[4.604311,52.368083],[4.604305,52.367972],[4.60429,52.367883],[4.604262,52.367819],[4.604158,52.367593],[4.604178,52.367585],[4.604332,52.36754],[4.605117,52.367411],[4.605424,52.367363],[4.606239,52.367223],[4.607098,52.367081],[4.607324,52.367045],[4.607204,52.366878],[4.607197,52.366868],[4.607168,52.366832],[4.607022,52.366662],[4.606987,52.366617],[4.606963,52.366581],[4.606917,52.366518],[4.60686,52.366435],[4.606715,52.366235],[4.60667,52.366155],[4.606538,52.365906],[4.606447,52.365748],[4.606429,52.365715],[4.606414,52.365677],[4.606402,52.365645],[4.606382,52.365548],[4.60635,52.365418],[4.606344,52.365382],[4.606335,52.365312],[4.606346,52.365248],[4.606377,52.365133],[4.606388,52.365068],[4.606388,52.365028],[4.606384,52.364912],[4.60637,52.364837],[4.606348,52.364769],[4.60633,52.364732],[4.606173,52.364506],[4.606089,52.364368],[4.606037,52.364292],[4.605983,52.36422],[4.60585,52.364051],[4.605768,52.363943],[4.605733,52.3639],[4.605718,52.363865],[4.605701,52.363781],[4.6057,52.363745],[4.605725,52.363548],[4.605727,52.36351],[4.605724,52.363405],[4.60601,52.363353],[4.606128,52.363328],[4.606214,52.363315],[4.606488,52.363268],[4.606728,52.363233],[4.606823,52.363215],[4.606898,52.363199],[4.606946,52.363189],[4.606995,52.363175],[4.607084,52.363152],[4.607477,52.363085],[4.607841,52.363026],[4.608162,52.362964],[4.608193,52.362959],[4.608306,52.363005],[4.608739,52.362931],[4.608854,52.362896],[4.609377,52.362815],[4.60942,52.36281],[4.609465,52.362806],[4.60955,52.362797],[4.609635,52.362792],[4.609717,52.362791],[4.609809,52.362793],[4.609904,52.362798],[4.610179,52.362823],[4.610373,52.362781],[4.610499,52.362752],[4.610879,52.36264],[4.610883,52.362639],[4.611052,52.362603],[4.611314,52.362545],[4.612351,52.362345],[4.612991,52.362212],[4.613842,52.362052],[4.613844,52.362081],[4.613861,52.362091],[4.613872,52.362096],[4.613888,52.362098],[4.614113,52.362103],[4.614151,52.3621],[4.614375,52.36208],[4.614418,52.362077],[4.614407,52.362034],[4.614394,52.362032],[4.614391,52.36202],[4.614389,52.36202],[4.614387,52.362011],[4.614378,52.361949],[4.614434,52.361938],[4.614569,52.361912],[4.614588,52.361909],[4.61499,52.361831],[4.615011,52.361826],[4.615297,52.361772],[4.615492,52.361736],[4.61574,52.361685],[4.615752,52.361711],[4.616219,52.361643],[4.61622,52.361626],[4.616593,52.361613],[4.616828,52.361609],[4.61683,52.361615],[4.61702,52.361597],[4.617667,52.361535],[4.61772,52.361531],[4.61772,52.361521],[4.617903,52.361472],[4.617953,52.361471],[4.618149,52.361468],[4.618355,52.361466],[4.61844,52.361463],[4.618937,52.361484],[4.619086,52.36157],[4.619422,52.361585],[4.619479,52.361586],[4.619869,52.361603],[4.620077,52.361617],[4.620191,52.361624],[4.620415,52.361639],[4.620493,52.361644],[4.620534,52.361647],[4.620578,52.36165],[4.620619,52.361653],[4.620772,52.361662],[4.620967,52.361677],[4.621045,52.361681],[4.621195,52.361691],[4.621303,52.361776],[4.621702,52.361964],[4.621896,52.361787],[4.621968,52.361723],[4.622101,52.361663],[4.622104,52.361665],[4.622152,52.361699],[4.622205,52.361736],[4.622243,52.361756],[4.622282,52.361776],[4.622326,52.361794],[4.622359,52.361806],[4.622391,52.361816],[4.622433,52.361824],[4.622463,52.361828],[4.622502,52.361831],[4.622568,52.361833],[4.623092,52.361824],[4.623308,52.361818],[4.62335,52.361818],[4.623408,52.361816],[4.623461,52.361812],[4.62351,52.361807],[4.623593,52.361794],[4.623804,52.361761],[4.623829,52.361759],[4.623879,52.361756],[4.623929,52.361755],[4.624011,52.36177],[4.624189,52.361805],[4.6242,52.361807],[4.624275,52.361819],[4.624414,52.361853],[4.624454,52.361867],[4.624552,52.361913],[4.624657,52.361966],[4.624809,52.36204],[4.624852,52.362057],[4.624893,52.36207],[4.624912,52.362073],[4.624951,52.36208],[4.625066,52.36209],[4.625377,52.362098],[4.625407,52.362119],[4.625408,52.362121],[4.62556,52.362129],[4.625629,52.362126],[4.625842,52.362101],[4.62591,52.362084],[4.625999,52.362043],[4.626142,52.361974],[4.626299,52.361906],[4.626356,52.361869],[4.626522,52.361784],[4.626626,52.361721],[4.626716,52.36167],[4.626759,52.361647],[4.626837,52.361608],[4.626951,52.361559],[4.627206,52.361469],[4.627422,52.361396],[4.627491,52.361363],[4.627538,52.361352],[4.627705,52.361292],[4.627911,52.361243],[4.628115,52.361193],[4.628337,52.361136],[4.628496,52.361095],[4.628621,52.361061],[4.628751,52.361031],[4.628842,52.361005],[4.628905,52.360984],[4.628962,52.360966],[4.62951,52.360817],[4.629609,52.360791],[4.629821,52.360741],[4.629903,52.360724],[4.630077,52.360682],[4.630158,52.360668],[4.6303,52.360649],[4.630341,52.360647],[4.630453,52.360651],[4.630751,52.36067],[4.630963,52.360701],[4.631124,52.360725],[4.631327,52.360749],[4.631485,52.360766],[4.631901,52.360811],[4.631927,52.360811],[4.632603,52.360818],[4.633203,52.360804],[4.633388,52.3608],[4.633523,52.360814],[4.633855,52.36087],[4.633971,52.360892],[4.634047,52.360909],[4.634242,52.36095],[4.634472,52.360993],[4.634672,52.36103],[4.63467,52.361036],[4.634962,52.36109],[4.635054,52.361111],[4.63545,52.361206],[4.6355,52.361218],[4.635565,52.361234],[4.635578,52.361239],[4.635584,52.361239],[4.635682,52.361263],[4.636125,52.361369],[4.636146,52.361378],[4.63615,52.361393],[4.636156,52.361371],[4.636626,52.361484],[4.636754,52.361317],[4.636768,52.361305],[4.636851,52.361247],[4.636922,52.361192],[4.636971,52.361148],[4.63711,52.36096],[4.637182,52.360787],[4.637203,52.360731],[4.637239,52.360573],[4.637252,52.360524],[4.637377,52.360218],[4.63741,52.360147],[4.637594,52.359777],[4.637605,52.359741],[4.637634,52.359596],[4.637607,52.359504],[4.63759,52.359468],[4.637504,52.359342],[4.637413,52.359199],[4.637005,52.358611],[4.636975,52.358573],[4.6369,52.358467],[4.636781,52.358326],[4.636317,52.357934],[4.636122,52.357766],[4.635922,52.357579],[4.635744,52.357407],[4.635628,52.357282],[4.635513,52.357152],[4.635375,52.356975],[4.635355,52.356946],[4.635308,52.356886],[4.635265,52.356825],[4.635118,52.356584],[4.635058,52.356428],[4.634931,52.355909],[4.635003,52.355765],[4.635079,52.355468],[4.6351,52.355425],[4.635143,52.35532],[4.635224,52.355137],[4.635633,52.35439],[4.635782,52.354138],[4.635918,52.353936],[4.635987,52.353843],[4.636265,52.353544],[4.636388,52.353359],[4.636551,52.353222],[4.637514,52.35245],[4.637631,52.352363],[4.637868,52.352202],[4.637998,52.352124],[4.638313,52.351958],[4.638788,52.351643],[4.63905,52.351494],[4.639536,52.351157],[4.639661,52.351069],[4.639803,52.350907],[4.639868,52.350832],[4.639889,52.350803],[4.640226,52.350203],[4.640314,52.350053],[4.640386,52.349834],[4.640391,52.349784],[4.640311,52.34947],[4.640291,52.349329],[4.640285,52.349163],[4.640293,52.348979],[4.640318,52.348697],[4.640374,52.348391],[4.640393,52.348188],[4.640426,52.348002],[4.640482,52.347734],[4.640495,52.347641],[4.640498,52.347598],[4.640495,52.347484],[4.640471,52.34716],[4.64047,52.346655],[4.640474,52.346343],[4.640468,52.346278],[4.640422,52.346043],[4.640361,52.345859],[4.640305,52.345671],[4.640325,52.345563],[4.640354,52.345502],[4.640469,52.345284],[4.640528,52.345167],[4.64055,52.345115],[4.64067,52.344677],[4.640735,52.344557],[4.640896,52.344238],[4.641034,52.343986],[4.640999,52.343904],[4.640835,52.343627],[4.640746,52.343451],[4.640595,52.343021],[4.640466,52.34263],[4.64044,52.34253],[4.640428,52.34243],[4.640419,52.342194],[4.640421,52.341974],[4.640372,52.34192],[4.640056,52.341623],[4.639812,52.341375],[4.639632,52.341123],[4.639492,52.340891],[4.63942,52.340762],[4.639381,52.340629],[4.639337,52.340384],[4.6393,52.340124],[4.639282,52.339877],[4.639243,52.339667],[4.639282,52.339529],[4.639343,52.339368],[4.639406,52.339241],[4.639471,52.339142],[4.639648,52.338906],[4.640541,52.33902],[4.64083,52.339062],[4.640924,52.339071],[4.641058,52.339089],[4.641169,52.339104],[4.641489,52.339144],[4.64179,52.339185],[4.641929,52.339206],[4.642117,52.339231],[4.642252,52.33925],[4.642504,52.339286],[4.642683,52.339302],[4.643511,52.33943],[4.643576,52.339441],[4.643632,52.339442],[4.643684,52.339448],[4.643762,52.339461],[4.643891,52.339479],[4.64411,52.339514],[4.644476,52.339569],[4.644645,52.339596],[4.645239,52.339684],[4.645427,52.339716],[4.645567,52.339736],[4.645682,52.339751],[4.645893,52.339782],[4.646122,52.339813],[4.646484,52.339866],[4.646796,52.339914],[4.64703,52.339953],[4.647348,52.340011],[4.647628,52.340069],[4.647906,52.340131],[4.648121,52.340185],[4.648355,52.340247],[4.64859,52.340318],[4.648833,52.340394],[4.649046,52.340465],[4.649246,52.340538],[4.649411,52.3406],[4.649552,52.340654],[4.650568,52.341096],[4.650704,52.341155],[4.65107,52.341315],[4.651829,52.341631],[4.652124,52.341775],[4.652522,52.341951],[4.653018,52.342162],[4.654618,52.342863],[4.656412,52.343639],[4.656465,52.343662],[4.659055,52.344792],[4.660251,52.345306],[4.661964,52.346009],[4.662414,52.346194],[4.662617,52.346283],[4.663269,52.346571],[4.664464,52.347092],[4.66532,52.347467],[4.665694,52.347631],[4.666086,52.347799],[4.666865,52.348141],[4.667264,52.348312],[4.66806,52.348657],[4.668257,52.348743],[4.668837,52.34899],[4.669645,52.349342],[4.670346,52.349646],[4.670641,52.349774],[4.670944,52.349906],[4.671475,52.350144],[4.672143,52.350433],[4.672547,52.350609],[4.672856,52.350748],[4.673088,52.350862],[4.673481,52.351071],[4.673667,52.351178],[4.673872,52.351313],[4.67401,52.351402],[4.674278,52.351589],[4.674355,52.351644],[4.674694,52.351913],[4.674976,52.352179],[4.67514,52.352329],[4.675285,52.352478],[4.675478,52.352692],[4.675633,52.352879],[4.675876,52.353201],[4.676107,52.353549],[4.676254,52.353815],[4.676372,52.354078],[4.676394,52.354138],[4.676421,52.354217],[4.676446,52.354287],[4.676487,52.354539],[4.676516,52.354785],[4.676527,52.354897],[4.676548,52.355181],[4.676553,52.355264],[4.676555,52.355352],[4.676553,52.355479],[4.67654,52.355645],[4.676505,52.355947],[4.676467,52.356181],[4.676452,52.356256],[4.676421,52.356368],[4.676299,52.356697],[4.676113,52.35708],[4.676095,52.357132],[4.676027,52.357328],[4.675952,52.357538],[4.675696,52.358255],[4.675684,52.358288],[4.675672,52.358322],[4.67566,52.358355],[4.67564,52.358418],[4.675574,52.358607],[4.675404,52.359053],[4.675339,52.359214],[4.67524,52.35948],[4.675142,52.35975],[4.675038,52.36004],[4.674911,52.36041],[4.674848,52.360578],[4.67475,52.360853],[4.674495,52.361553],[4.674423,52.361758],[4.674343,52.361974],[4.674134,52.362554],[4.673925,52.36313],[4.673791,52.363497],[4.673617,52.363985],[4.673526,52.364234],[4.673366,52.364675],[4.673171,52.365222],[4.673042,52.365575],[4.672984,52.36574],[4.672962,52.365791],[4.672864,52.366064],[4.672675,52.366586],[4.67253,52.366981],[4.672245,52.367742],[4.672178,52.367927],[4.672113,52.368102],[4.672071,52.368214],[4.671902,52.368669],[4.671549,52.369643],[4.671477,52.369918],[4.671438,52.370075],[4.67138,52.370358],[4.671357,52.370552],[4.671357,52.370703],[4.67134,52.371043],[4.671332,52.371141],[4.671332,52.371334],[4.671366,52.37154],[4.671386,52.371727],[4.671471,52.372073],[4.67159,52.372425],[4.671734,52.372758],[4.671797,52.372877],[4.671902,52.373012],[4.671916,52.373063],[4.672161,52.373476],[4.672303,52.373681],[4.672582,52.374049],[4.672714,52.374225],[4.672831,52.374354],[4.673229,52.374738],[4.673505,52.374976],[4.673794,52.375217],[4.673956,52.375354],[4.674276,52.375569],[4.674424,52.375669],[4.674628,52.375794],[4.674676,52.375826],[4.674902,52.375969],[4.675093,52.376077],[4.675225,52.376148],[4.675383,52.376222],[4.675763,52.376412],[4.676254,52.376646],[4.676507,52.376757],[4.676647,52.376814],[4.676999,52.376947],[4.677384,52.377088],[4.677449,52.377191],[4.677581,52.377367],[4.677681,52.377477],[4.677907,52.377712],[4.678006,52.377803],[4.678742,52.378454],[4.678925,52.378611],[4.679037,52.378713],[4.679438,52.379094],[4.679552,52.379206],[4.679752,52.379382],[4.680255,52.379791],[4.680364,52.379872],[4.680479,52.379949],[4.680772,52.380119],[4.680909,52.380193],[4.681489,52.380488],[4.683009,52.381274],[4.683692,52.381639],[4.683973,52.381807],[4.684763,52.38232],[4.685071,52.382533],[4.685369,52.382759],[4.685597,52.382977],[4.685779,52.383176],[4.685867,52.38328],[4.685951,52.383408],[4.686003,52.383473],[4.685978,52.383634],[4.685975,52.383662],[4.685951,52.383804],[4.685947,52.383916],[4.685971,52.384018],[4.68577,52.384002],[4.686132,52.385078],[4.686364,52.385778],[4.686921,52.387444],[4.684844,52.387813],[4.682596,52.388216],[4.681765,52.389434],[4.68119,52.390287],[4.677716,52.389738],[4.676868,52.390052],[4.675597,52.390522],[4.674542,52.390911],[4.674521,52.390905],[4.674491,52.390923],[4.674507,52.390932],[4.674456,52.390979],[4.674448,52.390976],[4.674429,52.390991],[4.674448,52.391003],[4.673895,52.392199],[4.673664,52.392693],[4.673199,52.393688],[4.673458,52.394067],[4.67563,52.397249],[4.677272,52.397953],[4.67857,52.398515],[4.678686,52.399478],[4.678085,52.399586],[4.6761,52.399959],[4.674411,52.400271],[4.669382,52.401265],[4.668665,52.401399],[4.668688,52.401757],[4.668707,52.402127],[4.668761,52.403102],[4.668801,52.403909],[4.668816,52.404163],[4.67037,52.404806],[4.673049,52.405916],[4.674379,52.406469],[4.674319,52.4067],[4.674285,52.406817],[4.674206,52.407026],[4.674185,52.407072],[4.674139,52.407162],[4.674114,52.407206],[4.674006,52.407379],[4.673878,52.407572],[4.673718,52.407803],[4.673624,52.407928],[4.673528,52.408042],[4.673357,52.408234],[4.673231,52.408371],[4.673037,52.408568],[4.6727,52.408882],[4.672573,52.408995],[4.672389,52.409142],[4.672154,52.409313],[4.671962,52.409447],[4.673889,52.409393],[4.674081,52.409391],[4.674253,52.409391],[4.674394,52.409397],[4.674587,52.409408],[4.674763,52.409432],[4.674935,52.409469],[4.675342,52.409577],[4.67555,52.409638],[4.675984,52.409776],[4.676217,52.409854],[4.676434,52.409933],[4.676519,52.409963],[4.679547,52.411509],[4.679944,52.41171],[4.68029,52.411888],[4.680777,52.412135],[4.681131,52.412317],[4.68163,52.412697],[4.681819,52.412842],[4.682182,52.413121],[4.682183,52.413122],[4.682189,52.413126],[4.682091,52.413171],[4.682074,52.413178],[4.681986,52.413218],[4.681945,52.413237],[4.682017,52.413292],[4.682134,52.413383],[4.682276,52.413403],[4.682352,52.413369],[4.682432,52.413339],[4.682496,52.413369],[4.682476,52.413849],[4.682343,52.414616],[4.682204,52.415422],[4.682108,52.415965],[4.681986,52.416646],[4.681854,52.417461],[4.681799,52.41778],[4.681637,52.417812],[4.681181,52.417901],[4.680958,52.417946],[4.68067,52.418002],[4.680648,52.418006],[4.680692,52.418039],[4.680727,52.418079],[4.680792,52.418157],[4.680832,52.418205],[4.680842,52.418216],[4.680942,52.418386],[4.681046,52.418576],[4.681096,52.418683],[4.681112,52.418724],[4.681127,52.418765],[4.681218,52.419078],[4.681242,52.419158],[4.681252,52.419198],[4.681242,52.419292],[4.681227,52.419331],[4.680853,52.419289],[4.680271,52.419258],[4.67965,52.419199],[4.679176,52.419137],[4.678713,52.419091],[4.678368,52.41906],[4.678256,52.419049],[4.678216,52.419044],[4.678212,52.419044],[4.67698,52.418903],[4.676538,52.418865],[4.676149,52.418829],[4.675567,52.41878],[4.675014,52.418739],[4.674701,52.41872],[4.674652,52.418714],[4.674375,52.418631],[4.674362,52.418642],[4.673706,52.419664],[4.673651,52.41976],[4.673499,52.419735],[4.673452,52.419727],[4.672736,52.420752],[4.672631,52.420991],[4.672259,52.421485],[4.672126,52.421751],[4.672118,52.421822],[4.672106,52.421946],[4.672119,52.422221],[4.672123,52.422353],[4.672126,52.422365],[4.672127,52.422377],[4.672127,52.422389],[4.672124,52.422402],[4.672121,52.422414],[4.672115,52.422425],[4.672108,52.422437],[4.6721,52.422447],[4.67209,52.422458],[4.672079,52.422467],[4.672067,52.422476],[4.672054,52.422485],[4.67204,52.422492],[4.671938,52.422557],[4.671857,52.422603],[4.671782,52.422639],[4.671741,52.422657],[4.671393,52.422846],[4.671114,52.422993],[4.670869,52.423134],[4.670585,52.423286],[4.670341,52.423412],[4.670129,52.423524],[4.670003,52.423593],[4.669857,52.423666],[4.669619,52.423779],[4.669452,52.423856],[4.669184,52.423964],[4.66899,52.424052],[4.668843,52.424118],[4.668591,52.424224],[4.668507,52.424262],[4.668435,52.424296],[4.668306,52.424361],[4.668228,52.424401],[4.668153,52.424444],[4.668076,52.424485],[4.667971,52.424537],[4.6678,52.424609],[4.667675,52.42466],[4.667618,52.424685],[4.667475,52.42476],[4.667172,52.424921],[4.666972,52.425017],[4.666877,52.425058],[4.666719,52.42512],[4.666548,52.425179],[4.666467,52.425212],[4.666358,52.425256],[4.666221,52.425315],[4.666087,52.425372],[4.665997,52.425409],[4.665932,52.425434],[4.665868,52.425453],[4.665821,52.425464],[4.665365,52.425522],[4.665251,52.425547],[4.665159,52.425562],[4.665051,52.425578],[4.664956,52.425592],[4.664848,52.425604],[4.664774,52.425612],[4.664603,52.425627],[4.664392,52.42564],[4.664326,52.425645],[4.664065,52.425667],[4.663885,52.425686],[4.663698,52.42572],[4.66358,52.425738],[4.663293,52.425788],[4.663037,52.425827],[4.662775,52.425862],[4.662502,52.425897],[4.662327,52.425915],[4.662222,52.425922],[4.662097,52.425928],[4.661919,52.425938],[4.661832,52.425943],[4.661634,52.425969],[4.661436,52.426024],[4.661251,52.426072],[4.661128,52.426103],[4.660937,52.426148],[4.659507,52.426468],[4.658863,52.426634],[4.658336,52.426755],[4.658004,52.426838],[4.657543,52.426952],[4.657269,52.427028],[4.65708,52.427073],[4.656785,52.427134],[4.656705,52.427149],[4.656305,52.427249],[4.656026,52.427317],[4.655711,52.427401],[4.655398,52.427474],[4.655248,52.427515],[4.65459,52.427669],[4.654319,52.427736],[4.654144,52.42777],[4.654036,52.427797],[4.653882,52.42782],[4.65372,52.427879],[4.65342,52.427936],[4.653243,52.42798],[4.652818,52.428068],[4.652485,52.428143],[4.652071,52.428254],[4.651912,52.428293],[4.651522,52.428378],[4.650944,52.428523],[4.650769,52.42857],[4.650725,52.428555],[4.65069,52.428536],[4.650456,52.428207],[4.650235,52.427895],[4.649984,52.427525],[4.649694,52.427142],[4.64966,52.427151],[4.649625,52.427158],[4.649619,52.427159],[4.649614,52.427158],[4.649609,52.427158],[4.649603,52.427157],[4.649597,52.427155],[4.649593,52.427154],[4.649589,52.427151],[4.649585,52.427149],[4.649582,52.427146],[4.649579,52.427143],[4.649246,52.426731],[4.648978,52.4264],[4.648758,52.426129],[4.648672,52.426025],[4.648517,52.425858],[4.648452,52.425786],[4.648423,52.425751],[4.648407,52.42573],[4.648395,52.425713],[4.648385,52.425697],[4.64836,52.425656],[4.648337,52.425612],[4.648317,52.425577],[4.648296,52.425544],[4.648276,52.425516],[4.648228,52.425455],[4.648183,52.425398],[4.648175,52.42539],[4.648167,52.425383],[4.648162,52.425374],[4.648151,52.425358],[4.648001,52.425086],[4.64783,52.424775],[4.647814,52.424746],[4.647803,52.424727],[4.647786,52.42472],[4.647778,52.424708],[4.647751,52.424663],[4.647583,52.424461],[4.647533,52.424413],[4.647516,52.424357],[4.647413,52.42425],[4.647302,52.424089],[4.646786,52.42344],[4.646697,52.423324],[4.646654,52.423272],[4.646654,52.423272],[4.64665,52.423272],[4.646598,52.42327],[4.646552,52.423267],[4.646552,52.423267],[4.646523,52.423265],[4.646437,52.423262],[4.646203,52.42325],[4.646181,52.423249],[4.646181,52.423249],[4.646173,52.423248],[4.646151,52.423246],[4.646129,52.423245],[4.646107,52.423242],[4.646086,52.42324],[4.646064,52.423237],[4.646063,52.423238],[4.646059,52.423238],[4.646055,52.423237],[4.646051,52.423237],[4.646046,52.423236],[4.646042,52.423235],[4.645994,52.423226],[4.645948,52.423214],[4.645903,52.423201],[4.64586,52.423185],[4.645818,52.423167],[4.645768,52.423143],[4.645721,52.423117],[4.645678,52.423088],[4.645639,52.423057],[4.645605,52.423024],[4.645588,52.423005],[4.645573,52.422985],[4.645559,52.422965],[4.645547,52.422945],[4.645536,52.422924],[4.645533,52.422915],[4.645522,52.422889],[4.645456,52.422732],[4.645446,52.422706],[4.645435,52.42268],[4.645425,52.422654],[4.645415,52.422628],[4.645383,52.422549],[4.645373,52.422523],[4.645363,52.422497],[4.645352,52.42247],[4.645327,52.422406],[4.64531,52.422365],[4.6453,52.422339],[4.64529,52.422313],[4.645269,52.422264],[4.645225,52.422156],[4.645204,52.422099],[4.645162,52.421965],[4.645172,52.421965],[4.645145,52.421861],[4.645122,52.421767],[4.645102,52.421615],[4.645081,52.421447],[4.645057,52.421257],[4.645031,52.421092],[4.645017,52.421026],[4.645003,52.420955],[4.64498,52.420858],[4.644425,52.420281],[4.644357,52.4202],[4.64378,52.419519],[4.643681,52.419381],[4.643679,52.41938],[4.643679,52.41938],[4.643564,52.419231],[4.643459,52.419092],[4.64335,52.418951],[4.64326,52.418839],[4.643153,52.418699],[4.643015,52.418525],[4.64292,52.418402],[4.642886,52.418361],[4.642408,52.41777],[4.642061,52.417381],[4.641891,52.417176],[4.64108,52.416248],[4.640265,52.415283],[4.63987,52.414986],[4.639577,52.414713],[4.639255,52.414385],[4.639121,52.414199],[4.639022,52.41408],[4.638734,52.413749],[4.6384,52.413368],[4.637805,52.412696],[4.637406,52.412261],[4.637166,52.411985],[4.636903,52.411667],[4.636756,52.411525],[4.636279,52.410984],[4.636263,52.410952],[4.636184,52.41082],[4.634525,52.411133],[4.63394,52.41124],[4.633291,52.411356],[4.63271,52.411466],[4.632384,52.411527],[4.631648,52.411666],[4.631648,52.411665],[4.631413,52.41122],[4.631203,52.410838],[4.631023,52.410471],[4.630766,52.409984],[4.63057,52.409599],[4.63052,52.409504],[4.630454,52.409382],[4.630339,52.409165],[4.630335,52.409156],[4.630206,52.408904],[4.63012,52.408747],[4.630037,52.408583],[4.629968,52.408442],[4.629893,52.408302],[4.62978,52.408083],[4.629713,52.40796],[4.629649,52.407837],[4.629543,52.407629],[4.629435,52.407411],[4.629382,52.407295],[4.629317,52.407179],[4.629217,52.407006],[4.629193,52.40696],[4.629203,52.406958],[4.629167,52.406893],[4.628941,52.406462],[4.628804,52.406193],[4.628688,52.405957],[4.628536,52.405659],[4.628499,52.405587],[4.628318,52.405236],[4.628256,52.405122],[4.628203,52.405028],[4.628139,52.404888],[4.627883,52.404395],[4.627722,52.404086],[4.627623,52.403897],[4.627435,52.403539],[4.627216,52.403116],[4.627194,52.403074],[4.627125,52.402947],[4.627016,52.402743],[4.626805,52.402343],[4.626772,52.402259],[4.626681,52.402087],[4.626486,52.401715],[4.626425,52.401602],[4.626403,52.401554],[4.626345,52.401448],[4.626295,52.401369],[4.626263,52.401306],[4.626231,52.401249],[4.626207,52.401198],[4.626172,52.401135],[4.626092,52.400973],[4.626025,52.400854],[4.626009,52.400821],[4.625976,52.400763],[4.625887,52.400594],[4.625764,52.40035],[4.624837,52.398562],[4.624427,52.397778],[4.624373,52.397665],[4.624254,52.397439],[4.624267,52.397435],[4.624088,52.39706],[4.623979,52.396739],[4.623884,52.396327],[4.62386,52.396241],[4.623758,52.396206],[4.623625,52.395544],[4.623532,52.395153],[4.623464,52.394875],[4.623398,52.394594],[4.623365,52.394437],[4.623341,52.39419],[4.623315,52.393893],[4.623314,52.393864],[4.623314,52.39384],[4.623314,52.393762],[4.623313,52.393683],[4.623312,52.393609],[4.623307,52.393507],[4.623309,52.393427],[4.623347,52.393296],[4.623392,52.393186],[4.623464,52.393011],[4.623504,52.392891],[4.623544,52.392789],[4.623594,52.392659],[4.62364,52.392553],[4.623727,52.392374],[4.623912,52.392079],[4.623941,52.392005],[4.623884,52.391912],[4.623597,52.391554],[4.623572,52.391509],[4.623485,52.391377],[4.62344,52.391299],[4.623381,52.391227],[4.623351,52.391168],[4.623336,52.391113],[4.623307,52.391019],[4.623268,52.390957],[4.623213,52.390857],[4.62312,52.390698],[4.623043,52.390568],[4.622991,52.390479],[4.622914,52.39033],[4.622711,52.389951],[4.622583,52.389743],[4.622503,52.389545],[4.622388,52.389292],[4.622294,52.389141],[4.62221,52.389034],[4.622154,52.38896],[4.622096,52.388872],[4.621967,52.388671],[4.621892,52.388519],[4.62183,52.388393],[4.621787,52.388321],[4.621754,52.388261],[4.621682,52.388121],[4.621606,52.387982],[4.621406,52.388012],[4.620849,52.388095],[4.620645,52.388124],[4.620524,52.388144],[4.620385,52.388164],[4.620045,52.388213],[4.619856,52.388238],[4.619616,52.388273],[4.619502,52.388289],[4.619416,52.388302],[4.619161,52.388338],[4.618937,52.388369],[4.618881,52.388376],[4.618897,52.388401],[4.61848,52.388464],[4.617874,52.388556],[4.617718,52.388581],[4.616675,52.388757],[4.616184,52.388833],[4.614651,52.389096],[4.613278,52.389335],[4.613305,52.389383],[4.611503,52.389702],[4.610819,52.389821],[4.610469,52.389345],[4.61036,52.38919],[4.610488,52.389149],[4.610406,52.389008],[4.610241,52.388719],[4.610372,52.388698],[4.610313,52.388582],[4.610293,52.388531],[4.610199,52.38834],[4.610077,52.388096],[4.610029,52.38802],[4.609831,52.387768],[4.609808,52.387761],[4.609799,52.387765],[4.609751,52.387751],[4.609537,52.387815],[4.609332,52.387746],[4.609272,52.387674],[4.609249,52.387679],[4.609223,52.387605],[4.609194,52.387483],[4.609215,52.387468],[4.609196,52.387376],[4.609159,52.38722],[4.609145,52.387158],[4.608933,52.386476],[4.608912,52.386411],[4.608888,52.386343],[4.608858,52.386235],[4.608801,52.386077],[4.608583,52.385524],[4.608552,52.385444],[4.608421,52.385465],[4.608339,52.385467],[4.608294,52.385466],[4.607801,52.385539],[4.607127,52.385634],[4.606339,52.385751],[4.606308,52.385672],[4.606301,52.385655],[4.606285,52.385613],[4.606239,52.385613],[4.606222,52.385586],[4.606196,52.385577],[4.606179,52.385546],[4.606117,52.385542],[4.606035,52.38554],[4.606002,52.385538],[4.605969,52.385536],[4.60585,52.385528],[4.605644,52.385512],[4.605467,52.385501],[4.605308,52.385492],[4.605212,52.385497],[4.604806,52.385479],[4.604602,52.385457],[4.604475,52.385442],[4.604349,52.385419],[4.604168,52.385373],[4.604023,52.385329],[4.603963,52.385306],[4.6039,52.38528],[4.603863,52.385248],[4.603836,52.385217],[4.603826,52.385193],[4.603798,52.385028],[4.603796,52.385019],[4.603775,52.384966],[4.603761,52.384948],[4.603746,52.384932],[4.603719,52.384916],[4.6037,52.384911],[4.603682,52.384909],[4.60347,52.384935],[4.603097,52.384992],[4.603044,52.384997],[4.603011,52.384997],[4.602977,52.384994],[4.602958,52.384991],[4.602847,52.384953],[4.602179,52.384709],[4.602107,52.384679],[4.60206,52.384654],[4.60204,52.38464],[4.602017,52.384619],[4.601833,52.384431],[4.601725,52.384326],[4.601232,52.383794],[4.600855,52.383378],[4.600727,52.383207],[4.600585,52.383005],[4.600531,52.382921],[4.600509,52.382872],[4.600497,52.382838],[4.600493,52.382802],[4.600491,52.382776],[4.600504,52.38261],[4.600533,52.382408],[4.600536,52.382376],[4.60054,52.38234],[4.600572,52.382052],[4.600575,52.381795],[4.600578,52.381747],[4.600584,52.381726],[4.60059,52.381711],[4.600616,52.381695],[4.60057,52.381662],[4.600288,52.381591],[4.600262,52.381428],[4.600208,52.38112],[4.600229,52.380946],[4.600231,52.380904],[4.600242,52.380814],[4.600279,52.380792],[4.600254,52.380759],[4.600068,52.380814],[4.599779,52.378935],[4.599773,52.378873],[4.59953,52.377557],[4.599516,52.377454],[4.59952,52.377353],[4.599534,52.377278],[4.599552,52.37722],[4.599603,52.377136],[4.599658,52.377065],[4.599674,52.377049],[4.599706,52.377032],[4.599818,52.377007],[4.600283,52.37693],[4.60092,52.376828],[4.601067,52.376802],[4.600955,52.376573],[4.600941,52.376512],[4.600935,52.376495],[4.600798,52.376276],[4.600897,52.376044],[4.601171,52.375516],[4.601251,52.375357]]]},"properties":{"type":"boundary","gemeente":"Haarlem"}}]}