{"type":"FeatureCollection","metadata":{"gemeente":"Halderberge","slug":"halderberge","generated_at":"2026-09-28T08:20:31.380596Z","total_points":51,"providers":["Amazon","DHL","DPD","PostNL","VintedGo","GLS","FedEx","InPost"],"bounds":[4.455895791,51.56017263501793,4.584103,51.5912351040971]},"features":[{"type":"Feature","geometry":{"type":"Point","coordinates":[4.455895791,51.58201787]},"properties":{"type":"pakketpunt","locatieNaam":"Jora Exploitatie Maatschappij","straatNaam":"Standerdmolen 6","straatNr":"","vervoerder":"Amazon","puntType":"3p","bezettingsgraad":50,"latitude":51.58201787,"longitude":4.455895791,"canPickup":true,"canDropoff":false,"openingstijden":null}},{"type":"Feature","geometry":{"type":"Point","coordinates":[4.45933234556164,51.5889488024799]},"properties":{"type":"pakketpunt","locatieNaam":"Sylvia's Beautiekie","straatNaam":"Dorpsstraat 21","straatNr":"","vervoerder":"Amazon","puntType":"3p","bezettingsgraad":50,"latitude":51.5889488024799,"longitude":4.45933234556164,"canPickup":true,"canDropoff":false,"openingstijden":null}},{"type":"Feature","geometry":{"type":"Point","coordinates":[4.52620517079087,51.5888760009389]},"properties":{"type":"pakketpunt","locatieNaam":"Primera Oudenbosch","straatNaam":"Markt 25","straatNr":"","vervoerder":"Amazon","puntType":"3p","bezettingsgraad":50,"latitude":51.5888760009389,"longitude":4.52620517079087,"canPickup":true,"canDropoff":false,"openingstijden":null}},{"type":"Feature","geometry":{"type":"Point","coordinates":[4.584103,51.580418]},"properties":{"type":"pakketpunt","locatieNaam":"Styvo - Bekerpaleis","straatNaam":"Akkerlingen","straatNr":"22","vervoerder":"DHL","puntType":"parcelShop","bezettingsgraad":50,"latitude":51.580418,"longitude":4.584103,"canPickup":true,"canDropoff":true,"openingstijden":{"ma":"09:00 - 12:30, 13:00 - 17:30","di":"09:00 - 12:30, 13:00 - 17:30","wo":"09:00 - 12:30, 13:00 - 17:30","do":"09:00 - 12:30, 13:00 - 17:30","vr":"09:00 - 12:30, 13:00 - 17:30","za":"gesloten","zo":"gesloten"}}},{"type":"Feature","geometry":{"type":"Point","coordinates":[4.4654996,51.5802821]},"properties":{"type":"pakketpunt","locatieNaam":"DeBuren Locker 24-7 Tankstat. Klav","straatNaam":"Vaccaweg","straatNr":"2","vervoerder":"DHL","puntType":"packStation","bezettingsgraad":50,"latitude":51.5802821,"longitude":4.4654996,"canPickup":true,"canDropoff":true,"openingstijden":{"ma":"00:00 - 23:59","di":"00:00 - 23:59","wo":"00:00 - 23:59","do":"00:00 - 23:59","vr":"00:00 - 23:59","za":"00:00 - 23:59","zo":"00:00 - 23:59"}}},{"type":"Feature","geometry":{"type":"Point","coordinates":[4.52612,51.589417]},"properties":{"type":"pakketpunt","locatieNaam":"Ertonga Market","straatNaam":"Fenkelstraat","straatNr":"20","vervoerder":"DHL","puntType":"parcelShop","bezettingsgraad":50,"latitude":51.589417,"longitude":4.52612,"canPickup":true,"canDropoff":true,"openingstijden":{"ma":"13:00 - 18:00","di":"09:00 - 18:00","wo":"09:00 - 18:00","do":"09:00 - 18:00","vr":"09:00 - 18:00","za":"09:00 - 17:00","zo":"gesloten"}}},{"type":"Feature","geometry":{"type":"Point","coordinates":[4.521731,51.589443]},"properties":{"type":"pakketpunt","locatieNaam":"Pakketautomaat KlusWijs Oudenbosch","straatNaam":"Zandeweg","straatNr":"29","vervoerder":"DHL","puntType":"packStation","bezettingsgraad":50,"latitude":51.589443,"longitude":4.521731,"canPickup":true,"canDropoff":true,"openingstijden":{"ma":"08:30 - 17:00","di":"08:30 - 17:00","wo":"08:30 - 17:00","do":"08:30 - 17:00","vr":"08:30 - 17:00","za":"08:30 - 17:00","zo":"gesloten"}}},{"type":"Feature","geometry":{"type":"Point","coordinates":[4.456470053643077,51.57842915381627]},"properties":{"type":"pakketpunt","locatieNaam":"B2C Clearance B.V.","straatNaam":"Watermolen","straatNr":"35","vervoerder":"DHL","puntType":"parcelShop","bezettingsgraad":50,"latitude":51.57842915381627,"longitude":4.456470053643077,"canPickup":true,"canDropoff":true,"openingstijden":{"ma":"08:30 - 17:00","di":"08:30 - 17:00","wo":"08:30 - 17:00","do":"08:30 - 17:00","vr":"08:30 - 17:00","za":"gesloten","zo":"gesloten"}}},{"type":"Feature","geometry":{"type":"Point","coordinates":[4.52749,51.59059]},"properties":{"type":"pakketpunt","locatieNaam":"Pakketautomaat PLUS Oudenbosch","straatNaam":"Julianalaan","straatNr":"1","vervoerder":"DHL","puntType":"packStation","bezettingsgraad":50,"latitude":51.59059,"longitude":4.52749,"canPickup":true,"canDropoff":true,"openingstijden":{"ma":"00:00 - 23:59","di":"00:00 - 23:59","wo":"00:00 - 23:59","do":"00:00 - 23:59","vr":"00:00 - 23:59","za":"00:00 - 23:59","zo":"00:00 - 23:59"}}},{"type":"Feature","geometry":{"type":"Point","coordinates":[4.54491,51.59013]},"properties":{"type":"pakketpunt","locatieNaam":"DeBuren Locker 24-7 Gulf Oudenb","straatNaam":"Bosschendijk","straatNr":"165","vervoerder":"DHL","puntType":"packStation","bezettingsgraad":50,"latitude":51.59013,"longitude":4.54491,"canPickup":true,"canDropoff":true,"openingstijden":{"ma":"00:00 - 23:59","di":"00:00 - 23:59","wo":"00:00 - 23:59","do":"00:00 - 23:59","vr":"00:00 - 23:59","za":"00:00 - 23:59","zo":"00:00 - 23:59"}}},{"type":"Feature","geometry":{"type":"Point","coordinates":[4.575380214477555,51.58645151605155]},"properties":{"type":"pakketpunt","locatieNaam":"DeBuren Locker 24-7 TinQ Hoeven","straatNaam":"Sint Brenardusstraat","straatNr":"15","vervoerder":"DHL","puntType":"packStation","bezettingsgraad":50,"latitude":51.58645151605155,"longitude":4.575380214477555,"canPickup":true,"canDropoff":true,"openingstijden":{"ma":"00:00 - 23:59","di":"00:00 - 23:59","wo":"00:00 - 23:59","do":"00:00 - 23:59","vr":"00:00 - 23:59","za":"00:00 - 23:59","zo":"00:00 - 23:59"}}},{"type":"Feature","geometry":{"type":"Point","coordinates":[4.459619,51.587554]},"properties":{"type":"pakketpunt","locatieNaam":"De Martwienkel","straatNaam":"Markt","straatNr":"5","vervoerder":"DHL","puntType":"parcelShop","bezettingsgraad":50,"latitude":51.587554,"longitude":4.459619,"canPickup":true,"canDropoff":true,"openingstijden":{"ma":"gesloten","di":"09:30 - 17:00","wo":"09:30 - 17:00","do":"09:30 - 17:00","vr":"09:30 - 17:00","za":"09:30 - 16:00","zo":"gesloten"}}},{"type":"Feature","geometry":{"type":"Point","coordinates":[4.526118,51.589426]},"properties":{"type":"pakketpunt","locatieNaam":"Ertonga Market","straatNaam":"FENKELSTRAAT","straatNr":"20","vervoerder":"DPD","puntType":"pickup_point","bezettingsgraad":50,"latitude":51.589426,"longitude":4.526118,"canPickup":true,"canDropoff":true,"openingstijden":{"ma":"13:00 - 18:00","di":"09:00 - 18:00","wo":"09:00 - 18:00","do":"09:00 - 18:00","vr":"09:00 - 18:00","za":"09:00 - 17:00","zo":"gesloten"}}},{"type":"Feature","geometry":{"type":"Point","coordinates":[4.5449051,51.5901285]},"properties":{"type":"pakketpunt","locatieNaam":"Pakketautomaat Gulf Bosschendijk","straatNaam":"BOSSCHENDIJK","straatNr":"165 C","vervoerder":"DPD","puntType":"dpd_box","bezettingsgraad":50,"latitude":51.5901285,"longitude":4.5449051,"canPickup":true,"canDropoff":true,"openingstijden":{"ma":"00:00 - 23:59","di":"00:00 - 23:59","wo":"00:00 - 23:59","do":"00:00 - 23:59","vr":"00:00 - 23:59","za":"00:00 - 23:59","zo":"00:00 - 23:59"}}},{"type":"Feature","geometry":{"type":"Point","coordinates":[4.5754218,51.5857986]},"properties":{"type":"pakketpunt","locatieNaam":"Pakketautomaat TinQ Sint Bernarduss","straatNaam":"SINT BERNARDUSSTRAAT","straatNr":"15A","vervoerder":"DPD","puntType":"dpd_box","bezettingsgraad":50,"latitude":51.5857986,"longitude":4.5754218,"canPickup":true,"canDropoff":true,"openingstijden":{"ma":"00:00 - 23:59","di":"00:00 - 23:59","wo":"00:00 - 23:59","do":"00:00 - 23:59","vr":"00:00 - 23:59","za":"00:00 - 23:59","zo":"00:00 - 23:59"}}},{"type":"Feature","geometry":{"type":"Point","coordinates":[4.4654996,51.5802821]},"properties":{"type":"pakketpunt","locatieNaam":"Pakketautomaat Tankstation Klaverwe","straatNaam":"VACCAWEG","straatNr":"2","vervoerder":"DPD","puntType":"dpd_box","bezettingsgraad":50,"latitude":51.5802821,"longitude":4.4654996,"canPickup":true,"canDropoff":true,"openingstijden":{"ma":"00:00 - 23:59","di":"00:00 - 23:59","wo":"00:00 - 23:59","do":"00:00 - 23:59","vr":"00:00 - 23:59","za":"00:00 - 23:59","zo":"00:00 - 23:59"}}},{"type":"Feature","geometry":{"type":"Point","coordinates":[4.583871,51.5804597]},"properties":{"type":"pakketpunt","locatieNaam":"Styvo-Bekerpaleis","straatNaam":"AKKERLINGEN","straatNr":"22","vervoerder":"DPD","puntType":"pickup_point","bezettingsgraad":50,"latitude":51.5804597,"longitude":4.583871,"canPickup":true,"canDropoff":true,"openingstijden":{"ma":"09:00 - 12:30, 13:00 - 17:30","di":"09:00 - 12:30, 13:00 - 17:30","wo":"09:00 - 12:30, 13:00 - 17:30","do":"09:00 - 12:30, 13:00 - 17:30","vr":"09:00 - 12:30, 13:00 - 17:30","za":"gesloten","zo":"gesloten"}}},{"type":"Feature","geometry":{"type":"Point","coordinates":[4.4564264,51.578321]},"properties":{"type":"pakketpunt","locatieNaam":"ECC Clearance B.V.","straatNaam":"WATERMOLEN","straatNr":"35","vervoerder":"DPD","puntType":"pickup_point","bezettingsgraad":50,"latitude":51.578321,"longitude":4.4564264,"canPickup":true,"canDropoff":true,"openingstijden":{"ma":"08:30 - 17:00","di":"08:30 - 17:00","wo":"08:30 - 17:00","do":"08:30 - 17:00","vr":"08:30 - 17:00","za":"gesloten","zo":"gesloten"}}},{"type":"Feature","geometry":{"type":"Point","coordinates":[4.5541363,51.5905139]},"properties":{"type":"pakketpunt","locatieNaam":"Kadoshop Yunley","straatNaam":"NIJVERHEIDSWEG","straatNr":"13 B","vervoerder":"DPD","puntType":"pickup_point","bezettingsgraad":50,"latitude":51.5905139,"longitude":4.5541363,"canPickup":true,"canDropoff":true,"openingstijden":{"ma":"08:00 - 16:30","di":"09:00 - 16:00","wo":"08:30 - 16:30","do":"09:00 - 16:00","vr":"08:30 - 16:00","za":"10:00 - 12:00","zo":"gesloten"}}},{"type":"Feature","geometry":{"type":"Point","coordinates":[4.52208276581052,51.5893849173745]},"properties":{"type":"pakketpunt","locatieNaam":"Pakketautomaat","straatNaam":"Zandeweg","straatNr":"29PBA","vervoerder":"PostNL","puntType":"automaat","bezettingsgraad":50,"latitude":51.5893849173745,"longitude":4.52208276581052,"canPickup":true,"canDropoff":true,"openingstijden":"08:30 - 17:00"}},{"type":"Feature","geometry":{"type":"Point","coordinates":[4.52552542850027,51.5912351040971]},"properties":{"type":"pakketpunt","locatieNaam":"GSM Arnous","straatNaam":"Prof van Ginnekenstraat","straatNr":"36A","vervoerder":"PostNL","puntType":"servicepunt","bezettingsgraad":50,"latitude":51.5912351040971,"longitude":4.52552542850027,"canPickup":true,"canDropoff":true,"openingstijden":"11:00 - 18:00"}},{"type":"Feature","geometry":{"type":"Point","coordinates":[4.52620517079087,51.5888760009389]},"properties":{"type":"pakketpunt","locatieNaam":"Primera Oudenbosch","straatNaam":"Markt","straatNr":"25","vervoerder":"PostNL","puntType":"servicepunt","bezettingsgraad":50,"latitude":51.5888760009389,"longitude":4.52620517079087,"canPickup":true,"canDropoff":true,"openingstijden":"08:00 - 18:00 (Na 18:00 open; Zaterdag open)"}},{"type":"Feature","geometry":{"type":"Point","coordinates":[4.526668809,51.59029968]},"properties":{"type":"pakketpunt","locatieNaam":"Books en More","straatNaam":"Varkensmarkt","straatNr":"2","vervoerder":"PostNL","puntType":"servicepunt","bezettingsgraad":50,"latitude":51.59029968,"longitude":4.526668809,"canPickup":true,"canDropoff":true,"openingstijden":"11:00 - 17:30"}},{"type":"Feature","geometry":{"type":"Point","coordinates":[4.528266853,51.59050019]},"properties":{"type":"pakketpunt","locatieNaam":"Plusmarkt","straatNaam":"Julianalaan","straatNr":"1","vervoerder":"PostNL","puntType":"servicepunt","bezettingsgraad":50,"latitude":51.59050019,"longitude":4.528266853,"canPickup":true,"canDropoff":true,"openingstijden":"08:00 - 20:00"}},{"type":"Feature","geometry":{"type":"Point","coordinates":[4.5282668525996,51.5905001946529]},"properties":{"type":"pakketpunt","locatieNaam":"Pakketautomaat","straatNaam":"Julianalaan","straatNr":"1PBA","vervoerder":"PostNL","puntType":"automaat","bezettingsgraad":50,"latitude":51.5905001946529,"longitude":4.5282668525996,"canPickup":true,"canDropoff":true,"openingstijden":"08:00 - 20:00"}},{"type":"Feature","geometry":{"type":"Point","coordinates":[4.553953728,51.58973321]},"properties":{"type":"pakketpunt","locatieNaam":"Pakket- en briefautomaat","straatNaam":"Nijverheidsweg","straatNr":"14PBA","vervoerder":"PostNL","puntType":"automaat","bezettingsgraad":50,"latitude":51.58973321,"longitude":4.553953728,"canPickup":true,"canDropoff":true,"openingstijden":"00:00 - 23:59"}},{"type":"Feature","geometry":{"type":"Point","coordinates":[4.54358587116459,51.56017263501793]},"properties":{"type":"pakketpunt","locatieNaam":"Boon´s Dagmarkt Bosschenhoofd","straatNaam":"St. Gerardushof","straatNr":"6","vervoerder":"PostNL","puntType":"servicepunt","bezettingsgraad":50,"latitude":51.56017263501793,"longitude":4.54358587116459,"canPickup":true,"canDropoff":true,"openingstijden":"08:00 - 20:00 (Na 18:00 open; Zaterdag open; Zondag open)"}},{"type":"Feature","geometry":{"type":"Point","coordinates":[4.46162626307099,51.5819015636796]},"properties":{"type":"pakketpunt","locatieNaam":"Pakket- en briefautomaat","straatNaam":"Steenstraat","straatNr":"10PBA","vervoerder":"PostNL","puntType":"automaat","bezettingsgraad":50,"latitude":51.5819015636796,"longitude":4.46162626307099,"canPickup":true,"canDropoff":true,"openingstijden":"00:00 - 23:59"}},{"type":"Feature","geometry":{"type":"Point","coordinates":[4.45933234556164,51.5889488024799]},"properties":{"type":"pakketpunt","locatieNaam":"Sylvia's Beautiekie","straatNaam":"Dorpsstraat","straatNr":"21","vervoerder":"PostNL","puntType":"servicepunt","bezettingsgraad":50,"latitude":51.5889488024799,"longitude":4.45933234556164,"canPickup":true,"canDropoff":true,"openingstijden":null}},{"type":"Feature","geometry":{"type":"Point","coordinates":[4.45933234556164,51.5889488024799]},"properties":{"type":"pakketpunt","locatieNaam":"Pakketautomaat","straatNaam":"Dorpsstraat","straatNr":"21PBA","vervoerder":"PostNL","puntType":"automaat","bezettingsgraad":50,"latitude":51.5889488024799,"longitude":4.45933234556164,"canPickup":true,"canDropoff":true,"openingstijden":"00:05 - 23:55"}},{"type":"Feature","geometry":{"type":"Point","coordinates":[4.58315329633,51.58205429563]},"properties":{"type":"pakketpunt","locatieNaam":"Pakket- en briefautomaat","straatNaam":"St. Janstraat","straatNr":"91PBA","vervoerder":"PostNL","puntType":"automaat","bezettingsgraad":50,"latitude":51.58205429563,"longitude":4.58315329633,"canPickup":true,"canDropoff":true,"openingstijden":"00:00 - 23:59"}},{"type":"Feature","geometry":{"type":"Point","coordinates":[4.45589579136556,51.5820178650587]},"properties":{"type":"pakketpunt","locatieNaam":"Pakketautomaat","straatNaam":"Standerdmolen","straatNr":"6PBA","vervoerder":"PostNL","puntType":"automaat","bezettingsgraad":50,"latitude":51.5820178650587,"longitude":4.45589579136556,"canPickup":true,"canDropoff":true,"openingstijden":"00:05 - 23:55"}},{"type":"Feature","geometry":{"type":"Point","coordinates":[4.455895791,51.58201787]},"properties":{"type":"pakketpunt","locatieNaam":"Jora Exploitatie Maatschappij","straatNaam":"Standerdmolen","straatNr":"6","vervoerder":"PostNL","puntType":"servicepunt","bezettingsgraad":50,"latitude":51.58201787,"longitude":4.455895791,"canPickup":true,"canDropoff":true,"openingstijden":"09:00 - 18:00 (Na 18:00 open; Zaterdag open; Zondag open)"}},{"type":"Feature","geometry":{"type":"Point","coordinates":[4.52612,51.58943]},"properties":{"type":"pakketpunt","locatieNaam":"Ertonga Market","straatNaam":"Fenkelstraat 20","straatNr":"","vervoerder":"VintedGo","puntType":"parcel_shop","bezettingsgraad":50,"latitude":51.58943,"longitude":4.52612,"canPickup":true,"canDropoff":true,"openingstijden":null}},{"type":"Feature","geometry":{"type":"Point","coordinates":[4.4596194,51.5875537]},"properties":{"type":"pakketpunt","locatieNaam":"De Martwienkel ","straatNaam":"Markt 5","straatNr":"","vervoerder":"VintedGo","puntType":"parcel_shop","bezettingsgraad":50,"latitude":51.5875537,"longitude":4.4596194,"canPickup":true,"canDropoff":true,"openingstijden":null}},{"type":"Feature","geometry":{"type":"Point","coordinates":[4.5838712,51.5804598]},"properties":{"type":"pakketpunt","locatieNaam":"Het Bekerpaleis ","straatNaam":"Akkerlingen 22","straatNr":"","vervoerder":"VintedGo","puntType":"parcel_shop","bezettingsgraad":50,"latitude":51.5804598,"longitude":4.5838712,"canPickup":true,"canDropoff":true,"openingstijden":null}},{"type":"Feature","geometry":{"type":"Point","coordinates":[4.456524,51.578283]},"properties":{"type":"pakketpunt","locatieNaam":"European Customs Clearance (Ecc) B.v.","straatNaam":"Watermolen 35","straatNr":"","vervoerder":"VintedGo","puntType":"parcel_shop","bezettingsgraad":50,"latitude":51.578283,"longitude":4.456524,"canPickup":true,"canDropoff":true,"openingstijden":null}},{"type":"Feature","geometry":{"type":"Point","coordinates":[4.55423238,51.5905559]},"properties":{"type":"pakketpunt","locatieNaam":"Kadoshop Yunley","straatNaam":"Nijverheidsweg 13 B","straatNr":"","vervoerder":"VintedGo","puntType":"parcel_shop","bezettingsgraad":50,"latitude":51.5905559,"longitude":4.55423238,"canPickup":true,"canDropoff":true,"openingstijden":null}},{"type":"Feature","geometry":{"type":"Point","coordinates":[4.52195,51.5894132]},"properties":{"type":"pakketpunt","locatieNaam":"Kluswijs Oudenbosch","straatNaam":"Zandeweg 29","straatNr":"","vervoerder":"VintedGo","puntType":"locker","bezettingsgraad":50,"latitude":51.5894132,"longitude":4.52195,"canPickup":true,"canDropoff":true,"openingstijden":null}},{"type":"Feature","geometry":{"type":"Point","coordinates":[4.4654211,51.5803102]},"properties":{"type":"pakketpunt","locatieNaam":"Tankstation Klaverweide","straatNaam":"Vaccaweg 2","straatNr":"","vervoerder":"VintedGo","puntType":"locker","bezettingsgraad":50,"latitude":51.5803102,"longitude":4.4654211,"canPickup":true,"canDropoff":true,"openingstijden":null}},{"type":"Feature","geometry":{"type":"Point","coordinates":[4.583858,51.5804762]},"properties":{"type":"pakketpunt","locatieNaam":"Styvo-Bekerpaleis","straatNaam":"Akkerlingen","straatNr":"22","vervoerder":"GLS","puntType":"parcel_shop","bezettingsgraad":50,"latitude":51.5804762,"longitude":4.583858,"canPickup":true,"canDropoff":true,"openingstijden":{"ma":"09:00 - 12:30, 13:00 - 17:30","di":"09:00 - 12:30, 13:00 - 17:30","wo":"09:00 - 12:30, 13:00 - 17:30","do":"09:00 - 12:30, 13:00 - 17:30","vr":"09:00 - 12:30, 13:00 - 17:30","za":"00:00 - 00:00","zo":"00:00 - 00:00"}}},{"type":"Feature","geometry":{"type":"Point","coordinates":[4.461639683008332,51.58177276219749]},"properties":{"type":"pakketpunt","locatieNaam":"FedEx Ship&Get","straatNaam":"Steenstraat 10 PBA","straatNr":"","vervoerder":"FedEx","puntType":"servicepunt","bezettingsgraad":50,"latitude":51.58177276219749,"longitude":4.461639683008332,"canPickup":true,"canDropoff":true,"openingstijden":{"ma":"00:00 - 23:59","di":"00:00 - 23:59","wo":"00:00 - 23:59","do":"00:00 - 23:59","vr":"00:00 - 23:59","za":"00:00 - 23:59","zo":"00:00 - 23:59"}}},{"type":"Feature","geometry":{"type":"Point","coordinates":[4.52612,51.589417]},"properties":{"type":"pakketpunt","locatieNaam":"FedEx OnSite","straatNaam":"FENKELSTRAAT 20","straatNr":"","vervoerder":"FedEx","puntType":"servicepunt","bezettingsgraad":50,"latitude":51.589417,"longitude":4.52612,"canPickup":true,"canDropoff":true,"openingstijden":{"ma":"13:00 - 18:00","di":"09:00 - 18:00","wo":"09:00 - 18:00","do":"09:00 - 18:00","vr":"09:00 - 18:00","za":"09:00 - 17:00","zo":"gesloten"}}},{"type":"Feature","geometry":{"type":"Point","coordinates":[4.528176235857075,51.59052002569691]},"properties":{"type":"pakketpunt","locatieNaam":"FedEx Ship&Get","straatNaam":"Julianalaan 1 PBA","straatNr":"","vervoerder":"FedEx","puntType":"servicepunt","bezettingsgraad":50,"latitude":51.59052002569691,"longitude":4.528176235857075,"canPickup":true,"canDropoff":true,"openingstijden":{"ma":"08:00 - 20:00","di":"08:00 - 20:00","wo":"08:00 - 20:00","do":"08:00 - 20:00","vr":"08:00 - 20:00","za":"08:00 - 20:00","zo":"10:00 - 18:00"}}},{"type":"Feature","geometry":{"type":"Point","coordinates":[4.553900498963888,51.58978459832367]},"properties":{"type":"pakketpunt","locatieNaam":"FedEx Ship&Get","straatNaam":"Nijverheidsweg 14 PBA","straatNr":"","vervoerder":"FedEx","puntType":"servicepunt","bezettingsgraad":50,"latitude":51.58978459832367,"longitude":4.553900498963888,"canPickup":true,"canDropoff":true,"openingstijden":{"ma":"00:00 - 23:59","di":"00:00 - 23:59","wo":"00:00 - 23:59","do":"00:00 - 23:59","vr":"00:00 - 23:59","za":"00:00 - 23:59","zo":"00:00 - 23:59"}}},{"type":"Feature","geometry":{"type":"Point","coordinates":[4.584052,51.580434]},"properties":{"type":"pakketpunt","locatieNaam":"FedEx OnSite","straatNaam":"AKKERLINGEN 22","straatNr":"","vervoerder":"FedEx","puntType":"servicepunt","bezettingsgraad":50,"latitude":51.580434,"longitude":4.584052,"canPickup":true,"canDropoff":true,"openingstijden":{"ma":"09:00 - 12:30, 13:00 - 17:30","di":"09:00 - 12:30, 13:00 - 17:30","wo":"09:00 - 12:30, 13:00 - 17:30","do":"09:00 - 12:30, 13:00 - 17:30","vr":"09:00 - 12:30, 13:00 - 17:30","za":"gesloten","zo":"gesloten"}}},{"type":"Feature","geometry":{"type":"Point","coordinates":[4.583274926158407,51.58200839443051]},"properties":{"type":"pakketpunt","locatieNaam":"FedEx Ship&Get","straatNaam":"St. Janstraat 91 PBA","straatNr":"","vervoerder":"FedEx","puntType":"servicepunt","bezettingsgraad":50,"latitude":51.58200839443051,"longitude":4.583274926158407,"canPickup":true,"canDropoff":true,"openingstijden":{"ma":"00:00 - 23:59","di":"00:00 - 23:59","wo":"00:00 - 23:59","do":"00:00 - 23:59","vr":"00:00 - 23:59","za":"00:00 - 23:59","zo":"00:00 - 23:59"}}},{"type":"Feature","geometry":{"type":"Point","coordinates":[4.58405,51.58043]},"properties":{"type":"pakketpunt","locatieNaam":"STYVO-BEKERPALEIS","straatNaam":"Akkerlingen 22","straatNr":"","vervoerder":"InPost","puntType":"servicepunt","bezettingsgraad":50,"latitude":51.58043,"longitude":4.58405,"canPickup":true,"canDropoff":true,"openingstijden":null}},{"type":"Feature","geometry":{"type":"Point","coordinates":[4.52612,51.58942]},"properties":{"type":"pakketpunt","locatieNaam":"ERTONGA MARKET","straatNaam":"Fenkelstraat 20","straatNr":"","vervoerder":"InPost","puntType":"servicepunt","bezettingsgraad":50,"latitude":51.58942,"longitude":4.52612,"canPickup":true,"canDropoff":true,"openingstijden":null}},{"type":"Feature","geometry":{"type":"Point","coordinates":[4.55428,51.59055]},"properties":{"type":"pakketpunt","locatieNaam":"KADOSHOP YUNLEY","straatNaam":"Nijverheidsweg 13B","straatNr":"","vervoerder":"InPost","puntType":"servicepunt","bezettingsgraad":50,"latitude":51.59055,"longitude":4.55428,"canPickup":true,"canDropoff":true,"openingstijden":null}},{"type":"Feature","geometry":{"type":"Point","coordinates":[4.45954,51.58758]},"properties":{"type":"pakketpunt","locatieNaam":"STICHTING JOHANS/DE MARTWIENKEL","straatNaam":"Markt 5","straatNr":"","vervoerder":"InPost","puntType":"servicepunt","bezettingsgraad":50,"latitude":51.58758,"longitude":4.45954,"canPickup":true,"canDropoff":true,"openingstijden":null}},{"type":"Feature","geometry":{"type":"Polygon","coordinates":[[[4.42867,51.600163],[4.429328,51.593977],[4.429417,51.593139],[4.42948,51.592654],[4.429497,51.592538],[4.429512,51.592444],[4.429519,51.592397],[4.429576,51.591996],[4.429678,51.59146],[4.429739,51.591074],[4.429754,51.590978],[4.429956,51.590102],[4.430054,51.589679],[4.430232,51.588948],[4.43036,51.588479],[4.430666,51.587472],[4.430871,51.586842],[4.431081,51.586287],[4.431264,51.585839],[4.431339,51.585655],[4.431489,51.585334],[4.431642,51.585007],[4.431702,51.58488],[4.432099,51.584139],[4.432385,51.583645],[4.432626,51.58326],[4.432926,51.582797],[4.433256,51.58233],[4.43362,51.581834],[4.434166,51.581156],[4.434646,51.580609],[4.435,51.580216],[4.43526,51.57994],[4.435465,51.579721],[4.43639,51.57878],[4.436404,51.578767],[4.43659,51.578598],[4.436682,51.578515],[4.436778,51.578429],[4.437037,51.578149],[4.437194,51.57797],[4.4373,51.577851],[4.437389,51.577765],[4.437515,51.577656],[4.437517,51.577655],[4.437757,51.577386],[4.438118,51.576958],[4.438467,51.576513],[4.438803,51.576076],[4.438917,51.575927],[4.439349,51.575291],[4.439617,51.574869],[4.439708,51.574726],[4.439786,51.574603],[4.439949,51.574325],[4.440257,51.573778],[4.440762,51.572946],[4.441392,51.572048],[4.441579,51.571791],[4.441732,51.571598],[4.441924,51.571369],[4.442178,51.571064],[4.442286,51.570934],[4.442385,51.570817],[4.442412,51.570785],[4.442621,51.570534],[4.442647,51.570505],[4.44276,51.570379],[4.442931,51.570188],[4.443368,51.569723],[4.443771,51.569317],[4.443999,51.569095],[4.444024,51.569103],[4.444169,51.569141],[4.444309,51.569171],[4.444435,51.569197],[4.444453,51.569201],[4.444473,51.569204],[4.444495,51.569207],[4.444675,51.569235],[4.444689,51.569211],[4.444759,51.56909],[4.444883,51.568919],[4.445042,51.568813],[4.445398,51.568617],[4.445769,51.56845],[4.446088,51.568314],[4.44633,51.568209],[4.446628,51.568055],[4.446752,51.567969],[4.446878,51.567841],[4.447438,51.567326],[4.447575,51.567188],[4.447605,51.567158],[4.447648,51.567116],[4.447742,51.567011],[4.447803,51.566925],[4.44781,51.566915],[4.447833,51.566877],[4.447871,51.566819],[4.447919,51.566721],[4.447953,51.566604],[4.44796,51.566553],[4.447924,51.566412],[4.447917,51.566386],[4.447862,51.566158],[4.447832,51.566039],[4.447825,51.566017],[4.448015,51.565954],[4.448063,51.565944],[4.448163,51.565921],[4.448167,51.56592],[4.448184,51.565916],[4.448275,51.565889],[4.44836,51.565857],[4.448458,51.565798],[4.448533,51.565754],[4.448578,51.565733],[4.448655,51.565712],[4.448784,51.565689],[4.448917,51.565674],[4.449063,51.565664],[4.44913,51.565665],[4.449354,51.565668],[4.449477,51.565676],[4.449584,51.565682],[4.4497,51.565696],[4.449723,51.565699],[4.449814,51.565709],[4.449939,51.565734],[4.450047,51.565762],[4.45015,51.565796],[4.450252,51.565838],[4.450427,51.565914],[4.450489,51.56594],[4.450584,51.565987],[4.450687,51.566048],[4.45085,51.566156],[4.450991,51.566249],[4.45124,51.566437],[4.45133,51.566502],[4.451371,51.566522],[4.451419,51.566542],[4.451517,51.566578],[4.451586,51.566598],[4.45172,51.566627],[4.451887,51.566663],[4.451926,51.566668],[4.452185,51.566697],[4.452453,51.566728],[4.452524,51.566734],[4.452648,51.566743],[4.452689,51.566744],[4.452765,51.566733],[4.452862,51.566711],[4.452935,51.566698],[4.453011,51.566676],[4.453057,51.566659],[4.453139,51.566627],[4.453205,51.566594],[4.453263,51.566561],[4.453374,51.566463],[4.453404,51.566442],[4.453451,51.566392],[4.453494,51.56635],[4.453535,51.566304],[4.453564,51.566268],[4.453594,51.566225],[4.453633,51.56615],[4.453671,51.566081],[4.453685,51.566043],[4.4537,51.565989],[4.453721,51.565921],[4.453734,51.565861],[4.453753,51.565771],[4.453766,51.565667],[4.453769,51.56554],[4.453766,51.565483],[4.45376,51.565404],[4.45375,51.565317],[4.45374,51.565222],[4.453707,51.564999],[4.453702,51.564974],[4.453625,51.564831],[4.453579,51.56476],[4.453512,51.564658],[4.453438,51.564563],[4.453333,51.564417],[4.45325,51.564316],[4.453132,51.564171],[4.453074,51.564107],[4.453023,51.564043],[4.453004,51.564009],[4.45297,51.563951],[4.452938,51.563899],[4.452928,51.563876],[4.45292,51.563832],[4.45292,51.563795],[4.452922,51.563743],[4.452927,51.563724],[4.452947,51.563689],[4.452971,51.563657],[4.452984,51.563637],[4.453022,51.563608],[4.453104,51.563581],[4.453184,51.563552],[4.453247,51.563544],[4.45336,51.563526],[4.453482,51.563509],[4.453625,51.563495],[4.453738,51.563486],[4.453878,51.56348],[4.454003,51.563477],[4.454089,51.563475],[4.454162,51.563476],[4.45423,51.563482],[4.454349,51.563493],[4.454505,51.563515],[4.454739,51.563544],[4.454878,51.56356],[4.454962,51.563568],[4.455052,51.563573],[4.455143,51.563572],[4.4552,51.563569],[4.455267,51.563555],[4.455404,51.563521],[4.455685,51.563442],[4.455838,51.563394],[4.455949,51.56335],[4.456151,51.563277],[4.456164,51.563272],[4.456341,51.563207],[4.456444,51.563171],[4.456526,51.563134],[4.456587,51.563097],[4.456641,51.563063],[4.456687,51.563027],[4.456725,51.562993],[4.456761,51.56296],[4.456794,51.562922],[4.45683,51.562888],[4.456851,51.562855],[4.456878,51.562815],[4.456897,51.562776],[4.456911,51.562735],[4.456948,51.562624],[4.456949,51.56262],[4.456961,51.562552],[4.45699,51.562447],[4.456991,51.562443],[4.456993,51.562439],[4.457014,51.562374],[4.457026,51.562356],[4.45706,51.562297],[4.457096,51.562247],[4.457116,51.562219],[4.457128,51.562191],[4.45713,51.562165],[4.457132,51.562077],[4.457132,51.562031],[4.457134,51.561998],[4.457143,51.561942],[4.457159,51.561867],[4.457175,51.561806],[4.457188,51.561779],[4.457194,51.561767],[4.457196,51.561763],[4.457209,51.561737],[4.457238,51.56171],[4.457454,51.561528],[4.457536,51.561459],[4.457855,51.561457],[4.457862,51.561457],[4.45787,51.561457],[4.457896,51.561457],[4.458053,51.561456],[4.458085,51.561456],[4.458408,51.561453],[4.458807,51.561448],[4.459171,51.561446],[4.45966,51.561441],[4.460304,51.561433],[4.460887,51.561429],[4.461136,51.561426],[4.461352,51.561424],[4.461492,51.561299],[4.461645,51.561163],[4.461647,51.561161],[4.461787,51.561033],[4.462159,51.561021],[4.462418,51.561012],[4.463622,51.560972],[4.464448,51.561006],[4.465021,51.561026],[4.465521,51.561045],[4.465671,51.56105],[4.465796,51.561043],[4.465738,51.561123],[4.465772,51.561191],[4.465825,51.561198],[4.465937,51.561243],[4.466045,51.56129],[4.466104,51.561313],[4.466207,51.561383],[4.466264,51.561427],[4.466304,51.561455],[4.466355,51.561513],[4.466395,51.561592],[4.466405,51.561679],[4.466391,51.561753],[4.466376,51.561915],[4.466373,51.561967],[4.466375,51.562002],[4.466393,51.562041],[4.466454,51.56207],[4.466524,51.562083],[4.466634,51.562097],[4.466971,51.562134],[4.467081,51.562146],[4.467244,51.562162],[4.467245,51.562162],[4.467331,51.562193],[4.467458,51.56226],[4.467619,51.562368],[4.46765,51.562389],[4.467821,51.562479],[4.467891,51.562513],[4.468009,51.562563],[4.468133,51.562615],[4.468177,51.562625],[4.46836,51.562676],[4.468614,51.562747],[4.468801,51.562808],[4.469104,51.562895],[4.469522,51.563008],[4.469591,51.563022],[4.469682,51.563035],[4.469818,51.563046],[4.469915,51.563044],[4.469947,51.563036],[4.470022,51.56302],[4.470148,51.562983],[4.470496,51.56287],[4.470489,51.56283],[4.470507,51.562827],[4.47093,51.562756],[4.471104,51.56273],[4.471169,51.562722],[4.471331,51.5627],[4.471581,51.562655],[4.471668,51.562638],[4.471726,51.562622],[4.471942,51.562562],[4.472062,51.562528],[4.472319,51.562448],[4.472421,51.562415],[4.472683,51.562329],[4.472815,51.562285],[4.472948,51.562238],[4.473008,51.562213],[4.473105,51.562147],[4.47315,51.562116],[4.473236,51.562031],[4.473326,51.561923],[4.473348,51.561885],[4.473461,51.561685],[4.473468,51.561642],[4.473475,51.561593],[4.473483,51.561557],[4.473511,51.561393],[4.473546,51.561216],[4.473549,51.561175],[4.473578,51.560956],[4.473597,51.560788],[4.473591,51.560745],[4.473762,51.560728],[4.473938,51.560711],[4.474014,51.560748],[4.47502,51.560703],[4.475803,51.560669],[4.476037,51.560661],[4.4762,51.560655],[4.477005,51.560633],[4.47775,51.560614],[4.478516,51.560596],[4.47859,51.560594],[4.478598,51.560594],[4.478672,51.560592],[4.478952,51.560586],[4.479017,51.560584],[4.479056,51.560583],[4.47915,51.560587],[4.479266,51.560593],[4.479337,51.560598],[4.479515,51.560621],[4.479673,51.560658],[4.47986,51.560727],[4.480107,51.560817],[4.480187,51.560847],[4.480379,51.560897],[4.480531,51.560932],[4.480606,51.560946],[4.480627,51.560951],[4.480842,51.560974],[4.480994,51.560974],[4.481278,51.56096],[4.482051,51.560906],[4.482243,51.560893],[4.482888,51.560852],[4.483413,51.56082],[4.483632,51.560805],[4.484272,51.560762],[4.484904,51.560723],[4.485557,51.560679],[4.485645,51.560676],[4.486084,51.560642],[4.486566,51.560603],[4.486695,51.560555],[4.486712,51.560546],[4.486737,51.560525],[4.486966,51.560355],[4.487002,51.560329],[4.487066,51.560308],[4.487128,51.560291],[4.487374,51.560262],[4.487602,51.560236],[4.488588,51.56013],[4.48894,51.56009],[4.489604,51.560012],[4.490299,51.559934],[4.491636,51.559775],[4.491867,51.559747],[4.492371,51.559688],[4.492715,51.559648],[4.493137,51.559601],[4.493626,51.559548],[4.493852,51.559523],[4.494184,51.559489],[4.495096,51.559385],[4.495729,51.559314],[4.49626,51.559251],[4.496711,51.559199],[4.497217,51.559139],[4.497871,51.559063],[4.498432,51.558999],[4.498526,51.558988],[4.49896,51.558942],[4.499604,51.558858],[4.49977,51.558825],[4.499922,51.558766],[4.500031,51.558713],[4.500123,51.558648],[4.50017,51.558585],[4.500174,51.558579],[4.500186,51.558564],[4.500204,51.558536],[4.500322,51.558581],[4.500387,51.558605],[4.500428,51.558762],[4.500507,51.559058],[4.500636,51.559547],[4.500758,51.559983],[4.500812,51.560184],[4.500827,51.560241],[4.500949,51.56071],[4.501281,51.561944],[4.501428,51.56249],[4.501619,51.563211],[4.50162,51.563215],[4.501635,51.563271],[4.502111,51.563217],[4.502705,51.56315],[4.503324,51.563076],[4.503832,51.563019],[4.504154,51.562985],[4.504167,51.563035],[4.504507,51.564326],[4.504945,51.565988],[4.504956,51.566026],[4.506141,51.565954],[4.506233,51.565879],[4.506294,51.565829],[4.507416,51.565703],[4.50757,51.565685],[4.507771,51.565661],[4.507773,51.565661],[4.508703,51.56555],[4.508713,51.565549],[4.508725,51.565594],[4.50915,51.567334],[4.509225,51.567637],[4.509436,51.5685],[4.509451,51.568562],[4.509996,51.568496],[4.510248,51.568469],[4.510512,51.56844],[4.510662,51.568425],[4.511115,51.568379],[4.511157,51.568374],[4.511741,51.568315],[4.512006,51.568285],[4.512187,51.568264],[4.512788,51.568202],[4.513276,51.568148],[4.51343,51.568131],[4.513466,51.568126],[4.513974,51.568068],[4.514589,51.567999],[4.515383,51.567912],[4.515402,51.56791],[4.516164,51.567829],[4.516636,51.567783],[4.516647,51.567807],[4.516795,51.567788],[4.517105,51.567749],[4.517509,51.567699],[4.517787,51.567664],[4.517919,51.567647],[4.51801,51.567636],[4.518312,51.567599],[4.518398,51.567588],[4.519069,51.567508],[4.519355,51.567473],[4.519718,51.567434],[4.52051,51.567354],[4.520614,51.567343],[4.521234,51.56728],[4.521547,51.567248],[4.521669,51.567235],[4.522327,51.567157],[4.52304,51.567073],[4.523726,51.56699],[4.523941,51.566962],[4.524011,51.566951],[4.524584,51.566873],[4.525266,51.566778],[4.525542,51.566741],[4.525672,51.566721],[4.525792,51.566703],[4.525929,51.566689],[4.526438,51.566635],[4.52674,51.566624],[4.526962,51.566597],[4.526986,51.566594],[4.527064,51.566585],[4.527074,51.566584],[4.527138,51.566576],[4.527146,51.566575],[4.527713,51.566506],[4.528297,51.566441],[4.528975,51.566361],[4.529332,51.566321],[4.529905,51.566259],[4.53064,51.56618],[4.530714,51.566173],[4.531177,51.566157],[4.531353,51.566151],[4.53148,51.566147],[4.531628,51.566142],[4.53168,51.56627],[4.531687,51.566275],[4.531734,51.566311],[4.53626,51.565815],[4.536616,51.565776],[4.536547,51.565722],[4.536543,51.565719],[4.536538,51.565713],[4.536268,51.565411],[4.535925,51.565027],[4.535907,51.565007],[4.534584,51.563529],[4.534496,51.56343],[4.534494,51.563428],[4.534335,51.563251],[4.533636,51.562469],[4.533634,51.562467],[4.533633,51.562466],[4.531966,51.560911],[4.531929,51.560876],[4.531925,51.560873],[4.531833,51.560787],[4.531802,51.560757],[4.531446,51.560426],[4.531432,51.560426],[4.530905,51.559888],[4.530905,51.559887],[4.53036,51.558805],[4.530191,51.558469],[4.530102,51.558293],[4.529926,51.557942],[4.529388,51.556874],[4.529035,51.556173],[4.52869,51.555487],[4.528692,51.555335],[4.528632,51.555212],[4.528609,51.555166],[4.528566,51.554938],[4.528546,51.554825],[4.528524,51.5547],[4.528505,51.554586],[4.528465,51.554345],[4.528388,51.553907],[4.528351,51.553692],[4.528352,51.55354],[4.528276,51.553128],[4.528219,51.552825],[4.528211,51.552783],[4.528099,51.552162],[4.528095,51.552139],[4.528069,51.551999],[4.52808,51.551984],[4.528153,51.55189],[4.528401,51.55159],[4.528467,51.551512],[4.52876,51.551165],[4.529089,51.550776],[4.529462,51.550322],[4.529562,51.550204],[4.529664,51.550084],[4.529891,51.549812],[4.529938,51.549757],[4.530231,51.549407],[4.530359,51.549256],[4.530425,51.549262],[4.530513,51.549275],[4.530737,51.549298],[4.531005,51.549321],[4.531226,51.549332],[4.531527,51.549328],[4.531746,51.549317],[4.532093,51.549286],[4.532223,51.549272],[4.532488,51.549248],[4.532685,51.549241],[4.532804,51.549237],[4.532913,51.549241],[4.533097,51.549244],[4.533186,51.549243],[4.533343,51.549254],[4.533483,51.54927],[4.534852,51.549547],[4.536223,51.549828],[4.536377,51.549859],[4.536559,51.549896],[4.5376,51.550108],[4.53897,51.550385],[4.540343,51.550662],[4.541372,51.550872],[4.541864,51.550968],[4.54233,51.551067],[4.543068,51.551228],[4.543453,51.551313],[4.543631,51.551358],[4.543809,51.55141],[4.544389,51.551552],[4.544417,51.551526],[4.544438,51.551518],[4.544476,51.551512],[4.544584,51.551513],[4.544678,51.551527],[4.544628,51.551621],[4.544891,51.551668],[4.544937,51.551582],[4.545011,51.551605],[4.545084,51.551646],[4.545132,51.551693],[4.545143,51.551719],[4.54513,51.551772],[4.545058,51.551893],[4.544965,51.552064],[4.544873,51.552217],[4.544762,51.552438],[4.54472,51.552517],[4.544666,51.552635],[4.544647,51.552708],[4.544637,51.552861],[4.544635,51.55288],[4.54464,51.552948],[4.544647,51.552991],[4.544678,51.553139],[4.544697,51.553227],[4.544721,51.553311],[4.544743,51.553368],[4.544773,51.553434],[4.544787,51.553457],[4.544797,51.553476],[4.544856,51.553549],[4.544889,51.553584],[4.544922,51.55361],[4.544961,51.553628],[4.545003,51.553644],[4.545051,51.553652],[4.545371,51.553909],[4.545378,51.553906],[4.545781,51.553711],[4.545812,51.553695],[4.545884,51.55366],[4.545924,51.553565],[4.546445,51.553651],[4.546553,51.553389],[4.546837,51.552781],[4.546847,51.552768],[4.546852,51.552754],[4.546833,51.552751],[4.546906,51.552581],[4.546998,51.552478],[4.547078,51.552432],[4.547111,51.552413],[4.547114,51.552411],[4.547311,51.552361],[4.548136,51.552296],[4.548309,51.552301],[4.548427,51.552319],[4.549811,51.552577],[4.551185,51.552848],[4.551795,51.552967],[4.553187,51.553219],[4.553938,51.553366],[4.555315,51.553642],[4.556026,51.553785],[4.556683,51.553917],[4.556867,51.553955],[4.558059,51.554196],[4.559429,51.554473],[4.560802,51.554751],[4.562173,51.555026],[4.563544,51.555302],[4.564917,51.555577],[4.565291,51.555653],[4.566294,51.555854],[4.566777,51.55595],[4.566803,51.555955],[4.568149,51.556225],[4.569517,51.556504],[4.570885,51.55678],[4.572255,51.557057],[4.573602,51.557328],[4.574321,51.557479],[4.574655,51.55755],[4.574808,51.557585],[4.575299,51.557691],[4.575671,51.557771],[4.57589,51.557821],[4.576093,51.557865],[4.576797,51.558008],[4.577065,51.558061],[4.577722,51.558196],[4.577951,51.55824],[4.578678,51.558385],[4.579245,51.558503],[4.579658,51.558595],[4.579705,51.558606],[4.579786,51.558624],[4.580272,51.558731],[4.581387,51.558986],[4.581481,51.559014],[4.581543,51.558996],[4.581713,51.558987],[4.581768,51.558995],[4.581729,51.559072],[4.581971,51.55912],[4.582007,51.55905],[4.582083,51.559069],[4.582151,51.559093],[4.582214,51.559139],[4.582227,51.559173],[4.582239,51.559206],[4.582217,51.559281],[4.582129,51.559479],[4.581943,51.559841],[4.581638,51.559923],[4.581603,51.55998],[4.581596,51.560012],[4.581553,51.560082],[4.581751,51.560267],[4.581914,51.560296],[4.582122,51.560332],[4.582319,51.560355],[4.582879,51.560419],[4.583159,51.560262],[4.583668,51.559991],[4.583838,51.5599],[4.583909,51.559863],[4.584162,51.559738],[4.584425,51.559674],[4.584553,51.559652],[4.584658,51.559642],[4.584789,51.559635],[4.584896,51.559637],[4.584977,51.559644],[4.585132,51.559671],[4.585553,51.55975],[4.585998,51.559832],[4.586621,51.559951],[4.587376,51.560097],[4.587703,51.560164],[4.588203,51.560265],[4.588682,51.560369],[4.588952,51.560446],[4.589211,51.560548],[4.58935,51.560596],[4.589557,51.560657],[4.58972,51.560695],[4.589934,51.560732],[4.589962,51.560741],[4.590188,51.560778],[4.591761,51.561032],[4.591645,51.561184],[4.592223,51.561289],[4.592057,51.56172],[4.591794,51.562406],[4.591496,51.563182],[4.59146,51.563277],[4.590987,51.564512],[4.590936,51.564563],[4.590739,51.564767],[4.59068,51.564828],[4.590543,51.56485],[4.590447,51.56487],[4.590426,51.564875],[4.590423,51.564884],[4.590422,51.564903],[4.59042,51.56494],[4.590422,51.564974],[4.590429,51.565024],[4.590442,51.565109],[4.590447,51.565157],[4.59045,51.565164],[4.590469,51.56521],[4.590512,51.565386],[4.590577,51.565639],[4.590599,51.565747],[4.590648,51.565981],[4.591141,51.566064],[4.5917,51.566162],[4.591857,51.566187],[4.592544,51.566296],[4.593072,51.566381],[4.593593,51.566469],[4.59394,51.56653],[4.594067,51.566552],[4.594227,51.566578],[4.594476,51.566624],[4.59462,51.566658],[4.594695,51.566675],[4.594638,51.566828],[4.594644,51.566897],[4.594784,51.567087],[4.594947,51.567278],[4.595053,51.567454],[4.595067,51.56748],[4.595148,51.567666],[4.595152,51.567676],[4.595148,51.567835],[4.595154,51.567927],[4.595162,51.568103],[4.595169,51.568251],[4.595174,51.568369],[4.595336,51.568583],[4.59535,51.568603],[4.595423,51.568935],[4.59543,51.56897],[4.595429,51.569131],[4.595426,51.569313],[4.595423,51.569345],[4.595415,51.569412],[4.59541,51.56943],[4.595445,51.569674],[4.595464,51.569818],[4.595484,51.569974],[4.595509,51.570156],[4.595521,51.570236],[4.59555,51.570412],[4.595584,51.570642],[4.595622,51.570915],[4.595649,51.57109],[4.595673,51.571327],[4.595713,51.571674],[4.595742,51.571956],[4.595753,51.572064],[4.595767,51.57215],[4.595818,51.572389],[4.595853,51.572643],[4.595932,51.573151],[4.595993,51.573564],[4.596059,51.573806],[4.596061,51.573828],[4.59605,51.574005],[4.596031,51.574306],[4.595926,51.574605],[4.595973,51.574813],[4.595976,51.57536],[4.595979,51.575684],[4.596057,51.575836],[4.596063,51.575851],[4.596098,51.576023],[4.596226,51.576663],[4.596291,51.57683],[4.596322,51.576843],[4.596326,51.576855],[4.596329,51.576863],[4.596331,51.57687],[4.596395,51.577051],[4.596449,51.577248],[4.596602,51.57781],[4.596813,51.578618],[4.596869,51.578814],[4.596962,51.579057],[4.597218,51.579725],[4.597222,51.579744],[4.597238,51.579816],[4.597266,51.58001],[4.597308,51.580148],[4.597367,51.580323],[4.597403,51.580399],[4.597434,51.580507],[4.597489,51.580828],[4.597522,51.580965],[4.597581,51.581133],[4.597587,51.581149],[4.597663,51.581332],[4.597706,51.581437],[4.597742,51.581521],[4.597765,51.581683],[4.597769,51.581757],[4.597789,51.581897],[4.597807,51.581946],[4.597825,51.581986],[4.597925,51.582205],[4.597959,51.582302],[4.597994,51.58253],[4.598077,51.582879],[4.598294,51.583475],[4.59833,51.583612],[4.598338,51.58368],[4.59838,51.58387],[4.598401,51.583924],[4.598481,51.584105],[4.598558,51.584378],[4.598573,51.584477],[4.598567,51.584541],[4.598509,51.584674],[4.598502,51.58476],[4.598511,51.584916],[4.598493,51.584989],[4.598465,51.58505],[4.598347,51.585243],[4.598313,51.585322],[4.598252,51.58562],[4.598245,51.585698],[4.598253,51.585699],[4.598222,51.585917],[4.598183,51.585997],[4.598137,51.586071],[4.598045,51.586242],[4.598044,51.586248],[4.598007,51.586372],[4.597962,51.586632],[4.597968,51.586698],[4.59797,51.586783],[4.597955,51.586861],[4.597935,51.586913],[4.597884,51.586999],[4.597734,51.587167],[4.597706,51.587217],[4.597696,51.587267],[4.597695,51.587339],[4.597673,51.587504],[4.597641,51.587602],[4.59754,51.58777],[4.5975,51.587866],[4.59748,51.587947],[4.597483,51.588138],[4.597471,51.588252],[4.597409,51.588403],[4.597251,51.588758],[4.597196,51.588882],[4.597061,51.589213],[4.597047,51.589261],[4.597041,51.589312],[4.597054,51.58946],[4.597048,51.589501],[4.596895,51.589849],[4.596789,51.590121],[4.596765,51.590233],[4.596755,51.590298],[4.596797,51.590342],[4.596846,51.590381],[4.596892,51.590421],[4.597244,51.590671],[4.597425,51.590829],[4.598411,51.59158],[4.599441,51.592377],[4.599532,51.592451],[4.599597,51.592512],[4.599656,51.59258],[4.599848,51.592778],[4.600262,51.593207],[4.600604,51.593553],[4.601132,51.594089],[4.601246,51.594186],[4.601522,51.59442],[4.601533,51.59443],[4.601544,51.59444],[4.601572,51.594464],[4.601594,51.594486],[4.601949,51.594844],[4.602126,51.59498],[4.602202,51.595054],[4.602262,51.59513],[4.602365,51.595266],[4.602371,51.595273],[4.602534,51.595463],[4.602593,51.595547],[4.602638,51.59563],[4.60267,51.595717],[4.602708,51.595806],[4.602753,51.595893],[4.602808,51.595986],[4.602867,51.596062],[4.603249,51.596478],[4.603384,51.596598],[4.603459,51.596654],[4.603725,51.596931],[4.603846,51.597017],[4.603994,51.597184],[4.604117,51.597313],[4.604294,51.597464],[4.604435,51.59757],[4.604488,51.59764],[4.604498,51.597653],[4.604623,51.597783],[4.604658,51.59782],[4.604635,51.597858],[4.604621,51.597903],[4.604622,51.597975],[4.604622,51.59799],[4.604636,51.598027],[4.604663,51.598072],[4.604666,51.598076],[4.604713,51.598134],[4.604779,51.598185],[4.604854,51.59823],[4.605137,51.598378],[4.605236,51.598439],[4.605363,51.598529],[4.605423,51.598582],[4.605474,51.598642],[4.605522,51.598722],[4.605553,51.598808],[4.605586,51.598927],[4.605608,51.598985],[4.605627,51.599035],[4.605657,51.599088],[4.605711,51.59916],[4.605777,51.599232],[4.605909,51.599338],[4.606297,51.599628],[4.606379,51.599693],[4.60653,51.599834],[4.606661,51.599987],[4.606719,51.600062],[4.607064,51.60048],[4.607652,51.601109],[4.607746,51.60121],[4.607854,51.601309],[4.608352,51.601834],[4.608365,51.601848],[4.608672,51.602165],[4.608709,51.602194],[4.608754,51.602222],[4.609623,51.60262],[4.60963,51.602624],[4.609809,51.602706],[4.609813,51.602703],[4.61027,51.602918],[4.610401,51.602982],[4.610506,51.603039],[4.610606,51.603142],[4.610611,51.603156],[4.610628,51.603176],[4.611177,51.604016],[4.61136,51.604315],[4.61154,51.604608],[4.611657,51.604761],[4.612756,51.606115],[4.612836,51.606236],[4.612973,51.606586],[4.613038,51.606694],[4.612858,51.606747],[4.612846,51.606751],[4.612815,51.60676],[4.612921,51.606902],[4.613379,51.60752],[4.61346,51.607615],[4.613539,51.6077],[4.613624,51.607781],[4.613718,51.607857],[4.613798,51.607917],[4.61384,51.607961],[4.613883,51.608008],[4.613892,51.608038],[4.613892,51.608068],[4.61387,51.608199],[4.613857,51.608319],[4.613856,51.608323],[4.613791,51.608366],[4.613714,51.608422],[4.613619,51.60848],[4.613517,51.608531],[4.613412,51.60858],[4.613232,51.608635],[4.613092,51.608711],[4.613,51.608741],[4.61293,51.608759],[4.612808,51.608782],[4.611504,51.609005],[4.611412,51.609031],[4.611243,51.609069],[4.611189,51.609132],[4.611102,51.609187],[4.611015,51.609255],[4.610939,51.609321],[4.610793,51.609462],[4.61073,51.609541],[4.610683,51.60962],[4.610645,51.609696],[4.610617,51.609779],[4.610597,51.609862],[4.610584,51.609956],[4.610585,51.610035],[4.610606,51.610615],[4.61062,51.610916],[4.610634,51.610995],[4.610928,51.612102],[4.610934,51.61216],[4.610932,51.612203],[4.610919,51.612246],[4.610902,51.612284],[4.610882,51.612321],[4.610843,51.612358],[4.610803,51.612391],[4.610754,51.612419],[4.610713,51.61245],[4.610657,51.612472],[4.610027,51.612685],[4.609811,51.612777],[4.609701,51.612829],[4.609605,51.612886],[4.609512,51.612953],[4.609432,51.613021],[4.609294,51.613164],[4.60919,51.61329],[4.609074,51.61343],[4.609023,51.613513],[4.608985,51.613599],[4.608961,51.613681],[4.608941,51.613767],[4.608924,51.61394],[4.608976,51.614723],[4.608976,51.614785],[4.608967,51.61484],[4.608945,51.6149],[4.608914,51.614955],[4.608875,51.615002],[4.608823,51.61505],[4.608707,51.615152],[4.608,51.615746],[4.607961,51.615782],[4.607895,51.615843],[4.607785,51.615923],[4.606787,51.61657],[4.606707,51.616616],[4.606616,51.616659],[4.606509,51.6167],[4.606381,51.616741],[4.606296,51.616764],[4.606253,51.616776],[4.606122,51.616807],[4.605992,51.616833],[4.605856,51.616853],[4.605637,51.616868],[4.605098,51.616893],[4.604845,51.616909],[4.604706,51.61692],[4.60456,51.616938],[4.604283,51.616982],[4.604152,51.61701],[4.604014,51.617038],[4.603885,51.617075],[4.603746,51.617126],[4.603665,51.617158],[4.603565,51.617204],[4.603496,51.617259],[4.603477,51.617273],[4.603436,51.617303],[4.603361,51.617388],[4.603332,51.617498],[4.603336,51.617586],[4.603357,51.617663],[4.603394,51.617749],[4.603561,51.61799],[4.604183,51.618887],[4.604223,51.619024],[4.604297,51.619177],[4.604411,51.619627],[4.604423,51.619731],[4.604388,51.620286],[4.604351,51.62086],[4.604322,51.62114],[4.604298,51.621294],[4.604293,51.621326],[4.604264,51.621439],[4.604239,51.621513],[4.60413,51.621744],[4.604113,51.621773],[4.604055,51.621872],[4.604016,51.621936],[4.603988,51.62198],[4.603925,51.622077],[4.603894,51.622119],[4.603831,51.622202],[4.603797,51.622242],[4.60376,51.622286],[4.603688,51.622368],[4.603599,51.622463],[4.603523,51.622541],[4.603412,51.622645],[4.603278,51.622756],[4.603205,51.622814],[4.603113,51.62288],[4.602599,51.623181],[4.602384,51.623336],[4.602203,51.62345],[4.602015,51.623576],[4.601944,51.623629],[4.601884,51.62368],[4.601808,51.623758],[4.601637,51.623961],[4.601487,51.624149],[4.601425,51.624239],[4.601376,51.62433],[4.601339,51.624432],[4.601258,51.624898],[4.601248,51.624993],[4.601233,51.625239],[4.599908,51.624823],[4.599275,51.624646],[4.598641,51.624494],[4.598001,51.624392],[4.596515,51.624156],[4.59613,51.624109],[4.59587,51.624089],[4.595574,51.624077],[4.595304,51.624071],[4.595038,51.624081],[4.594775,51.624099],[4.594471,51.624128],[4.594177,51.624169],[4.593889,51.62422],[4.593453,51.624322],[4.593302,51.624367],[4.593223,51.62439],[4.592841,51.624446],[4.591661,51.624634],[4.590859,51.624768],[4.590139,51.624935],[4.589717,51.625051],[4.589187,51.625202],[4.588796,51.625352],[4.58818,51.625582],[4.587499,51.625864],[4.587097,51.62603],[4.586807,51.626144],[4.586475,51.626292],[4.58597,51.62647],[4.585926,51.626505],[4.585838,51.626559],[4.585554,51.62668],[4.585111,51.626865],[4.584826,51.626986],[4.58465,51.627061],[4.584501,51.627122],[4.584316,51.6272],[4.58398,51.62734],[4.583756,51.627435],[4.583431,51.627572],[4.583201,51.627669],[4.582886,51.627803],[4.582646,51.627905],[4.58242,51.627999],[4.582094,51.628137],[4.58186,51.628237],[4.581475,51.628399],[4.581208,51.628508],[4.581142,51.628535],[4.581009,51.628587],[4.580845,51.628651],[4.580649,51.628727],[4.580515,51.628776],[4.580075,51.628927],[4.580002,51.628948],[4.579899,51.628985],[4.579709,51.629052],[4.579557,51.629106],[4.579453,51.629143],[4.579321,51.629184],[4.579231,51.629211],[4.579028,51.629273],[4.578824,51.629332],[4.578717,51.629364],[4.578641,51.629386],[4.578507,51.629423],[4.578302,51.629477],[4.578063,51.62954],[4.57797,51.629564],[4.577906,51.629581],[4.577781,51.629611],[4.577514,51.62967],[4.577341,51.62971],[4.5771,51.629767],[4.576932,51.629802],[4.576795,51.629834],[4.57666,51.629865],[4.57645,51.629903],[4.576253,51.629941],[4.576058,51.629977],[4.575933,51.629999],[4.575744,51.630032],[4.575615,51.630049],[4.575525,51.630064],[4.575339,51.630091],[4.575152,51.630116],[4.574773,51.630165],[4.574307,51.630213],[4.573907,51.630254],[4.573228,51.630315],[4.572881,51.630333],[4.572356,51.63036],[4.571088,51.630399],[4.570849,51.630407],[4.570662,51.6304],[4.570221,51.630378],[4.569701,51.630355],[4.569167,51.630326],[4.568946,51.630305],[4.568634,51.630277],[4.568214,51.630234],[4.567908,51.630193],[4.567515,51.630137],[4.56694,51.630055],[4.566421,51.629978],[4.56576,51.629884],[4.565601,51.629858],[4.565515,51.629844],[4.565454,51.629839],[4.565254,51.629821],[4.564983,51.629802],[4.564767,51.629785],[4.564524,51.629767],[4.564216,51.62974],[4.564013,51.629709],[4.563948,51.629698],[4.563828,51.629678],[4.563651,51.629646],[4.563532,51.629607],[4.563438,51.629578],[4.563381,51.629564],[4.563218,51.629528],[4.562957,51.629476],[4.562772,51.629445],[4.562447,51.629377],[4.561998,51.629279],[4.561681,51.629205],[4.561471,51.629154],[4.561307,51.629108],[4.561181,51.629071],[4.560875,51.628974],[4.560681,51.628908],[4.560437,51.628817],[4.560058,51.628668],[4.55965,51.628502],[4.559313,51.628363],[4.559022,51.628237],[4.558677,51.628089],[4.558281,51.627902],[4.558075,51.627796],[4.557738,51.6276],[4.557648,51.627545],[4.557409,51.627401],[4.557253,51.627303],[4.557043,51.627157],[4.556917,51.627062],[4.556695,51.626887],[4.556484,51.6267],[4.555981,51.626256],[4.555666,51.625976],[4.555467,51.625798],[4.555425,51.625758],[4.555169,51.625497],[4.554934,51.625259],[4.554704,51.625024],[4.554568,51.624877],[4.554485,51.62476],[4.554348,51.624578],[4.554242,51.624413],[4.554174,51.624294],[4.554055,51.624094],[4.553942,51.623895],[4.553831,51.623667],[4.553774,51.623581],[4.55373,51.623484],[4.553648,51.623266],[4.553556,51.623011],[4.553473,51.622783],[4.55341,51.622645],[4.553339,51.622545],[4.553254,51.622466],[4.553098,51.622322],[4.552876,51.622152],[4.552683,51.622001],[4.552504,51.621888],[4.552349,51.62179],[4.551931,51.621525],[4.551628,51.621329],[4.551463,51.621225],[4.551361,51.621164],[4.551168,51.621067],[4.550806,51.620882],[4.550456,51.6207],[4.550306,51.620571],[4.550251,51.620531],[4.550068,51.62042],[4.549804,51.620266],[4.549651,51.620172],[4.549504,51.620087],[4.549314,51.619982],[4.549134,51.619892],[4.548856,51.619757],[4.548571,51.619622],[4.548209,51.619454],[4.547921,51.619337],[4.547713,51.619254],[4.547606,51.619211],[4.547362,51.619104],[4.547128,51.618998],[4.547043,51.618959],[4.546883,51.618897],[4.546576,51.618776],[4.546293,51.618667],[4.545971,51.618542],[4.545776,51.618468],[4.545667,51.618429],[4.545489,51.618368],[4.545208,51.618274],[4.544875,51.618171],[4.544564,51.618073],[4.544241,51.617971],[4.543913,51.61787],[4.543631,51.617784],[4.543417,51.617722],[4.543204,51.617668],[4.542817,51.617596],[4.542492,51.617534],[4.54212,51.617467],[4.541662,51.617393],[4.541461,51.617365],[4.541213,51.617332],[4.541046,51.617314],[4.540816,51.617292],[4.540316,51.617254],[4.539933,51.617224],[4.539847,51.617219],[4.539655,51.617212],[4.539233,51.6172],[4.538498,51.617185],[4.536635,51.617145],[4.536577,51.617143],[4.536003,51.617101],[4.535323,51.617031],[4.535299,51.617028],[4.535012,51.616992],[4.534387,51.616901],[4.533709,51.616773],[4.533154,51.616666],[4.532665,51.61654],[4.532347,51.616453],[4.531883,51.616309],[4.531454,51.616164],[4.530867,51.615948],[4.530584,51.615832],[4.530012,51.615576],[4.529436,51.615285],[4.529071,51.615094],[4.528872,51.614969],[4.528719,51.614874],[4.528476,51.614725],[4.526681,51.613521],[4.526123,51.613132],[4.52572,51.612862],[4.525487,51.612703],[4.524383,51.611948],[4.523783,51.611511],[4.523196,51.611086],[4.522634,51.610736],[4.522229,51.610453],[4.521786,51.610137],[4.521356,51.609763],[4.521004,51.609468],[4.520822,51.609315],[4.520472,51.60895],[4.520081,51.608642],[4.519887,51.608418],[4.519692,51.608227],[4.519607,51.608165],[4.519405,51.608017],[4.519317,51.607951],[4.51925,51.607909],[4.519132,51.607834],[4.518993,51.607765],[4.518846,51.607712],[4.518788,51.607694],[4.518592,51.607638],[4.518533,51.607623],[4.518262,51.607561],[4.517964,51.607495],[4.517789,51.607455],[4.517476,51.607384],[4.517166,51.607316],[4.516999,51.607278],[4.516942,51.607259],[4.516713,51.607182],[4.516619,51.607151],[4.516567,51.607134],[4.51651,51.607124],[4.516345,51.607092],[4.516183,51.607061],[4.515932,51.607004],[4.515729,51.606946],[4.515581,51.606909],[4.515406,51.606871],[4.51521,51.606838],[4.515033,51.606811],[4.51486,51.606791],[4.514657,51.606778],[4.514344,51.60676],[4.514164,51.60675],[4.51403,51.606747],[4.51368,51.606748],[4.513219,51.606746],[4.512898,51.606745],[4.512553,51.606746],[4.512144,51.606744],[4.511835,51.606744],[4.511443,51.606748],[4.511078,51.60675],[4.510782,51.60675],[4.510535,51.606752],[4.510353,51.606753],[4.510203,51.606766],[4.509934,51.606797],[4.509884,51.606802],[4.509597,51.60684],[4.509348,51.606876],[4.509127,51.606912],[4.508871,51.60695],[4.508716,51.606977],[4.508481,51.607015],[4.507988,51.607095],[4.507846,51.607127],[4.507655,51.607167],[4.507374,51.607229],[4.507317,51.607243],[4.506996,51.607315],[4.506607,51.607398],[4.506603,51.607399],[4.506466,51.607431],[4.506278,51.60747],[4.50618,51.607492],[4.505763,51.607592],[4.50555,51.607648],[4.505471,51.607665],[4.505142,51.607746],[4.504836,51.607828],[4.504496,51.607921],[4.504156,51.608017],[4.503818,51.608118],[4.503446,51.608246],[4.503071,51.60838],[4.502689,51.608518],[4.502556,51.608568],[4.502256,51.608706],[4.501788,51.608924],[4.501506,51.609053],[4.501282,51.609188],[4.501028,51.609341],[4.500823,51.609465],[4.500767,51.609499],[4.500513,51.60964],[4.500372,51.609723],[4.500203,51.609843],[4.499897,51.610062],[4.499586,51.610282],[4.499373,51.610457],[4.49906,51.610714],[4.49874,51.610987],[4.498541,51.611159],[4.498293,51.611376],[4.49789,51.611719],[4.497739,51.611846],[4.497118,51.61237],[4.496975,51.612489],[4.496493,51.612892],[4.496162,51.613175],[4.4955,51.613784],[4.49536,51.613925],[4.495188,51.614139],[4.494997,51.614367],[4.494927,51.614452],[4.494736,51.614704],[4.494529,51.615001],[4.494365,51.615245],[4.494205,51.615483],[4.494085,51.615701],[4.49391,51.616018],[4.49387,51.616081],[4.493701,51.616299],[4.493549,51.616492],[4.493519,51.616533],[4.493406,51.616663],[4.493188,51.616894],[4.493127,51.616959],[4.493079,51.616997],[4.492955,51.6171],[4.49269,51.617321],[4.492494,51.617486],[4.49244,51.617533],[4.492145,51.617753],[4.491986,51.617864],[4.491938,51.617901],[4.491555,51.61813],[4.491306,51.618274],[4.491107,51.618389],[4.491046,51.618423],[4.490824,51.618532],[4.490614,51.618632],[4.490401,51.61873],[4.490177,51.618831],[4.490048,51.618891],[4.48993,51.618938],[4.489779,51.619001],[4.48971,51.619028],[4.489454,51.619129],[4.489419,51.619139],[4.489196,51.61921],[4.488919,51.619306],[4.488718,51.619373],[4.48852,51.619432],[4.488218,51.619524],[4.488088,51.619564],[4.487962,51.619592],[4.487482,51.619702],[4.487083,51.619786],[4.486876,51.619827],[4.486776,51.619844],[4.486394,51.619908],[4.486257,51.619928],[4.486266,51.619928],[4.486062,51.619954],[4.485879,51.619973],[4.485756,51.619986],[4.485578,51.620003],[4.485333,51.620026],[4.484909,51.620051],[4.48461,51.620073],[4.484436,51.620078],[4.484279,51.620083],[4.483976,51.620084],[4.483887,51.620084],[4.483582,51.620078],[4.483377,51.620072],[4.483141,51.620066],[4.482966,51.620057],[4.482688,51.620034],[4.482276,51.619999],[4.482028,51.619977],[4.481906,51.619962],[4.481728,51.619937],[4.481591,51.619921],[4.481504,51.619912],[4.481321,51.61988],[4.48109,51.619839],[4.480856,51.619799],[4.480654,51.619759],[4.480439,51.619719],[4.480357,51.619698],[4.479909,51.619591],[4.479576,51.619509],[4.479447,51.619472],[4.479346,51.619438],[4.479156,51.61938],[4.478819,51.619279],[4.478615,51.61922],[4.478502,51.619197],[4.478393,51.619178],[4.478346,51.619161],[4.478194,51.619104],[4.477548,51.618897],[4.477504,51.618884],[4.477238,51.618806],[4.477026,51.618741],[4.476828,51.618677],[4.476613,51.618595],[4.476334,51.618486],[4.47614,51.618406],[4.476028,51.61836],[4.475852,51.618269],[4.475685,51.618178],[4.475509,51.618078],[4.475346,51.617978],[4.475135,51.617867],[4.474803,51.617669],[4.474393,51.617424],[4.473922,51.617143],[4.473733,51.617018],[4.473452,51.616839],[4.473216,51.61669],[4.473011,51.616576],[4.472764,51.61644],[4.472649,51.616385],[4.472365,51.616263],[4.472172,51.61618],[4.471971,51.616119],[4.471681,51.616035],[4.471442,51.615966],[4.471224,51.615909],[4.470916,51.615836],[4.470673,51.615789],[4.470448,51.615752],[4.469927,51.615665],[4.469565,51.615604],[4.469228,51.615545],[4.468894,51.615484],[4.468676,51.615442],[4.468352,51.61538],[4.468134,51.615337],[4.467799,51.615264],[4.467353,51.615179],[4.466679,51.615052],[4.466369,51.614995],[4.466037,51.614942],[4.465677,51.614884],[4.465337,51.614831],[4.465143,51.614802],[4.46479,51.614754],[4.464329,51.614696],[4.463872,51.614643],[4.463416,51.614592],[4.462742,51.614516],[4.462159,51.614453],[4.461612,51.614392],[4.461082,51.614366],[4.46084,51.614355],[4.460542,51.614339],[4.460264,51.614321],[4.46003,51.61431],[4.459685,51.614294],[4.459342,51.614275],[4.458999,51.61426],[4.458652,51.614244],[4.4583,51.614228],[4.457986,51.614215],[4.457445,51.614192],[4.457267,51.614184],[4.457058,51.614178],[4.457037,51.614177],[4.456846,51.614173],[4.456803,51.614172],[4.45657,51.614169],[4.456505,51.614172],[4.456371,51.614168],[4.456004,51.614184],[4.455654,51.614196],[4.455432,51.614198],[4.455203,51.614198],[4.454959,51.614204],[4.454923,51.614205],[4.454844,51.614207],[4.454622,51.614217],[4.454273,51.614235],[4.454037,51.614247],[4.453698,51.614266],[4.45347,51.614279],[4.453346,51.614287],[4.453005,51.614323],[4.452202,51.614409],[4.451524,51.614489],[4.451065,51.614545],[4.450625,51.614601],[4.450508,51.614613],[4.450047,51.614659],[4.449706,51.614691],[4.449248,51.614738],[4.448794,51.614783],[4.448708,51.614792],[4.448453,51.614818],[4.448226,51.614836],[4.447764,51.614864],[4.447187,51.614899],[4.446619,51.614935],[4.446508,51.614915],[4.446281,51.614874],[4.446024,51.61483],[4.445933,51.614841],[4.445591,51.614886],[4.445144,51.61494],[4.444803,51.614978],[4.44446,51.615018],[4.444229,51.615044],[4.444112,51.615055],[4.443881,51.615067],[4.443764,51.615072],[4.44365,51.615077],[4.443597,51.615084],[4.443579,51.615085],[4.443537,51.615089],[4.443087,51.615188],[4.442763,51.615262],[4.442448,51.615345],[4.44213,51.615435],[4.441709,51.615554],[4.441291,51.61567],[4.441184,51.615699],[4.441086,51.615732],[4.440886,51.61581],[4.440589,51.61592],[4.440294,51.616023],[4.440102,51.616097],[4.439909,51.616176],[4.439623,51.616294],[4.439432,51.616382],[4.439156,51.616513],[4.43888,51.61664],[4.438418,51.616856],[4.438137,51.616982],[4.437857,51.617107],[4.437828,51.617119],[4.43745,51.616879],[4.437462,51.616581],[4.437375,51.616233],[4.437301,51.616166],[4.436523,51.615448],[4.436499,51.615458],[4.436161,51.615593],[4.435705,51.615175],[4.435678,51.615151],[4.433765,51.615939],[4.433451,51.615535],[4.433286,51.615316],[4.433124,51.615144],[4.432998,51.615015],[4.432883,51.614897],[4.432556,51.614664],[4.432372,51.614503],[4.432241,51.614388],[4.432134,51.614271],[4.432068,51.614167],[4.432009,51.614075],[4.431935,51.613911],[4.431945,51.613753],[4.43199,51.613694],[4.43201,51.613668],[4.432072,51.613624],[4.432279,51.613472],[4.432438,51.613276],[4.432476,51.613201],[4.432483,51.613112],[4.432497,51.613006],[4.432464,51.612891],[4.432413,51.612777],[4.432272,51.612561],[4.432192,51.612325],[4.432092,51.611978],[4.432091,51.611975],[4.432055,51.611764],[4.432019,51.611668],[4.431994,51.611599],[4.431968,51.611527],[4.431865,51.611288],[4.431802,51.611141],[4.431754,51.611044],[4.431745,51.611025],[4.431649,51.610912],[4.431547,51.610845],[4.431391,51.61081],[4.431022,51.610798],[4.430961,51.610798],[4.430847,51.610798],[4.430688,51.610808],[4.430669,51.61081],[4.430417,51.610839],[4.430108,51.61092],[4.429998,51.610948],[4.429544,51.611068],[4.429497,51.61107],[4.429436,51.611073],[4.429416,51.611065],[4.429352,51.61104],[4.429339,51.611035],[4.429214,51.611068],[4.427445,51.611536],[4.426675,51.61174],[4.426697,51.611638],[4.426911,51.610638],[4.427592,51.607479],[4.42793,51.605857],[4.42802,51.605396],[4.428101,51.604934],[4.428171,51.60448],[4.428176,51.604446],[4.428243,51.603986],[4.428305,51.603524],[4.428361,51.60306],[4.428371,51.602958],[4.428454,51.602178],[4.428538,51.601379],[4.428618,51.600656],[4.42867,51.600163]]]},"properties":{"type":"boundary","gemeente":"Halderberge"}}]}