{"type":"FeatureCollection","metadata":{"gemeente":"Hardinxveld-Giessendam","slug":"hardinxveld-giessendam","generated_at":"2026-09-28T08:20:47.574309Z","total_points":16,"providers":["Amazon","DHL","DPD","PostNL","VintedGo","ViaTim","FedEx","InPost"],"bounds":[4.8102629414983396,51.82236,4.885782611,51.833466935381]},"features":[{"type":"Feature","geometry":{"type":"Point","coordinates":[4.8102629414983396,51.8223820279334]},"properties":{"type":"pakketpunt","locatieNaam":"DHL - DeBuren Locker 24-7  Lukoil Hardin","straatNaam":"Peulenlaan 261","straatNr":"","vervoerder":"Amazon","puntType":"3p","bezettingsgraad":50,"latitude":51.8223820279334,"longitude":4.8102629414983396,"canPickup":true,"canDropoff":false,"openingstijden":null}},{"type":"Feature","geometry":{"type":"Point","coordinates":[4.8857596,51.8234345]},"properties":{"type":"pakketpunt","locatieNaam":"Boekhandel Ritmeester","straatNaam":"Rembrandtstraat","straatNr":"29","vervoerder":"DHL","puntType":"parcelShop","bezettingsgraad":50,"latitude":51.8234345,"longitude":4.8857596,"canPickup":true,"canDropoff":true,"openingstijden":{"ma":"13:00 - 17:00","di":"13:00 - 17:00","wo":"13:00 - 17:00","do":"13:00 - 17:00","vr":"13:00 - 17:00","za":"09:30 - 12:30","zo":"gesloten"}}},{"type":"Feature","geometry":{"type":"Point","coordinates":[4.8332286,51.8270157]},"properties":{"type":"pakketpunt","locatieNaam":"Pakketautomaat terStal Hardinxveld","straatNaam":"Den Bogerd","straatNr":"3-Kast","vervoerder":"DHL","puntType":"packStation","bezettingsgraad":50,"latitude":51.8270157,"longitude":4.8332286,"canPickup":true,"canDropoff":true,"openingstijden":{"ma":"11:00 - 17:30","di":"09:30 - 17:30","wo":"09:30 - 17:30","do":"09:30 - 17:30","vr":"09:30 - 17:30","za":"10:00 - 17:00","zo":"gesloten"}}},{"type":"Feature","geometry":{"type":"Point","coordinates":[4.831026,51.826335]},"properties":{"type":"pakketpunt","locatieNaam":"Top 1 Toys Hardinxveld","straatNaam":"Buitendams","straatNr":"69","vervoerder":"DHL","puntType":"parcelShop","bezettingsgraad":50,"latitude":51.826335,"longitude":4.831026,"canPickup":true,"canDropoff":true,"openingstijden":{"ma":"gesloten","di":"09:00 - 17:30","wo":"09:00 - 17:30","do":"09:00 - 17:30","vr":"09:00 - 17:30","za":"09:00 - 17:00","zo":"gesloten"}}},{"type":"Feature","geometry":{"type":"Point","coordinates":[4.8102629414983396,51.8223820279334]},"properties":{"type":"pakketpunt","locatieNaam":"DeBuren Locker 24-7  Lukoil Hardin","straatNaam":"Peulenlaan","straatNr":"261","vervoerder":"DHL","puntType":"packStation","bezettingsgraad":50,"latitude":51.8223820279334,"longitude":4.8102629414983396,"canPickup":true,"canDropoff":true,"openingstijden":{"ma":"00:00 - 23:59","di":"00:00 - 23:59","wo":"00:00 - 23:59","do":"00:00 - 23:59","vr":"00:00 - 23:59","za":"00:00 - 23:59","zo":"00:00 - 23:59"}}},{"type":"Feature","geometry":{"type":"Point","coordinates":[4.81062,51.82236]},"properties":{"type":"pakketpunt","locatieNaam":"Pakketautomaat Lukoil Peulenlaan","straatNaam":"PEULENLAAN","straatNr":"261","vervoerder":"DPD","puntType":"dpd_box","bezettingsgraad":50,"latitude":51.82236,"longitude":4.81062,"canPickup":true,"canDropoff":true,"openingstijden":{"ma":"00:01 - 23:59","di":"00:01 - 23:59","wo":"00:01 - 23:59","do":"00:01 - 23:59","vr":"00:01 - 23:59","za":"00:01 - 23:59","zo":"00:01 - 23:59"}}},{"type":"Feature","geometry":{"type":"Point","coordinates":[4.87935320100368,51.8237660760416]},"properties":{"type":"pakketpunt","locatieNaam":"Pakketautomaat","straatNaam":"Juliana van Stolbergstr","straatNr":"93PBA","vervoerder":"PostNL","puntType":"automaat","bezettingsgraad":50,"latitude":51.8237660760416,"longitude":4.87935320100368,"canPickup":true,"canDropoff":true,"openingstijden":"08:00 - 20:00"}},{"type":"Feature","geometry":{"type":"Point","coordinates":[4.885782611,51.82344316]},"properties":{"type":"pakketpunt","locatieNaam":"Boekhandel Ritmeester","straatNaam":"Rembrandtstraat","straatNr":"29","vervoerder":"PostNL","puntType":"servicepunt","bezettingsgraad":50,"latitude":51.82344316,"longitude":4.885782611,"canPickup":true,"canDropoff":true,"openingstijden":"13:00 - 17:00"}},{"type":"Feature","geometry":{"type":"Point","coordinates":[4.83497719904692,51.8300464335692]},"properties":{"type":"pakketpunt","locatieNaam":"Pakketautomaat","straatNaam":"Stationsstraat","straatNr":"21PBA","vervoerder":"PostNL","puntType":"automaat","bezettingsgraad":50,"latitude":51.8300464335692,"longitude":4.83497719904692,"canPickup":true,"canDropoff":true,"openingstijden":"00:00 - 23:59"}},{"type":"Feature","geometry":{"type":"Point","coordinates":[4.832982523,51.8259113]},"properties":{"type":"pakketpunt","locatieNaam":"Primera","straatNaam":"Den Bogerd","straatNr":"30","vervoerder":"PostNL","puntType":"servicepunt","bezettingsgraad":50,"latitude":51.8259113,"longitude":4.832982523,"canPickup":true,"canDropoff":true,"openingstijden":"08:00 - 18:00 (Na 18:00 open; Zaterdag open)"}},{"type":"Feature","geometry":{"type":"Point","coordinates":[4.83324261,51.82684955]},"properties":{"type":"pakketpunt","locatieNaam":"Phonexperts Hardinxveld","straatNaam":"Den Bogerd 12-14","straatNr":"","vervoerder":"VintedGo","puntType":"parcel_shop","bezettingsgraad":50,"latitude":51.82684955,"longitude":4.83324261,"canPickup":true,"canDropoff":true,"openingstijden":null}},{"type":"Feature","geometry":{"type":"Point","coordinates":[4.87724533,51.82597749]},"properties":{"type":"pakketpunt","locatieNaam":"ViaTim en Ernst-Jan","straatNaam":"Nassaustraat","straatNr":"64","vervoerder":"ViaTim","puntType":"servicepunt","bezettingsgraad":50,"latitude":51.82597749,"longitude":4.87724533,"canPickup":true,"canDropoff":true,"openingstijden":{"ma":"gesloten","di":"gesloten","wo":"17:00 - 20:00","do":"17:00 - 20:00","vr":"gesloten","za":"gesloten","zo":"gesloten"}}},{"type":"Feature","geometry":{"type":"Point","coordinates":[4.83592782865369,51.833466935381]},"properties":{"type":"pakketpunt","locatieNaam":"ViaTim en Kromsnavel","straatNaam":"Alexanderstraat","straatNr":"9","vervoerder":"ViaTim","puntType":"servicepunt","bezettingsgraad":50,"latitude":51.833466935381,"longitude":4.83592782865369,"canPickup":true,"canDropoff":true,"openingstijden":{"ma":"16:00 - 21:00","di":"16:00 - 21:00","wo":"16:00 - 21:00","do":"16:00 - 21:00","vr":"16:00 - 21:00","za":"gesloten","zo":"gesloten"}}},{"type":"Feature","geometry":{"type":"Point","coordinates":[4.834977,51.830046]},"properties":{"type":"pakketpunt","locatieNaam":"FedEx Ship&Get","straatNaam":"Stationsstraat 21 PBA","straatNr":"","vervoerder":"FedEx","puntType":"servicepunt","bezettingsgraad":50,"latitude":51.830046,"longitude":4.834977,"canPickup":true,"canDropoff":true,"openingstijden":{"ma":"00:00 - 23:59","di":"00:00 - 23:59","wo":"00:00 - 23:59","do":"00:00 - 23:59","vr":"00:00 - 23:59","za":"00:00 - 23:59","zo":"00:00 - 23:59"}}},{"type":"Feature","geometry":{"type":"Point","coordinates":[4.879330074536892,51.82375459521576]},"properties":{"type":"pakketpunt","locatieNaam":"FedEx Ship&Get","straatNaam":"Juliana van Stolbergstr 93 PBA","straatNr":"","vervoerder":"FedEx","puntType":"servicepunt","bezettingsgraad":50,"latitude":51.82375459521576,"longitude":4.879330074536892,"canPickup":true,"canDropoff":true,"openingstijden":{"ma":"08:00 - 20:00","di":"08:00 - 20:00","wo":"08:00 - 20:00","do":"08:00 - 21:00","vr":"08:00 - 21:00","za":"07:00 - 18:00","zo":"gesloten"}}},{"type":"Feature","geometry":{"type":"Point","coordinates":[4.88133,51.82243]},"properties":{"type":"pakketpunt","locatieNaam":"","straatNaam":"Graaf Lodewijkstraat","straatNr":"40","vervoerder":"InPost","puntType":"automaat","bezettingsgraad":50,"latitude":51.82243,"longitude":4.88133,"canPickup":true,"canDropoff":true,"openingstijden":"24/7"}},{"type":"Feature","geometry":{"type":"Polygon","coordinates":[[[4.803379,51.846353],[4.803384,51.846295],[4.803386,51.846266],[4.803389,51.846234],[4.803389,51.846222],[4.8034,51.846086],[4.803432,51.845599],[4.803444,51.845425],[4.803446,51.84539],[4.803471,51.845094],[4.803474,51.84506],[4.803506,51.844492],[4.803537,51.844118],[4.803538,51.84398],[4.803534,51.843871],[4.803539,51.843828],[4.803551,51.843682],[4.803561,51.843565],[4.803567,51.843519],[4.803572,51.843491],[4.803572,51.843488],[4.803575,51.843465],[4.80358,51.843385],[4.803608,51.843283],[4.803615,51.843241],[4.803627,51.843155],[4.803631,51.843085],[4.803644,51.842987],[4.803633,51.842877],[4.803628,51.84285],[4.803638,51.842732],[4.803655,51.842641],[4.803671,51.842539],[4.80369,51.842364],[4.803691,51.842276],[4.803696,51.842185],[4.803731,51.841591],[4.803757,51.840898],[4.803781,51.840722],[4.803799,51.840454],[4.803889,51.839052],[4.803904,51.838648],[4.803923,51.8386],[4.803942,51.838542],[4.803971,51.838485],[4.804013,51.838417],[4.80405,51.838369],[4.804117,51.838296],[4.80422,51.838204],[4.804534,51.837932],[4.804565,51.83791],[4.804593,51.837906],[4.804646,51.83789],[4.804675,51.83789],[4.804693,51.837898],[4.804693,51.837889],[4.804692,51.837736],[4.804692,51.837712],[4.804692,51.837686],[4.804692,51.83767],[4.804692,51.837657],[4.804684,51.837647],[4.804675,51.837638],[4.804652,51.837629],[4.804627,51.837624],[4.804587,51.837613],[4.80452,51.837586],[4.80445,51.837555],[4.8044,51.837524],[4.804337,51.83749],[4.804318,51.837477],[4.804261,51.837437],[4.804192,51.837386],[4.804167,51.837348],[4.804129,51.837308],[4.804072,51.837211],[4.804033,51.83711],[4.804024,51.837061],[4.804003,51.83701],[4.804005,51.836821],[4.804049,51.836343],[4.804091,51.835826],[4.804121,51.835507],[4.804154,51.835088],[4.804194,51.834623],[4.804203,51.834485],[4.804237,51.83382],[4.804271,51.83335],[4.804277,51.83324],[4.804278,51.833168],[4.804278,51.833153],[4.804289,51.832868],[4.804304,51.832676],[4.804347,51.832128],[4.804384,51.83161],[4.804388,51.831555],[4.804388,51.831549],[4.804392,51.831489],[4.804405,51.831308],[4.80447,51.83014],[4.804507,51.829678],[4.804516,51.82963],[4.804524,51.829608],[4.80454,51.829421],[4.80455,51.829283],[4.804554,51.829234],[4.804563,51.829107],[4.804567,51.829049],[4.804567,51.829045],[4.804569,51.82902],[4.804575,51.828936],[4.804575,51.828935],[4.804578,51.828896],[4.804578,51.828884],[4.804582,51.828837],[4.804616,51.828333],[4.80462,51.828126],[4.804674,51.827587],[4.804699,51.826797],[4.804712,51.826282],[4.804713,51.826073],[4.804716,51.825846],[4.804732,51.825045],[4.804735,51.824937],[4.804745,51.824843],[4.804765,51.82475],[4.804795,51.824663],[4.804807,51.824616],[4.804837,51.824504],[4.804854,51.824423],[4.804858,51.824394],[4.804861,51.82437],[4.804866,51.824324],[4.804887,51.824207],[4.804909,51.824118],[4.804919,51.824065],[4.804946,51.823901],[4.804961,51.823774],[4.804959,51.823699],[4.804961,51.823357],[4.804962,51.823204],[4.804995,51.823202],[4.805079,51.823197],[4.805076,51.822127],[4.805076,51.821963],[4.805076,51.821949],[4.805133,51.821948],[4.805597,51.821939],[4.806535,51.821919],[4.80817,51.821805],[4.808506,51.821715],[4.808647,51.821678],[4.81103,51.821061],[4.811048,51.821066],[4.81112,51.821084],[4.811384,51.821148],[4.811404,51.819573],[4.811416,51.818658],[4.812865,51.818742],[4.816293,51.818906],[4.816361,51.818909],[4.820115,51.819058],[4.820471,51.819064],[4.82136,51.819081],[4.821751,51.81908],[4.822821,51.819056],[4.823227,51.819049],[4.824244,51.819027],[4.825691,51.819],[4.827366,51.818965],[4.830888,51.819171],[4.835078,51.819245],[4.838997,51.819254],[4.839052,51.819255],[4.841014,51.819209],[4.842545,51.819178],[4.843264,51.819162],[4.843486,51.819155],[4.843661,51.819144],[4.844649,51.819086],[4.845714,51.819026],[4.846985,51.818952],[4.847678,51.818916],[4.847809,51.818913],[4.848275,51.818885],[4.8488,51.818855],[4.849407,51.818818],[4.849968,51.818785],[4.850558,51.818749],[4.851229,51.818711],[4.851651,51.818686],[4.852129,51.818657],[4.852558,51.818628],[4.85299,51.8186],[4.853987,51.818535],[4.854398,51.818509],[4.854996,51.81847],[4.85561,51.81843],[4.856111,51.818395],[4.856124,51.818391],[4.856206,51.818385],[4.856336,51.818375],[4.856619,51.818356],[4.857085,51.818326],[4.858281,51.818243],[4.858929,51.8182],[4.859503,51.818159],[4.859896,51.818132],[4.860107,51.818118],[4.860194,51.818114],[4.860357,51.818107],[4.860902,51.818085],[4.861334,51.818067],[4.862143,51.818033],[4.862929,51.818],[4.863752,51.817968],[4.864798,51.817916],[4.865352,51.817887],[4.866257,51.81784],[4.86754,51.817772],[4.868071,51.817744],[4.86844,51.817726],[4.86897,51.8177],[4.869247,51.817686],[4.86982,51.817657],[4.870338,51.81763],[4.870853,51.817605],[4.871246,51.817586],[4.872318,51.817589],[4.872791,51.817592],[4.873324,51.817593],[4.873804,51.817595],[4.87434,51.817598],[4.87488,51.8176],[4.87519,51.817618],[4.875584,51.817642],[4.876,51.817668],[4.876307,51.817691],[4.876738,51.817723],[4.87716,51.81776],[4.877753,51.817816],[4.878254,51.817865],[4.878866,51.817934],[4.879547,51.818018],[4.880185,51.818103],[4.880777,51.818185],[4.881069,51.818228],[4.881498,51.818296],[4.881882,51.818359],[4.882328,51.818442],[4.883323,51.818627],[4.883878,51.817723],[4.884238,51.817135],[4.884643,51.816471],[4.885227,51.81677],[4.886773,51.817559],[4.888087,51.818227],[4.889401,51.818895],[4.890728,51.819348],[4.892577,51.819976],[4.894426,51.820604],[4.89602,51.821162],[4.897614,51.821721],[4.900104,51.822582],[4.901293,51.822988],[4.902693,51.823468],[4.904092,51.823948],[4.906062,51.824509],[4.908516,51.825205],[4.909126,51.825377],[4.910013,51.825627],[4.911274,51.825982],[4.912843,51.826302],[4.914308,51.826607],[4.914935,51.826733],[4.916022,51.826955],[4.917603,51.827278],[4.918599,51.827482],[4.919601,51.827628],[4.921191,51.827855],[4.922728,51.828072],[4.924233,51.828154],[4.926038,51.828255],[4.926987,51.828306],[4.926873,51.828868],[4.926582,51.830244],[4.926491,51.830695],[4.926398,51.831152],[4.926235,51.831958],[4.926233,51.831969],[4.926075,51.832748],[4.926067,51.832791],[4.926037,51.832941],[4.925742,51.834399],[4.92558,51.835186],[4.925397,51.836081],[4.925246,51.836827],[4.925238,51.836869],[4.925198,51.837065],[4.925195,51.83708],[4.925186,51.837123],[4.925185,51.837129],[4.925185,51.83713],[4.925185,51.83713],[4.925168,51.837232],[4.925168,51.837236],[4.925157,51.837305],[4.925156,51.837311],[4.925136,51.837431],[4.92512,51.837531],[4.925119,51.837541],[4.925114,51.837572],[4.925113,51.837575],[4.925016,51.838303],[4.925014,51.838313],[4.925018,51.838555],[4.925018,51.838569],[4.924906,51.839405],[4.924901,51.839442],[4.92489,51.839522],[4.924873,51.839648],[4.924869,51.839677],[4.924864,51.839718],[4.924428,51.83972],[4.924158,51.839718],[4.922759,51.839712],[4.921352,51.839705],[4.920302,51.839674],[4.919366,51.839651],[4.919271,51.839602],[4.918561,51.839573],[4.918065,51.839556],[4.917981,51.839589],[4.917658,51.83957],[4.917195,51.839543],[4.915942,51.839468],[4.915463,51.839435],[4.913914,51.839316],[4.912384,51.839177],[4.911816,51.839122],[4.91052,51.838979],[4.91045,51.838925],[4.909862,51.838848],[4.909862,51.838848],[4.909752,51.838835],[4.909673,51.838825],[4.909278,51.838777],[4.909159,51.838804],[4.908834,51.838761],[4.908485,51.838716],[4.908128,51.838665],[4.907624,51.838593],[4.907511,51.838577],[4.907295,51.838547],[4.906938,51.838493],[4.906628,51.838444],[4.906248,51.838381],[4.905714,51.838297],[4.905347,51.838236],[4.904989,51.838175],[4.904554,51.8381],[4.903659,51.837943],[4.903136,51.837849],[4.902889,51.837799],[4.902642,51.837749],[4.902151,51.837654],[4.901581,51.837531],[4.901117,51.837431],[4.900577,51.837316],[4.900093,51.837215],[4.899704,51.837127],[4.898772,51.836914],[4.89826,51.836786],[4.897583,51.836619],[4.896996,51.836476],[4.896664,51.836395],[4.896167,51.836259],[4.895913,51.836192],[4.895359,51.836047],[4.894673,51.835867],[4.894199,51.835742],[4.893561,51.835578],[4.892976,51.835424],[4.892596,51.835326],[4.892598,51.835359],[4.891813,51.835154],[4.891427,51.835048],[4.891361,51.834963],[4.891075,51.834891],[4.890779,51.834817],[4.890375,51.834785],[4.889999,51.834759],[4.889686,51.834713],[4.88958,51.834697],[4.889415,51.834664],[4.889249,51.834634],[4.889212,51.834622],[4.88897,51.83454],[4.88861,51.834415],[4.888567,51.8344],[4.888528,51.834381],[4.888275,51.834236],[4.887977,51.834161],[4.887797,51.834116],[4.887346,51.834003],[4.887135,51.833951],[4.887113,51.833946],[4.886733,51.833858],[4.886364,51.833774],[4.886282,51.833756],[4.885881,51.833667],[4.885791,51.833648],[4.885527,51.833593],[4.885495,51.833587],[4.884681,51.833423],[4.884462,51.833381],[4.884241,51.833343],[4.883738,51.833255],[4.883169,51.833157],[4.882824,51.833097],[4.882774,51.833094],[4.882771,51.833094],[4.882519,51.833079],[4.882509,51.833077],[4.881696,51.832959],[4.880942,51.83285],[4.879648,51.832682],[4.879312,51.832645],[4.877899,51.832514],[4.876862,51.832427],[4.876611,51.832408],[4.876108,51.832378],[4.875937,51.832368],[4.875311,51.832331],[4.873748,51.832241],[4.87345,51.832223],[4.873026,51.832204],[4.873001,51.832203],[4.872649,51.832188],[4.871728,51.832148],[4.871443,51.832136],[4.870258,51.832088],[4.869396,51.832053],[4.868656,51.832023],[4.867928,51.831994],[4.86792,51.832445],[4.867915,51.832749],[4.867915,51.832753],[4.867906,51.833261],[4.867905,51.833264],[4.867902,51.833307],[4.867902,51.833307],[4.867592,51.833979],[4.867592,51.833981],[4.867504,51.834057],[4.867501,51.834059],[4.867452,51.834098],[4.867331,51.834192],[4.86718,51.834311],[4.86706,51.834406],[4.866876,51.83455],[4.866784,51.834622],[4.866778,51.834627],[4.866736,51.834654],[4.866451,51.834837],[4.865775,51.834457],[4.864942,51.833959],[4.864037,51.833394],[4.863855,51.833279],[4.863731,51.833211],[4.863592,51.833143],[4.863315,51.833018],[4.863164,51.832969],[4.863007,51.832941],[4.862892,51.832929],[4.86275,51.832933],[4.86239,51.832946],[4.861937,51.832965],[4.861557,51.832977],[4.861154,51.833],[4.860723,51.833018],[4.860478,51.833022],[4.860062,51.832992],[4.859627,51.832955],[4.859161,51.832923],[4.858653,51.832876],[4.858221,51.832815],[4.8574,51.832699],[4.856937,51.832634],[4.856681,51.832588],[4.856115,51.832461],[4.855905,51.832415],[4.855395,51.832281],[4.854981,51.832185],[4.854664,51.832144],[4.854368,51.832133],[4.854037,51.832131],[4.853781,51.832142],[4.853577,51.83218],[4.853308,51.832253],[4.853174,51.832302],[4.852961,51.832402],[4.852703,51.83253],[4.852493,51.832645],[4.852313,51.832744],[4.851981,51.832923],[4.851775,51.833015],[4.851599,51.833074],[4.85135,51.833141],[4.851102,51.833178],[4.850835,51.833195],[4.850567,51.8332],[4.850342,51.833187],[4.850166,51.833174],[4.84986,51.833134],[4.84946,51.833069],[4.849155,51.833024],[4.848889,51.832957],[4.848588,51.832876],[4.84795,51.832617],[4.847852,51.832818],[4.847674,51.832975],[4.847671,51.832979],[4.847664,51.833051],[4.8476,51.833198],[4.847533,51.8334],[4.847514,51.833457],[4.847515,51.833465],[4.847483,51.833556],[4.847429,51.833625],[4.847298,51.833944],[4.847156,51.834232],[4.847073,51.834402],[4.847062,51.834461],[4.847029,51.834519],[4.847027,51.834528],[4.847008,51.834608],[4.846923,51.834809],[4.846723,51.835281],[4.846549,51.835697],[4.846535,51.835728],[4.846423,51.83599],[4.846289,51.836292],[4.846125,51.836687],[4.845933,51.837156],[4.845824,51.837419],[4.84561,51.837924],[4.845521,51.838131],[4.845512,51.83815],[4.845445,51.838308],[4.845397,51.838418],[4.845328,51.838575],[4.845319,51.838596],[4.845178,51.838919],[4.844946,51.839454],[4.844745,51.839929],[4.844526,51.840441],[4.844348,51.840859],[4.844165,51.841293],[4.844055,51.841555],[4.844005,51.841662],[4.843995,51.841685],[4.843959,51.841741],[4.843956,51.841746],[4.843928,51.841794],[4.843927,51.841795],[4.843925,51.841803],[4.843905,51.841876],[4.843879,51.841955],[4.843863,51.842],[4.843844,51.842048],[4.843804,51.842142],[4.843698,51.842405],[4.843668,51.842483],[4.843621,51.842621],[4.843575,51.842765],[4.843525,51.842932],[4.843479,51.843095],[4.843426,51.84328],[4.843389,51.843403],[4.843357,51.843516],[4.843324,51.843633],[4.843282,51.843765],[4.843228,51.843946],[4.843183,51.844078],[4.84315,51.844183],[4.843127,51.844247],[4.843104,51.84432],[4.842999,51.844641],[4.842951,51.844781],[4.842916,51.844893],[4.842905,51.844927],[4.842891,51.844995],[4.842873,51.845075],[4.842863,51.845113],[4.84281,51.845293],[4.842763,51.845435],[4.84268,51.845682],[4.84263,51.845827],[4.84262,51.845862],[4.842601,51.845948],[4.84257,51.846096],[4.84255,51.846187],[4.842539,51.846226],[4.842524,51.846274],[4.84251,51.846326],[4.842489,51.846378],[4.84244,51.846513],[4.842431,51.846533],[4.842425,51.846556],[4.842406,51.84662],[4.842351,51.846812],[4.842259,51.847119],[4.842186,51.847373],[4.842106,51.847643],[4.842104,51.847648],[4.842103,51.847654],[4.842077,51.847749],[4.842069,51.847774],[4.842023,51.847928],[4.842018,51.847943],[4.841967,51.848126],[4.841899,51.848339],[4.841861,51.84845],[4.841768,51.848748],[4.841736,51.848845],[4.841656,51.849099],[4.841608,51.849255],[4.841579,51.849363],[4.841533,51.849506],[4.841471,51.849716],[4.841399,51.849955],[4.841352,51.85011],[4.841305,51.850262],[4.841196,51.850614],[4.84118,51.850673],[4.841155,51.850742],[4.841128,51.850829],[4.841104,51.850914],[4.841088,51.85098],[4.841009,51.851226],[4.84081,51.851864],[4.840592,51.852587],[4.840372,51.853325],[4.840121,51.854147],[4.840046,51.854373],[4.839745,51.855353],[4.839315,51.856725],[4.839068,51.857556],[4.838655,51.858909],[4.838283,51.860095],[4.838097,51.860686],[4.838082,51.860735],[4.837851,51.860638],[4.837692,51.860563],[4.837481,51.860468],[4.837352,51.860409],[4.837211,51.860349],[4.836391,51.860015],[4.836283,51.859972],[4.836206,51.859938],[4.834645,51.859245],[4.834491,51.859178],[4.834394,51.859137],[4.834142,51.859036],[4.833989,51.858973],[4.833401,51.858735],[4.833311,51.858699],[4.833186,51.858649],[4.833055,51.858597],[4.832865,51.858527],[4.832746,51.858482],[4.832648,51.85844],[4.832348,51.858309],[4.832109,51.858195],[4.832056,51.858167],[4.832024,51.858151],[4.831881,51.858096],[4.83183,51.858077],[4.831667,51.858],[4.831602,51.857971],[4.831553,51.857947],[4.83118,51.857787],[4.830881,51.857654],[4.830815,51.857624],[4.830768,51.857603],[4.830465,51.85748],[4.83041,51.857455],[4.83036,51.857433],[4.830102,51.857307],[4.830029,51.857269],[4.829978,51.857245],[4.829778,51.857157],[4.829717,51.857131],[4.829679,51.857112],[4.829597,51.857073],[4.829561,51.857054],[4.829534,51.857043],[4.829488,51.857025],[4.829452,51.857011],[4.82941,51.856993],[4.829364,51.856971],[4.829085,51.856831],[4.829009,51.856792],[4.828967,51.856774],[4.828699,51.856673],[4.828586,51.856631],[4.828473,51.856589],[4.828245,51.856513],[4.828179,51.856492],[4.828139,51.856475],[4.828084,51.856452],[4.827808,51.856326],[4.827751,51.8563],[4.827704,51.856281],[4.827446,51.856184],[4.827357,51.856152],[4.827354,51.856151],[4.827305,51.856132],[4.82661,51.855847],[4.826541,51.85582],[4.826481,51.855793],[4.826184,51.855655],[4.826134,51.855634],[4.826083,51.855617],[4.825892,51.855554],[4.825814,51.855529],[4.82574,51.855503],[4.825687,51.855482],[4.825522,51.855415],[4.825439,51.855381],[4.825382,51.855355],[4.825215,51.855277],[4.825148,51.855242],[4.825077,51.855211],[4.824691,51.855041],[4.82442,51.854923],[4.824338,51.854888],[4.824274,51.854858],[4.824212,51.854835],[4.824142,51.854808],[4.824094,51.854791],[4.823903,51.854714],[4.823631,51.854606],[4.823562,51.854578],[4.823521,51.854558],[4.823242,51.854427],[4.823122,51.854369],[4.823036,51.854329],[4.822855,51.854252],[4.822756,51.854206],[4.82266,51.854167],[4.822484,51.8541],[4.82246,51.854098],[4.822271,51.854015],[4.821943,51.853876],[4.821846,51.853837],[4.821604,51.853741],[4.821513,51.853703],[4.821436,51.853674],[4.821244,51.853586],[4.821152,51.853544],[4.820711,51.853342],[4.820611,51.853295],[4.820311,51.853148],[4.820259,51.853124],[4.820086,51.85305],[4.820008,51.853018],[4.819964,51.852998],[4.819604,51.852829],[4.819486,51.852777],[4.81942,51.852749],[4.819263,51.852689],[4.819077,51.852617],[4.818905,51.852546],[4.818675,51.852452],[4.818172,51.852239],[4.818097,51.852209],[4.818038,51.852181],[4.817462,51.851938],[4.817388,51.851906],[4.817314,51.851872],[4.816978,51.851712],[4.816905,51.851674],[4.81686,51.851657],[4.816661,51.851583],[4.816572,51.851551],[4.816492,51.851523],[4.816327,51.85147],[4.816271,51.851453],[4.816223,51.851436],[4.816098,51.851388],[4.816025,51.851359],[4.815956,51.851327],[4.815797,51.851249],[4.815658,51.851178],[4.815581,51.851141],[4.815567,51.851133],[4.815541,51.851119],[4.815411,51.851047],[4.815318,51.850996],[4.815228,51.850955],[4.815166,51.850926],[4.81512,51.850909],[4.814961,51.850858],[4.814904,51.850837],[4.814862,51.850819],[4.814701,51.850744],[4.8145,51.850653],[4.814343,51.850581],[4.81425,51.850542],[4.813912,51.850392],[4.813836,51.850359],[4.813783,51.850339],[4.813667,51.850298],[4.813584,51.850268],[4.81352,51.850243],[4.813242,51.850128],[4.812827,51.849961],[4.812766,51.849938],[4.81265,51.849892],[4.812382,51.849795],[4.812273,51.849756],[4.812209,51.849731],[4.812114,51.849693],[4.812074,51.849678],[4.812028,51.849664],[4.811984,51.849663],[4.81193,51.849668],[4.811,51.849901],[4.810884,51.849857],[4.810876,51.849854],[4.810856,51.849847],[4.810849,51.849844],[4.810846,51.849843],[4.810834,51.849838],[4.810831,51.849837],[4.81082,51.849833],[4.81046,51.849695],[4.810628,51.849391],[4.810683,51.849292],[4.810705,51.849252],[4.810503,51.849177],[4.810397,51.849138],[4.810171,51.849047],[4.81009,51.849022],[4.809936,51.848974],[4.809792,51.848921],[4.809769,51.848913],[4.809465,51.8488],[4.809112,51.848669],[4.808609,51.848462],[4.808454,51.848406],[4.80822,51.848331],[4.807396,51.84801],[4.807294,51.847981],[4.807245,51.847961],[4.806877,51.847816],[4.806701,51.84773],[4.806641,51.847698],[4.806379,51.847591],[4.80628,51.847547],[4.80625,51.847533],[4.805846,51.847382],[4.805782,51.847358],[4.805381,51.847209],[4.805247,51.84715],[4.805152,51.847083],[4.80402,51.846583],[4.803786,51.84648],[4.803469,51.846375],[4.803379,51.846353]]]},"properties":{"type":"boundary","gemeente":"Hardinxveld-Giessendam"}}]}