{"type":"FeatureCollection","metadata":{"gemeente":"Heemstede","slug":"heemstede","generated_at":"2026-09-28T08:21:07.868722Z","total_points":19,"providers":["DHL","DPD","PostNL","VintedGo","ViaTim","FedEx","Budbee"],"bounds":[4.59231,52.3306013826168,4.629178891500043,52.35987]},"features":[{"type":"Feature","geometry":{"type":"Point","coordinates":[4.6207991,52.3555274]},"properties":{"type":"pakketpunt","locatieNaam":"Intertoys Heemstede","straatNaam":"Binnenweg","straatNr":"161-A","vervoerder":"DHL","puntType":"parcelShop","bezettingsgraad":50,"latitude":52.3555274,"longitude":4.6207991,"canPickup":true,"canDropoff":true,"openingstijden":{"ma":"11:00 - 18:00","di":"09:30 - 18:00","wo":"09:30 - 18:00","do":"09:30 - 18:00","vr":"09:30 - 18:00","za":"09:00 - 17:00","zo":"gesloten"}}},{"type":"Feature","geometry":{"type":"Point","coordinates":[4.6214571,52.3524281]},"properties":{"type":"pakketpunt","locatieNaam":"Shoeby Heemstede","straatNaam":"Binnenweg","straatNr":"67","vervoerder":"DHL","puntType":"parcelShop","bezettingsgraad":50,"latitude":52.3524281,"longitude":4.6214571,"canPickup":true,"canDropoff":true,"openingstijden":{"ma":"12:00 - 17:30","di":"10:00 - 17:30","wo":"10:00 - 17:30","do":"10:00 - 17:30","vr":"10:00 - 17:30","za":"10:00 - 17:00","zo":"gesloten"}}},{"type":"Feature","geometry":{"type":"Point","coordinates":[4.625763416290283,52.345245361328125]},"properties":{"type":"pakketpunt","locatieNaam":"Pakketwinkel Kabel Point","straatNaam":"Cruquiusweg","straatNr":"5","vervoerder":"DHL","puntType":"parcelShop","bezettingsgraad":50,"latitude":52.345245361328125,"longitude":4.625763416290283,"canPickup":true,"canDropoff":true,"openingstijden":{"ma":"10:00 - 18:00","di":"10:00 - 18:00","wo":"10:00 - 18:00","do":"10:00 - 18:00","vr":"10:00 - 18:00","za":"gesloten","zo":"gesloten"}}},{"type":"Feature","geometry":{"type":"Point","coordinates":[4.620384142,52.3562831]},"properties":{"type":"pakketpunt","locatieNaam":"UR453 Pakketautomaat Budbee","straatNaam":"BLEKERSVAARTWEG","straatNr":"57","vervoerder":"DPD","puntType":"dpd_box","bezettingsgraad":50,"latitude":52.3562831,"longitude":4.620384142,"canPickup":true,"canDropoff":false,"openingstijden":{"ma":"08:00 - 22:00","di":"08:00 - 22:00","wo":"08:00 - 22:00","do":"08:00 - 22:00","vr":"08:00 - 22:00","za":"08:00 - 22:00","zo":"09:00 - 20:00"}}},{"type":"Feature","geometry":{"type":"Point","coordinates":[4.604447,52.35987]},"properties":{"type":"pakketpunt","locatieNaam":"UR738 Pakketautomaat Budbee","straatNaam":"ZANDVOORTSELAAN","straatNr":"169","vervoerder":"DPD","puntType":"dpd_box","bezettingsgraad":50,"latitude":52.35987,"longitude":4.604447,"canPickup":true,"canDropoff":false,"openingstijden":{"ma":"08:00 - 22:00","di":"08:00 - 22:00","wo":"08:00 - 22:00","do":"08:00 - 22:00","vr":"08:00 - 22:00","za":"08:00 - 22:00","zo":"10:00 - 20:00"}}},{"type":"Feature","geometry":{"type":"Point","coordinates":[4.59231,52.33086]},"properties":{"type":"pakketpunt","locatieNaam":"Pakketautomaat Fijn Timmerwerk","straatNaam":"LEIDSEVAARTWEG","straatNr":"5","vervoerder":"DPD","puntType":"dpd_box","bezettingsgraad":50,"latitude":52.33086,"longitude":4.59231,"canPickup":true,"canDropoff":true,"openingstijden":{"ma":"00:01 - 23:59","di":"00:01 - 23:59","wo":"00:01 - 23:59","do":"00:01 - 23:59","vr":"00:01 - 23:59","za":"00:01 - 23:59","zo":"00:01 - 23:59"}}},{"type":"Feature","geometry":{"type":"Point","coordinates":[4.60903,52.35183]},"properties":{"type":"pakketpunt","locatieNaam":"Pakketautomaat SPAR Adema","straatNaam":"TE WINKELHOF","straatNr":"25","vervoerder":"DPD","puntType":"dpd_box","bezettingsgraad":50,"latitude":52.35183,"longitude":4.60903,"canPickup":true,"canDropoff":true,"openingstijden":{"ma":"08:00 - 19:00","di":"08:00 - 19:00","wo":"08:00 - 19:00","do":"08:00 - 19:00","vr":"08:00 - 19:00","za":"08:00 - 17:00","zo":"gesloten"}}},{"type":"Feature","geometry":{"type":"Point","coordinates":[4.620824519,52.348245]},"properties":{"type":"pakketpunt","locatieNaam":"Primera de Pijp","straatNaam":"Raadhuisstraat","straatNr":"30","vervoerder":"PostNL","puntType":"servicepunt","bezettingsgraad":50,"latitude":52.348245,"longitude":4.620824519,"canPickup":true,"canDropoff":true,"openingstijden":"08:30 - 18:00 (Na 18:00 open; Zaterdag open)"}},{"type":"Feature","geometry":{"type":"Point","coordinates":[4.628780896,52.34385621]},"properties":{"type":"pakketpunt","locatieNaam":"Pakket- en briefautomaat","straatNaam":"Cruquiusweg","straatNr":"31PBA","vervoerder":"PostNL","puntType":"automaat","bezettingsgraad":50,"latitude":52.34385621,"longitude":4.628780896,"canPickup":true,"canDropoff":true,"openingstijden":"00:00 - 23:59"}},{"type":"Feature","geometry":{"type":"Point","coordinates":[4.621775565,52.35181937]},"properties":{"type":"pakketpunt","locatieNaam":"B & B Print en Office","straatNaam":"Binnenweg","straatNr":"68","vervoerder":"PostNL","puntType":"servicepunt","bezettingsgraad":50,"latitude":52.35181937,"longitude":4.621775565,"canPickup":true,"canDropoff":true,"openingstijden":"09:00 - 18:00 (Na 18:00 open; Zaterdag open)"}},{"type":"Feature","geometry":{"type":"Point","coordinates":[4.607985775,52.35223271]},"properties":{"type":"pakketpunt","locatieNaam":"Spar Adema","straatNaam":"Te Winkelhof","straatNr":"25","vervoerder":"PostNL","puntType":"servicepunt","bezettingsgraad":50,"latitude":52.35223271,"longitude":4.607985775,"canPickup":true,"canDropoff":true,"openingstijden":"09:00 - 19:00"}},{"type":"Feature","geometry":{"type":"Point","coordinates":[4.61113818618434,52.3306013826168]},"properties":{"type":"pakketpunt","locatieNaam":"Pakket- en briefautomaat","straatNaam":"Glipper Dreef","straatNr":"105PBA","vervoerder":"PostNL","puntType":"automaat","bezettingsgraad":50,"latitude":52.3306013826168,"longitude":4.61113818618434,"canPickup":true,"canDropoff":true,"openingstijden":"00:00 - 23:59"}},{"type":"Feature","geometry":{"type":"Point","coordinates":[4.6210174,52.3536949]},"properties":{"type":"pakketpunt","locatieNaam":"Doe Het Zelf Heemstede","straatNaam":"Binnenweg 95","straatNr":"","vervoerder":"VintedGo","puntType":"parcel_shop","bezettingsgraad":50,"latitude":52.3536949,"longitude":4.6210174,"canPickup":true,"canDropoff":true,"openingstijden":null}},{"type":"Feature","geometry":{"type":"Point","coordinates":[4.6080288,52.3521544]},"properties":{"type":"pakketpunt","locatieNaam":"Spar Heemstede","straatNaam":"Te Winkelhof 25","straatNr":"","vervoerder":"VintedGo","puntType":"locker","bezettingsgraad":50,"latitude":52.3521544,"longitude":4.6080288,"canPickup":true,"canDropoff":true,"openingstijden":null}},{"type":"Feature","geometry":{"type":"Point","coordinates":[4.59284368,52.33234723]},"properties":{"type":"pakketpunt","locatieNaam":"ViaTim en Sip & Go","straatNaam":"Leidsevaartweg","straatNr":"17a","vervoerder":"ViaTim","puntType":"servicepunt","bezettingsgraad":50,"latitude":52.33234723,"longitude":4.59284368,"canPickup":true,"canDropoff":true,"openingstijden":{"ma":"gesloten","di":"gesloten","wo":"11:00 - 19:00","do":"11:00 - 19:00","vr":"11:00 - 19:00","za":"11:00 - 19:00","zo":"11:00 - 19:00"}}},{"type":"Feature","geometry":{"type":"Point","coordinates":[4.61114444386578,52.33067649031508]},"properties":{"type":"pakketpunt","locatieNaam":"FedEx Ship&Get","straatNaam":"Glipper Dreef 105 PBA","straatNr":"","vervoerder":"FedEx","puntType":"servicepunt","bezettingsgraad":50,"latitude":52.33067649031508,"longitude":4.61114444386578,"canPickup":true,"canDropoff":true,"openingstijden":{"ma":"00:00 - 23:59","di":"00:00 - 23:59","wo":"00:00 - 23:59","do":"00:00 - 23:59","vr":"00:00 - 23:59","za":"00:00 - 23:59","zo":"00:00 - 23:59"}}},{"type":"Feature","geometry":{"type":"Point","coordinates":[4.629178891500043,52.3441216679984]},"properties":{"type":"pakketpunt","locatieNaam":"FedEx Ship&Get","straatNaam":"Cruquiusweg 31 PBA","straatNr":"","vervoerder":"FedEx","puntType":"servicepunt","bezettingsgraad":50,"latitude":52.3441216679984,"longitude":4.629178891500043,"canPickup":true,"canDropoff":true,"openingstijden":{"ma":"00:00 - 23:59","di":"00:00 - 23:59","wo":"00:00 - 23:59","do":"00:00 - 23:59","vr":"00:00 - 23:59","za":"00:00 - 23:59","zo":"00:00 - 23:59"}}},{"type":"Feature","geometry":{"type":"Point","coordinates":[4.620384142,52.3562831]},"properties":{"type":"pakketpunt","locatieNaam":"UR453 Pakketautomaat Budbee","straatNaam":"BLEKERSVAARTWEG","straatNr":"57","vervoerder":"Budbee","puntType":"automaat","bezettingsgraad":50,"latitude":52.3562831,"longitude":4.620384142,"canPickup":true,"canDropoff":true,"openingstijden":null}},{"type":"Feature","geometry":{"type":"Point","coordinates":[4.604447,52.35987]},"properties":{"type":"pakketpunt","locatieNaam":"UR738 Pakketautomaat Budbee","straatNaam":"ZANDVOORTSELAAN","straatNr":"169","vervoerder":"Budbee","puntType":"automaat","bezettingsgraad":50,"latitude":52.35987,"longitude":4.604447,"canPickup":true,"canDropoff":true,"openingstijden":null}},{"type":"Feature","geometry":{"type":"Polygon","coordinates":[[[4.590186,52.328353],[4.590207,52.328402],[4.59021,52.32841],[4.590274,52.328546],[4.590504,52.329208],[4.590804,52.33007],[4.590992,52.330593],[4.59118,52.331117],[4.591211,52.331204],[4.591212,52.331205],[4.591218,52.331219],[4.591369,52.331641],[4.591458,52.331896],[4.591648,52.332426],[4.591735,52.332668],[4.591894,52.333112],[4.592432,52.334613],[4.592897,52.335913],[4.593529,52.337673],[4.593541,52.337706],[4.594266,52.339522],[4.595253,52.341991],[4.595634,52.342865],[4.595719,52.343066],[4.595903,52.34348],[4.596399,52.344622],[4.598817,52.349783],[4.600802,52.353899],[4.600831,52.353959],[4.60086,52.35402],[4.600997,52.354304],[4.601276,52.354882],[4.601325,52.354985],[4.602154,52.356707],[4.602261,52.356697],[4.60235,52.356995],[4.60235,52.356995],[4.602301,52.357001],[4.602301,52.357001],[4.602351,52.357104],[4.602433,52.357096],[4.602525,52.357417],[4.602592,52.357405],[4.60266,52.357745],[4.602655,52.357745],[4.602658,52.357752],[4.60279,52.358031],[4.602832,52.358117],[4.602826,52.358121],[4.602801,52.358145],[4.602787,52.358182],[4.602784,52.358245],[4.602796,52.358307],[4.602826,52.358379],[4.602867,52.358439],[4.602905,52.358498],[4.60301,52.358651],[4.603056,52.358722],[4.603091,52.358795],[4.603173,52.358981],[4.603201,52.359099],[4.603252,52.359229],[4.603338,52.359457],[4.603425,52.359675],[4.60355,52.359956],[4.603591,52.360028],[4.603604,52.360062],[4.603617,52.360092],[4.603669,52.360211],[4.60381,52.360558],[4.603809,52.360561],[4.603825,52.360659],[4.603839,52.360708],[4.603871,52.3608],[4.603905,52.360854],[4.603958,52.36093],[4.604068,52.361073],[4.604103,52.361121],[4.604133,52.361156],[4.604186,52.361242],[4.604276,52.361392],[4.604372,52.361547],[4.604474,52.361713],[4.604488,52.361744],[4.60458,52.361954],[4.604613,52.362029],[4.60465,52.362208],[4.604693,52.362337],[4.604732,52.362429],[4.604763,52.362477],[4.60482,52.362566],[4.604888,52.362649],[4.604964,52.362713],[4.605076,52.362763],[4.605185,52.362811],[4.605219,52.362828],[4.605657,52.363229],[4.6057,52.363273],[4.605707,52.363295],[4.605716,52.363338],[4.605724,52.363405],[4.60601,52.363353],[4.606128,52.363328],[4.606214,52.363315],[4.606488,52.363268],[4.606728,52.363233],[4.606823,52.363215],[4.606898,52.363199],[4.606946,52.363189],[4.606995,52.363175],[4.607084,52.363152],[4.607477,52.363085],[4.607841,52.363026],[4.608162,52.362964],[4.608193,52.362959],[4.608306,52.363005],[4.608739,52.362931],[4.608854,52.362896],[4.609377,52.362815],[4.60942,52.36281],[4.609465,52.362806],[4.60955,52.362797],[4.609635,52.362792],[4.609717,52.362791],[4.609809,52.362793],[4.609904,52.362798],[4.610179,52.362823],[4.610373,52.362781],[4.610499,52.362752],[4.610879,52.36264],[4.610883,52.362639],[4.611052,52.362603],[4.611314,52.362545],[4.612351,52.362345],[4.612991,52.362212],[4.613842,52.362052],[4.613844,52.362081],[4.613861,52.362091],[4.613872,52.362096],[4.613888,52.362098],[4.614113,52.362103],[4.614151,52.3621],[4.614375,52.36208],[4.614418,52.362077],[4.614407,52.362034],[4.614394,52.362032],[4.614391,52.36202],[4.614389,52.36202],[4.614387,52.362011],[4.614378,52.361949],[4.614434,52.361938],[4.614569,52.361912],[4.614588,52.361909],[4.61499,52.361831],[4.615011,52.361826],[4.615297,52.361772],[4.615492,52.361736],[4.61574,52.361685],[4.615752,52.361711],[4.616219,52.361643],[4.61622,52.361626],[4.616593,52.361613],[4.616828,52.361609],[4.61683,52.361615],[4.61702,52.361597],[4.617667,52.361535],[4.61772,52.361531],[4.61772,52.361521],[4.617903,52.361472],[4.617953,52.361471],[4.618149,52.361468],[4.618355,52.361466],[4.61844,52.361463],[4.618937,52.361484],[4.619086,52.36157],[4.619422,52.361585],[4.619479,52.361586],[4.619869,52.361603],[4.620077,52.361617],[4.620191,52.361624],[4.620415,52.361639],[4.620493,52.361644],[4.620534,52.361647],[4.620578,52.36165],[4.620619,52.361653],[4.620772,52.361662],[4.620967,52.361677],[4.621045,52.361681],[4.621195,52.361691],[4.621303,52.361776],[4.621702,52.361964],[4.621896,52.361787],[4.621968,52.361723],[4.622101,52.361663],[4.622104,52.361665],[4.622152,52.361699],[4.622205,52.361736],[4.622243,52.361756],[4.622282,52.361776],[4.622326,52.361794],[4.622359,52.361806],[4.622391,52.361816],[4.622433,52.361824],[4.622463,52.361828],[4.622502,52.361831],[4.622568,52.361833],[4.623092,52.361824],[4.623308,52.361818],[4.62335,52.361818],[4.623408,52.361816],[4.623461,52.361812],[4.62351,52.361807],[4.623593,52.361794],[4.623804,52.361761],[4.623829,52.361759],[4.623879,52.361756],[4.623929,52.361755],[4.624011,52.36177],[4.624189,52.361805],[4.6242,52.361807],[4.624275,52.361819],[4.624414,52.361853],[4.624454,52.361867],[4.624552,52.361913],[4.624657,52.361966],[4.624809,52.36204],[4.624852,52.362057],[4.624893,52.36207],[4.624912,52.362073],[4.624951,52.36208],[4.625066,52.36209],[4.625377,52.362098],[4.625407,52.362119],[4.625408,52.362121],[4.62556,52.362129],[4.625629,52.362126],[4.625842,52.362101],[4.62591,52.362084],[4.625999,52.362043],[4.626142,52.361974],[4.626299,52.361906],[4.626356,52.361869],[4.626522,52.361784],[4.626626,52.361721],[4.626716,52.36167],[4.626759,52.361647],[4.626837,52.361608],[4.626951,52.361559],[4.627206,52.361469],[4.627422,52.361396],[4.627491,52.361363],[4.627538,52.361352],[4.627705,52.361292],[4.627911,52.361243],[4.628115,52.361193],[4.628337,52.361136],[4.628496,52.361095],[4.628621,52.361061],[4.628751,52.361031],[4.628842,52.361005],[4.628905,52.360984],[4.628962,52.360966],[4.62951,52.360817],[4.629609,52.360791],[4.629821,52.360741],[4.629903,52.360724],[4.630077,52.360682],[4.630158,52.360668],[4.6303,52.360649],[4.630341,52.360647],[4.630453,52.360651],[4.630751,52.36067],[4.630963,52.360701],[4.631124,52.360725],[4.631327,52.360749],[4.631485,52.360766],[4.631901,52.360811],[4.631927,52.360811],[4.632603,52.360818],[4.633203,52.360804],[4.633388,52.3608],[4.633523,52.360814],[4.633855,52.36087],[4.633971,52.360892],[4.634047,52.360909],[4.634242,52.36095],[4.634472,52.360993],[4.634672,52.36103],[4.63467,52.361036],[4.634962,52.36109],[4.635054,52.361111],[4.63545,52.361206],[4.6355,52.361218],[4.635565,52.361234],[4.635578,52.361239],[4.635584,52.361239],[4.635682,52.361263],[4.636125,52.361369],[4.636146,52.361378],[4.63615,52.361393],[4.636156,52.361371],[4.636626,52.361484],[4.636754,52.361317],[4.636768,52.361305],[4.636851,52.361247],[4.636922,52.361192],[4.636971,52.361148],[4.63711,52.36096],[4.637182,52.360787],[4.637203,52.360731],[4.637239,52.360573],[4.637252,52.360524],[4.637377,52.360218],[4.63741,52.360147],[4.637594,52.359777],[4.637605,52.359741],[4.637634,52.359596],[4.637607,52.359504],[4.63759,52.359468],[4.637504,52.359342],[4.637413,52.359199],[4.637005,52.358611],[4.636975,52.358573],[4.6369,52.358467],[4.636781,52.358326],[4.636317,52.357934],[4.636122,52.357766],[4.635922,52.357579],[4.635744,52.357407],[4.635628,52.357282],[4.635513,52.357152],[4.635375,52.356975],[4.635355,52.356946],[4.635308,52.356886],[4.635265,52.356825],[4.635118,52.356584],[4.635058,52.356428],[4.634931,52.355909],[4.635003,52.355765],[4.635079,52.355468],[4.6351,52.355425],[4.635143,52.35532],[4.635224,52.355137],[4.635633,52.35439],[4.635782,52.354138],[4.635918,52.353936],[4.635987,52.353843],[4.636265,52.353544],[4.636388,52.353359],[4.636551,52.353222],[4.637514,52.35245],[4.637631,52.352363],[4.637868,52.352202],[4.637998,52.352124],[4.638313,52.351958],[4.638788,52.351643],[4.63905,52.351494],[4.639536,52.351157],[4.639661,52.351069],[4.639803,52.350907],[4.639868,52.350832],[4.639889,52.350803],[4.640226,52.350203],[4.640314,52.350053],[4.640386,52.349834],[4.640391,52.349784],[4.640311,52.34947],[4.640291,52.349329],[4.640285,52.349163],[4.640293,52.348979],[4.640318,52.348697],[4.640374,52.348391],[4.640393,52.348188],[4.640426,52.348002],[4.640482,52.347734],[4.640495,52.347641],[4.640498,52.347598],[4.640495,52.347484],[4.640471,52.34716],[4.64047,52.346655],[4.640474,52.346343],[4.640468,52.346278],[4.640422,52.346043],[4.640361,52.345859],[4.640305,52.345671],[4.640325,52.345563],[4.640354,52.345502],[4.640469,52.345284],[4.640528,52.345167],[4.64055,52.345115],[4.64067,52.344677],[4.640735,52.344557],[4.640896,52.344238],[4.641034,52.343986],[4.640999,52.343904],[4.640835,52.343627],[4.640746,52.343451],[4.640595,52.343021],[4.640466,52.34263],[4.64044,52.34253],[4.640428,52.34243],[4.640419,52.342194],[4.640421,52.341974],[4.640372,52.34192],[4.640056,52.341623],[4.639812,52.341375],[4.639632,52.341123],[4.639492,52.340891],[4.63942,52.340762],[4.639381,52.340629],[4.639337,52.340384],[4.6393,52.340124],[4.639282,52.339877],[4.639243,52.339667],[4.639282,52.339529],[4.639343,52.339368],[4.639406,52.339241],[4.639471,52.339142],[4.639648,52.338906],[4.638872,52.338807],[4.638829,52.338802],[4.638558,52.338767],[4.638534,52.338763],[4.638249,52.338726],[4.638167,52.338715],[4.638151,52.338713],[4.638102,52.338704],[4.638058,52.338699],[4.637932,52.338682],[4.637874,52.338674],[4.637588,52.338635],[4.637226,52.338587],[4.637005,52.338557],[4.636823,52.338532],[4.636185,52.338446],[4.635758,52.338388],[4.634804,52.338257],[4.633129,52.338023],[4.632855,52.337973],[4.632383,52.337904],[4.631934,52.337825],[4.631753,52.337793],[4.63163,52.337776],[4.631553,52.337761],[4.631488,52.337747],[4.631345,52.337718],[4.631058,52.337658],[4.630584,52.337534],[4.630312,52.337462],[4.629924,52.337358],[4.629741,52.33731],[4.62963,52.337268],[4.629071,52.337051],[4.628917,52.336993],[4.628917,52.336992],[4.628637,52.336891],[4.628192,52.336725],[4.627986,52.33665],[4.627746,52.336562],[4.627464,52.336458],[4.626906,52.336251],[4.626663,52.336163],[4.625971,52.335907],[4.625171,52.335611],[4.624553,52.335383],[4.624259,52.335277],[4.624198,52.335255],[4.62407,52.335209],[4.623966,52.335171],[4.623864,52.335135],[4.623809,52.335112],[4.62346,52.334964],[4.622756,52.334706],[4.622741,52.3347],[4.622546,52.334629],[4.622053,52.334445],[4.621349,52.334187],[4.621196,52.33413],[4.621123,52.334103],[4.620951,52.33404],[4.620611,52.333917],[4.620351,52.333818],[4.620101,52.333719],[4.619778,52.333587],[4.619613,52.333516],[4.619511,52.333471],[4.61943,52.333434],[4.619246,52.333347],[4.61919,52.33332],[4.619094,52.333275],[4.618904,52.333176],[4.618814,52.333129],[4.618739,52.333088],[4.618552,52.332986],[4.618399,52.332897],[4.618343,52.332863],[4.618281,52.332826],[4.618211,52.332784],[4.617973,52.332625],[4.617927,52.332593],[4.61788,52.332562],[4.61772,52.332451],[4.617685,52.332426],[4.617669,52.332414],[4.617619,52.332379],[4.617464,52.332256],[4.617442,52.332239],[4.617311,52.332149],[4.6173,52.332132],[4.617205,52.332057],[4.617116,52.331981],[4.616999,52.33188],[4.616982,52.331865],[4.616916,52.331804],[4.616664,52.331574],[4.616592,52.331504],[4.616588,52.331514],[4.616444,52.33134],[4.616395,52.331287],[4.6163,52.331183],[4.61555,52.330354],[4.615377,52.330164],[4.614767,52.32949],[4.614579,52.329283],[4.614007,52.328655],[4.613599,52.328201],[4.61355,52.32815],[4.613495,52.328093],[4.613404,52.327999],[4.613317,52.327904],[4.613046,52.327606],[4.612661,52.327201],[4.612565,52.32707],[4.612362,52.326763],[4.612306,52.326676],[4.612227,52.326552],[4.612144,52.326418],[4.612082,52.326306],[4.612033,52.326217],[4.611994,52.326141],[4.611952,52.326066],[4.611891,52.325938],[4.611844,52.325845],[4.611816,52.325786],[4.611698,52.325501],[4.611688,52.325481],[4.611662,52.32542],[4.611589,52.325204],[4.611567,52.325123],[4.611559,52.325093],[4.611553,52.325069],[4.611536,52.324996],[4.611476,52.32479],[4.611453,52.324683],[4.611429,52.32452],[4.611417,52.324438],[4.611388,52.324139],[4.611383,52.32406],[4.611377,52.323921],[4.611371,52.323769],[4.611367,52.323677],[4.611365,52.323525],[4.611371,52.323494],[4.611365,52.323397],[4.611365,52.323392],[4.611367,52.323251],[4.611369,52.32316],[4.611378,52.322768],[4.611382,52.322578],[4.611385,52.322472],[4.611388,52.322381],[4.611387,52.322271],[4.611385,52.322231],[4.611384,52.322205],[4.61134,52.322217],[4.611269,52.322237],[4.611151,52.322271],[4.611133,52.322277],[4.610999,52.322321],[4.610876,52.322362],[4.61012,52.322601],[4.609987,52.322607],[4.609888,52.32263],[4.60983,52.322646],[4.609748,52.322665],[4.609537,52.322723],[4.609514,52.322729],[4.609447,52.32275],[4.609187,52.322841],[4.609045,52.32288],[4.608953,52.3229],[4.608846,52.322919],[4.608666,52.322959],[4.608631,52.322976],[4.608569,52.323006],[4.608379,52.323108],[4.608281,52.323174],[4.608068,52.323319],[4.607995,52.323375],[4.60766,52.32359],[4.60762,52.323561],[4.607367,52.323376],[4.607259,52.323297],[4.606973,52.323439],[4.606765,52.32354],[4.606697,52.323571],[4.606618,52.323605],[4.606467,52.323647],[4.606448,52.323656],[4.606254,52.323753],[4.606148,52.323808],[4.606114,52.323827],[4.606066,52.323857],[4.605964,52.323913],[4.605789,52.324008],[4.605779,52.324012],[4.605773,52.324013],[4.605768,52.324012],[4.605761,52.32401],[4.605754,52.324005],[4.605701,52.324055],[4.605696,52.32406],[4.605704,52.324066],[4.605658,52.324089],[4.605595,52.324122],[4.605546,52.324149],[4.605496,52.324176],[4.605354,52.324251],[4.605098,52.324392],[4.605056,52.324417],[4.604953,52.32447],[4.60489,52.324502],[4.604748,52.324577],[4.604744,52.32458],[4.604687,52.324614],[4.604656,52.324636],[4.604625,52.32466],[4.604605,52.324676],[4.604565,52.32471],[4.604543,52.324727],[4.604501,52.324752],[4.60449,52.324759],[4.604475,52.324765],[4.604458,52.324769],[4.604421,52.324777],[4.604385,52.324784],[4.604323,52.324795],[4.604246,52.324807],[4.604176,52.324821],[4.604121,52.324828],[4.604092,52.324841],[4.603766,52.324989],[4.603757,52.324995],[4.603606,52.325101],[4.603408,52.325233],[4.603338,52.325253],[4.603276,52.325274],[4.603111,52.325332],[4.602932,52.325406],[4.602813,52.325454],[4.602673,52.325511],[4.602603,52.325538],[4.602544,52.325551],[4.602509,52.325554],[4.602478,52.325556],[4.602251,52.325655],[4.601871,52.325821],[4.60124,52.326099],[4.600163,52.326571],[4.599774,52.326742],[4.599393,52.32691],[4.599033,52.32707],[4.598557,52.327279],[4.598164,52.327451],[4.597589,52.327703],[4.597515,52.327734],[4.597437,52.327769],[4.597327,52.327816],[4.597292,52.327831],[4.597258,52.327835],[4.597247,52.327822],[4.597175,52.327842],[4.596527,52.328023],[4.59644,52.327917],[4.596408,52.327883],[4.596291,52.327748],[4.596235,52.327765],[4.596008,52.327833],[4.595899,52.327866],[4.595731,52.327917],[4.595623,52.32795],[4.595494,52.328001],[4.595453,52.328017],[4.595325,52.328068],[4.595222,52.328109],[4.595155,52.328136],[4.594842,52.328266],[4.594562,52.328381],[4.594556,52.328384],[4.59423,52.328511],[4.594023,52.328593],[4.593874,52.328646],[4.593667,52.328431],[4.593603,52.328364],[4.593517,52.328272],[4.593446,52.328224],[4.593468,52.328222],[4.593369,52.328117],[4.59336,52.328108],[4.593112,52.328173],[4.592911,52.328226],[4.592823,52.328249],[4.592711,52.328278],[4.592677,52.328286],[4.592587,52.328309],[4.592371,52.328364],[4.591779,52.328526],[4.591695,52.328402],[4.591655,52.32831],[4.591585,52.328176],[4.591285,52.328237],[4.591216,52.32825],[4.591096,52.328273],[4.591078,52.32827],[4.590804,52.32821],[4.590375,52.328304],[4.590265,52.328332],[4.590186,52.328353]]]},"properties":{"type":"boundary","gemeente":"Heemstede"}}]}