{"type":"FeatureCollection","metadata":{"gemeente":"Heerde","slug":"heerde","generated_at":"2026-09-28T08:21:13.491961Z","total_points":21,"providers":["Amazon","DHL","DPD","PostNL","VintedGo","GLS","ViaTim","FedEx","InPost"],"bounds":[6.03602,52.378204345703125,6.09151464090558,52.43202590942383]},"features":[{"type":"Feature","geometry":{"type":"Point","coordinates":[6.066320365561853,52.42457199768762]},"properties":{"type":"pakketpunt","locatieNaam":"DHL - Pakketautomaat Hubo Wapenveld","straatNaam":"Flessenbergerweg 1","straatNr":"","vervoerder":"Amazon","puntType":"3p","bezettingsgraad":50,"latitude":52.42457199768762,"longitude":6.066320365561853,"canPickup":true,"canDropoff":false,"openingstijden":null}},{"type":"Feature","geometry":{"type":"Point","coordinates":[6.073646605,52.43177217]},"properties":{"type":"pakketpunt","locatieNaam":"Primera Wapenveld","straatNaam":"Klapperdijk 28 B","straatNr":"","vervoerder":"Amazon","puntType":"3p","bezettingsgraad":50,"latitude":52.43177217,"longitude":6.073646605,"canPickup":true,"canDropoff":false,"openingstijden":null}},{"type":"Feature","geometry":{"type":"Point","coordinates":[6.03618,52.38684]},"properties":{"type":"pakketpunt","locatieNaam":"Total Heerde","straatNaam":"Hagestraat","straatNr":"8-10","vervoerder":"DHL","puntType":"parcelShop","bezettingsgraad":50,"latitude":52.38684,"longitude":6.03618,"canPickup":true,"canDropoff":true,"openingstijden":{"ma":"08:30 - 19:00","di":"08:30 - 19:00","wo":"08:30 - 19:00","do":"08:30 - 19:00","vr":"08:30 - 19:30","za":"08:30 - 18:00","zo":"gesloten"}}},{"type":"Feature","geometry":{"type":"Point","coordinates":[6.090646743774414,52.378204345703125]},"properties":{"type":"pakketpunt","locatieNaam":"DHL Buurtpunt ViaTim & Anna","straatNaam":"Distelakker","straatNr":"8","vervoerder":"DHL","puntType":"parcelShop","bezettingsgraad":50,"latitude":52.378204345703125,"longitude":6.090646743774414,"canPickup":true,"canDropoff":true,"openingstijden":{"ma":"16:00 - 21:00","di":"16:00 - 21:00","wo":"16:00 - 21:00","do":"16:00 - 21:00","vr":"16:00 - 21:00","za":"gesloten","zo":"gesloten"}}},{"type":"Feature","geometry":{"type":"Point","coordinates":[6.066320365561853,52.42457199768762]},"properties":{"type":"pakketpunt","locatieNaam":"Pakketautomaat Hubo Wapenveld","straatNaam":"Flessenbergerweg","straatNr":"1","vervoerder":"DHL","puntType":"packStation","bezettingsgraad":50,"latitude":52.42457199768762,"longitude":6.066320365561853,"canPickup":true,"canDropoff":true,"openingstijden":{"ma":"00:00 - 23:59","di":"00:00 - 23:59","wo":"00:00 - 23:59","do":"00:00 - 23:59","vr":"00:00 - 23:59","za":"00:00 - 23:59","zo":"00:00 - 23:59"}}},{"type":"Feature","geometry":{"type":"Point","coordinates":[6.073017597198486,52.43202590942383]},"properties":{"type":"pakketpunt","locatieNaam":"Electro World Wapenveld","straatNaam":"Klapperdijk","straatNr":"26","vervoerder":"DHL","puntType":"parcelShop","bezettingsgraad":50,"latitude":52.43202590942383,"longitude":6.073017597198486,"canPickup":true,"canDropoff":true,"openingstijden":{"ma":"13:30 - 18:00","di":"09:30 - 12:30, 13:30 - 18:00","wo":"09:30 - 12:30, 13:30 - 20:00","do":"09:30 - 12:30, 13:30 - 18:00","vr":"09:30 - 12:30, 13:30 - 18:00","za":"09:30 - 16:00","zo":"gesloten"}}},{"type":"Feature","geometry":{"type":"Point","coordinates":[6.03602,52.38689]},"properties":{"type":"pakketpunt","locatieNaam":"Rijwielspeciaalzaak Van de Put B.V.","straatNaam":"HAGESTRAAT","straatNr":"8","vervoerder":"DPD","puntType":"pickup_point","bezettingsgraad":50,"latitude":52.38689,"longitude":6.03602,"canPickup":true,"canDropoff":true,"openingstijden":{"ma":"09:00 - 19:00","di":"09:00 - 19:00","wo":"09:00 - 19:00","do":"09:00 - 19:00","vr":"09:00 - 19:30","za":"09:00 - 18:00","zo":"gesloten"}}},{"type":"Feature","geometry":{"type":"Point","coordinates":[6.03863863888733,52.3900060898729]},"properties":{"type":"pakketpunt","locatieNaam":"Pakket- en briefautomaat","straatNaam":"Stationsstraat","straatNr":"29PBA","vervoerder":"PostNL","puntType":"automaat","bezettingsgraad":50,"latitude":52.3900060898729,"longitude":6.03863863888733,"canPickup":true,"canDropoff":true,"openingstijden":"00:00 - 23:59"}},{"type":"Feature","geometry":{"type":"Point","coordinates":[6.041431981,52.38716852]},"properties":{"type":"pakketpunt","locatieNaam":"Bruna Heerde","straatNaam":"Dorpsstraat","straatNr":"19","vervoerder":"PostNL","puntType":"servicepunt","bezettingsgraad":50,"latitude":52.38716852,"longitude":6.041431981,"canPickup":true,"canDropoff":true,"openingstijden":"09:00 - 18:00 (Na 18:00 open; Zaterdag open)"}},{"type":"Feature","geometry":{"type":"Point","coordinates":[6.04022397,52.38693252]},"properties":{"type":"pakketpunt","locatieNaam":"Primera Heerde","straatNaam":"Dorpsstraat","straatNr":"34","vervoerder":"PostNL","puntType":"servicepunt","bezettingsgraad":50,"latitude":52.38693252,"longitude":6.04022397,"canPickup":true,"canDropoff":true,"openingstijden":null}},{"type":"Feature","geometry":{"type":"Point","coordinates":[6.073646605,52.43177217]},"properties":{"type":"pakketpunt","locatieNaam":"Primera Wapenveld","straatNaam":"Klapperdijk","straatNr":"28B","vervoerder":"PostNL","puntType":"servicepunt","bezettingsgraad":50,"latitude":52.43177217,"longitude":6.073646605,"canPickup":true,"canDropoff":true,"openingstijden":"13:00 - 17:30 (Zaterdag open)"}},{"type":"Feature","geometry":{"type":"Point","coordinates":[6.0427028,52.3897417]},"properties":{"type":"pakketpunt","locatieNaam":"Kringloop Hé Een Nieuw Begin","straatNaam":"Zwolseweg 14","straatNr":"","vervoerder":"VintedGo","puntType":"parcel_shop","bezettingsgraad":50,"latitude":52.3897417,"longitude":6.0427028,"canPickup":true,"canDropoff":true,"openingstijden":null}},{"type":"Feature","geometry":{"type":"Point","coordinates":[6.055304,52.3903712]},"properties":{"type":"pakketpunt","locatieNaam":"Tuincentrum Van Essen Bv ( Per 1 Augustus)","straatNaam":"Kanaaldijk 17","straatNr":"","vervoerder":"VintedGo","puntType":"parcel_shop","bezettingsgraad":50,"latitude":52.3903712,"longitude":6.055304,"canPickup":true,"canDropoff":true,"openingstijden":null}},{"type":"Feature","geometry":{"type":"Point","coordinates":[6.03863863,52.390006]},"properties":{"type":"pakketpunt","locatieNaam":"Pakketautomaat","straatNaam":"Stationsstraat","straatNr":"29","vervoerder":"GLS","puntType":"locker","bezettingsgraad":50,"latitude":52.390006,"longitude":6.03863863,"canPickup":true,"canDropoff":true,"openingstijden":{"ma":"00:00 - 23:59","di":"00:00 - 23:59","wo":"00:00 - 23:59","do":"00:00 - 23:59","vr":"00:00 - 23:59","za":"00:00 - 23:59","zo":"00:00 - 23:59"}}},{"type":"Feature","geometry":{"type":"Point","coordinates":[6.09151464090558,52.3784797651422]},"properties":{"type":"pakketpunt","locatieNaam":"ViaTim & Anna","straatNaam":"Distelakker","straatNr":"8","vervoerder":"ViaTim","puntType":"servicepunt","bezettingsgraad":50,"latitude":52.3784797651422,"longitude":6.09151464090558,"canPickup":true,"canDropoff":true,"openingstijden":{"ma":"16:00 - 21:00","di":"16:00 - 21:00","wo":"16:00 - 21:00","do":"16:00 - 21:00","vr":"16:00 - 21:00","za":"gesloten","zo":"gesloten"}}},{"type":"Feature","geometry":{"type":"Point","coordinates":[6.04132,52.385846]},"properties":{"type":"pakketpunt","locatieNaam":"FedEx OnSite","straatNaam":"BONENBURGERLAAN 10","straatNr":"","vervoerder":"FedEx","puntType":"servicepunt","bezettingsgraad":50,"latitude":52.385846,"longitude":6.04132,"canPickup":true,"canDropoff":true,"openingstijden":{"ma":"09:00 - 18:00","di":"09:00 - 18:00","wo":"09:00 - 18:00","do":"09:00 - 18:00","vr":"09:00 - 18:00","za":"09:00 - 17:00","zo":"gesloten"}}},{"type":"Feature","geometry":{"type":"Point","coordinates":[6.036031,52.386879]},"properties":{"type":"pakketpunt","locatieNaam":"FedEx OnSite","straatNaam":"HAGESTRAAT 8-10","straatNr":"","vervoerder":"FedEx","puntType":"servicepunt","bezettingsgraad":50,"latitude":52.386879,"longitude":6.036031,"canPickup":true,"canDropoff":true,"openingstijden":{"ma":"08:30 - 19:00","di":"08:30 - 19:00","wo":"08:30 - 19:00","do":"08:30 - 19:00","vr":"08:30 - 19:30","za":"08:30 - 18:00","zo":"gesloten"}}},{"type":"Feature","geometry":{"type":"Point","coordinates":[6.038606085879712,52.38982732528418]},"properties":{"type":"pakketpunt","locatieNaam":"FedEx Ship&Get","straatNaam":"Stationsstraat 29 PBA","straatNr":"","vervoerder":"FedEx","puntType":"servicepunt","bezettingsgraad":50,"latitude":52.38982732528418,"longitude":6.038606085879712,"canPickup":true,"canDropoff":true,"openingstijden":{"ma":"00:00 - 23:59","di":"00:00 - 23:59","wo":"00:00 - 23:59","do":"00:00 - 23:59","vr":"00:00 - 23:59","za":"00:00 - 23:59","zo":"00:00 - 23:59"}}},{"type":"Feature","geometry":{"type":"Point","coordinates":[6.04132,52.38585]},"properties":{"type":"pakketpunt","locatieNaam":"PRIMA FLORA","straatNaam":"Bonenburgerlaan 10","straatNr":"","vervoerder":"InPost","puntType":"servicepunt","bezettingsgraad":50,"latitude":52.38585,"longitude":6.04132,"canPickup":true,"canDropoff":true,"openingstijden":null}},{"type":"Feature","geometry":{"type":"Point","coordinates":[6.03603,52.38688]},"properties":{"type":"pakketpunt","locatieNaam":"TOTAL EXPRESS VAN DE PUT","straatNaam":"Hagestraat 8-10","straatNr":"","vervoerder":"InPost","puntType":"servicepunt","bezettingsgraad":50,"latitude":52.38688,"longitude":6.03603,"canPickup":true,"canDropoff":true,"openingstijden":null}},{"type":"Feature","geometry":{"type":"Point","coordinates":[6.0427,52.38974]},"properties":{"type":"pakketpunt","locatieNaam":"KRINGLOOPWINKEL HÈ EEN NIEUW BEGIN","straatNaam":"Zwolseweg 14","straatNr":"","vervoerder":"InPost","puntType":"servicepunt","bezettingsgraad":50,"latitude":52.38974,"longitude":6.0427,"canPickup":true,"canDropoff":true,"openingstijden":null}},{"type":"Feature","geometry":{"type":"Polygon","coordinates":[[[5.951024,52.398437],[5.951005,52.398336],[5.952919,52.396625],[5.953012,52.396541],[5.955013,52.394752],[5.956459,52.393459],[5.957,52.392974],[5.957117,52.392897],[5.960491,52.391505],[5.962018,52.390878],[5.962483,52.390689],[5.962628,52.39063],[5.963699,52.390195],[5.963841,52.390137],[5.964562,52.389844],[5.964906,52.389704],[5.965065,52.38964],[5.9652,52.389585],[5.965329,52.389533],[5.96553,52.389451],[5.966634,52.389002],[5.966666,52.388989],[5.969056,52.38798],[5.969146,52.387942],[5.969324,52.387867],[5.971007,52.387156],[5.971836,52.386807],[5.971954,52.386757],[5.972616,52.386477],[5.972873,52.386369],[5.973136,52.386263],[5.973871,52.38596],[5.97405,52.385886],[5.974474,52.385709],[5.974647,52.385637],[5.97584,52.385138],[5.976508,52.384859],[5.976972,52.384655],[5.977211,52.384551],[5.977223,52.384546],[5.977842,52.384287],[5.978306,52.384102],[5.978743,52.383916],[5.979187,52.38373],[5.979198,52.383725],[5.979332,52.383664],[5.979414,52.383629],[5.980747,52.383069],[5.981093,52.382922],[5.981141,52.382897],[5.981825,52.382621],[5.982079,52.382515],[5.982802,52.382205],[5.98314,52.382058],[5.983153,52.382053],[5.983309,52.381992],[5.983323,52.381986],[5.984529,52.381482],[5.984585,52.381458],[5.984746,52.381393],[5.984892,52.381331],[5.985303,52.381154],[5.985741,52.380971],[5.986138,52.380805],[5.986225,52.380768],[5.986334,52.380722],[5.986564,52.38062],[5.986956,52.380449],[5.986999,52.380431],[5.987234,52.380331],[5.987468,52.380237],[5.987694,52.38014],[5.987859,52.380066],[5.988157,52.379935],[5.988187,52.379922],[5.989416,52.37941],[5.989811,52.379243],[5.991333,52.378598],[5.992391,52.378197],[5.993757,52.377745],[5.997496,52.376506],[5.997927,52.376363],[5.99819,52.376279],[5.998801,52.376083],[5.999557,52.375842],[6.000168,52.375641],[6.000864,52.37541],[6.001833,52.375087],[6.002812,52.374763],[6.003656,52.374487],[6.003897,52.374407],[6.004274,52.374282],[6.004351,52.374255],[6.005036,52.374023],[6.005686,52.373802],[6.006413,52.373561],[6.006463,52.373544],[6.007062,52.373341],[6.00783,52.373087],[6.007874,52.373074],[6.008092,52.373005],[6.008327,52.372931],[6.008337,52.372928],[6.008385,52.372912],[6.008434,52.372896],[6.008482,52.37288],[6.009175,52.372648],[6.009253,52.372623],[6.009339,52.372603],[6.009348,52.372601],[6.009442,52.372569],[6.010137,52.372332],[6.01027,52.372287],[6.01065,52.372163],[6.011012,52.372044],[6.011215,52.371977],[6.011841,52.371778],[6.012656,52.371513],[6.012843,52.371457],[6.012875,52.371448],[6.012903,52.371439],[6.013011,52.371407],[6.013027,52.371401],[6.013276,52.371301],[6.013473,52.371242],[6.013593,52.371201],[6.013815,52.371142],[6.013831,52.371139],[6.013847,52.371135],[6.013863,52.371132],[6.01388,52.371129],[6.013896,52.371126],[6.013912,52.371123],[6.013929,52.37112],[6.013946,52.371117],[6.013962,52.371115],[6.013979,52.371112],[6.013996,52.37111],[6.014012,52.371108],[6.014124,52.371098],[6.014201,52.371086],[6.014324,52.37105],[6.014381,52.371033],[6.014497,52.370992],[6.014578,52.370965],[6.01464,52.370961],[6.014644,52.370961],[6.014649,52.370961],[6.014653,52.370962],[6.014658,52.370962],[6.014663,52.370962],[6.014668,52.370961],[6.014672,52.370961],[6.014677,52.370961],[6.014682,52.37096],[6.014686,52.370959],[6.014691,52.370958],[6.014695,52.370957],[6.014699,52.370956],[6.014704,52.370955],[6.014708,52.370953],[6.014711,52.370953],[6.014714,52.370951],[6.014717,52.37095],[6.01472,52.370948],[6.014723,52.370947],[6.014725,52.370945],[6.014728,52.370944],[6.01473,52.370942],[6.014732,52.37094],[6.014734,52.370938],[6.014735,52.370936],[6.014737,52.370934],[6.014738,52.370932],[6.014739,52.37093],[6.01474,52.370928],[6.01474,52.370925],[6.014744,52.370919],[6.014949,52.370872],[6.015166,52.37082],[6.015286,52.370784],[6.015573,52.370711],[6.015828,52.370639],[6.016049,52.370575],[6.01617,52.37054],[6.016222,52.370526],[6.016279,52.37051],[6.016379,52.370465],[6.016392,52.370451],[6.016407,52.370429],[6.016418,52.37041],[6.016425,52.370387],[6.016425,52.370385],[6.016815,52.370184],[6.017153,52.370011],[6.017314,52.369938],[6.017318,52.369936],[6.017358,52.369916],[6.01734,52.369905],[6.017594,52.369861],[6.01768,52.369846],[6.018098,52.369773],[6.018877,52.369639],[6.019345,52.369561],[6.020412,52.369377],[6.0217,52.369156],[6.022874,52.368958],[6.023797,52.368797],[6.024336,52.368707],[6.025853,52.36845],[6.026438,52.368349],[6.026476,52.368338],[6.027438,52.368177],[6.027617,52.368147],[6.027769,52.36812],[6.027823,52.368111],[6.028756,52.367952],[6.028777,52.367949],[6.028859,52.367931],[6.028865,52.36793],[6.028892,52.367925],[6.02973,52.367781],[6.029751,52.367777],[6.029804,52.367768],[6.029907,52.367761],[6.030149,52.367695],[6.030455,52.367606],[6.030556,52.367576],[6.030926,52.367466],[6.031129,52.36741],[6.031377,52.367345],[6.031651,52.367283],[6.031712,52.367261],[6.031784,52.36723],[6.032316,52.367021],[6.033118,52.366707],[6.033889,52.366403],[6.034155,52.3663],[6.034232,52.36627],[6.034385,52.36621],[6.034401,52.366203],[6.034459,52.366183],[6.034534,52.366156],[6.034555,52.366149],[6.034593,52.366137],[6.034666,52.366112],[6.034159,52.365229],[6.033863,52.364747],[6.033953,52.364682],[6.033989,52.364657],[6.03426,52.364459],[6.034268,52.364454],[6.034286,52.364441],[6.034402,52.364359],[6.034529,52.364276],[6.034718,52.364142],[6.035048,52.363902],[6.035243,52.36377],[6.035322,52.363723],[6.035418,52.363663],[6.035425,52.36366],[6.035465,52.363631],[6.035541,52.363581],[6.03556,52.363568],[6.03558,52.363555],[6.035625,52.363525],[6.035904,52.363343],[6.036289,52.363084],[6.036443,52.36298],[6.036586,52.362882],[6.037399,52.362331],[6.037657,52.362157],[6.037751,52.362093],[6.037779,52.362072],[6.037819,52.362075],[6.037849,52.362078],[6.038081,52.362156],[6.03817,52.36218],[6.038293,52.362217],[6.038424,52.362253],[6.038718,52.362315],[6.038924,52.362377],[6.039401,52.362536],[6.039778,52.362659],[6.039843,52.362684],[6.040034,52.362767],[6.04009,52.362784],[6.040147,52.362799],[6.040337,52.362832],[6.040398,52.362841],[6.040666,52.362891],[6.040751,52.362914],[6.041079,52.363021],[6.042573,52.363452],[6.042612,52.363465],[6.042659,52.363479],[6.042654,52.363487],[6.042716,52.363504],[6.042461,52.362336],[6.042365,52.361861],[6.042344,52.361739],[6.042277,52.361349],[6.042244,52.361215],[6.042172,52.360829],[6.042165,52.360781],[6.042139,52.360589],[6.042108,52.360325],[6.042094,52.360229],[6.042073,52.360098],[6.042045,52.35994],[6.042001,52.359691],[6.041975,52.359557],[6.041937,52.35933],[6.041897,52.359106],[6.041824,52.358699],[6.041787,52.358486],[6.041765,52.358342],[6.041734,52.358057],[6.041723,52.357844],[6.041729,52.357519],[6.041749,52.357091],[6.041757,52.356924],[6.041771,52.356662],[6.041784,52.356512],[6.041852,52.356521],[6.041935,52.356534],[6.042175,52.356569],[6.042809,52.356628],[6.042939,52.356645],[6.043093,52.356668],[6.043266,52.356701],[6.043442,52.356735],[6.043561,52.356761],[6.043844,52.356845],[6.043944,52.356873],[6.04399,52.356882],[6.044179,52.35691],[6.044461,52.356941],[6.044608,52.35696],[6.044746,52.356983],[6.04493,52.357016],[6.045109,52.357053],[6.045266,52.357092],[6.045421,52.357135],[6.045641,52.357206],[6.046217,52.357418],[6.0464,52.357492],[6.046663,52.357606],[6.046968,52.35773],[6.047106,52.357768],[6.04714,52.357772],[6.047205,52.357779],[6.047306,52.357799],[6.047414,52.357822],[6.047491,52.357845],[6.047607,52.35789],[6.047663,52.357927],[6.047709,52.357964],[6.047854,52.358123],[6.047898,52.358182],[6.048027,52.358362],[6.048059,52.358407],[6.048206,52.358538],[6.048345,52.358642],[6.048618,52.358824],[6.048747,52.358902],[6.048802,52.358938],[6.048951,52.359047],[6.049225,52.35924],[6.049498,52.359428],[6.049586,52.359493],[6.04981,52.359679],[6.049822,52.359692],[6.049987,52.359837],[6.050029,52.359857],[6.050117,52.359899],[6.05017,52.359921],[6.05045,52.360011],[6.050561,52.360041],[6.050616,52.360053],[6.051043,52.360136],[6.051422,52.360212],[6.051865,52.360312],[6.051904,52.360337],[6.051954,52.360385],[6.05197,52.360431],[6.051964,52.360492],[6.051964,52.360501],[6.051968,52.360552],[6.05197,52.360558],[6.052042,52.360635],[6.052147,52.360736],[6.052176,52.36077],[6.05222,52.360827],[6.052273,52.360906],[6.052327,52.360977],[6.052409,52.361001],[6.052608,52.361007],[6.05283,52.361012],[6.05287,52.361016],[6.052997,52.361023],[6.053206,52.361027],[6.053668,52.361046],[6.054992,52.361115],[6.055422,52.361134],[6.055585,52.361137],[6.05715,52.361189],[6.057575,52.361204],[6.057898,52.361218],[6.058827,52.361245],[6.059929,52.361272],[6.060676,52.361311],[6.061017,52.361326],[6.061118,52.361334],[6.061889,52.361373],[6.062945,52.361391],[6.063662,52.361415],[6.064062,52.361438],[6.064473,52.361456],[6.064761,52.361469],[6.064789,52.361471],[6.064801,52.361471],[6.065116,52.361482],[6.06608,52.361516],[6.066648,52.361536],[6.066654,52.361536],[6.066702,52.361537],[6.067028,52.36155],[6.067418,52.361573],[6.068083,52.361609],[6.068122,52.361612],[6.068182,52.36161],[6.068246,52.361615],[6.068249,52.361638],[6.068431,52.361646],[6.068485,52.361646],[6.069355,52.361663],[6.070042,52.361678],[6.071045,52.361711],[6.072472,52.361769],[6.073494,52.361808],[6.073681,52.361801],[6.074169,52.361803],[6.074204,52.361809],[6.074469,52.361855],[6.074762,52.361906],[6.074858,52.361923],[6.074817,52.36198],[6.074653,52.362225],[6.074835,52.362267],[6.074867,52.362275],[6.074782,52.362342],[6.0747,52.362405],[6.074449,52.362763],[6.074307,52.363035],[6.074358,52.363053],[6.074376,52.363059],[6.074621,52.363146],[6.075478,52.363451],[6.07687,52.363945],[6.076977,52.363983],[6.077056,52.364012],[6.077063,52.364014],[6.077164,52.364051],[6.077845,52.364297],[6.077992,52.364355],[6.077646,52.365],[6.077516,52.365328],[6.077468,52.365524],[6.077437,52.365774],[6.077441,52.366065],[6.0775,52.366543],[6.077584,52.367069],[6.077682,52.367566],[6.077798,52.368091],[6.077869,52.368338],[6.077966,52.368568],[6.078203,52.369046],[6.078346,52.369283],[6.078506,52.369523],[6.07875,52.369806],[6.079108,52.370174],[6.07939,52.370428],[6.079701,52.370665],[6.080017,52.37088],[6.080639,52.371285],[6.080906,52.371437],[6.081202,52.371576],[6.08157,52.371733],[6.082463,52.372069],[6.082881,52.372204],[6.083725,52.372411],[6.084169,52.372493],[6.085163,52.372619],[6.086155,52.372715],[6.087205,52.372802],[6.088154,52.372901],[6.089158,52.373027],[6.090162,52.37316],[6.091134,52.373297],[6.092111,52.373449],[6.093049,52.373612],[6.094051,52.373803],[6.095046,52.374013],[6.095133,52.373841],[6.096697,52.374187],[6.098177,52.374516],[6.09963,52.374829],[6.100858,52.375097],[6.102198,52.37536],[6.103738,52.375635],[6.105263,52.375891],[6.106499,52.376102],[6.108124,52.37635],[6.109258,52.376532],[6.110492,52.376706],[6.11144,52.376865],[6.112588,52.377057],[6.113371,52.377209],[6.114249,52.377383],[6.115076,52.377564],[6.116152,52.377811],[6.117073,52.378033],[6.117494,52.37815],[6.117867,52.378269],[6.11831,52.378427],[6.119,52.378695],[6.11966,52.378973],[6.12078,52.379504],[6.120853,52.379542],[6.121328,52.379786],[6.122216,52.380206],[6.122629,52.380485],[6.122917,52.380688],[6.123522,52.3812],[6.124078,52.381712],[6.124575,52.382188],[6.124918,52.382602],[6.125281,52.38309],[6.125578,52.383596],[6.12583,52.384059],[6.126006,52.384521],[6.12614,52.385073],[6.126199,52.385505],[6.1262,52.385906],[6.126189,52.386428],[6.126133,52.386867],[6.126042,52.387346],[6.12591,52.387823],[6.12579,52.388296],[6.12555,52.389259],[6.125283,52.39042],[6.125175,52.390942],[6.125172,52.390969],[6.125119,52.391417],[6.125121,52.391912],[6.125157,52.392404],[6.125209,52.392627],[6.125327,52.392953],[6.125461,52.393235],[6.125705,52.393735],[6.125976,52.394222],[6.12613,52.39444],[6.126279,52.39464],[6.126731,52.395112],[6.127684,52.396094],[6.128107,52.396526],[6.128596,52.397015],[6.129141,52.397537],[6.129583,52.397982],[6.129777,52.398266],[6.130067,52.398771],[6.130308,52.399251],[6.130553,52.399978],[6.130551,52.399978],[6.129754,52.39992],[6.129724,52.399915],[6.127579,52.399617],[6.127167,52.399801],[6.126991,52.399882],[6.126603,52.400081],[6.126487,52.400135],[6.126429,52.400151],[6.126351,52.400172],[6.126227,52.400205],[6.126228,52.400132],[6.126143,52.400079],[6.12575,52.400104],[6.125548,52.400113],[6.125495,52.400132],[6.125434,52.400154],[6.125372,52.400177],[6.125266,52.400392],[6.125192,52.400489],[6.1251,52.400577],[6.124974,52.400698],[6.124913,52.400758],[6.1246,52.401023],[6.124482,52.401124],[6.124296,52.401319],[6.124115,52.401525],[6.124087,52.401579],[6.123872,52.40182],[6.123683,52.401916],[6.123218,52.402049],[6.122978,52.402104],[6.122336,52.402251],[6.12223,52.402255],[6.122195,52.40226],[6.122044,52.402281],[6.121876,52.402307],[6.121695,52.402344],[6.121627,52.402361],[6.121448,52.4024],[6.12127,52.402427],[6.120959,52.402478],[6.120637,52.40254],[6.120557,52.402564],[6.120463,52.40257],[6.120374,52.402567],[6.120338,52.402572],[6.120104,52.4026],[6.119975,52.402602],[6.119914,52.402538],[6.119065,52.402642],[6.118462,52.402926],[6.118454,52.402952],[6.118512,52.402988],[6.118548,52.403016],[6.118472,52.403077],[6.118343,52.403181],[6.11827,52.403236],[6.118074,52.403357],[6.117831,52.403558],[6.117781,52.403611],[6.117761,52.403656],[6.117593,52.403761],[6.117462,52.403834],[6.117281,52.403942],[6.117278,52.403944],[6.117191,52.403972],[6.117112,52.404026],[6.117088,52.404045],[6.116964,52.404147],[6.116917,52.404208],[6.116808,52.404396],[6.11672,52.404494],[6.11649,52.404649],[6.116424,52.404707],[6.116268,52.404843],[6.11617,52.404989],[6.116161,52.405026],[6.116177,52.405079],[6.116095,52.4052],[6.116048,52.405384],[6.116026,52.405452],[6.115934,52.405689],[6.115835,52.405878],[6.115748,52.406061],[6.115744,52.406098],[6.115754,52.406106],[6.115684,52.406184],[6.115563,52.406278],[6.115338,52.406529],[6.115221,52.406692],[6.115111,52.4068],[6.11494,52.406936],[6.114857,52.406985],[6.114423,52.407194],[6.114179,52.407278],[6.113713,52.407394],[6.11362,52.407421],[6.113515,52.40746],[6.113462,52.407483],[6.113413,52.40751],[6.113392,52.407525],[6.113291,52.407529],[6.112041,52.407642],[6.111328,52.407711],[6.110844,52.407755],[6.110774,52.407747],[6.1109,52.408],[6.110977,52.408181],[6.111067,52.408433],[6.111346,52.409248],[6.111399,52.409374],[6.111479,52.409547],[6.111542,52.409646],[6.111608,52.409732],[6.11173,52.409881],[6.112262,52.410503],[6.112576,52.410856],[6.112654,52.410953],[6.112689,52.411006],[6.11278,52.411124],[6.112972,52.411392],[6.113142,52.411649],[6.113254,52.411866],[6.113612,52.412509],[6.113662,52.412584],[6.113678,52.412608],[6.113721,52.412673],[6.113797,52.412813],[6.113958,52.413088],[6.114234,52.413528],[6.114297,52.413635],[6.114419,52.413805],[6.114656,52.414117],[6.114741,52.414256],[6.114752,52.414305],[6.114751,52.414364],[6.114734,52.414422],[6.114632,52.414665],[6.114614,52.414735],[6.114604,52.414806],[6.114602,52.414859],[6.114615,52.414895],[6.11461,52.414913],[6.114594,52.414987],[6.114401,52.415363],[6.11414,52.415859],[6.113956,52.416196],[6.113772,52.416542],[6.113573,52.416906],[6.113567,52.417523],[6.113564,52.417662],[6.113553,52.418782],[6.113582,52.418901],[6.1136,52.418973],[6.113698,52.419356],[6.113758,52.419545],[6.113872,52.419853],[6.113966,52.420081],[6.114111,52.420421],[6.114291,52.420745],[6.114374,52.420933],[6.114469,52.421192],[6.114527,52.421349],[6.114735,52.421808],[6.114833,52.422017],[6.114935,52.422219],[6.115089,52.42247],[6.11515,52.422553],[6.11539,52.42285],[6.115766,52.423294],[6.115841,52.423386],[6.116201,52.423872],[6.116241,52.42392],[6.116273,52.423958],[6.116304,52.423994],[6.116368,52.424076],[6.116465,52.424178],[6.116536,52.424246],[6.116667,52.424305],[6.116784,52.424354],[6.116845,52.424368],[6.117308,52.424444],[6.117737,52.425422],[6.117932,52.425857],[6.118176,52.42643],[6.118245,52.426644],[6.118237,52.42671],[6.118227,52.426787],[6.118144,52.427107],[6.118024,52.427563],[6.118023,52.427566],[6.118022,52.427569],[6.118022,52.427573],[6.118022,52.427576],[6.118022,52.427579],[6.118022,52.427583],[6.118023,52.427586],[6.118024,52.42759],[6.118024,52.427593],[6.118026,52.427596],[6.118027,52.427599],[6.118029,52.427603],[6.118031,52.427606],[6.118033,52.427609],[6.118035,52.427612],[6.118037,52.427615],[6.11804,52.427618],[6.118043,52.427621],[6.118046,52.427624],[6.118049,52.427627],[6.118052,52.427629],[6.118056,52.427632],[6.11806,52.427634],[6.118063,52.427637],[6.118068,52.427639],[6.118072,52.427641],[6.118076,52.427644],[6.11808,52.427645],[6.118085,52.427647],[6.11809,52.427649],[6.118095,52.427651],[6.1181,52.427652],[6.118105,52.427654],[6.11811,52.427655],[6.118352,52.427669],[6.118341,52.427713],[6.118254,52.428089],[6.118233,52.428225],[6.118219,52.428329],[6.118209,52.428357],[6.118169,52.428437],[6.118121,52.428516],[6.118076,52.42857],[6.11804,52.428609],[6.117998,52.428638],[6.117785,52.428765],[6.117663,52.428837],[6.11755,52.428909],[6.117306,52.429076],[6.117232,52.429126],[6.117155,52.429185],[6.117096,52.429235],[6.117063,52.429278],[6.11706,52.429283],[6.117052,52.429293],[6.116946,52.429427],[6.116724,52.429714],[6.116721,52.429716],[6.11672,52.429717],[6.116648,52.429779],[6.11662,52.42982],[6.116527,52.429964],[6.116485,52.430032],[6.116482,52.430038],[6.116385,52.430199],[6.116478,52.430404],[6.116526,52.430427],[6.116548,52.430437],[6.116596,52.430461],[6.116616,52.430477],[6.116632,52.430492],[6.116638,52.430497],[6.116726,52.430577],[6.11675,52.430598],[6.117057,52.43114],[6.117092,52.431232],[6.117441,52.431608],[6.117701,52.431895],[6.117834,52.431996],[6.118262,52.432243],[6.118426,52.432337],[6.118749,52.432524],[6.118888,52.432582],[6.119363,52.432855],[6.119471,52.432918],[6.119472,52.432918],[6.118706,52.433663],[6.118494,52.433869],[6.118251,52.4341],[6.117733,52.434554],[6.117033,52.435246],[6.116307,52.435986],[6.115495,52.436768],[6.11467,52.437559],[6.114107,52.438007],[6.113156,52.438712],[6.112539,52.439098],[6.111833,52.439517],[6.111044,52.439932],[6.110534,52.440157],[6.109909,52.440396],[6.10958,52.440531],[6.10904,52.440751],[6.108006,52.44113],[6.107263,52.441404],[6.10679,52.441616],[6.106186,52.441896],[6.105024,52.442587],[6.104374,52.443074],[6.103861,52.443531],[6.103477,52.443911],[6.103338,52.444065],[6.103083,52.44442],[6.102862,52.444738],[6.102704,52.444995],[6.102544,52.445265],[6.10241,52.445543],[6.102295,52.445772],[6.102097,52.44636],[6.101958,52.446798],[6.101935,52.446917],[6.101921,52.447054],[6.10194,52.447377],[6.101986,52.4478],[6.102069,52.448138],[6.102151,52.448379],[6.102366,52.448914],[6.102608,52.449415],[6.102769,52.44975],[6.102974,52.450255],[6.10316,52.450749],[6.103233,52.450977],[6.103301,52.451208],[6.103359,52.451425],[6.103414,52.451665],[6.103439,52.451815],[6.103559,52.453082],[6.103546,52.453964],[6.103035,52.453962],[6.102828,52.453959],[6.102761,52.453959],[6.102738,52.45396],[6.102065,52.454052],[6.101748,52.454102],[6.101717,52.454107],[6.101262,52.45418],[6.100744,52.454111],[6.100193,52.453999],[6.10006,52.453973],[6.099032,52.453537],[6.098094,52.453133],[6.097759,52.452953],[6.097114,52.452689],[6.097095,52.452681],[6.096969,52.452661],[6.095181,52.451905],[6.094924,52.4518],[6.094819,52.451942],[6.094209,52.452764],[6.093505,52.453512],[6.093362,52.453704],[6.093331,52.453791],[6.093155,52.454244],[6.092848,52.454806],[6.092558,52.454736],[6.092501,52.454722],[6.092246,52.454715],[6.092237,52.454712],[6.090905,52.454348],[6.090759,52.454304],[6.090706,52.454283],[6.09036,52.454086],[6.090308,52.454064],[6.088621,52.453694],[6.088383,52.453654],[6.08835,52.453655],[6.087946,52.453716],[6.087874,52.453716],[6.087802,52.453705],[6.086124,52.453401],[6.085627,52.45331],[6.08358,52.452937],[6.082545,52.452748],[6.08243,52.452728],[6.082155,52.452687],[6.081834,52.452628],[6.081775,52.452618],[6.08152,52.452566],[6.081281,52.452524],[6.081066,52.452481],[6.081056,52.45248],[6.080839,52.452437],[6.079125,52.452109],[6.079024,52.45209],[6.078833,52.452053],[6.078798,52.452046],[6.078386,52.451977],[6.077861,52.451893],[6.077528,52.45184],[6.077129,52.451775],[6.076876,52.451734],[6.076832,52.451727],[6.076827,52.451726],[6.076812,52.451724],[6.076433,52.451663],[6.076372,52.451656],[6.076016,52.451647],[6.07589,52.451644],[6.075884,52.451644],[6.075883,52.451644],[6.075794,52.451641],[6.075651,52.451638],[6.075291,52.451628],[6.074901,52.451617],[6.074142,52.451582],[6.073366,52.451538],[6.072592,52.451493],[6.071825,52.45145],[6.071384,52.451429],[6.071171,52.45142],[6.071153,52.451419],[6.070801,52.4514],[6.070375,52.451381],[6.068924,52.451313],[6.068682,52.451303],[6.067219,52.45126],[6.063321,52.451151],[6.063014,52.451071],[6.061257,52.450612],[6.06049,52.45041],[6.059053,52.45003],[6.057966,52.449737],[6.057905,52.44972],[6.052098,52.44816],[6.051986,52.44813],[6.051911,52.448109],[6.051827,52.448087],[6.047123,52.446825],[6.047022,52.446798],[6.044302,52.446078],[6.04413,52.446033],[6.038206,52.444497],[6.038149,52.444482],[6.038056,52.444458],[6.038035,52.444452],[6.035477,52.443778],[6.035429,52.443766],[6.03445,52.443795],[6.034265,52.4438],[6.030644,52.44389],[6.029228,52.443933],[6.028438,52.443954],[6.023856,52.444071],[6.023808,52.444073],[6.022667,52.444103],[6.022648,52.444103],[6.020946,52.444123],[6.020543,52.444134],[6.019651,52.444161],[6.019338,52.444171],[6.01808,52.444201],[6.017864,52.444206],[6.017755,52.444209],[6.015882,52.442854],[6.01472,52.442043],[6.013477,52.441122],[6.012796,52.440619],[6.01267,52.440533],[6.012432,52.440362],[6.012425,52.440357],[6.012344,52.440301],[6.012226,52.440212],[6.011222,52.43947],[6.00926,52.438025],[6.007714,52.43684],[6.006496,52.435996],[6.006487,52.43599],[6.00514,52.434973],[6.003803,52.433946],[6.002965,52.433305],[6.002422,52.432885],[6.001524,52.432197],[6.000595,52.431486],[5.999373,52.430551],[5.998093,52.42947],[5.997409,52.428886],[5.99709,52.428613],[5.996822,52.428325],[5.996722,52.428276],[5.996269,52.427868],[5.99556,52.42729],[5.994911,52.426779],[5.994024,52.42608],[5.992989,52.425244],[5.992798,52.42509],[5.992023,52.42448],[5.99179,52.424297],[5.990833,52.423556],[5.990484,52.423286],[5.990417,52.423235],[5.990189,52.423068],[5.990187,52.423067],[5.989944,52.422883],[5.989902,52.422851],[5.989895,52.422846],[5.989644,52.422662],[5.989381,52.422475],[5.989103,52.422275],[5.988787,52.422037],[5.98844,52.42178],[5.988225,52.421627],[5.988105,52.421532],[5.987888,52.421366],[5.987744,52.421257],[5.987618,52.421154],[5.987537,52.421074],[5.987482,52.421021],[5.987438,52.420969],[5.987411,52.420918],[5.987392,52.420852],[5.987388,52.420758],[5.987388,52.420653],[5.987384,52.420561],[5.98737,52.42048],[5.987335,52.420387],[5.987282,52.420296],[5.987197,52.420196],[5.987054,52.420058],[5.986845,52.419894],[5.986379,52.419533],[5.98583,52.419133],[5.985585,52.418952],[5.985241,52.418728],[5.984948,52.418517],[5.98469,52.418314],[5.984495,52.418158],[5.984246,52.417995],[5.984029,52.417859],[5.98381,52.41769],[5.983341,52.417431],[5.983196,52.417354],[5.983079,52.417279],[5.982989,52.417209],[5.982907,52.417105],[5.982669,52.416835],[5.982496,52.416659],[5.981962,52.41616],[5.981334,52.415554],[5.981125,52.415361],[5.980814,52.415109],[5.980476,52.414848],[5.979897,52.414395],[5.979818,52.414333],[5.979642,52.414194],[5.979241,52.413866],[5.979219,52.413847],[5.978739,52.413431],[5.978436,52.413168],[5.978146,52.412949],[5.97749,52.412465],[5.976861,52.411984],[5.976216,52.411502],[5.97556,52.411017],[5.974885,52.410537],[5.974173,52.410056],[5.973417,52.409573],[5.972643,52.409086],[5.971819,52.408588],[5.971341,52.408297],[5.971105,52.408149],[5.970658,52.407874],[5.970198,52.407598],[5.969747,52.407323],[5.96929,52.407051],[5.968376,52.406504],[5.96792,52.406224],[5.967553,52.406001],[5.967008,52.405718],[5.966727,52.405572],[5.966479,52.405501],[5.966334,52.405461],[5.96617,52.405412],[5.965776,52.405299],[5.965241,52.405147],[5.963901,52.404742],[5.962178,52.404228],[5.961035,52.40388],[5.959773,52.403501],[5.958444,52.403027],[5.957813,52.402862],[5.956988,52.402659],[5.956528,52.402556],[5.955743,52.40238],[5.953941,52.401869],[5.953888,52.401854],[5.953757,52.401811],[5.951861,52.400956],[5.951736,52.400551],[5.951024,52.398437]]]},"properties":{"type":"boundary","gemeente":"Heerde"}}]}