{"type":"FeatureCollection","metadata":{"gemeente":"Hoeksche Waard","slug":"hoeksche-waard","generated_at":"2026-09-28T08:22:32.908625Z","total_points":100,"providers":["Amazon","DHL","DPD","PostNL","VintedGo","ViaTim","FedEx","InPost","Budbee"],"bounds":[4.281077,51.72774,4.619073,51.828399658203125]},"features":[{"type":"Feature","geometry":{"type":"Point","coordinates":[4.339863201,51.81120271]},"properties":{"type":"pakketpunt","locatieNaam":"L!n Bloemen","straatNaam":"Kerkstraat 26","straatNr":"","vervoerder":"Amazon","puntType":"3p","bezettingsgraad":50,"latitude":51.81120271,"longitude":4.339863201,"canPickup":true,"canDropoff":false,"openingstijden":null}},{"type":"Feature","geometry":{"type":"Point","coordinates":[4.33615334962337,51.8110886398645]},"properties":{"type":"pakketpunt","locatieNaam":"Schuurman Dier en Hengelsport","straatNaam":"Voorstraat 16","straatNr":"","vervoerder":"Amazon","puntType":"3p","bezettingsgraad":50,"latitude":51.8110886398645,"longitude":4.33615334962337,"canPickup":true,"canDropoff":false,"openingstijden":null}},{"type":"Feature","geometry":{"type":"Point","coordinates":[4.421140182196691,51.8240319276947]},"properties":{"type":"pakketpunt","locatieNaam":"DHL - Pakketautomaat Jumbo HoekscheWaard","straatNaam":"Koninginneplein 17","straatNr":"","vervoerder":"Amazon","puntType":"3p","bezettingsgraad":50,"latitude":51.8240319276947,"longitude":4.421140182196691,"canPickup":true,"canDropoff":false,"openingstijden":null}},{"type":"Feature","geometry":{"type":"Point","coordinates":[4.36688738706198,51.7506480905141]},"properties":{"type":"pakketpunt","locatieNaam":"Primera Zuid-Beijerland","straatNaam":"Gravin Sabinastraat 52 b","straatNr":"","vervoerder":"Amazon","puntType":"3p","bezettingsgraad":50,"latitude":51.7506480905141,"longitude":4.36688738706198,"canPickup":true,"canDropoff":false,"openingstijden":null}},{"type":"Feature","geometry":{"type":"Point","coordinates":[4.365268,51.7555443]},"properties":{"type":"pakketpunt","locatieNaam":"Peter Fortuin Rijwielen","straatNaam":"Oranjeweg","straatNr":"62","vervoerder":"DHL","puntType":"parcelShop","bezettingsgraad":50,"latitude":51.7555443,"longitude":4.365268,"canPickup":true,"canDropoff":true,"openingstijden":{"ma":"gesloten","di":"09:00 - 17:30","wo":"09:00 - 17:30","do":"09:00 - 17:30","vr":"09:00 - 17:30","za":"09:00 - 16:00","zo":"gesloten"}}},{"type":"Feature","geometry":{"type":"Point","coordinates":[4.43488,51.73025]},"properties":{"type":"pakketpunt","locatieNaam":"Pakketautomaat PLUS Numansdorp","straatNaam":"Rehobothplein","straatNr":"1","vervoerder":"DHL","puntType":"packStation","bezettingsgraad":50,"latitude":51.73025,"longitude":4.43488,"canPickup":true,"canDropoff":true,"openingstijden":{"ma":"00:00 - 23:59","di":"00:00 - 23:59","wo":"00:00 - 23:59","do":"00:00 - 23:59","vr":"00:00 - 23:59","za":"00:00 - 23:59","zo":"00:00 - 23:59"}}},{"type":"Feature","geometry":{"type":"Point","coordinates":[4.437479,51.727771]},"properties":{"type":"pakketpunt","locatieNaam":"Dierenspeciaalzaak Animo","straatNaam":"Voorstraat","straatNr":"33","vervoerder":"DHL","puntType":"parcelShop","bezettingsgraad":50,"latitude":51.727771,"longitude":4.437479,"canPickup":true,"canDropoff":true,"openingstijden":{"ma":"13:00 - 17:30","di":"11:30 - 17:30","wo":"09:30 - 17:30","do":"11:30 - 17:30","vr":"09:30 - 17:30","za":"09:30 - 16:30","zo":"gesloten"}}},{"type":"Feature","geometry":{"type":"Point","coordinates":[4.4376541,51.7282242]},"properties":{"type":"pakketpunt","locatieNaam":"Shoeby Numansdorp","straatNaam":"Voorstraat","straatNr":"43","vervoerder":"DHL","puntType":"parcelShop","bezettingsgraad":50,"latitude":51.7282242,"longitude":4.4376541,"canPickup":true,"canDropoff":true,"openingstijden":{"ma":"12:00 - 17:30","di":"09:30 - 17:30","wo":"09:30 - 17:30","do":"09:30 - 17:30","vr":"09:30 - 21:00","za":"09:00 - 17:00","zo":"gesloten"}}},{"type":"Feature","geometry":{"type":"Point","coordinates":[4.451753060346282,51.74818761152596]},"properties":{"type":"pakketpunt","locatieNaam":"Pakketautomaat Karwei Numansdorp","straatNaam":"Voltastraat","straatNr":"1","vervoerder":"DHL","puntType":"packStation","bezettingsgraad":50,"latitude":51.74818761152596,"longitude":4.451753060346282,"canPickup":true,"canDropoff":true,"openingstijden":{"ma":"00:00 - 23:59","di":"00:00 - 23:59","wo":"00:00 - 23:59","do":"00:00 - 23:59","vr":"00:00 - 23:59","za":"00:00 - 23:59","zo":"00:00 - 23:59"}}},{"type":"Feature","geometry":{"type":"Point","coordinates":[4.4491686,51.7674342]},"properties":{"type":"pakketpunt","locatieNaam":"DHL Pakketpunt Klaaswaal","straatNaam":"Industrieweg","straatNr":"7-B","vervoerder":"DHL","puntType":"parcelShop","bezettingsgraad":50,"latitude":51.7674342,"longitude":4.4491686,"canPickup":true,"canDropoff":true,"openingstijden":{"ma":"09:00 - 19:00","di":"09:00 - 19:00","wo":"09:00 - 19:00","do":"09:00 - 19:00","vr":"09:00 - 19:00","za":"09:00 - 17:00","zo":"gesloten"}}},{"type":"Feature","geometry":{"type":"Point","coordinates":[4.28126004,51.79370418]},"properties":{"type":"pakketpunt","locatieNaam":"Pakketautomaat COOP Goudswaard","straatNaam":"Polderboom","straatNr":"3","vervoerder":"DHL","puntType":"packStation","bezettingsgraad":50,"latitude":51.79370418,"longitude":4.28126004,"canPickup":true,"canDropoff":true,"openingstijden":{"ma":"09:00 - 19:00","di":"09:00 - 19:00","wo":"09:00 - 19:00","do":"09:00 - 19:00","vr":"09:00 - 19:00","za":"09:00 - 18:00","zo":"gesloten"}}},{"type":"Feature","geometry":{"type":"Point","coordinates":[4.5524306,51.7421273]},"properties":{"type":"pakketpunt","locatieNaam":"Turbo Tweewielers","straatNaam":"Boompjesstraat","straatNr":"35","vervoerder":"DHL","puntType":"parcelShop","bezettingsgraad":50,"latitude":51.7421273,"longitude":4.5524306,"canPickup":true,"canDropoff":true,"openingstijden":{"ma":"10:00 - 12:30, 13:30 - 17:00","di":"10:00 - 12:30","wo":"10:00 - 12:30, 13:30 - 17:00","do":"10:00 - 12:30, 13:30 - 17:00","vr":"10:00 - 12:30, 13:30 - 17:00","za":"10:00 - 12:30, 13:30 - 16:00","zo":"gesloten"}}},{"type":"Feature","geometry":{"type":"Point","coordinates":[4.551365,51.792179]},"properties":{"type":"pakketpunt","locatieNaam":"Pakketautomaat Hubo Maasdam","straatNaam":"Sportlaan","straatNr":"3-Kast","vervoerder":"DHL","puntType":"packStation","bezettingsgraad":50,"latitude":51.792179,"longitude":4.551365,"canPickup":true,"canDropoff":true,"openingstijden":{"ma":"09:00 - 21:00","di":"09:00 - 21:00","wo":"09:00 - 21:00","do":"09:00 - 21:00","vr":"09:00 - 21:00","za":"09:00 - 18:00","zo":"gesloten"}}},{"type":"Feature","geometry":{"type":"Point","coordinates":[4.473358631134033,51.78651428222656]},"properties":{"type":"pakketpunt","locatieNaam":"DHL Buurtpunt ViaTim & Mendy","straatNaam":"Prins Willem Alexanderlaan","straatNr":"5","vervoerder":"DHL","puntType":"parcelShop","bezettingsgraad":50,"latitude":51.78651428222656,"longitude":4.473358631134033,"canPickup":true,"canDropoff":true,"openingstijden":{"ma":"16:00 - 20:00","di":"16:00 - 20:00","wo":"16:00 - 20:00","do":"16:00 - 20:00","vr":"16:00 - 20:00","za":"gesloten","zo":"gesloten"}}},{"type":"Feature","geometry":{"type":"Point","coordinates":[4.619073,51.77647]},"properties":{"type":"pakketpunt","locatieNaam":"Dierenspeciaalzaak Wout vd Slik","straatNaam":"Schenkeltje","straatNr":"2-A","vervoerder":"DHL","puntType":"parcelShop","bezettingsgraad":50,"latitude":51.77647,"longitude":4.619073,"canPickup":true,"canDropoff":true,"openingstijden":{"ma":"09:30 - 12:30, 13:30 - 18:00","di":"13:30 - 18:00","wo":"09:30 - 12:30, 13:30 - 18:00","do":"09:30 - 12:30, 13:30 - 18:00","vr":"09:30 - 12:30, 13:30 - 18:00","za":"09:30 - 12:30, 13:30 - 16:30","zo":"gesloten"}}},{"type":"Feature","geometry":{"type":"Point","coordinates":[4.520322155175417,51.8112757028253]},"properties":{"type":"pakketpunt","locatieNaam":"DeBuren Locker 24-7 Esso Blaaksedk","straatNaam":"Blaaksedijk Oost","straatNr":"0","vervoerder":"DHL","puntType":"packStation","bezettingsgraad":50,"latitude":51.8112757028253,"longitude":4.520322155175417,"canPickup":true,"canDropoff":true,"openingstijden":{"ma":"00:00 - 23:59","di":"00:00 - 23:59","wo":"00:00 - 23:59","do":"00:00 - 23:59","vr":"00:00 - 23:59","za":"00:00 - 23:59","zo":"00:00 - 23:59"}}},{"type":"Feature","geometry":{"type":"Point","coordinates":[4.411158084869385,51.828399658203125]},"properties":{"type":"pakketpunt","locatieNaam":"Warenhuis van Dijk","straatNaam":"Bootstraat","straatNr":"15","vervoerder":"DHL","puntType":"parcelShop","bezettingsgraad":50,"latitude":51.828399658203125,"longitude":4.411158084869385,"canPickup":true,"canDropoff":true,"openingstijden":{"ma":"13:30 - 17:30","di":"09:00 - 17:30","wo":"09:00 - 17:30","do":"09:00 - 17:30","vr":"09:00 - 17:30","za":"09:00 - 17:00","zo":"gesloten"}}},{"type":"Feature","geometry":{"type":"Point","coordinates":[4.413235,51.826525]},"properties":{"type":"pakketpunt","locatieNaam":"De Man Tabakspeciaalzaak","straatNaam":"Oostdijk","straatNr":"35","vervoerder":"DHL","puntType":"parcelShop","bezettingsgraad":50,"latitude":51.826525,"longitude":4.413235,"canPickup":true,"canDropoff":true,"openingstijden":{"ma":"gesloten","di":"09:00 - 17:30","wo":"09:00 - 17:30","do":"09:00 - 17:30","vr":"09:00 - 17:30","za":"09:00 - 17:00","zo":"gesloten"}}},{"type":"Feature","geometry":{"type":"Point","coordinates":[4.4135183,51.8258711]},"properties":{"type":"pakketpunt","locatieNaam":"Shoeby Oud-Beijerland","straatNaam":"Veilingpassage","straatNr":"16","vervoerder":"DHL","puntType":"parcelShop","bezettingsgraad":50,"latitude":51.8258711,"longitude":4.4135183,"canPickup":true,"canDropoff":true,"openingstijden":{"ma":"10:00 - 17:30","di":"09:30 - 17:30","wo":"09:30 - 17:30","do":"09:30 - 17:30","vr":"09:30 - 20:00","za":"10:00 - 17:00","zo":"gesloten"}}},{"type":"Feature","geometry":{"type":"Point","coordinates":[4.4135201,51.8257857]},"properties":{"type":"pakketpunt","locatieNaam":"Intertoys Oud-Beijerland","straatNaam":"Veilingpassage","straatNr":"20","vervoerder":"DHL","puntType":"parcelShop","bezettingsgraad":50,"latitude":51.8257857,"longitude":4.4135201,"canPickup":true,"canDropoff":true,"openingstijden":{"ma":"12:00 - 17:30","di":"09:30 - 17:30","wo":"09:30 - 17:30","do":"09:30 - 17:30","vr":"09:30 - 20:00","za":"09:00 - 17:00","zo":"gesloten"}}},{"type":"Feature","geometry":{"type":"Point","coordinates":[4.421140182196691,51.8240319276947]},"properties":{"type":"pakketpunt","locatieNaam":"Pakketautomaat Jumbo HoekscheWaard","straatNaam":"Koninginneplein","straatNr":"17","vervoerder":"DHL","puntType":"packStation","bezettingsgraad":50,"latitude":51.8240319276947,"longitude":4.421140182196691,"canPickup":true,"canDropoff":true,"openingstijden":{"ma":"00:00 - 23:59","di":"00:00 - 23:59","wo":"00:00 - 23:59","do":"00:00 - 23:59","vr":"00:00 - 23:59","za":"00:00 - 23:59","zo":"00:00 - 23:59"}}},{"type":"Feature","geometry":{"type":"Point","coordinates":[4.437687405948631,51.82568291679306]},"properties":{"type":"pakketpunt","locatieNaam":"Pakketautomaat GAMMA Oud-Beijerl.","straatNaam":"W. Beukelszstraat","straatNr":"2","vervoerder":"DHL","puntType":"packStation","bezettingsgraad":50,"latitude":51.82568291679306,"longitude":4.437687405948631,"canPickup":true,"canDropoff":true,"openingstijden":{"ma":"00:00 - 23:59","di":"00:00 - 23:59","wo":"00:00 - 23:59","do":"00:00 - 23:59","vr":"00:00 - 23:59","za":"00:00 - 23:59","zo":"00:00 - 23:59"}}},{"type":"Feature","geometry":{"type":"Point","coordinates":[4.434451,51.810676]},"properties":{"type":"pakketpunt","locatieNaam":"Pakketautomaat Lidl Oud-Beijerland","straatNaam":"Polderlaan","straatNr":"6","vervoerder":"DHL","puntType":"packStation","bezettingsgraad":50,"latitude":51.810676,"longitude":4.434451,"canPickup":true,"canDropoff":true,"openingstijden":{"ma":"00:00 - 23:59","di":"00:00 - 23:59","wo":"00:00 - 23:59","do":"00:00 - 23:59","vr":"00:00 - 23:59","za":"00:00 - 23:59","zo":"00:00 - 23:59"}}},{"type":"Feature","geometry":{"type":"Point","coordinates":[4.521383762359619,51.81485366821289]},"properties":{"type":"pakketpunt","locatieNaam":"Pakketautomaat terStal Heinenoord","straatNaam":"Boonsweg","straatNr":"26-Kast","vervoerder":"DHL","puntType":"packStation","bezettingsgraad":50,"latitude":51.81485366821289,"longitude":4.521383762359619,"canPickup":true,"canDropoff":true,"openingstijden":{"ma":"09:00 - 17:30","di":"09:00 - 17:30","wo":"09:00 - 17:30","do":"09:00 - 17:30","vr":"09:00 - 17:30","za":"09:00 - 17:00","zo":"gesloten"}}},{"type":"Feature","geometry":{"type":"Point","coordinates":[4.5523362,51.7421581]},"properties":{"type":"pakketpunt","locatieNaam":"Turbo Tweewieler","straatNaam":"BOOMPJESSTRAAT","straatNr":"35","vervoerder":"DPD","puntType":"pickup_point","bezettingsgraad":50,"latitude":51.7421581,"longitude":4.5523362,"canPickup":true,"canDropoff":true,"openingstijden":{"ma":"10:00 - 12:30, 13:30 - 18:00","di":"10:00 - 12:30","wo":"10:00 - 12:30, 13:30 - 18:00","do":"10:00 - 12:30, 13:30 - 18:00","vr":"10:00 - 12:30, 13:30 - 18:00","za":"10:00 - 12:30, 13:30 - 16:00","zo":"gesloten"}}},{"type":"Feature","geometry":{"type":"Point","coordinates":[4.6162524,51.7796476]},"properties":{"type":"pakketpunt","locatieNaam":"Wijntje  Bv","straatNaam":"SMIDSWEG","straatNr":"4","vervoerder":"DPD","puntType":"pickup_point","bezettingsgraad":50,"latitude":51.7796476,"longitude":4.6162524,"canPickup":true,"canDropoff":true,"openingstijden":{"ma":"13:00 - 17:30","di":"09:00 - 17:30","wo":"09:00 - 17:30","do":"09:00 - 17:30","vr":"09:00 - 17:30","za":"09:00 - 17:00","zo":"gesloten"}}},{"type":"Feature","geometry":{"type":"Point","coordinates":[4.5513349,51.792532]},"properties":{"type":"pakketpunt","locatieNaam":"Hubo Maasdam","straatNaam":"SPORTLAAN","straatNr":"3a","vervoerder":"DPD","puntType":"pickup_point","bezettingsgraad":50,"latitude":51.792532,"longitude":4.5513349,"canPickup":true,"canDropoff":true,"openingstijden":{"ma":"09:00 - 21:00","di":"09:00 - 21:00","wo":"09:00 - 21:00","do":"09:00 - 21:00","vr":"09:00 - 21:00","za":"09:00 - 18:00","zo":"gesloten"}}},{"type":"Feature","geometry":{"type":"Point","coordinates":[4.4773767,51.8258649]},"properties":{"type":"pakketpunt","locatieNaam":"Kappercino","straatNaam":"EMMASTRAAT","straatNr":"2D","vervoerder":"DPD","puntType":"pickup_point","bezettingsgraad":50,"latitude":51.8258649,"longitude":4.4773767,"canPickup":true,"canDropoff":true,"openingstijden":{"ma":"gesloten","di":"09:00 - 17:30","wo":"gesloten","do":"09:00 - 17:30","vr":"09:00 - 21:00","za":"09:30 - 15:00","zo":"gesloten"}}},{"type":"Feature","geometry":{"type":"Point","coordinates":[4.4735139,51.7866766]},"properties":{"type":"pakketpunt","locatieNaam":"ViaTim & Mendy","straatNaam":"PRINS WILLEM ALEXANDERLN","straatNr":"5","vervoerder":"DPD","puntType":"pickup_point","bezettingsgraad":50,"latitude":51.7866766,"longitude":4.4735139,"canPickup":true,"canDropoff":true,"openingstijden":{"ma":"16:00 - 20:00","di":"16:00 - 20:00","wo":"16:00 - 20:00","do":"16:00 - 20:00","vr":"16:00 - 20:00","za":"gesloten","zo":"gesloten"}}},{"type":"Feature","geometry":{"type":"Point","coordinates":[4.281077,51.793679]},"properties":{"type":"pakketpunt","locatieNaam":"Pakketautomaat Supermarkt Goudswaar","straatNaam":"POLDERBOOM","straatNr":"3","vervoerder":"DPD","puntType":"dpd_box","bezettingsgraad":50,"latitude":51.793679,"longitude":4.281077,"canPickup":true,"canDropoff":true,"openingstijden":{"ma":"09:00 - 19:00","di":"09:00 - 19:00","wo":"09:00 - 19:00","do":"09:00 - 19:00","vr":"09:00 - 19:00","za":"09:00 - 18:00","zo":"gesloten"}}},{"type":"Feature","geometry":{"type":"Point","coordinates":[4.43997,51.72985]},"properties":{"type":"pakketpunt","locatieNaam":"UR147 Pakketautomaat Budbee","straatNaam":"WETH. VAN DER VELDENWEG","straatNr":"8","vervoerder":"DPD","puntType":"dpd_box","bezettingsgraad":50,"latitude":51.72985,"longitude":4.43997,"canPickup":true,"canDropoff":false,"openingstijden":{"ma":"08:00 - 21:00","di":"08:00 - 21:00","wo":"08:00 - 21:00","do":"08:00 - 21:00","vr":"08:00 - 21:00","za":"08:00 - 21:00","zo":"12:00 - 17:00"}}},{"type":"Feature","geometry":{"type":"Point","coordinates":[4.4504,51.76687]},"properties":{"type":"pakketpunt","locatieNaam":"Reclameverspreiding Bouwman BV","straatNaam":"INDUSTRIEWEG","straatNr":"7 B","vervoerder":"DPD","puntType":"pickup_point","bezettingsgraad":50,"latitude":51.76687,"longitude":4.4504,"canPickup":true,"canDropoff":true,"openingstijden":{"ma":"09:00 - 19:00","di":"09:00 - 19:00","wo":"09:00 - 19:00","do":"09:00 - 19:00","vr":"09:00 - 19:00","za":"09:00 - 17:00","zo":"gesloten"}}},{"type":"Feature","geometry":{"type":"Point","coordinates":[4.519994,51.811333]},"properties":{"type":"pakketpunt","locatieNaam":"Pakketautomaat Esso Blaaksedijk Oos","straatNaam":"BLAAKSEDIJK OOST","straatNr":"5-9","vervoerder":"DPD","puntType":"dpd_box","bezettingsgraad":50,"latitude":51.811333,"longitude":4.519994,"canPickup":true,"canDropoff":true,"openingstijden":{"ma":"00:01 - 23:59","di":"00:01 - 23:59","wo":"00:01 - 23:59","do":"00:01 - 23:59","vr":"00:01 - 23:59","za":"00:01 - 23:59","zo":"00:01 - 23:59"}}},{"type":"Feature","geometry":{"type":"Point","coordinates":[4.422177225,51.75219495]},"properties":{"type":"pakketpunt","locatieNaam":"Intratuin Numansdorp","straatNaam":"Volgerlandseweg","straatNr":"1A","vervoerder":"PostNL","puntType":"servicepunt","bezettingsgraad":50,"latitude":51.75219495,"longitude":4.422177225,"canPickup":true,"canDropoff":true,"openingstijden":"09:30 - 17:30"}},{"type":"Feature","geometry":{"type":"Point","coordinates":[4.444232172,51.76965119]},"properties":{"type":"pakketpunt","locatieNaam":"Plus","straatNaam":"Voorstraat","straatNr":"34","vervoerder":"PostNL","puntType":"servicepunt","bezettingsgraad":50,"latitude":51.76965119,"longitude":4.444232172,"canPickup":true,"canDropoff":true,"openingstijden":"08:00 - 20:00 (Na 18:00 open; Zaterdag open)"}},{"type":"Feature","geometry":{"type":"Point","coordinates":[4.45136779,51.74833265]},"properties":{"type":"pakketpunt","locatieNaam":"KARWEI Numansdorp","straatNaam":"Voltastraat","straatNr":"1","vervoerder":"PostNL","puntType":"servicepunt","bezettingsgraad":50,"latitude":51.74833265,"longitude":4.45136779,"canPickup":true,"canDropoff":true,"openingstijden":"09:00 - 21:00"}},{"type":"Feature","geometry":{"type":"Point","coordinates":[4.45135349741074,51.7483235437362]},"properties":{"type":"pakketpunt","locatieNaam":"Pakket- en briefautomaat","straatNaam":"Voltastraat","straatNr":"1PBA","vervoerder":"PostNL","puntType":"automaat","bezettingsgraad":50,"latitude":51.7483235437362,"longitude":4.45135349741074,"canPickup":true,"canDropoff":true,"openingstijden":"00:00 - 23:59"}},{"type":"Feature","geometry":{"type":"Point","coordinates":[4.434883685,51.72997923]},"properties":{"type":"pakketpunt","locatieNaam":"Plus","straatNaam":"Rehobothplein","straatNr":"1","vervoerder":"PostNL","puntType":"servicepunt","bezettingsgraad":50,"latitude":51.72997923,"longitude":4.434883685,"canPickup":true,"canDropoff":true,"openingstijden":"08:00 - 20:00 (Na 18:00 open; Zaterdag open)"}},{"type":"Feature","geometry":{"type":"Point","coordinates":[4.43488368467431,51.7299792288643]},"properties":{"type":"pakketpunt","locatieNaam":"Pakket- en briefautomaat","straatNaam":"Rehobothplein","straatNr":"1PBA","vervoerder":"PostNL","puntType":"automaat","bezettingsgraad":50,"latitude":51.7299792288643,"longitude":4.43488368467431,"canPickup":true,"canDropoff":true,"openingstijden":"00:00 - 23:59"}},{"type":"Feature","geometry":{"type":"Point","coordinates":[4.36688738706198,51.7506480905141]},"properties":{"type":"pakketpunt","locatieNaam":"Primera Zuid-Beijerland","straatNaam":"Gravin Sabinastraat","straatNr":"52b","vervoerder":"PostNL","puntType":"servicepunt","bezettingsgraad":50,"latitude":51.7506480905141,"longitude":4.36688738706198,"canPickup":true,"canDropoff":true,"openingstijden":"08:00 - 20:00 (Na 18:00 open; Zaterdag open; Zondag open)"}},{"type":"Feature","geometry":{"type":"Point","coordinates":[4.480289758,51.80085736]},"properties":{"type":"pakketpunt","locatieNaam":"Shop 48","straatNaam":"Raadhuislaan","straatNr":"48","vervoerder":"PostNL","puntType":"servicepunt","bezettingsgraad":50,"latitude":51.80085736,"longitude":4.480289758,"canPickup":true,"canDropoff":true,"openingstijden":"07:00 - 18:00 (Na 18:00 open; Zaterdag open)"}},{"type":"Feature","geometry":{"type":"Point","coordinates":[4.49249199633366,51.7989375471663]},"properties":{"type":"pakketpunt","locatieNaam":"Pakketautomaat","straatNaam":"J.A. Tiggelmanstraat","straatNr":"2PBA","vervoerder":"PostNL","puntType":"automaat","bezettingsgraad":50,"latitude":51.7989375471663,"longitude":4.49249199633366,"canPickup":true,"canDropoff":true,"openingstijden":"00:05 - 23:55"}},{"type":"Feature","geometry":{"type":"Point","coordinates":[4.404504548,51.82022947]},"properties":{"type":"pakketpunt","locatieNaam":"Primera","straatNaam":"Beijersehof","straatNr":"15","vervoerder":"PostNL","puntType":"servicepunt","bezettingsgraad":50,"latitude":51.82022947,"longitude":4.404504548,"canPickup":true,"canDropoff":true,"openingstijden":"07:30 - 18:00 (Na 18:00 open; Zaterdag open)"}},{"type":"Feature","geometry":{"type":"Point","coordinates":[4.437470193,51.82522005]},"properties":{"type":"pakketpunt","locatieNaam":"Pakket- en briefautomaat","straatNaam":"Willem Beukelszstraat","straatNr":"2PBA","vervoerder":"PostNL","puntType":"automaat","bezettingsgraad":50,"latitude":51.82522005,"longitude":4.437470193,"canPickup":true,"canDropoff":true,"openingstijden":"00:00 - 23:59"}},{"type":"Feature","geometry":{"type":"Point","coordinates":[4.437460533,51.82567841]},"properties":{"type":"pakketpunt","locatieNaam":"GAMMA Oud Beijerland","straatNaam":"Willem Beukelszstraat","straatNr":"2","vervoerder":"PostNL","puntType":"servicepunt","bezettingsgraad":50,"latitude":51.82567841,"longitude":4.437460533,"canPickup":true,"canDropoff":true,"openingstijden":"09:00 - 21:00"}},{"type":"Feature","geometry":{"type":"Point","coordinates":[4.41006298338672,51.8281142217167]},"properties":{"type":"pakketpunt","locatieNaam":"Pakketautomaat","straatNaam":"Vierwiekenplein","straatNr":"46PBA","vervoerder":"PostNL","puntType":"automaat","bezettingsgraad":50,"latitude":51.8281142217167,"longitude":4.41006298338672,"canPickup":true,"canDropoff":true,"openingstijden":"07:00 - 21:00"}},{"type":"Feature","geometry":{"type":"Point","coordinates":[4.339863201,51.81120271]},"properties":{"type":"pakketpunt","locatieNaam":"L!n Bloemen","straatNaam":"Kerkstraat","straatNr":"26","vervoerder":"PostNL","puntType":"servicepunt","bezettingsgraad":50,"latitude":51.81120271,"longitude":4.339863201,"canPickup":true,"canDropoff":true,"openingstijden":null}},{"type":"Feature","geometry":{"type":"Point","coordinates":[4.34565445382857,51.8160094500817]},"properties":{"type":"pakketpunt","locatieNaam":"Pakket- en briefautomaat","straatNaam":"Buitenom","straatNr":"1PBA","vervoerder":"PostNL","puntType":"automaat","bezettingsgraad":50,"latitude":51.8160094500817,"longitude":4.34565445382857,"canPickup":true,"canDropoff":true,"openingstijden":"00:00 - 23:59"}},{"type":"Feature","geometry":{"type":"Point","coordinates":[4.476872529,51.82649409]},"properties":{"type":"pakketpunt","locatieNaam":"Spar Heinenoord","straatNaam":"Emmastraat","straatNr":"4","vervoerder":"PostNL","puntType":"servicepunt","bezettingsgraad":50,"latitude":51.82649409,"longitude":4.476872529,"canPickup":true,"canDropoff":true,"openingstijden":"08:00 - 20:00 (Na 18:00 open; Zaterdag open)"}},{"type":"Feature","geometry":{"type":"Point","coordinates":[4.33615334962337,51.8110886398645]},"properties":{"type":"pakketpunt","locatieNaam":"Schuurman Dier en Hengelsport","straatNaam":"Voorstraat","straatNr":"16","vervoerder":"PostNL","puntType":"servicepunt","bezettingsgraad":50,"latitude":51.8110886398645,"longitude":4.33615334962337,"canPickup":true,"canDropoff":true,"openingstijden":"15:00 - 18:00 (Na 18:00 open; Zaterdag open)"}},{"type":"Feature","geometry":{"type":"Point","coordinates":[4.311006135,51.7935028]},"properties":{"type":"pakketpunt","locatieNaam":"Heikoop supermarkt","straatNaam":"Kade","straatNr":"22C","vervoerder":"PostNL","puntType":"servicepunt","bezettingsgraad":50,"latitude":51.7935028,"longitude":4.311006135,"canPickup":true,"canDropoff":true,"openingstijden":"08:30 - 19:00 (Na 18:00 open; Zaterdag open)"}},{"type":"Feature","geometry":{"type":"Point","coordinates":[4.523948168,51.8180767]},"properties":{"type":"pakketpunt","locatieNaam":"Primera Blaaksedijk","straatNaam":"Boonsweg","straatNr":"26","vervoerder":"PostNL","puntType":"servicepunt","bezettingsgraad":50,"latitude":51.8180767,"longitude":4.523948168,"canPickup":true,"canDropoff":true,"openingstijden":"09:00 - 17:30"}},{"type":"Feature","geometry":{"type":"Point","coordinates":[4.552927727,51.74278025]},"properties":{"type":"pakketpunt","locatieNaam":"Puk & Poppedijn","straatNaam":"Boompjesstraat","straatNr":"10","vervoerder":"PostNL","puntType":"servicepunt","bezettingsgraad":50,"latitude":51.74278025,"longitude":4.552927727,"canPickup":true,"canDropoff":true,"openingstijden":"13:30 - 17:30 (Zaterdag open)"}},{"type":"Feature","geometry":{"type":"Point","coordinates":[4.55155670910504,51.7926225286812]},"properties":{"type":"pakketpunt","locatieNaam":"Pakketautomaat","straatNaam":"Sportlaan","straatNr":"3PBA","vervoerder":"PostNL","puntType":"automaat","bezettingsgraad":50,"latitude":51.7926225286812,"longitude":4.55155670910504,"canPickup":true,"canDropoff":true,"openingstijden":"08:00 - 18:00"}},{"type":"Feature","geometry":{"type":"Point","coordinates":[4.55884151401184,51.7542919479396]},"properties":{"type":"pakketpunt","locatieNaam":"Koek Bezorgd","straatNaam":"Edisonweg","straatNr":"19","vervoerder":"PostNL","puntType":"servicepunt","bezettingsgraad":50,"latitude":51.7542919479396,"longitude":4.55884151401184,"canPickup":true,"canDropoff":true,"openingstijden":"08:30 - 17:30 (Zaterdag open)"}},{"type":"Feature","geometry":{"type":"Point","coordinates":[4.28126870449866,51.7937206018164]},"properties":{"type":"pakketpunt","locatieNaam":"Pakketautomaat","straatNaam":"Polderboom","straatNr":"3PBA","vervoerder":"PostNL","puntType":"automaat","bezettingsgraad":50,"latitude":51.7937206018164,"longitude":4.28126870449866,"canPickup":true,"canDropoff":true,"openingstijden":"08:00 - 19:00"}},{"type":"Feature","geometry":{"type":"Point","coordinates":[4.568445131,51.80534389]},"properties":{"type":"pakketpunt","locatieNaam":"BIJ ARIE lees schrijf kadoshop","straatNaam":"Pieter Repelaerstraat","straatNr":"72","vervoerder":"PostNL","puntType":"servicepunt","bezettingsgraad":50,"latitude":51.80534389,"longitude":4.568445131,"canPickup":true,"canDropoff":true,"openingstijden":"13:00 - 17:30 (Zaterdag open)"}},{"type":"Feature","geometry":{"type":"Point","coordinates":[4.61569585341108,51.7784371791544]},"properties":{"type":"pakketpunt","locatieNaam":"Hoeksch Gemak","straatNaam":"Kerkstraat","straatNr":"41","vervoerder":"PostNL","puntType":"servicepunt","bezettingsgraad":50,"latitude":51.7784371791544,"longitude":4.61569585341108,"canPickup":true,"canDropoff":true,"openingstijden":"08:00 - 18:00 (Na 18:00 open; Zaterdag open)"}},{"type":"Feature","geometry":{"type":"Point","coordinates":[4.61712646540555,51.7786712998186]},"properties":{"type":"pakketpunt","locatieNaam":"Pakketautomaat","straatNaam":"Langestraat","straatNr":"5PBA","vervoerder":"PostNL","puntType":"automaat","bezettingsgraad":50,"latitude":51.7786712998186,"longitude":4.61712646540555,"canPickup":true,"canDropoff":true,"openingstijden":"00:00 - 23:59"}},{"type":"Feature","geometry":{"type":"Point","coordinates":[4.4735141,51.7866766]},"properties":{"type":"pakketpunt","locatieNaam":"M. Bunk-Verschoor","straatNaam":"Prins Willem Alexanderln 5","straatNr":"","vervoerder":"VintedGo","puntType":"social","bezettingsgraad":50,"latitude":51.7866766,"longitude":4.4735141,"canPickup":true,"canDropoff":true,"openingstijden":null}},{"type":"Feature","geometry":{"type":"Point","coordinates":[4.55155,51.79262]},"properties":{"type":"pakketpunt","locatieNaam":"Hubo Bouwmarkt Maasdam","straatNaam":"Sportlaan 3A","straatNr":"","vervoerder":"VintedGo","puntType":"parcel_shop","bezettingsgraad":50,"latitude":51.79262,"longitude":4.55155,"canPickup":true,"canDropoff":true,"openingstijden":null}},{"type":"Feature","geometry":{"type":"Point","coordinates":[4.44612,51.76858]},"properties":{"type":"pakketpunt","locatieNaam":"Kringloop Hoeksche Waard","straatNaam":"Voorstraat 9","straatNr":"","vervoerder":"VintedGo","puntType":"parcel_shop","bezettingsgraad":50,"latitude":51.76858,"longitude":4.44612,"canPickup":true,"canDropoff":true,"openingstijden":null}},{"type":"Feature","geometry":{"type":"Point","coordinates":[4.55027,51.74337]},"properties":{"type":"pakketpunt","locatieNaam":"Het Molenschear","straatNaam":"Boskade 2","straatNr":"","vervoerder":"VintedGo","puntType":"parcel_shop","bezettingsgraad":50,"latitude":51.74337,"longitude":4.55027,"canPickup":true,"canDropoff":true,"openingstijden":null}},{"type":"Feature","geometry":{"type":"Point","coordinates":[4.47724,51.82673]},"properties":{"type":"pakketpunt","locatieNaam":"D. Andeweg","straatNaam":"Bernhardstraat 18","straatNr":"","vervoerder":"VintedGo","puntType":"social","bezettingsgraad":50,"latitude":51.82673,"longitude":4.47724,"canPickup":true,"canDropoff":true,"openingstijden":null}},{"type":"Feature","geometry":{"type":"Point","coordinates":[4.43784,51.72929]},"properties":{"type":"pakketpunt","locatieNaam":"Schoen Enzo","straatNaam":"Burg de Zeeuwstraat 7","straatNr":"","vervoerder":"VintedGo","puntType":"parcel_shop","bezettingsgraad":50,"latitude":51.72929,"longitude":4.43784,"canPickup":true,"canDropoff":true,"openingstijden":null}},{"type":"Feature","geometry":{"type":"Point","coordinates":[4.4284855,51.823855]},"properties":{"type":"pakketpunt","locatieNaam":"Boxbee Oud Beijerland","straatNaam":"Laurens Janszn. Costerstraat 4P","straatNr":"","vervoerder":"VintedGo","puntType":"parcel_shop","bezettingsgraad":50,"latitude":51.823855,"longitude":4.4284855,"canPickup":true,"canDropoff":true,"openingstijden":null}},{"type":"Feature","geometry":{"type":"Point","coordinates":[4.2813532,51.7936702]},"properties":{"type":"pakketpunt","locatieNaam":"Coop Supermarkt Goudswaard","straatNaam":"Polderboom","straatNr":"","vervoerder":"VintedGo","puntType":"locker","bezettingsgraad":50,"latitude":51.7936702,"longitude":4.2813532,"canPickup":true,"canDropoff":true,"openingstijden":null}},{"type":"Feature","geometry":{"type":"Point","coordinates":[4.55887,51.7542627]},"properties":{"type":"pakketpunt","locatieNaam":"Koek Bezorgd","straatNaam":"Edisonweg 11","straatNr":"","vervoerder":"VintedGo","puntType":"parcel_shop","bezettingsgraad":50,"latitude":51.7542627,"longitude":4.55887,"canPickup":true,"canDropoff":true,"openingstijden":null}},{"type":"Feature","geometry":{"type":"Point","coordinates":[4.31065,51.7933]},"properties":{"type":"pakketpunt","locatieNaam":"Spar Piershil","straatNaam":"Kade 22C","straatNr":"","vervoerder":"VintedGo","puntType":"locker","bezettingsgraad":50,"latitude":51.7933,"longitude":4.31065,"canPickup":true,"canDropoff":true,"openingstijden":null}},{"type":"Feature","geometry":{"type":"Point","coordinates":[4.5693382,51.8065266]},"properties":{"type":"pakketpunt","locatieNaam":"Shoeby - Puttershoek","straatNaam":"oranjeplein 23","straatNr":"","vervoerder":"VintedGo","puntType":"parcel_shop","bezettingsgraad":50,"latitude":51.8065266,"longitude":4.5693382,"canPickup":true,"canDropoff":true,"openingstijden":null}},{"type":"Feature","geometry":{"type":"Point","coordinates":[4.4923263,51.7977756]},"properties":{"type":"pakketpunt","locatieNaam":"Cafe Bar La Chiva","straatNaam":"Wilhelminastraat 15-B","straatNr":"","vervoerder":"VintedGo","puntType":"locker","bezettingsgraad":50,"latitude":51.7977756,"longitude":4.4923263,"canPickup":true,"canDropoff":true,"openingstijden":null}},{"type":"Feature","geometry":{"type":"Point","coordinates":[4.5528911,51.7427754]},"properties":{"type":"pakketpunt","locatieNaam":"Puk & Poppedijn","straatNaam":"Boompjesstraat 10","straatNr":"","vervoerder":"VintedGo","puntType":"locker","bezettingsgraad":50,"latitude":51.7427754,"longitude":4.5528911,"canPickup":true,"canDropoff":true,"openingstijden":null}},{"type":"Feature","geometry":{"type":"Point","coordinates":[4.4492148,51.7673347]},"properties":{"type":"pakketpunt","locatieNaam":"Pakketwinkel Bouwman","straatNaam":"Industrieweg 7B","straatNr":"","vervoerder":"VintedGo","puntType":"parcel_shop","bezettingsgraad":50,"latitude":51.7673347,"longitude":4.4492148,"canPickup":true,"canDropoff":true,"openingstijden":null}},{"type":"Feature","geometry":{"type":"Point","coordinates":[4.4300096,51.8154433]},"properties":{"type":"pakketpunt","locatieNaam":"Sociale Wijkwinkel Werksaam","straatNaam":"Ravelstraat 5","straatNr":"","vervoerder":"VintedGo","puntType":"parcel_shop","bezettingsgraad":50,"latitude":51.8154433,"longitude":4.4300096,"canPickup":true,"canDropoff":true,"openingstijden":null}},{"type":"Feature","geometry":{"type":"Point","coordinates":[4.44372194,51.73710488]},"properties":{"type":"pakketpunt","locatieNaam":"ViaTim en het Femke Fonds","straatNaam":"Van Barrylaan","straatNr":"15","vervoerder":"ViaTim","puntType":"servicepunt","bezettingsgraad":50,"latitude":51.73710488,"longitude":4.44372194,"canPickup":true,"canDropoff":true,"openingstijden":{"ma":"16:00 - 20:00","di":"16:00 - 20:00","wo":"17:00 - 20:00","do":"15:00 - 20:00","vr":"17:00 - 20:00","za":"gesloten","zo":"gesloten"}}},{"type":"Feature","geometry":{"type":"Point","coordinates":[4.55298546,51.74501221]},"properties":{"type":"pakketpunt","locatieNaam":"ViaTim en Nikita","straatNaam":"Gleede","straatNr":"30","vervoerder":"ViaTim","puntType":"servicepunt","bezettingsgraad":50,"latitude":51.74501221,"longitude":4.55298546,"canPickup":true,"canDropoff":true,"openingstijden":{"ma":"10:00 - 21:00","di":"10:00 - 21:00","wo":"10:00 - 21:00","do":"10:00 - 21:00","vr":"10:00 - 21:00","za":"10:00 - 21:00","zo":"10:00 - 21:00"}}},{"type":"Feature","geometry":{"type":"Point","coordinates":[4.477242476366406,51.826732985000596]},"properties":{"type":"pakketpunt","locatieNaam":"ViaTim en Andeweg","straatNaam":"Bernhardstraat","straatNr":"18","vervoerder":"ViaTim","puntType":"servicepunt","bezettingsgraad":50,"latitude":51.826732985000596,"longitude":4.477242476366406,"canPickup":true,"canDropoff":true,"openingstijden":{"ma":"14:00 - 20:00","di":"10:00 - 20:00","wo":"12:00 - 20:00","do":"13:00 - 20:00","vr":"13:00 - 17:00","za":"13:00 - 17:00","zo":"13:00 - 17:00"}}},{"type":"Feature","geometry":{"type":"Point","coordinates":[4.47351399401464,51.7866765753555]},"properties":{"type":"pakketpunt","locatieNaam":"ViaTim & Mendy","straatNaam":"Prins Willem Alexanderlaan","straatNr":"5","vervoerder":"ViaTim","puntType":"servicepunt","bezettingsgraad":50,"latitude":51.7866765753555,"longitude":4.47351399401464,"canPickup":true,"canDropoff":true,"openingstijden":{"ma":"16:00 - 20:00","di":"16:00 - 20:00","wo":"16:00 - 20:00","do":"16:00 - 20:00","vr":"16:00 - 20:00","za":"gesloten","zo":"gesloten"}}},{"type":"Feature","geometry":{"type":"Point","coordinates":[4.437669,51.72774]},"properties":{"type":"pakketpunt","locatieNaam":"FedEx OnSite","straatNaam":"VOORSTRAAT 33","straatNr":"","vervoerder":"FedEx","puntType":"servicepunt","bezettingsgraad":50,"latitude":51.72774,"longitude":4.437669,"canPickup":true,"canDropoff":true,"openingstijden":{"ma":"13:00 - 17:30","di":"09:30 - 17:30","wo":"09:30 - 17:30","do":"09:30 - 17:30","vr":"09:30 - 17:30","za":"09:30 - 16:30","zo":"gesloten"}}},{"type":"Feature","geometry":{"type":"Point","coordinates":[4.434704484387537,51.729968672507205]},"properties":{"type":"pakketpunt","locatieNaam":"FedEx Ship&Get","straatNaam":"Rehobothplein 1 PBA","straatNr":"","vervoerder":"FedEx","puntType":"servicepunt","bezettingsgraad":50,"latitude":51.729968672507205,"longitude":4.434704484387537,"canPickup":true,"canDropoff":true,"openingstijden":{"ma":"00:00 - 23:59","di":"00:00 - 23:59","wo":"00:00 - 23:59","do":"00:00 - 23:59","vr":"00:00 - 23:59","za":"00:00 - 23:59","zo":"00:00 - 23:59"}}},{"type":"Feature","geometry":{"type":"Point","coordinates":[4.451360899313936,51.74834818463593]},"properties":{"type":"pakketpunt","locatieNaam":"FedEx Ship&Get","straatNaam":"Voltastraat 1 PBA","straatNr":"","vervoerder":"FedEx","puntType":"servicepunt","bezettingsgraad":50,"latitude":51.74834818463593,"longitude":4.451360899313936,"canPickup":true,"canDropoff":true,"openingstijden":{"ma":"00:00 - 23:59","di":"00:00 - 23:59","wo":"00:00 - 23:59","do":"00:00 - 23:59","vr":"00:00 - 23:59","za":"00:00 - 23:59","zo":"00:00 - 23:59"}}},{"type":"Feature","geometry":{"type":"Point","coordinates":[4.552389,51.74215]},"properties":{"type":"pakketpunt","locatieNaam":"FedEx OnSite","straatNaam":"BOOMPJESSTRAAT 35","straatNr":"","vervoerder":"FedEx","puntType":"servicepunt","bezettingsgraad":50,"latitude":51.74215,"longitude":4.552389,"canPickup":true,"canDropoff":true,"openingstijden":{"ma":"10:00 - 12:30, 13:30 - 18:00","di":"10:00 - 12:30","wo":"10:00 - 12:30, 13:30 - 18:00","do":"10:00 - 12:30, 13:30 - 18:00","vr":"10:00 - 12:30, 13:30 - 18:00","za":"10:00 - 12:30, 13:30 - 16:00","zo":"gesloten"}}},{"type":"Feature","geometry":{"type":"Point","coordinates":[4.445919,51.768492]},"properties":{"type":"pakketpunt","locatieNaam":"FedEx OnSite","straatNaam":"VOORSTRAAT 9","straatNr":"","vervoerder":"FedEx","puntType":"servicepunt","bezettingsgraad":50,"latitude":51.768492,"longitude":4.445919,"canPickup":true,"canDropoff":true,"openingstijden":{"ma":"gesloten","di":"08:30 - 17:00","wo":"08:30 - 17:00","do":"08:30 - 17:00","vr":"08:30 - 21:00","za":"08:30 - 16:00","zo":"gesloten"}}},{"type":"Feature","geometry":{"type":"Point","coordinates":[4.345671825463109,51.81598630737668]},"properties":{"type":"pakketpunt","locatieNaam":"FedEx Ship&Get","straatNaam":"Buitenom 1 PBA","straatNr":"","vervoerder":"FedEx","puntType":"servicepunt","bezettingsgraad":50,"latitude":51.81598630737668,"longitude":4.345671825463109,"canPickup":true,"canDropoff":true,"openingstijden":{"ma":"00:00 - 23:59","di":"00:00 - 23:59","wo":"00:00 - 23:59","do":"00:00 - 23:59","vr":"00:00 - 23:59","za":"00:00 - 23:59","zo":"00:00 - 23:59"}}},{"type":"Feature","geometry":{"type":"Point","coordinates":[4.551475,51.792391]},"properties":{"type":"pakketpunt","locatieNaam":"FedEx OnSite","straatNaam":"SPORTLAAN 3A","straatNr":"","vervoerder":"FedEx","puntType":"servicepunt","bezettingsgraad":50,"latitude":51.792391,"longitude":4.551475,"canPickup":true,"canDropoff":true,"openingstijden":{"ma":"09:00 - 21:00","di":"09:00 - 21:00","wo":"09:00 - 21:00","do":"09:00 - 21:00","vr":"09:00 - 21:00","za":"09:00 - 18:00","zo":"gesloten"}}},{"type":"Feature","geometry":{"type":"Point","coordinates":[4.617126,51.778671]},"properties":{"type":"pakketpunt","locatieNaam":"FedEx Ship&Get","straatNaam":"Langestraat 5 PBA","straatNr":"","vervoerder":"FedEx","puntType":"servicepunt","bezettingsgraad":50,"latitude":51.778671,"longitude":4.617126,"canPickup":true,"canDropoff":true,"openingstijden":{"ma":"00:00 - 23:59","di":"00:00 - 23:59","wo":"00:00 - 23:59","do":"00:00 - 23:59","vr":"00:00 - 23:59","za":"00:00 - 23:59","zo":"00:00 - 23:59"}}},{"type":"Feature","geometry":{"type":"Point","coordinates":[4.616164,51.779551]},"properties":{"type":"pakketpunt","locatieNaam":"FedEx OnSite","straatNaam":"KERKSTRAAT 4","straatNr":"","vervoerder":"FedEx","puntType":"servicepunt","bezettingsgraad":50,"latitude":51.779551,"longitude":4.616164,"canPickup":true,"canDropoff":true,"openingstijden":{"ma":"gesloten","di":"09:30 - 17:00","wo":"09:30 - 17:00","do":"09:30 - 17:00","vr":"09:30 - 17:00","za":"09:30 - 16:00","zo":"gesloten"}}},{"type":"Feature","geometry":{"type":"Point","coordinates":[4.4373491423322164,51.825661592710865]},"properties":{"type":"pakketpunt","locatieNaam":"FedEx Ship&Get","straatNaam":"Willem Beukelszstraat 2 PBA","straatNr":"","vervoerder":"FedEx","puntType":"servicepunt","bezettingsgraad":50,"latitude":51.825661592710865,"longitude":4.4373491423322164,"canPickup":true,"canDropoff":true,"openingstijden":{"ma":"00:00 - 23:59","di":"00:00 - 23:59","wo":"00:00 - 23:59","do":"00:00 - 23:59","vr":"00:00 - 23:59","za":"00:00 - 23:59","zo":"gesloten"}}},{"type":"Feature","geometry":{"type":"Point","coordinates":[4.409881537264373,51.828167796570874]},"properties":{"type":"pakketpunt","locatieNaam":"FedEx Ship&Get","straatNaam":"Vierwiekenplein 46 PBA","straatNr":"","vervoerder":"FedEx","puntType":"servicepunt","bezettingsgraad":50,"latitude":51.828167796570874,"longitude":4.409881537264373,"canPickup":true,"canDropoff":true,"openingstijden":{"ma":"07:00 - 21:00","di":"07:00 - 21:00","wo":"07:00 - 21:00","do":"07:00 - 21:00","vr":"07:00 - 21:00","za":"07:00 - 21:00","zo":"gesloten"}}},{"type":"Feature","geometry":{"type":"Point","coordinates":[4.43767,51.72774]},"properties":{"type":"pakketpunt","locatieNaam":"ANIMO VOF","straatNaam":"Voorstraat 33","straatNr":"","vervoerder":"InPost","puntType":"servicepunt","bezettingsgraad":50,"latitude":51.72774,"longitude":4.43767,"canPickup":true,"canDropoff":true,"openingstijden":null}},{"type":"Feature","geometry":{"type":"Point","coordinates":[4.61616,51.77955]},"properties":{"type":"pakketpunt","locatieNaam":"JACKY MODE","straatNaam":"Kerkstraat 4","straatNr":"","vervoerder":"InPost","puntType":"servicepunt","bezettingsgraad":50,"latitude":51.77955,"longitude":4.61616,"canPickup":true,"canDropoff":true,"openingstijden":null}},{"type":"Feature","geometry":{"type":"Point","coordinates":[4.55239,51.74215]},"properties":{"type":"pakketpunt","locatieNaam":"TURBO TWEEWIELERS","straatNaam":"Boompjesstraat 35","straatNr":"","vervoerder":"InPost","puntType":"servicepunt","bezettingsgraad":50,"latitude":51.74215,"longitude":4.55239,"canPickup":true,"canDropoff":true,"openingstijden":null}},{"type":"Feature","geometry":{"type":"Point","coordinates":[4.44592,51.76849]},"properties":{"type":"pakketpunt","locatieNaam":"KRINGLOOP HOEKSCHE WAARD","straatNaam":"Voorstraat 9","straatNr":"","vervoerder":"InPost","puntType":"servicepunt","bezettingsgraad":50,"latitude":51.76849,"longitude":4.44592,"canPickup":true,"canDropoff":true,"openingstijden":null}},{"type":"Feature","geometry":{"type":"Point","coordinates":[4.55147,51.79239]},"properties":{"type":"pakketpunt","locatieNaam":"HUBO BOUWMARKT MAASDAM","straatNaam":"Sportlaan 3A","straatNr":"","vervoerder":"InPost","puntType":"servicepunt","bezettingsgraad":50,"latitude":51.79239,"longitude":4.55147,"canPickup":true,"canDropoff":true,"openingstijden":null}},{"type":"Feature","geometry":{"type":"Point","coordinates":[4.56249,51.80064]},"properties":{"type":"pakketpunt","locatieNaam":"SHELL PUTTERSHOEK","straatNaam":"Sportlaan 5","straatNr":"","vervoerder":"InPost","puntType":"servicepunt","bezettingsgraad":50,"latitude":51.80064,"longitude":4.56249,"canPickup":true,"canDropoff":true,"openingstijden":null}},{"type":"Feature","geometry":{"type":"Point","coordinates":[4.28114,51.79365]},"properties":{"type":"pakketpunt","locatieNaam":"In the room streight from the\r\nentrance","straatNaam":"Polderboom","straatNr":"3","vervoerder":"InPost","puntType":"automaat","bezettingsgraad":50,"latitude":51.79365,"longitude":4.28114,"canPickup":true,"canDropoff":true,"openingstijden":"MON|08:00-19:00|-;TUE|08:00-19:00|-;WED|08:00-19:00|-;THU|08:00-19:00|-;FRI|08:00-19:00|-;SAT|08:00-19:00|-;SUN|08:00-19:00|-;"}},{"type":"Feature","geometry":{"type":"Point","coordinates":[4.52405,51.81268]},"properties":{"type":"pakketpunt","locatieNaam":"","straatNaam":"Nijverheidsweg","straatNr":"33","vervoerder":"InPost","puntType":"automaat","bezettingsgraad":50,"latitude":51.81268,"longitude":4.52405,"canPickup":true,"canDropoff":true,"openingstijden":"24/7"}},{"type":"Feature","geometry":{"type":"Point","coordinates":[4.5588,51.75438]},"properties":{"type":"pakketpunt","locatieNaam":"JPJ BAKERY BV","straatNaam":"Edisonweg 11","straatNr":"","vervoerder":"InPost","puntType":"servicepunt","bezettingsgraad":50,"latitude":51.75438,"longitude":4.5588,"canPickup":true,"canDropoff":true,"openingstijden":null}},{"type":"Feature","geometry":{"type":"Point","coordinates":[4.43997,51.72985]},"properties":{"type":"pakketpunt","locatieNaam":"UR147 Pakketautomaat Budbee","straatNaam":"WETH. VAN DER VELDENWEG","straatNr":"8","vervoerder":"Budbee","puntType":"automaat","bezettingsgraad":50,"latitude":51.72985,"longitude":4.43997,"canPickup":true,"canDropoff":true,"openingstijden":null}},{"type":"Feature","geometry":{"type":"Point","coordinates":[4.2811234,51.7936409]},"properties":{"type":"pakketpunt","locatieNaam":"Budbee","straatNaam":"","straatNr":"","vervoerder":"Budbee","puntType":"automaat","bezettingsgraad":50,"latitude":51.7936409,"longitude":4.2811234,"canPickup":true,"canDropoff":true,"openingstijden":null}},{"type":"Feature","geometry":{"type":"Polygon","coordinates":[[[4.213247,51.785267],[4.213266,51.785255],[4.218244,51.781972],[4.219847,51.780848],[4.220643,51.780291],[4.222124,51.77921],[4.223596,51.778063],[4.225109,51.776807],[4.226563,51.775466],[4.228054,51.774022],[4.229533,51.772524],[4.230114,51.771961],[4.23028,51.7718],[4.231025,51.77118],[4.231429,51.770941],[4.231767,51.770735],[4.232494,51.770351],[4.233221,51.769979],[4.23396,51.769565],[4.234004,51.769539],[4.234583,51.769193],[4.234889,51.76901],[4.235434,51.768658],[4.236175,51.768121],[4.236908,51.767556],[4.238387,51.766312],[4.23987,51.765113],[4.241343,51.76396],[4.242526,51.763094],[4.242821,51.762878],[4.243467,51.762437],[4.244095,51.762002],[4.245768,51.760831],[4.247243,51.759666],[4.248724,51.758461],[4.249442,51.757868],[4.250203,51.757207],[4.25095,51.756517],[4.251689,51.755874],[4.252717,51.754829],[4.253178,51.754343],[4.253294,51.754209],[4.253927,51.753477],[4.254399,51.752885],[4.254603,51.752633],[4.254672,51.752553],[4.255094,51.75197],[4.255456,51.75146],[4.255689,51.751112],[4.256087,51.750505],[4.256192,51.750354],[4.256524,51.749829],[4.256741,51.749476],[4.257453,51.748452],[4.257754,51.748048],[4.25843,51.747165],[4.259171,51.746214],[4.259916,51.745316],[4.259944,51.745284],[4.26073,51.744392],[4.26138,51.743663],[4.262264,51.742691],[4.262894,51.742007],[4.263635,51.741227],[4.26404,51.740829],[4.264379,51.740496],[4.264678,51.740213],[4.265121,51.73981],[4.265861,51.739233],[4.26727,51.738247],[4.267337,51.7382],[4.268204,51.737609],[4.269545,51.736761],[4.271089,51.735889],[4.271744,51.735514],[4.272474,51.735089],[4.273331,51.734729],[4.273904,51.734485],[4.275404,51.733824],[4.276766,51.733262],[4.277671,51.732912],[4.277861,51.732836],[4.278392,51.732633],[4.279477,51.73225],[4.279972,51.732078],[4.282335,51.731271],[4.282483,51.731222],[4.282925,51.731068],[4.284165,51.730647],[4.284937,51.730382],[4.285246,51.73028],[4.28593,51.730046],[4.287945,51.729364],[4.288057,51.729323],[4.288299,51.729245],[4.288335,51.729231],[4.288477,51.72918],[4.289258,51.728921],[4.291676,51.728111],[4.293299,51.727561],[4.295546,51.726792],[4.296125,51.726589],[4.297219,51.726192],[4.297777,51.725985],[4.298214,51.725815],[4.299137,51.725451],[4.299536,51.725283],[4.299845,51.725144],[4.300003,51.725069],[4.300149,51.725006],[4.300667,51.724766],[4.301133,51.724541],[4.30158,51.724316],[4.30186,51.724161],[4.302081,51.724029],[4.302431,51.7238],[4.302792,51.723554],[4.303207,51.723253],[4.303722,51.722842],[4.304277,51.72243],[4.304666,51.722169],[4.304961,51.721999],[4.30526,51.721834],[4.306561,51.721135],[4.3077,51.720516],[4.308648,51.720015],[4.308999,51.719827],[4.310352,51.719127],[4.311236,51.718684],[4.311619,51.718494],[4.311708,51.718455],[4.311893,51.718365],[4.312186,51.718237],[4.312494,51.718095],[4.312625,51.718045],[4.312965,51.717898],[4.313414,51.717714],[4.313607,51.717638],[4.31385,51.717551],[4.313906,51.717524],[4.313994,51.717495],[4.314093,51.717458],[4.314647,51.717269],[4.314761,51.717231],[4.315109,51.717123],[4.315211,51.717089],[4.315368,51.717044],[4.315633,51.716966],[4.316322,51.716787],[4.316347,51.716782],[4.316414,51.716769],[4.316543,51.716735],[4.316965,51.716644],[4.317424,51.716547],[4.317694,51.716495],[4.318013,51.716428],[4.318481,51.716338],[4.320585,51.715905],[4.32429,51.715143],[4.326507,51.714703],[4.327986,51.714417],[4.328246,51.714361],[4.329359,51.714142],[4.330604,51.713902],[4.332535,51.713545],[4.333837,51.71331],[4.335432,51.713034],[4.337231,51.712736],[4.338282,51.712567],[4.339692,51.712347],[4.340938,51.712165],[4.342104,51.712],[4.34623,51.711446],[4.351222,51.710791],[4.352357,51.710649],[4.352734,51.710606],[4.353427,51.71052],[4.35428,51.71042],[4.354592,51.710381],[4.355315,51.710302],[4.35605,51.710231],[4.357005,51.710147],[4.357862,51.710082],[4.358662,51.710035],[4.359813,51.70998],[4.362566,51.709879],[4.36416,51.709832],[4.364495,51.709819],[4.365041,51.709804],[4.365236,51.709796],[4.365413,51.709793],[4.367635,51.709726],[4.369986,51.709651],[4.372703,51.709583],[4.380489,51.710201],[4.387401,51.71075],[4.397366,51.71154],[4.397821,51.711432],[4.398046,51.711378],[4.398271,51.711325],[4.398718,51.711219],[4.404759,51.710795],[4.422143,51.709574],[4.42355,51.709475],[4.434378,51.707156],[4.437816,51.706419],[4.456816,51.702346],[4.469588,51.699606],[4.475796,51.698156],[4.488801,51.695117],[4.494721,51.69399],[4.494774,51.693981],[4.500431,51.692904],[4.507106,51.692505],[4.514917,51.692474],[4.515798,51.692529],[4.530433,51.693442],[4.535016,51.693968],[4.537607,51.694266],[4.54247,51.694824],[4.55493,51.696855],[4.570529,51.699733],[4.5893,51.703323],[4.597493,51.705509],[4.604214,51.70843],[4.617063,51.713451],[4.620404,51.714123],[4.621549,51.716727],[4.6227,51.719356],[4.623775,51.721801],[4.624067,51.722464],[4.624462,51.723396],[4.626047,51.727034],[4.626579,51.728256],[4.627094,51.729434],[4.627268,51.729837],[4.627767,51.731035],[4.627875,51.731306],[4.628177,51.732072],[4.628985,51.734178],[4.629533,51.735856],[4.629713,51.736407],[4.629918,51.737034],[4.62995,51.737131],[4.630564,51.739345],[4.631089,51.741568],[4.631126,51.741746],[4.631358,51.743083],[4.631519,51.743984],[4.631572,51.744686],[4.631633,51.745558],[4.631624,51.746195],[4.631609,51.746966],[4.631595,51.747249],[4.631356,51.749185],[4.630738,51.751626],[4.630501,51.752274],[4.630272,51.752871],[4.630189,51.753093],[4.629334,51.755016],[4.628242,51.757255],[4.627665,51.758668],[4.627441,51.759215],[4.627166,51.760102],[4.627115,51.760268],[4.627104,51.760304],[4.627086,51.76036],[4.627057,51.760456],[4.627047,51.760487],[4.626837,51.761163],[4.626752,51.761552],[4.62669,51.761851],[4.626657,51.762006],[4.626634,51.762099],[4.626613,51.762218],[4.626551,51.762514],[4.626484,51.762837],[4.626431,51.76309],[4.626404,51.763222],[4.626343,51.763617],[4.626157,51.76561],[4.626115,51.766052],[4.626113,51.766315],[4.626154,51.76825],[4.626185,51.768607],[4.626192,51.768663],[4.626283,51.769426],[4.626305,51.769605],[4.626337,51.769869],[4.626345,51.76994],[4.62635,51.76998],[4.626352,51.769995],[4.626357,51.770048],[4.626367,51.77013],[4.626371,51.770164],[4.626398,51.770383],[4.62677,51.771973],[4.626985,51.772906],[4.626987,51.772914],[4.627008,51.773005],[4.627149,51.773534],[4.627389,51.77463],[4.627567,51.775667],[4.627571,51.775691],[4.627593,51.775981],[4.627623,51.776335],[4.627651,51.776734],[4.627684,51.777174],[4.627706,51.777533],[4.627708,51.777576],[4.627738,51.778069],[4.627739,51.778085],[4.627758,51.778476],[4.627753,51.779392],[4.627713,51.780217],[4.627663,51.780781],[4.627619,51.781116],[4.627613,51.781162],[4.627555,51.781731],[4.627497,51.782164],[4.627495,51.782172],[4.627465,51.782303],[4.62736,51.782748],[4.627249,51.783226],[4.627229,51.783309],[4.627012,51.784236],[4.626943,51.784467],[4.626476,51.785765],[4.6261,51.786635],[4.625564,51.78771],[4.624485,51.789624],[4.62385,51.79091],[4.623213,51.792413],[4.623133,51.792633],[4.622742,51.793744],[4.622465,51.794628],[4.622228,51.795819],[4.621872,51.797691],[4.621846,51.797807],[4.621602,51.798887],[4.621596,51.798917],[4.621591,51.798943],[4.621579,51.799004],[4.621222,51.800804],[4.620981,51.800844],[4.620909,51.800856],[4.61878,51.801211],[4.618767,51.801213],[4.617328,51.801487],[4.616135,51.801793],[4.615904,51.801841],[4.613046,51.80255],[4.611581,51.802897],[4.611154,51.803013],[4.61051,51.803185],[4.610152,51.803283],[4.609928,51.803349],[4.609407,51.803502],[4.60865,51.803725],[4.607724,51.80399],[4.607035,51.804186],[4.606757,51.804259],[4.605958,51.804464],[4.6052,51.804661],[4.604557,51.804827],[4.602898,51.805248],[4.600703,51.805748],[4.599883,51.805906],[4.599038,51.806105],[4.598565,51.806177],[4.597776,51.806296],[4.597718,51.806305],[4.596572,51.806477],[4.594782,51.806647],[4.593359,51.806778],[4.592125,51.806881],[4.590317,51.807023],[4.588546,51.80715],[4.588196,51.807172],[4.587449,51.807217],[4.582676,51.807504],[4.582217,51.807555],[4.58192,51.807587],[4.581209,51.8077],[4.580501,51.807815],[4.579552,51.808004],[4.579155,51.808113],[4.578295,51.808355],[4.577491,51.808585],[4.577162,51.808686],[4.576101,51.809014],[4.574968,51.809368],[4.574688,51.809448],[4.57371,51.809771],[4.572788,51.810077],[4.57266,51.810122],[4.572056,51.810341],[4.57117,51.810659],[4.571101,51.810686],[4.570761,51.810826],[4.570287,51.811022],[4.570072,51.811123],[4.569632,51.811309],[4.568797,51.81175],[4.568012,51.812162],[4.567442,51.812462],[4.567109,51.812636],[4.566743,51.812829],[4.566604,51.812903],[4.566407,51.813006],[4.566229,51.813127],[4.565729,51.813467],[4.565075,51.813913],[4.564607,51.814232],[4.564462,51.81433],[4.56424,51.814549],[4.564042,51.814748],[4.562653,51.816124],[4.561182,51.817932],[4.561131,51.818007],[4.560726,51.818736],[4.560726,51.818736],[4.560159,51.819697],[4.559742,51.821489],[4.559462,51.82255],[4.559369,51.822879],[4.559261,51.823286],[4.55814,51.825076],[4.557239,51.826863],[4.556039,51.828164],[4.555839,51.828427],[4.555735,51.828522],[4.555553,51.828668],[4.555349,51.82882],[4.555105,51.828997],[4.554717,51.829271],[4.554492,51.829419],[4.554263,51.829555],[4.553609,51.829897],[4.552894,51.830274],[4.552576,51.830432],[4.552243,51.830582],[4.551797,51.830786],[4.551699,51.830827],[4.551566,51.830878],[4.551189,51.831001],[4.550548,51.831198],[4.550029,51.831356],[4.548875,51.831714],[4.548653,51.831763],[4.546565,51.831898],[4.545885,51.831944],[4.545749,51.831945],[4.545331,51.831935],[4.543598,51.83189],[4.542844,51.831869],[4.541486,51.831773],[4.539948,51.831664],[4.538977,51.831557],[4.537214,51.831354],[4.537049,51.831328],[4.534164,51.830753],[4.531273,51.830199],[4.530849,51.830156],[4.52838,51.829904],[4.525478,51.829854],[4.522657,51.830135],[4.522574,51.830147],[4.522153,51.830219],[4.521754,51.830305],[4.521025,51.83045],[4.51966,51.830725],[4.516749,51.831355],[4.51383,51.832077],[4.513135,51.832255],[4.512206,51.832497],[4.510907,51.832837],[4.509909,51.833083],[4.509126,51.833275],[4.507991,51.83356],[4.506668,51.833903],[4.505968,51.834086],[4.505083,51.834317],[4.504993,51.834334],[4.502188,51.834866],[4.501859,51.834911],[4.501408,51.834969],[4.50034,51.835107],[4.499247,51.835243],[4.499026,51.835265],[4.498084,51.835349],[4.496677,51.835471],[4.496343,51.835501],[4.494925,51.835525],[4.49344,51.835549],[4.492072,51.83551],[4.49055,51.835471],[4.489094,51.835396],[4.487669,51.835323],[4.487519,51.835307],[4.484786,51.835017],[4.484517,51.834984],[4.484509,51.834983],[4.481703,51.834609],[4.478968,51.834214],[4.476362,51.833636],[4.475793,51.833499],[4.473504,51.832889],[4.473186,51.832812],[4.470804,51.832512],[4.470289,51.832445],[4.467578,51.832001],[4.467435,51.831981],[4.467119,51.831944],[4.466407,51.831893],[4.464372,51.831724],[4.462137,51.831673],[4.461158,51.831655],[4.458562,51.831645],[4.453773,51.83182],[4.45297,51.831864],[4.451543,51.832016],[4.450917,51.832083],[4.450083,51.832174],[4.449729,51.832223],[4.447201,51.83266],[4.447095,51.832681],[4.446985,51.832702],[4.44465,51.833243],[4.444604,51.833253],[4.44421,51.833347],[4.443893,51.833431],[4.443401,51.833573],[4.440021,51.834543],[4.432881,51.8369],[4.432482,51.837046],[4.429289,51.8348],[4.429277,51.834791],[4.426256,51.832666],[4.425384,51.831972],[4.424384,51.831247],[4.42342,51.830719],[4.422274,51.830227],[4.421003,51.829874],[4.419719,51.829678],[4.41833,51.829587],[4.416848,51.829607],[4.415598,51.829669],[4.415422,51.829678],[4.413982,51.829782],[4.412553,51.829922],[4.411117,51.830062],[4.409668,51.830186],[4.408229,51.830291],[4.407735,51.830328],[4.40679,51.830398],[4.405351,51.830535],[4.403929,51.830688],[4.40252,51.83088],[4.401125,51.83113],[4.400111,51.831331],[4.39933,51.831415],[4.399137,51.83142],[4.398223,51.831391],[4.397728,51.831342],[4.397132,51.831275],[4.396772,51.831103],[4.39548,51.830484],[4.386918,51.82638],[4.386453,51.826157],[4.383414,51.824701],[4.382132,51.824079],[4.380544,51.82331],[4.379144,51.822467],[4.377681,51.821586],[4.376252,51.820666],[4.374814,51.820096],[4.374197,51.819709],[4.371953,51.818301],[4.37052,51.817569],[4.369923,51.817325],[4.369082,51.816981],[4.367632,51.81696],[4.366176,51.817226],[4.363259,51.817929],[4.360343,51.818595],[4.358119,51.818926],[4.357432,51.819028],[4.355978,51.819186],[4.354528,51.819191],[4.353342,51.819055],[4.351638,51.818725],[4.348417,51.818113],[4.347968,51.818035],[4.344343,51.817411],[4.339948,51.816833],[4.339607,51.816821],[4.338476,51.816783],[4.338151,51.816772],[4.337085,51.816439],[4.336111,51.8159],[4.334709,51.815069],[4.332454,51.813521],[4.332052,51.813375],[4.331577,51.813203],[4.331563,51.813198],[4.330988,51.813032],[4.330791,51.812975],[4.330698,51.812948],[4.329439,51.812828],[4.326327,51.812603],[4.324228,51.812404],[4.321337,51.812036],[4.318682,51.811576],[4.318491,51.811543],[4.317264,51.811287],[4.315778,51.810979],[4.314117,51.810701],[4.312933,51.810503],[4.310191,51.809939],[4.307927,51.809334],[4.307367,51.809185],[4.305976,51.808641],[4.305858,51.808595],[4.30574,51.808528],[4.303684,51.807362],[4.30037,51.805039],[4.300304,51.804993],[4.299763,51.804594],[4.299069,51.804083],[4.299039,51.804061],[4.296785,51.802399],[4.296413,51.802207],[4.295792,51.802111],[4.295095,51.802158],[4.294382,51.802233],[4.293245,51.802517],[4.292267,51.802761],[4.290347,51.803015],[4.288267,51.80329],[4.285287,51.803586],[4.284497,51.803664],[4.283717,51.803742],[4.280061,51.80386],[4.279793,51.803903],[4.278753,51.804067],[4.276683,51.804395],[4.274641,51.804924],[4.274038,51.804992],[4.273114,51.805098],[4.271604,51.805155],[4.27075,51.805109],[4.2702,51.805079],[4.268596,51.804839],[4.265616,51.803975],[4.265161,51.803764],[4.264369,51.803396],[4.263213,51.802657],[4.263197,51.802639],[4.262502,51.801822],[4.261763,51.800796],[4.261245,51.800075],[4.260433,51.799224],[4.260429,51.79922],[4.259841,51.798603],[4.259549,51.798299],[4.25953,51.798281],[4.259041,51.797823],[4.258499,51.797316],[4.258444,51.797264],[4.258164,51.797002],[4.257458,51.796344],[4.257174,51.796082],[4.256864,51.795854],[4.256489,51.79558],[4.256205,51.795372],[4.256087,51.795267],[4.255461,51.794709],[4.25543,51.794681],[4.254845,51.794154],[4.254556,51.793894],[4.254308,51.79367],[4.253838,51.793256],[4.253235,51.792691],[4.252884,51.79236],[4.252492,51.79194],[4.251912,51.791315],[4.251407,51.790767],[4.251403,51.790762],[4.250857,51.790142],[4.248873,51.787893],[4.246869,51.785609],[4.24664,51.785347],[4.245037,51.784239],[4.24262,51.783329],[4.242413,51.783305],[4.242303,51.783292],[4.24156,51.783207],[4.239785,51.783015],[4.237563,51.782772],[4.236529,51.783046],[4.235406,51.783344],[4.234467,51.783591],[4.233653,51.78392],[4.232768,51.784272],[4.231637,51.784731],[4.23086,51.78504],[4.230475,51.785215],[4.23047,51.785218],[4.229907,51.785443],[4.227733,51.786312],[4.227487,51.786411],[4.225829,51.787076],[4.222839,51.787906],[4.213284,51.785278],[4.213247,51.785267]]]},"properties":{"type":"boundary","gemeente":"Hoeksche Waard"}}]}