{"type":"FeatureCollection","metadata":{"gemeente":"Hoogeveen","slug":"hoogeveen","generated_at":"2026-09-28T08:22:49.441043Z","total_points":109,"providers":["Amazon","DeBuren","DHL","DPD","PostNL","VintedGo","ViaTim","FedEx","InPost","Budbee"],"bounds":[6.444979728164288,52.68102,6.609577464,52.77397424]},"features":[{"type":"Feature","geometry":{"type":"Point","coordinates":[6.53940403621215,52.7060925232114]},"properties":{"type":"pakketpunt","locatieNaam":"PLUS Cappendijck","straatNaam":"Het Hoekje 45 E","straatNr":"","vervoerder":"Amazon","puntType":"3p","bezettingsgraad":50,"latitude":52.7060925232114,"longitude":6.53940403621215,"canPickup":true,"canDropoff":false,"openingstijden":null}},{"type":"Feature","geometry":{"type":"Point","coordinates":[6.507927557,52.72391904]},"properties":{"type":"pakketpunt","locatieNaam":"Primera","straatNaam":"Grote Beer 33 -35","straatNr":"","vervoerder":"Amazon","puntType":"3p","bezettingsgraad":50,"latitude":52.72391904,"longitude":6.507927557,"canPickup":true,"canDropoff":false,"openingstijden":null}},{"type":"Feature","geometry":{"type":"Point","coordinates":[6.48635648938349,52.7208307601832]},"properties":{"type":"pakketpunt","locatieNaam":"Capo Dei Capi","straatNaam":"Het Haagje 156","straatNr":"","vervoerder":"Amazon","puntType":"3p","bezettingsgraad":50,"latitude":52.7208307601832,"longitude":6.48635648938349,"canPickup":true,"canDropoff":false,"openingstijden":null}},{"type":"Feature","geometry":{"type":"Point","coordinates":[6.478070416,52.7221383]},"properties":{"type":"pakketpunt","locatieNaam":"Phone  House Hoogeveen","straatNaam":"Hoofdstraat 197","straatNr":"","vervoerder":"Amazon","puntType":"3p","bezettingsgraad":50,"latitude":52.7221383,"longitude":6.478070416,"canPickup":true,"canDropoff":false,"openingstijden":null}},{"type":"Feature","geometry":{"type":"Point","coordinates":[6.489497551,52.72743454]},"properties":{"type":"pakketpunt","locatieNaam":"Kringloop Het Goed Hoogeveen","straatNaam":"Kanaalweg 2","straatNr":"","vervoerder":"Amazon","puntType":"3p","bezettingsgraad":50,"latitude":52.72743454,"longitude":6.489497551,"canPickup":true,"canDropoff":false,"openingstijden":null}},{"type":"Feature","geometry":{"type":"Point","coordinates":[6.467574075319212,52.72143113419474]},"properties":{"type":"pakketpunt","locatieNaam":"DHL - Pakketautomaat Praxis Hoogeveen","straatNaam":"Griendtsveenweg 26","straatNr":"","vervoerder":"Amazon","puntType":"3p","bezettingsgraad":50,"latitude":52.72143113419474,"longitude":6.467574075319212,"canPickup":true,"canDropoff":false,"openingstijden":null}},{"type":"Feature","geometry":{"type":"Point","coordinates":[6.47737047407772,52.7255420091053]},"properties":{"type":"pakketpunt","locatieNaam":"Foto-Groep Hoogeveen","straatNaam":"Hoofdstraat 94","straatNr":"","vervoerder":"Amazon","puntType":"3p","bezettingsgraad":50,"latitude":52.7255420091053,"longitude":6.47737047407772,"canPickup":true,"canDropoff":false,"openingstijden":null}},{"type":"Feature","geometry":{"type":"Point","coordinates":[6.465175068,52.72443977]},"properties":{"type":"pakketpunt","locatieNaam":"KARWEI Hoogeveen","straatNaam":"Groenewegenstraat 11 -15","straatNr":"","vervoerder":"Amazon","puntType":"3p","bezettingsgraad":50,"latitude":52.72443977,"longitude":6.465175068,"canPickup":true,"canDropoff":false,"openingstijden":null}},{"type":"Feature","geometry":{"type":"Point","coordinates":[6.497031566,52.73616335]},"properties":{"type":"pakketpunt","locatieNaam":"DRD Knaagdierwinkel","straatNaam":"De Lavalstraat 5","straatNr":"","vervoerder":"Amazon","puntType":"3p","bezettingsgraad":50,"latitude":52.73616335,"longitude":6.497031566,"canPickup":true,"canDropoff":false,"openingstijden":null}},{"type":"Feature","geometry":{"type":"Point","coordinates":[6.452324493,52.71888434]},"properties":{"type":"pakketpunt","locatieNaam":"Bruna De Weide Hoogeveen","straatNaam":"De Weide 19","straatNr":"","vervoerder":"Amazon","puntType":"3p","bezettingsgraad":50,"latitude":52.71888434,"longitude":6.452324493,"canPickup":true,"canDropoff":false,"openingstijden":null}},{"type":"Feature","geometry":{"type":"Point","coordinates":[6.4756989,52.7348271]},"properties":{"type":"pakketpunt","locatieNaam":"DHL - Pakketautomaat Basic-Fit Pessers","straatNaam":"Pesserstraat 33","straatNr":"","vervoerder":"Amazon","puntType":"3p","bezettingsgraad":50,"latitude":52.7348271,"longitude":6.4756989,"canPickup":true,"canDropoff":false,"openingstijden":null}},{"type":"Feature","geometry":{"type":"Point","coordinates":[6.4540364,52.724875]},"properties":{"type":"pakketpunt","locatieNaam":"DHL - Pakketautomaat Basic-Fit Hoogeveen","straatNaam":"Duymaer van Twistweg 6","straatNr":"","vervoerder":"Amazon","puntType":"3p","bezettingsgraad":50,"latitude":52.724875,"longitude":6.4540364,"canPickup":true,"canDropoff":false,"openingstijden":null}},{"type":"Feature","geometry":{"type":"Point","coordinates":[6.48586498,52.73205618]},"properties":{"type":"pakketpunt","locatieNaam":"Hoogeveen | Industrieweg | Vepa | Pakketautomaat","straatNaam":"Industrieweg","straatNr":"31","vervoerder":"DeBuren","puntType":"Buitenkluis","bezettingsgraad":50,"latitude":52.73205618,"longitude":6.48586498,"canPickup":true,"canDropoff":true,"openingstijden":null}},{"type":"Feature","geometry":{"type":"Point","coordinates":[6.47320036,52.73283517]},"properties":{"type":"pakketpunt","locatieNaam":"Hoogeveen | Stationsplein | Provincie Drenthe | Pakketautomaat","straatNaam":"Stationsplein","straatNr":"6","vervoerder":"DeBuren","puntType":"Buitenkluis","bezettingsgraad":50,"latitude":52.73283517,"longitude":6.47320036,"canPickup":true,"canDropoff":true,"openingstijden":null}},{"type":"Feature","geometry":{"type":"Point","coordinates":[6.5101205,52.7323794]},"properties":{"type":"pakketpunt","locatieNaam":"Hoogeveen | Europaweg | Huis en Tuin | Pakketautomaat","straatNaam":"Europaweg","straatNr":"8","vervoerder":"DeBuren","puntType":"Afhaalpunt","bezettingsgraad":50,"latitude":52.7323794,"longitude":6.5101205,"canPickup":true,"canDropoff":true,"openingstijden":null}},{"type":"Feature","geometry":{"type":"Point","coordinates":[6.517724,52.710408]},"properties":{"type":"pakketpunt","locatieNaam":"Hoogeveen | Buitenvaart | LEAP24 | Pakketautomaat","straatNaam":"Meester Cramerweg ","straatNr":"0","vervoerder":"DeBuren","puntType":"Buitenkluis","bezettingsgraad":50,"latitude":52.710408,"longitude":6.517724,"canPickup":true,"canDropoff":true,"openingstijden":null}},{"type":"Feature","geometry":{"type":"Point","coordinates":[6.4540364,52.724875]},"properties":{"type":"pakketpunt","locatieNaam":"Pakketautomaat Basic-Fit Hoogeveen","straatNaam":"Duymaer van Twistweg","straatNr":"6","vervoerder":"DHL","puntType":"packStation","bezettingsgraad":50,"latitude":52.724875,"longitude":6.4540364,"canPickup":true,"canDropoff":true,"openingstijden":{"ma":"00:00 - 23:59","di":"00:00 - 23:59","wo":"00:00 - 23:59","do":"00:00 - 23:59","vr":"00:00 - 23:59","za":"00:00 - 23:59","zo":"00:00 - 23:59"}}},{"type":"Feature","geometry":{"type":"Point","coordinates":[6.467574075319212,52.72143113419474]},"properties":{"type":"pakketpunt","locatieNaam":"Pakketautomaat Praxis Hoogeveen","straatNaam":"Griendtsveenweg","straatNr":"26","vervoerder":"DHL","puntType":"packStation","bezettingsgraad":50,"latitude":52.72143113419474,"longitude":6.467574075319212,"canPickup":true,"canDropoff":true,"openingstijden":{"ma":"00:00 - 23:59","di":"00:00 - 23:59","wo":"00:00 - 23:59","do":"00:00 - 23:59","vr":"00:00 - 23:59","za":"00:00 - 23:59","zo":"00:00 - 23:59"}}},{"type":"Feature","geometry":{"type":"Point","coordinates":[6.466169912647851,52.72498525477172]},"properties":{"type":"pakketpunt","locatieNaam":"Pakketautomaat GAMMA Hoogeveen","straatNaam":"Groenewegenstraat","straatNr":"10","vervoerder":"DHL","puntType":"packStation","bezettingsgraad":50,"latitude":52.72498525477172,"longitude":6.466169912647851,"canPickup":true,"canDropoff":true,"openingstijden":{"ma":"00:00 - 23:59","di":"00:00 - 23:59","wo":"00:00 - 23:59","do":"00:00 - 23:59","vr":"00:00 - 23:59","za":"00:00 - 23:59","zo":"00:00 - 23:59"}}},{"type":"Feature","geometry":{"type":"Point","coordinates":[6.4762237,52.720458]},"properties":{"type":"pakketpunt","locatieNaam":"Solutions IT Drenthe","straatNaam":"Schutstraat","straatNr":"34","vervoerder":"DHL","puntType":"parcelShop","bezettingsgraad":50,"latitude":52.720458,"longitude":6.4762237,"canPickup":true,"canDropoff":true,"openingstijden":{"ma":"09:00 - 18:00","di":"09:00 - 18:00","wo":"09:00 - 18:00","do":"09:00 - 18:00","vr":"09:00 - 18:00","za":"10:00 - 18:00","zo":"gesloten"}}},{"type":"Feature","geometry":{"type":"Point","coordinates":[6.4775681,52.7216868]},"properties":{"type":"pakketpunt","locatieNaam":"Intertoys Hoogeveen","straatNaam":"Hoofdstraat","straatNr":"226","vervoerder":"DHL","puntType":"parcelShop","bezettingsgraad":50,"latitude":52.7216868,"longitude":6.4775681,"canPickup":true,"canDropoff":true,"openingstijden":{"ma":"13:00 - 18:00","di":"09:30 - 18:00","wo":"09:30 - 18:00","do":"09:30 - 18:00","vr":"09:30 - 21:00","za":"09:30 - 17:00","zo":"gesloten"}}},{"type":"Feature","geometry":{"type":"Point","coordinates":[6.477694511413574,52.72182846069336]},"properties":{"type":"pakketpunt","locatieNaam":"Schuurman Schoenen Hoogeveen","straatNaam":"Hoofdstraat","straatNr":"218","vervoerder":"DHL","puntType":"parcelShop","bezettingsgraad":50,"latitude":52.72182846069336,"longitude":6.477694511413574,"canPickup":true,"canDropoff":true,"openingstijden":{"ma":"13:00 - 18:00","di":"09:30 - 18:00","wo":"09:30 - 18:00","do":"09:30 - 18:00","vr":"09:30 - 21:00","za":"09:30 - 17:00","zo":"gesloten"}}},{"type":"Feature","geometry":{"type":"Point","coordinates":[6.4781101,52.7214572]},"properties":{"type":"pakketpunt","locatieNaam":"Pakketautomaat terStal Hoogeveen","straatNaam":"Hoofdstraat","straatNr":"215-Kast","vervoerder":"DHL","puntType":"packStation","bezettingsgraad":50,"latitude":52.7214572,"longitude":6.4781101,"canPickup":true,"canDropoff":true,"openingstijden":{"ma":"13:00 - 17:30","di":"09:30 - 17:30","wo":"09:30 - 17:30","do":"09:30 - 17:30","vr":"09:30 - 21:00","za":"09:30 - 17:00","zo":"gesloten"}}},{"type":"Feature","geometry":{"type":"Point","coordinates":[6.477748870849609,52.724281311035156]},"properties":{"type":"pakketpunt","locatieNaam":"Shoeby Hoogeveen","straatNaam":"Hoofdstraat","straatNr":"129","vervoerder":"DHL","puntType":"parcelShop","bezettingsgraad":50,"latitude":52.724281311035156,"longitude":6.477748870849609,"canPickup":true,"canDropoff":true,"openingstijden":{"ma":"13:00 - 18:00","di":"09:30 - 18:00","wo":"09:30 - 18:00","do":"09:30 - 18:00","vr":"09:30 - 18:00","za":"09:30 - 17:00","zo":"gesloten"}}},{"type":"Feature","geometry":{"type":"Point","coordinates":[6.47320036,52.73283517]},"properties":{"type":"pakketpunt","locatieNaam":"DeBuren Locker 24-7 Hoogeveen St.","straatNaam":"Stationsplein","straatNr":"6","vervoerder":"DHL","puntType":"packStation","bezettingsgraad":50,"latitude":52.73283517,"longitude":6.47320036,"canPickup":true,"canDropoff":true,"openingstijden":{"ma":"00:00 - 23:59","di":"00:00 - 23:59","wo":"00:00 - 23:59","do":"00:00 - 23:59","vr":"00:00 - 23:59","za":"00:00 - 23:59","zo":"00:00 - 23:59"}}},{"type":"Feature","geometry":{"type":"Point","coordinates":[6.4756989,52.7348271]},"properties":{"type":"pakketpunt","locatieNaam":"Pakketautomaat Basic-Fit Pessers","straatNaam":"Pesserstraat","straatNr":"33","vervoerder":"DHL","puntType":"packStation","bezettingsgraad":50,"latitude":52.7348271,"longitude":6.4756989,"canPickup":true,"canDropoff":true,"openingstijden":{"ma":"00:00 - 23:59","di":"00:00 - 23:59","wo":"00:00 - 23:59","do":"00:00 - 23:59","vr":"00:00 - 23:59","za":"00:00 - 23:59","zo":"00:00 - 23:59"}}},{"type":"Feature","geometry":{"type":"Point","coordinates":[6.538108825683594,52.70626449584961]},"properties":{"type":"pakketpunt","locatieNaam":"Pakketautomaat PLUS Cappendijck","straatNaam":"Het Hoekje","straatNr":"54","vervoerder":"DHL","puntType":"packStation","bezettingsgraad":50,"latitude":52.70626449584961,"longitude":6.538108825683594,"canPickup":true,"canDropoff":true,"openingstijden":{"ma":"07:00 - 20:00","di":"07:00 - 20:00","wo":"07:00 - 20:00","do":"07:00 - 20:00","vr":"07:00 - 21:00","za":"07:00 - 20:00","zo":"10:00 - 18:00"}}},{"type":"Feature","geometry":{"type":"Point","coordinates":[6.517486142327465,52.7112639997462]},"properties":{"type":"pakketpunt","locatieNaam":"DeBuren Locker 24-7 Hollandseveld","straatNaam":"Meester Cramerweg","straatNr":"0","vervoerder":"DHL","puntType":"packStation","bezettingsgraad":50,"latitude":52.7112639997462,"longitude":6.517486142327465,"canPickup":true,"canDropoff":true,"openingstijden":{"ma":"00:00 - 23:59","di":"00:00 - 23:59","wo":"00:00 - 23:59","do":"00:00 - 23:59","vr":"00:00 - 23:59","za":"00:00 - 23:59","zo":"00:00 - 23:59"}}},{"type":"Feature","geometry":{"type":"Point","coordinates":[6.5333062,52.7109308]},"properties":{"type":"pakketpunt","locatieNaam":"Cambreur schoenmakerij","straatNaam":"Abraham Niehuesstraat","straatNr":"1","vervoerder":"DHL","puntType":"parcelShop","bezettingsgraad":50,"latitude":52.7109308,"longitude":6.5333062,"canPickup":true,"canDropoff":true,"openingstijden":{"ma":"08:15 - 12:00, 13:00 - 17:00","di":"08:15 - 12:00, 13:00 - 17:00","wo":"08:15 - 12:00, 13:00 - 17:00","do":"08:15 - 12:00, 13:00 - 17:00","vr":"08:15 - 12:00, 13:00 - 17:00","za":"gesloten","zo":"gesloten"}}},{"type":"Feature","geometry":{"type":"Point","coordinates":[6.515705,52.7248275]},"properties":{"type":"pakketpunt","locatieNaam":"DHL Buurtpunt ViaTim en De Kroon","straatNaam":"De Kroon","straatNr":"198","vervoerder":"DHL","puntType":"parcelShop","bezettingsgraad":50,"latitude":52.7248275,"longitude":6.515705,"canPickup":true,"canDropoff":true,"openingstijden":{"ma":"12:00 - 21:00","di":"12:00 - 21:00","wo":"12:00 - 21:00","do":"12:00 - 21:00","vr":"12:00 - 21:00","za":"12:00 - 17:00","zo":"gesloten"}}},{"type":"Feature","geometry":{"type":"Point","coordinates":[6.4867118,52.7209376]},"properties":{"type":"pakketpunt","locatieNaam":"Eivissa Sun","straatNaam":"Het Haagje","straatNr":"158","vervoerder":"DHL","puntType":"parcelShop","bezettingsgraad":50,"latitude":52.7209376,"longitude":6.4867118,"canPickup":true,"canDropoff":true,"openingstijden":{"ma":"gesloten","di":"10:00 - 21:00","wo":"10:00 - 21:00","do":"10:00 - 21:00","vr":"10:00 - 21:00","za":"10:00 - 18:00","zo":"12:00 - 18:00"}}},{"type":"Feature","geometry":{"type":"Point","coordinates":[6.4999794,52.7300972]},"properties":{"type":"pakketpunt","locatieNaam":"Wurth Hoogeveen","straatNaam":"Dr. Anton Philipsstraat","straatNr":"21","vervoerder":"DHL","puntType":"parcelShop","bezettingsgraad":50,"latitude":52.7300972,"longitude":6.4999794,"canPickup":true,"canDropoff":true,"openingstijden":{"ma":"07:00 - 17:00","di":"07:00 - 17:00","wo":"07:00 - 17:00","do":"07:00 - 17:00","vr":"07:00 - 17:00","za":"gesloten","zo":"gesloten"}}},{"type":"Feature","geometry":{"type":"Point","coordinates":[6.5096245,52.7324885]},"properties":{"type":"pakketpunt","locatieNaam":"Pakketautomaat Huis en Tuin","straatNaam":"Europaweg","straatNr":"8","vervoerder":"DHL","puntType":"packStation","bezettingsgraad":50,"latitude":52.7324885,"longitude":6.5096245,"canPickup":true,"canDropoff":true,"openingstijden":{"ma":"09:30 - 17:30","di":"09:30 - 17:30","wo":"09:30 - 17:30","do":"09:30 - 17:30","vr":"09:30 - 20:00","za":"09:00 - 17:00","zo":"13:00 - 17:00"}}},{"type":"Feature","geometry":{"type":"Point","coordinates":[6.5112167,52.7339803]},"properties":{"type":"pakketpunt","locatieNaam":"Kroon Hoogeveen","straatNaam":"Parmentierstraat","straatNr":"2-F","vervoerder":"DHL","puntType":"parcelShop","bezettingsgraad":50,"latitude":52.7339803,"longitude":6.5112167,"canPickup":true,"canDropoff":true,"openingstijden":{"ma":"07:30 - 17:00","di":"07:30 - 17:00","wo":"07:30 - 17:00","do":"07:30 - 17:00","vr":"07:30 - 17:00","za":"09:00 - 12:00","zo":"gesloten"}}},{"type":"Feature","geometry":{"type":"Point","coordinates":[6.497366428375244,52.7344856262207]},"properties":{"type":"pakketpunt","locatieNaam":"DHL Pakketpunt Hoogeveen","straatNaam":"Morsesstraat","straatNr":"8-B","vervoerder":"DHL","puntType":"parcelShop","bezettingsgraad":50,"latitude":52.7344856262207,"longitude":6.497366428375244,"canPickup":true,"canDropoff":true,"openingstijden":{"ma":"09:00 - 19:00","di":"09:00 - 19:00","wo":"09:00 - 19:00","do":"09:00 - 19:00","vr":"09:00 - 19:00","za":"09:00 - 19:00","zo":"gesloten"}}},{"type":"Feature","geometry":{"type":"Point","coordinates":[6.486676,52.7319118]},"properties":{"type":"pakketpunt","locatieNaam":"DeBuren Locker 24-7 Vepa Furniture","straatNaam":"Industrieweg","straatNr":"31","vervoerder":"DHL","puntType":"packStation","bezettingsgraad":50,"latitude":52.7319118,"longitude":6.486676,"canPickup":true,"canDropoff":true,"openingstijden":{"ma":"00:00 - 23:59","di":"00:00 - 23:59","wo":"00:00 - 23:59","do":"00:00 - 23:59","vr":"00:00 - 23:59","za":"00:00 - 23:59","zo":"00:00 - 23:59"}}},{"type":"Feature","geometry":{"type":"Point","coordinates":[6.4817433,52.7318134]},"properties":{"type":"pakketpunt","locatieNaam":"Outlet en Kringloop Experience","straatNaam":"Industrieweg","straatNr":"46","vervoerder":"DHL","puntType":"parcelShop","bezettingsgraad":50,"latitude":52.7318134,"longitude":6.4817433,"canPickup":true,"canDropoff":true,"openingstijden":{"ma":"13:00 - 17:00","di":"13:00 - 17:00","wo":"10:00 - 17:00","do":"10:00 - 17:00","vr":"10:00 - 17:00","za":"10:00 - 17:00","zo":"gesloten"}}},{"type":"Feature","geometry":{"type":"Point","coordinates":[6.445209,52.773832]},"properties":{"type":"pakketpunt","locatieNaam":"DeBuren Locker 24-7 BP Green Plnt","straatNaam":"Bultinge","straatNr":"2","vervoerder":"DHL","puntType":"packStation","bezettingsgraad":50,"latitude":52.773832,"longitude":6.445209,"canPickup":true,"canDropoff":true,"openingstijden":{"ma":"00:00 - 23:59","di":"00:00 - 23:59","wo":"00:00 - 23:59","do":"00:00 - 23:59","vr":"00:00 - 23:59","za":"00:00 - 23:59","zo":"00:00 - 23:59"}}},{"type":"Feature","geometry":{"type":"Point","coordinates":[6.49849,52.71668]},"properties":{"type":"pakketpunt","locatieNaam":"Benfleuri","straatNaam":"DE WIELEWAAL","straatNr":"14","vervoerder":"DPD","puntType":"pickup_point","bezettingsgraad":50,"latitude":52.71668,"longitude":6.49849,"canPickup":true,"canDropoff":true,"openingstijden":{"ma":"13:00 - 18:00","di":"09:00 - 18:00","wo":"09:00 - 18:00","do":"09:00 - 18:00","vr":"09:00 - 18:00","za":"09:00 - 17:00","zo":"gesloten"}}},{"type":"Feature","geometry":{"type":"Point","coordinates":[6.4817433,52.7318134]},"properties":{"type":"pakketpunt","locatieNaam":"Outlet & Kringloop Experience B.V.","straatNaam":"INDUSTRIEWEG","straatNr":"46","vervoerder":"DPD","puntType":"pickup_point","bezettingsgraad":50,"latitude":52.7318134,"longitude":6.4817433,"canPickup":true,"canDropoff":true,"openingstijden":{"ma":"13:00 - 17:00","di":"13:00 - 17:00","wo":"10:00 - 17:00","do":"10:00 - 17:00","vr":"10:00 - 17:00","za":"10:00 - 17:00","zo":"gesloten"}}},{"type":"Feature","geometry":{"type":"Point","coordinates":[6.47320036,52.73283517]},"properties":{"type":"pakketpunt","locatieNaam":"Pakketautomaat P+R Stationsplein","straatNaam":"STATIONSPLEIN","straatNr":"6","vervoerder":"DPD","puntType":"dpd_box","bezettingsgraad":50,"latitude":52.73283517,"longitude":6.47320036,"canPickup":true,"canDropoff":true,"openingstijden":{"ma":"00:00 - 23:59","di":"00:00 - 23:59","wo":"00:00 - 23:59","do":"00:00 - 23:59","vr":"00:00 - 23:59","za":"00:00 - 23:59","zo":"00:00 - 23:59"}}},{"type":"Feature","geometry":{"type":"Point","coordinates":[6.44526506,52.77397424]},"properties":{"type":"pakketpunt","locatieNaam":"Pakketautomaat Green Planet Bulting","straatNaam":"BULTINGE","straatNr":"2","vervoerder":"DPD","puntType":"dpd_box","bezettingsgraad":50,"latitude":52.77397424,"longitude":6.44526506,"canPickup":true,"canDropoff":true,"openingstijden":{"ma":"00:00 - 23:59","di":"00:00 - 23:59","wo":"00:00 - 23:59","do":"00:00 - 23:59","vr":"00:00 - 23:59","za":"00:00 - 23:59","zo":"00:00 - 23:59"}}},{"type":"Feature","geometry":{"type":"Point","coordinates":[6.48586498,52.73205618]},"properties":{"type":"pakketpunt","locatieNaam":"Pakketautomaat Vepa Industrieweg","straatNaam":"INDUSTRIEWEG","straatNr":"31","vervoerder":"DPD","puntType":"dpd_box","bezettingsgraad":50,"latitude":52.73205618,"longitude":6.48586498,"canPickup":true,"canDropoff":true,"openingstijden":{"ma":"00:00 - 23:59","di":"00:00 - 23:59","wo":"00:00 - 23:59","do":"00:00 - 23:59","vr":"00:00 - 23:59","za":"00:00 - 23:59","zo":"00:00 - 23:59"}}},{"type":"Feature","geometry":{"type":"Point","coordinates":[6.5101205,52.7323794]},"properties":{"type":"pakketpunt","locatieNaam":"Pakketautomaat Huis en Tuin Europaw","straatNaam":"EUROPAWEG","straatNr":"8","vervoerder":"DPD","puntType":"dpd_box","bezettingsgraad":50,"latitude":52.7323794,"longitude":6.5101205,"canPickup":true,"canDropoff":true,"openingstijden":{"ma":"09:30 - 17:30","di":"00:00 - 17:30","wo":"09:30 - 17:30","do":"09:30 - 17:30","vr":"09:30 - 20:00","za":"09:00 - 17:00","zo":"13:00 - 17:00"}}},{"type":"Feature","geometry":{"type":"Point","coordinates":[6.4762237,52.720458]},"properties":{"type":"pakketpunt","locatieNaam":"Solutions IT Drenthe","straatNaam":"SCHUTSTRAAT","straatNr":"34","vervoerder":"DPD","puntType":"pickup_point","bezettingsgraad":50,"latitude":52.720458,"longitude":6.4762237,"canPickup":true,"canDropoff":true,"openingstijden":{"ma":"09:00 - 18:00","di":"09:00 - 18:00","wo":"09:00 - 18:00","do":"09:00 - 18:00","vr":"09:00 - 20:00","za":"10:00 - 17:00","zo":"gesloten"}}},{"type":"Feature","geometry":{"type":"Point","coordinates":[6.5174824,52.7113988]},"properties":{"type":"pakketpunt","locatieNaam":"Pakketautomaat LEAP24 Buitenvaart","straatNaam":"MEESTER CRAMERWEG","straatNr":"7","vervoerder":"DPD","puntType":"dpd_box","bezettingsgraad":50,"latitude":52.7113988,"longitude":6.5174824,"canPickup":true,"canDropoff":true,"openingstijden":{"ma":"00:01 - 23:59","di":"00:01 - 23:59","wo":"00:01 - 23:59","do":"00:01 - 23:59","vr":"00:01 - 23:59","za":"00:01 - 23:59","zo":"00:01 - 23:59"}}},{"type":"Feature","geometry":{"type":"Point","coordinates":[6.515705,52.7248275]},"properties":{"type":"pakketpunt","locatieNaam":"ViaTim & De Kroon 198","straatNaam":"DE KROON","straatNr":"198","vervoerder":"DPD","puntType":"pickup_point","bezettingsgraad":50,"latitude":52.7248275,"longitude":6.515705,"canPickup":true,"canDropoff":true,"openingstijden":{"ma":"12:00 - 21:00","di":"12:00 - 21:00","wo":"12:00 - 21:00","do":"12:00 - 21:00","vr":"12:00 - 21:00","za":"12:00 - 17:00","zo":"gesloten"}}},{"type":"Feature","geometry":{"type":"Point","coordinates":[6.484201,52.720931]},"properties":{"type":"pakketpunt","locatieNaam":"BonneBella","straatNaam":"HET HAAGJE","straatNr":"136","vervoerder":"DPD","puntType":"pickup_point","bezettingsgraad":50,"latitude":52.720931,"longitude":6.484201,"canPickup":true,"canDropoff":true,"openingstijden":{"ma":"13:00 - 17:00","di":"10:00 - 17:00","wo":"10:00 - 17:00","do":"10:00 - 17:00","vr":"10:00 - 17:00","za":"10:00 - 16:00","zo":"gesloten"}}},{"type":"Feature","geometry":{"type":"Point","coordinates":[6.477376,52.725257]},"properties":{"type":"pakketpunt","locatieNaam":"It's all Fun and Games","straatNaam":"HOOFDSTRAAT","straatNr":"104","vervoerder":"DPD","puntType":"pickup_point","bezettingsgraad":50,"latitude":52.725257,"longitude":6.477376,"canPickup":true,"canDropoff":true,"openingstijden":{"ma":"gesloten","di":"10:00 - 17:30","wo":"10:00 - 17:30","do":"10:00 - 17:30","vr":"10:00 - 22:00","za":"10:00 - 17:30","zo":"gesloten"}}},{"type":"Feature","geometry":{"type":"Point","coordinates":[6.467585,52.7229]},"properties":{"type":"pakketpunt","locatieNaam":"UR265 Pakketautomaat Budbee","straatNaam":"GRIENDTSVEENWEG","straatNr":"20","vervoerder":"DPD","puntType":"dpd_box","bezettingsgraad":50,"latitude":52.7229,"longitude":6.467585,"canPickup":true,"canDropoff":false,"openingstijden":{"ma":"08:00 - 22:00","di":"08:00 - 22:00","wo":"08:00 - 22:00","do":"08:00 - 22:00","vr":"08:00 - 22:00","za":"08:00 - 22:00","zo":"10:00 - 19:00"}}},{"type":"Feature","geometry":{"type":"Point","coordinates":[6.507927557,52.72391904]},"properties":{"type":"pakketpunt","locatieNaam":"Primera","straatNaam":"Grote Beer","straatNr":"33-35","vervoerder":"PostNL","puntType":"servicepunt","bezettingsgraad":50,"latitude":52.72391904,"longitude":6.507927557,"canPickup":true,"canDropoff":true,"openingstijden":"10:00 - 18:00 (Na 18:00 open; Zaterdag open)"}},{"type":"Feature","geometry":{"type":"Point","coordinates":[6.50781937188543,52.723740303976]},"properties":{"type":"pakketpunt","locatieNaam":"Pakketautomaat","straatNaam":"Grote Beer","straatNr":"41PBA","vervoerder":"PostNL","puntType":"automaat","bezettingsgraad":50,"latitude":52.723740303976,"longitude":6.50781937188543,"canPickup":true,"canDropoff":true,"openingstijden":"08:00 - 20:00"}},{"type":"Feature","geometry":{"type":"Point","coordinates":[6.535507391,52.72456388]},"properties":{"type":"pakketpunt","locatieNaam":"Spar Noordscheschut","straatNaam":"Zwarte Dijkje","straatNr":"26","vervoerder":"PostNL","puntType":"servicepunt","bezettingsgraad":50,"latitude":52.72456388,"longitude":6.535507391,"canPickup":true,"canDropoff":true,"openingstijden":"08:00 - 19:00 (Na 18:00 open; Zaterdag open)"}},{"type":"Feature","geometry":{"type":"Point","coordinates":[6.4981949009558,52.7353256441378]},"properties":{"type":"pakketpunt","locatieNaam":"DRD Knaagdierwinkel","straatNaam":"de Lavalstraat","straatNr":"15","vervoerder":"PostNL","puntType":"servicepunt","bezettingsgraad":50,"latitude":52.7353256441378,"longitude":6.4981949009558,"canPickup":true,"canDropoff":true,"openingstijden":"09:00 - 18:00 (Na 18:00 open; Zaterdag open)"}},{"type":"Feature","geometry":{"type":"Point","coordinates":[6.4981949009558,52.7353256441378]},"properties":{"type":"pakketpunt","locatieNaam":"Pakketautomaat","straatNaam":"De Lavalstraat","straatNr":"15PBA","vervoerder":"PostNL","puntType":"automaat","bezettingsgraad":50,"latitude":52.7353256441378,"longitude":6.4981949009558,"canPickup":true,"canDropoff":true,"openingstijden":"00:00 - 23:59"}},{"type":"Feature","geometry":{"type":"Point","coordinates":[6.49951210248418,52.7160349753665]},"properties":{"type":"pakketpunt","locatieNaam":"Pakketautomaat","straatNaam":"De Wielewaal","straatNr":"30PBA","vervoerder":"PostNL","puntType":"automaat","bezettingsgraad":50,"latitude":52.7160349753665,"longitude":6.49951210248418,"canPickup":true,"canDropoff":true,"openingstijden":"08:00 - 20:00"}},{"type":"Feature","geometry":{"type":"Point","coordinates":[6.489497551,52.72743454]},"properties":{"type":"pakketpunt","locatieNaam":"Kringloop Het Goed Hoogeveen","straatNaam":"Kanaalweg","straatNr":"2","vervoerder":"PostNL","puntType":"servicepunt","bezettingsgraad":50,"latitude":52.72743454,"longitude":6.489497551,"canPickup":true,"canDropoff":true,"openingstijden":"09:00 - 17:30"}},{"type":"Feature","geometry":{"type":"Point","coordinates":[6.48635648938349,52.7208307601832]},"properties":{"type":"pakketpunt","locatieNaam":"Capo Dei Capi","straatNaam":"Het Haagje","straatNr":"156","vervoerder":"PostNL","puntType":"servicepunt","bezettingsgraad":50,"latitude":52.7208307601832,"longitude":6.48635648938349,"canPickup":true,"canDropoff":true,"openingstijden":"10:00 - 17:00"}},{"type":"Feature","geometry":{"type":"Point","coordinates":[6.485793753,52.72141116]},"properties":{"type":"pakketpunt","locatieNaam":"Pakket- en briefautomaat","straatNaam":"het Haagje","straatNr":"145PBA","vervoerder":"PostNL","puntType":"automaat","bezettingsgraad":50,"latitude":52.72141116,"longitude":6.485793753,"canPickup":true,"canDropoff":true,"openingstijden":"00:00 - 23:59"}},{"type":"Feature","geometry":{"type":"Point","coordinates":[6.47960069312068,52.727121344842]},"properties":{"type":"pakketpunt","locatieNaam":"Pakketautomaat","straatNaam":"Tamboerpassage","straatNr":"1PBA","vervoerder":"PostNL","puntType":"automaat","bezettingsgraad":50,"latitude":52.727121344842,"longitude":6.47960069312068,"canPickup":true,"canDropoff":true,"openingstijden":"08:00 - 21:00"}},{"type":"Feature","geometry":{"type":"Point","coordinates":[6.484364278,52.7157442]},"properties":{"type":"pakketpunt","locatieNaam":"Offerein's Readshop","straatNaam":"De Nije Nering","straatNr":"52","vervoerder":"PostNL","puntType":"servicepunt","bezettingsgraad":50,"latitude":52.7157442,"longitude":6.484364278,"canPickup":true,"canDropoff":true,"openingstijden":"08:30 - 18:00 (Na 18:00 open; Zaterdag open)"}},{"type":"Feature","geometry":{"type":"Point","coordinates":[6.53861274834678,52.7063877892935]},"properties":{"type":"pakketpunt","locatieNaam":"Pakketautomaat","straatNaam":"Het Hoekje","straatNr":"45PBA","vervoerder":"PostNL","puntType":"automaat","bezettingsgraad":50,"latitude":52.7063877892935,"longitude":6.53861274834678,"canPickup":true,"canDropoff":true,"openingstijden":"00:00 - 23:59"}},{"type":"Feature","geometry":{"type":"Point","coordinates":[6.47737047407772,52.7255420091053]},"properties":{"type":"pakketpunt","locatieNaam":"Foto-Groep Hoogeveen","straatNaam":"Hoofdstraat","straatNr":"94","vervoerder":"PostNL","puntType":"servicepunt","bezettingsgraad":50,"latitude":52.7255420091053,"longitude":6.47737047407772,"canPickup":true,"canDropoff":true,"openingstijden":"09:00 - 18:00 (Na 18:00 open; Zaterdag open)"}},{"type":"Feature","geometry":{"type":"Point","coordinates":[6.478070416,52.7221383]},"properties":{"type":"pakketpunt","locatieNaam":"Phone  House Hoogeveen","straatNaam":"Hoofdstraat","straatNr":"197","vervoerder":"PostNL","puntType":"servicepunt","bezettingsgraad":50,"latitude":52.7221383,"longitude":6.478070416,"canPickup":true,"canDropoff":true,"openingstijden":"13:00 - 18:00"}},{"type":"Feature","geometry":{"type":"Point","coordinates":[6.53940403621215,52.7060925232114]},"properties":{"type":"pakketpunt","locatieNaam":"PLUS Cappendijck","straatNaam":"Het Hoekje","straatNr":"45E","vervoerder":"PostNL","puntType":"servicepunt","bezettingsgraad":50,"latitude":52.7060925232114,"longitude":6.53940403621215,"canPickup":true,"canDropoff":true,"openingstijden":"09:00 - 18:00"}},{"type":"Feature","geometry":{"type":"Point","coordinates":[6.46591217987813,52.7249184221664]},"properties":{"type":"pakketpunt","locatieNaam":"Pakketautomaat","straatNaam":"Groenewegenstraat","straatNr":"10PBA","vervoerder":"PostNL","puntType":"automaat","bezettingsgraad":50,"latitude":52.7249184221664,"longitude":6.46591217987813,"canPickup":true,"canDropoff":true,"openingstijden":"00:00 - 23:59"}},{"type":"Feature","geometry":{"type":"Point","coordinates":[6.46591218,52.72491842]},"properties":{"type":"pakketpunt","locatieNaam":"GAMMA Hoogeveen","straatNaam":"Groenewegenstraat","straatNr":"10","vervoerder":"PostNL","puntType":"servicepunt","bezettingsgraad":50,"latitude":52.72491842,"longitude":6.46591218,"canPickup":true,"canDropoff":true,"openingstijden":"09:00 - 21:00"}},{"type":"Feature","geometry":{"type":"Point","coordinates":[6.465175068,52.72443977]},"properties":{"type":"pakketpunt","locatieNaam":"KARWEI Hoogeveen","straatNaam":"Groenewegenstraat","straatNr":"11-15","vervoerder":"PostNL","puntType":"servicepunt","bezettingsgraad":50,"latitude":52.72443977,"longitude":6.465175068,"canPickup":true,"canDropoff":true,"openingstijden":"09:00 - 21:00"}},{"type":"Feature","geometry":{"type":"Point","coordinates":[6.452324493,52.71888434]},"properties":{"type":"pakketpunt","locatieNaam":"Bruna De Weide Hoogeveen","straatNaam":"De Weide","straatNr":"19","vervoerder":"PostNL","puntType":"servicepunt","bezettingsgraad":50,"latitude":52.71888434,"longitude":6.452324493,"canPickup":true,"canDropoff":true,"openingstijden":"09:00 - 18:00 (Na 18:00 open; Zaterdag open)"}},{"type":"Feature","geometry":{"type":"Point","coordinates":[6.58026371,52.68233061]},"properties":{"type":"pakketpunt","locatieNaam":"Plus","straatNaam":"Carstensdijk","straatNr":"164","vervoerder":"PostNL","puntType":"servicepunt","bezettingsgraad":50,"latitude":52.68233061,"longitude":6.58026371,"canPickup":true,"canDropoff":true,"openingstijden":"08:00 - 20:00 (Na 18:00 open; Zaterdag open; Zondag open)"}},{"type":"Feature","geometry":{"type":"Point","coordinates":[6.451505345,52.77053371]},"properties":{"type":"pakketpunt","locatieNaam":"Boons Dagmarkt Pesse","straatNaam":"Dorpsstraat","straatNr":"55","vervoerder":"PostNL","puntType":"servicepunt","bezettingsgraad":50,"latitude":52.77053371,"longitude":6.451505345,"canPickup":true,"canDropoff":true,"openingstijden":"08:00 - 19:00 (Na 18:00 open; Zaterdag open; Zondag open)"}},{"type":"Feature","geometry":{"type":"Point","coordinates":[6.451490312,52.77052486]},"properties":{"type":"pakketpunt","locatieNaam":"Pakket- en briefautomaat","straatNaam":"Dorpsstraat","straatNr":"55PBA","vervoerder":"PostNL","puntType":"automaat","bezettingsgraad":50,"latitude":52.77052486,"longitude":6.451490312,"canPickup":true,"canDropoff":true,"openingstijden":"00:00 - 23:59"}},{"type":"Feature","geometry":{"type":"Point","coordinates":[6.609577464,52.69621572]},"properties":{"type":"pakketpunt","locatieNaam":"Attent","straatNaam":"Joh Poststraat","straatNr":"48","vervoerder":"PostNL","puntType":"servicepunt","bezettingsgraad":50,"latitude":52.69621572,"longitude":6.609577464,"canPickup":true,"canDropoff":true,"openingstijden":"08:30 - 12:00, 13:00 - 18:00 (Na 18:00 open; Zaterdag open)"}},{"type":"Feature","geometry":{"type":"Point","coordinates":[6.47623,52.72046]},"properties":{"type":"pakketpunt","locatieNaam":"Solutions IT Drenthe","straatNaam":"Schutstraat 34","straatNr":"","vervoerder":"VintedGo","puntType":"parcel_shop","bezettingsgraad":50,"latitude":52.72046,"longitude":6.47623,"canPickup":true,"canDropoff":true,"openingstijden":null}},{"type":"Feature","geometry":{"type":"Point","coordinates":[6.4516634,52.7191981]},"properties":{"type":"pakketpunt","locatieNaam":"CIGO JANSSEN","straatNaam":"de Weide 8","straatNr":"","vervoerder":"VintedGo","puntType":"parcel_shop","bezettingsgraad":50,"latitude":52.7191981,"longitude":6.4516634,"canPickup":true,"canDropoff":true,"openingstijden":null}},{"type":"Feature","geometry":{"type":"Point","coordinates":[6.57941,52.68102]},"properties":{"type":"pakketpunt","locatieNaam":"A. Benjamins","straatNaam":"Ds Boersmastraat 19","straatNr":"","vervoerder":"VintedGo","puntType":"social","bezettingsgraad":50,"latitude":52.68102,"longitude":6.57941,"canPickup":true,"canDropoff":true,"openingstijden":null}},{"type":"Feature","geometry":{"type":"Point","coordinates":[6.48175,52.73178]},"properties":{"type":"pakketpunt","locatieNaam":"Outlet & Kringloop Experience ","straatNaam":"Industrieweg 46","straatNr":"","vervoerder":"VintedGo","puntType":"parcel_shop","bezettingsgraad":50,"latitude":52.73178,"longitude":6.48175,"canPickup":true,"canDropoff":true,"openingstijden":null}},{"type":"Feature","geometry":{"type":"Point","coordinates":[6.47796,52.72429]},"properties":{"type":"pakketpunt","locatieNaam":"Smobile gsm","straatNaam":"Hoofdstraat 103","straatNr":"","vervoerder":"VintedGo","puntType":"parcel_shop","bezettingsgraad":50,"latitude":52.72429,"longitude":6.47796,"canPickup":true,"canDropoff":true,"openingstijden":null}},{"type":"Feature","geometry":{"type":"Point","coordinates":[6.53551,52.72457]},"properties":{"type":"pakketpunt","locatieNaam":"Spar Noordscheschut","straatNaam":"Zwarte Dijkje 26","straatNr":"","vervoerder":"VintedGo","puntType":"parcel_shop","bezettingsgraad":50,"latitude":52.72457,"longitude":6.53551,"canPickup":true,"canDropoff":true,"openingstijden":null}},{"type":"Feature","geometry":{"type":"Point","coordinates":[6.49516,52.71605]},"properties":{"type":"pakketpunt","locatieNaam":"V. V. veen","straatNaam":"De Grasmus 11","straatNr":"","vervoerder":"VintedGo","puntType":"social","bezettingsgraad":50,"latitude":52.71605,"longitude":6.49516,"canPickup":true,"canDropoff":true,"openingstijden":null}},{"type":"Feature","geometry":{"type":"Point","coordinates":[6.4783919,52.7254856]},"properties":{"type":"pakketpunt","locatieNaam":"Ergin Market / Ria Money Transfer / Turks Winkel","straatNaam":"Van Echtenstraat 7","straatNr":"","vervoerder":"VintedGo","puntType":"locker","bezettingsgraad":50,"latitude":52.7254856,"longitude":6.4783919,"canPickup":true,"canDropoff":true,"openingstijden":null}},{"type":"Feature","geometry":{"type":"Point","coordinates":[6.4773009,52.7252708]},"properties":{"type":"pakketpunt","locatieNaam":"It's All Fun And Games","straatNaam":"Hoofdstraat 104","straatNr":"","vervoerder":"VintedGo","puntType":"parcel_shop","bezettingsgraad":50,"latitude":52.7252708,"longitude":6.4773009,"canPickup":true,"canDropoff":true,"openingstijden":null}},{"type":"Feature","geometry":{"type":"Point","coordinates":[6.5182879,52.711101]},"properties":{"type":"pakketpunt","locatieNaam":"Wasstraat De Wasbeer","straatNaam":"Buitenvaart 3011","straatNr":"","vervoerder":"VintedGo","puntType":"locker","bezettingsgraad":50,"latitude":52.711101,"longitude":6.5182879,"canPickup":true,"canDropoff":true,"openingstijden":null}},{"type":"Feature","geometry":{"type":"Point","coordinates":[6.4865954,52.7209495]},"properties":{"type":"pakketpunt","locatieNaam":"Eivissa Sun Zonnestudio","straatNaam":"Het Haagje 158","straatNr":"","vervoerder":"VintedGo","puntType":"parcel_shop","bezettingsgraad":50,"latitude":52.7209495,"longitude":6.4865954,"canPickup":true,"canDropoff":true,"openingstijden":null}},{"type":"Feature","geometry":{"type":"Point","coordinates":[6.4774377,52.7210823]},"properties":{"type":"pakketpunt","locatieNaam":"Marktstraat Hoogeveen","straatNaam":"Hoofdstraat 246","straatNr":"","vervoerder":"VintedGo","puntType":"locker","bezettingsgraad":50,"latitude":52.7210823,"longitude":6.4774377,"canPickup":true,"canDropoff":true,"openingstijden":null}},{"type":"Feature","geometry":{"type":"Point","coordinates":[6.5335996,52.7108139]},"properties":{"type":"pakketpunt","locatieNaam":"Cambreur","straatNaam":"Abraham Niehuesstraat 1","straatNr":"","vervoerder":"VintedGo","puntType":"locker","bezettingsgraad":50,"latitude":52.7108139,"longitude":6.5335996,"canPickup":true,"canDropoff":true,"openingstijden":null}},{"type":"Feature","geometry":{"type":"Point","coordinates":[6.51293345,52.72296632]},"properties":{"type":"pakketpunt","locatieNaam":"ViaTim Rian van Vliet","straatNaam":"Zuiderkruis","straatNr":"49","vervoerder":"ViaTim","puntType":"servicepunt","bezettingsgraad":50,"latitude":52.72296632,"longitude":6.51293345,"canPickup":true,"canDropoff":true,"openingstijden":{"ma":"13:00 - 17:00","di":"11:00 - 16:00","wo":"gesloten","do":"11:00 - 21:00","vr":"gesloten","za":"10:00 - 15:00","zo":"gesloten"}}},{"type":"Feature","geometry":{"type":"Point","coordinates":[6.51576996,52.72620196]},"properties":{"type":"pakketpunt","locatieNaam":"ViaTim en Sylvia","straatNaam":"Zenithlaan","straatNr":"234","vervoerder":"ViaTim","puntType":"servicepunt","bezettingsgraad":50,"latitude":52.72620196,"longitude":6.51576996,"canPickup":true,"canDropoff":true,"openingstijden":{"ma":"gesloten","di":"gesloten","wo":"08:00 - 22:00","do":"08:00 - 22:00","vr":"gesloten","za":"gesloten","zo":"gesloten"}}},{"type":"Feature","geometry":{"type":"Point","coordinates":[6.53485106,52.70749595]},"properties":{"type":"pakketpunt","locatieNaam":"ViaTim en Roos","straatNaam":"Dominee Kooimanstraat","straatNr":"6","vervoerder":"ViaTim","puntType":"servicepunt","bezettingsgraad":50,"latitude":52.70749595,"longitude":6.53485106,"canPickup":true,"canDropoff":true,"openingstijden":{"ma":"18:00 - 21:00","di":"18:00 - 21:00","wo":"gesloten","do":"gesloten","vr":"gesloten","za":"gesloten","zo":"gesloten"}}},{"type":"Feature","geometry":{"type":"Point","coordinates":[6.495158632657513,52.716050905619255]},"properties":{"type":"pakketpunt","locatieNaam":"ViaTim en De Grasmus 11","straatNaam":"De Grasmus","straatNr":"11","vervoerder":"ViaTim","puntType":"servicepunt","bezettingsgraad":50,"latitude":52.716050905619255,"longitude":6.495158632657513,"canPickup":true,"canDropoff":true,"openingstijden":{"ma":"16:00 - 21:30","di":"16:00 - 21:30","wo":"16:00 - 21:30","do":"16:00 - 21:30","vr":"16:00 - 21:30","za":"gesloten","zo":"09:00 - 13:00"}}},{"type":"Feature","geometry":{"type":"Point","coordinates":[6.515704993209332,52.72482747319092]},"properties":{"type":"pakketpunt","locatieNaam":"ViaTim en De Kroon 198","straatNaam":"De Kroon","straatNr":"198","vervoerder":"ViaTim","puntType":"servicepunt","bezettingsgraad":50,"latitude":52.72482747319092,"longitude":6.515704993209332,"canPickup":true,"canDropoff":true,"openingstijden":{"ma":"12:00 - 21:00","di":"12:00 - 21:00","wo":"12:00 - 21:00","do":"12:00 - 21:00","vr":"12:00 - 21:00","za":"12:00 - 17:00","zo":"gesloten"}}},{"type":"Feature","geometry":{"type":"Point","coordinates":[6.444979728164288,52.71577953435343]},"properties":{"type":"pakketpunt","locatieNaam":"ViaTim en het Anker","straatNaam":"Het Anker","straatNr":"6","vervoerder":"ViaTim","puntType":"servicepunt","bezettingsgraad":50,"latitude":52.71577953435343,"longitude":6.444979728164288,"canPickup":true,"canDropoff":true,"openingstijden":{"ma":"16:00 - 21:00","di":"16:00 - 21:00","wo":"16:00 - 21:00","do":"16:00 - 21:00","vr":"16:00 - 21:00","za":"gesloten","zo":"gesloten"}}},{"type":"Feature","geometry":{"type":"Point","coordinates":[6.57941219550575,52.6810202297323]},"properties":{"type":"pakketpunt","locatieNaam":"ViaTim en Ada","straatNaam":"Ds Boersmastraat","straatNr":"19","vervoerder":"ViaTim","puntType":"servicepunt","bezettingsgraad":50,"latitude":52.6810202297323,"longitude":6.57941219550575,"canPickup":true,"canDropoff":true,"openingstijden":null}},{"type":"Feature","geometry":{"type":"Point","coordinates":[6.538674517310512,52.70641671555881]},"properties":{"type":"pakketpunt","locatieNaam":"FedEx Ship&Get","straatNaam":"Het Hoekje 45 PBA","straatNr":"","vervoerder":"FedEx","puntType":"servicepunt","bezettingsgraad":50,"latitude":52.70641671555881,"longitude":6.538674517310512,"canPickup":true,"canDropoff":true,"openingstijden":{"ma":"00:00 - 23:59","di":"00:00 - 23:59","wo":"00:00 - 23:59","do":"00:00 - 23:59","vr":"00:00 - 23:59","za":"00:00 - 23:59","zo":"00:00 - 23:59"}}},{"type":"Feature","geometry":{"type":"Point","coordinates":[6.4994698550524355,52.71597279497838]},"properties":{"type":"pakketpunt","locatieNaam":"FedEx Ship&Get","straatNaam":"De Wielewaal 30 PBA","straatNr":"","vervoerder":"FedEx","puntType":"servicepunt","bezettingsgraad":50,"latitude":52.71597279497838,"longitude":6.4994698550524355,"canPickup":true,"canDropoff":true,"openingstijden":{"ma":"08:00 - 20:00","di":"08:00 - 20:00","wo":"08:00 - 20:00","do":"08:00 - 20:00","vr":"08:00 - 21:00","za":"08:00 - 20:00","zo":"12:00 - 18:00"}}},{"type":"Feature","geometry":{"type":"Point","coordinates":[6.476178,52.720472]},"properties":{"type":"pakketpunt","locatieNaam":"FedEx OnSite","straatNaam":"SCHUTSTRAAT 34","straatNr":"","vervoerder":"FedEx","puntType":"servicepunt","bezettingsgraad":50,"latitude":52.720472,"longitude":6.476178,"canPickup":true,"canDropoff":true,"openingstijden":{"ma":"09:00 - 18:00","di":"09:00 - 18:00","wo":"09:00 - 18:00","do":"09:00 - 18:00","vr":"09:00 - 18:00","za":"10:00 - 17:00","zo":"gesloten"}}},{"type":"Feature","geometry":{"type":"Point","coordinates":[6.485774449721431,52.72137553434575]},"properties":{"type":"pakketpunt","locatieNaam":"FedEx Ship&Get","straatNaam":"het Haagje 145 PBA","straatNr":"","vervoerder":"FedEx","puntType":"servicepunt","bezettingsgraad":50,"latitude":52.72137553434575,"longitude":6.485774449721431,"canPickup":true,"canDropoff":true,"openingstijden":{"ma":"00:00 - 23:59","di":"00:00 - 23:59","wo":"00:00 - 23:59","do":"00:00 - 23:59","vr":"00:00 - 23:59","za":"00:00 - 23:59","zo":"00:00 - 23:59"}}},{"type":"Feature","geometry":{"type":"Point","coordinates":[6.465923069940551,52.72491250216173]},"properties":{"type":"pakketpunt","locatieNaam":"FedEx Ship&Get","straatNaam":"Groenewegenstraat 10 PBA","straatNr":"","vervoerder":"FedEx","puntType":"servicepunt","bezettingsgraad":50,"latitude":52.72491250216173,"longitude":6.465923069940551,"canPickup":true,"canDropoff":true,"openingstijden":{"ma":"00:00 - 23:59","di":"00:00 - 23:59","wo":"00:00 - 23:59","do":"00:00 - 23:59","vr":"00:00 - 23:59","za":"00:00 - 23:59","zo":"00:00 - 23:59"}}},{"type":"Feature","geometry":{"type":"Point","coordinates":[6.507960809071567,52.72366810953009]},"properties":{"type":"pakketpunt","locatieNaam":"FedEx Ship&Get","straatNaam":"Grote Beer 41 PBA","straatNr":"","vervoerder":"FedEx","puntType":"servicepunt","bezettingsgraad":50,"latitude":52.72366810953009,"longitude":6.507960809071567,"canPickup":true,"canDropoff":true,"openingstijden":{"ma":"08:00 - 20:00","di":"08:00 - 20:00","wo":"08:00 - 20:00","do":"08:00 - 20:00","vr":"08:00 - 21:00","za":"08:00 - 20:00","zo":"12:00 - 18:00"}}},{"type":"Feature","geometry":{"type":"Point","coordinates":[6.479989730287166,52.727104578401736]},"properties":{"type":"pakketpunt","locatieNaam":"FedEx Ship&Get","straatNaam":"Tamboerpassage 1 PBA","straatNr":"","vervoerder":"FedEx","puntType":"servicepunt","bezettingsgraad":50,"latitude":52.727104578401736,"longitude":6.479989730287166,"canPickup":true,"canDropoff":true,"openingstijden":{"ma":"08:00 - 21:00","di":"08:00 - 21:00","wo":"08:00 - 21:00","do":"08:00 - 21:00","vr":"08:00 - 21:00","za":"08:00 - 21:00","zo":"08:00 - 21:00"}}},{"type":"Feature","geometry":{"type":"Point","coordinates":[6.498195,52.735326]},"properties":{"type":"pakketpunt","locatieNaam":"FedEx Ship&Get","straatNaam":"De Lavalstraat 15 PBA","straatNr":"","vervoerder":"FedEx","puntType":"servicepunt","bezettingsgraad":50,"latitude":52.735326,"longitude":6.498195,"canPickup":true,"canDropoff":true,"openingstijden":{"ma":"00:00 - 23:59","di":"00:00 - 23:59","wo":"00:00 - 23:59","do":"00:00 - 23:59","vr":"00:00 - 23:59","za":"00:00 - 23:59","zo":"00:00 - 23:59"}}},{"type":"Feature","geometry":{"type":"Point","coordinates":[6.451553453372947,52.770533425179494]},"properties":{"type":"pakketpunt","locatieNaam":"FedEx Ship&Get","straatNaam":"Dorpsstraat 55 Pba","straatNr":"","vervoerder":"FedEx","puntType":"servicepunt","bezettingsgraad":50,"latitude":52.770533425179494,"longitude":6.451553453372947,"canPickup":true,"canDropoff":true,"openingstijden":{"ma":"09:00 - 19:00","di":"09:00 - 19:00","wo":"09:00 - 19:00","do":"09:00 - 19:00","vr":"09:00 - 19:00","za":"09:00 - 19:00","zo":"09:00 - 19:00"}}},{"type":"Feature","geometry":{"type":"Point","coordinates":[6.47618,52.72047]},"properties":{"type":"pakketpunt","locatieNaam":"SOLUTIONS IT","straatNaam":"Schutstraat 34","straatNr":"","vervoerder":"InPost","puntType":"servicepunt","bezettingsgraad":50,"latitude":52.72047,"longitude":6.47618,"canPickup":true,"canDropoff":true,"openingstijden":null}},{"type":"Feature","geometry":{"type":"Point","coordinates":[6.4516,52.7192]},"properties":{"type":"pakketpunt","locatieNaam":"CIGO JANSSEN HOOGEVEEN","straatNaam":"De Weide 8","straatNr":"","vervoerder":"InPost","puntType":"servicepunt","bezettingsgraad":50,"latitude":52.7192,"longitude":6.4516,"canPickup":true,"canDropoff":true,"openingstijden":null}},{"type":"Feature","geometry":{"type":"Point","coordinates":[6.47816,52.72429]},"properties":{"type":"pakketpunt","locatieNaam":"SMOBILE GSM","straatNaam":"Hoofdstraat 103","straatNr":"","vervoerder":"InPost","puntType":"servicepunt","bezettingsgraad":50,"latitude":52.72429,"longitude":6.47816,"canPickup":true,"canDropoff":true,"openingstijden":null}},{"type":"Feature","geometry":{"type":"Point","coordinates":[6.47839,52.72549]},"properties":{"type":"pakketpunt","locatieNaam":"ERGIN MARKET","straatNaam":"Van Echtenstraat 7","straatNr":"","vervoerder":"InPost","puntType":"servicepunt","bezettingsgraad":50,"latitude":52.72549,"longitude":6.47839,"canPickup":true,"canDropoff":true,"openingstijden":null}},{"type":"Feature","geometry":{"type":"Point","coordinates":[6.52037,52.71826]},"properties":{"type":"pakketpunt","locatieNaam":"","straatNaam":"Krakeel","straatNr":"26c","vervoerder":"InPost","puntType":"automaat","bezettingsgraad":50,"latitude":52.71826,"longitude":6.52037,"canPickup":true,"canDropoff":true,"openingstijden":"MON|-|-;TUE|-|-;WED|-|-;THU|-|-;FRI|-|-;SAT|-|-;SUN|-|-;"}},{"type":"Feature","geometry":{"type":"Point","coordinates":[6.5336,52.71082]},"properties":{"type":"pakketpunt","locatieNaam":"","straatNaam":"Abraham Niehuesstraat","straatNr":"1","vervoerder":"InPost","puntType":"automaat","bezettingsgraad":50,"latitude":52.71082,"longitude":6.5336,"canPickup":true,"canDropoff":true,"openingstijden":"24/7"}},{"type":"Feature","geometry":{"type":"Point","coordinates":[6.467585,52.7229]},"properties":{"type":"pakketpunt","locatieNaam":"UR265 Pakketautomaat Budbee","straatNaam":"GRIENDTSVEENWEG","straatNr":"20","vervoerder":"Budbee","puntType":"automaat","bezettingsgraad":50,"latitude":52.7229,"longitude":6.467585,"canPickup":true,"canDropoff":true,"openingstijden":null}},{"type":"Feature","geometry":{"type":"Polygon","coordinates":[[[6.40475,52.704675],[6.404458,52.704886],[6.404386,52.704937],[6.404202,52.705069],[6.404156,52.705115],[6.40413,52.705149],[6.404103,52.70518],[6.403917,52.705347],[6.403869,52.705396],[6.403832,52.705435],[6.403768,52.705514],[6.403721,52.705587],[6.403679,52.705672],[6.403659,52.705731],[6.40365,52.705758],[6.403622,52.705843],[6.403607,52.705925],[6.403599,52.705999],[6.403605,52.706085],[6.403616,52.706163],[6.403623,52.706191],[6.403638,52.706247],[6.403667,52.706332],[6.403706,52.706417],[6.403764,52.706513],[6.403833,52.706613],[6.404093,52.706979],[6.404096,52.706984],[6.40411,52.707003],[6.404162,52.70707],[6.404198,52.707141],[6.404277,52.70725],[6.404341,52.70734],[6.404395,52.707417],[6.404438,52.707481],[6.404485,52.707573],[6.404529,52.707665],[6.404574,52.707766],[6.404607,52.707857],[6.404635,52.707951],[6.404657,52.708047],[6.404675,52.708149],[6.404685,52.708253],[6.40469,52.70835],[6.404691,52.70845],[6.404688,52.708551],[6.404686,52.708653],[6.404682,52.708736],[6.404687,52.708813],[6.404694,52.708894],[6.404706,52.709008],[6.404726,52.709121],[6.404752,52.709226],[6.404786,52.70934],[6.404818,52.709436],[6.404859,52.709541],[6.404909,52.709647],[6.404961,52.70975],[6.405012,52.709841],[6.405069,52.709931],[6.405136,52.710033],[6.405201,52.710137],[6.405262,52.710235],[6.405312,52.710328],[6.405355,52.710419],[6.405392,52.710504],[6.405425,52.710603],[6.405451,52.710701],[6.405468,52.710786],[6.405484,52.710894],[6.405495,52.710994],[6.405498,52.711087],[6.405496,52.711189],[6.405488,52.711284],[6.405468,52.71139],[6.405434,52.711541],[6.40542,52.711612],[6.405415,52.711633],[6.405402,52.711725],[6.405401,52.71173],[6.405399,52.711832],[6.405404,52.711951],[6.405422,52.712104],[6.405438,52.712215],[6.405478,52.712337],[6.405531,52.712463],[6.405589,52.712583],[6.405642,52.712677],[6.40572,52.712801],[6.405855,52.712978],[6.405932,52.713073],[6.406037,52.713188],[6.406123,52.71327],[6.4062,52.713335],[6.406299,52.713412],[6.406393,52.713476],[6.406496,52.713541],[6.406609,52.713601],[6.406728,52.713659],[6.40684,52.71371],[6.406968,52.713753],[6.4071,52.7138],[6.407228,52.713841],[6.40725,52.713848],[6.407365,52.713876],[6.407387,52.71388],[6.407458,52.713895],[6.407575,52.713917],[6.40771,52.713938],[6.407874,52.713958],[6.40809,52.713977],[6.408323,52.713997],[6.408411,52.714004],[6.408561,52.714016],[6.408772,52.714036],[6.408847,52.714043],[6.408949,52.714054],[6.409107,52.714075],[6.409257,52.714104],[6.409337,52.71412],[6.409403,52.714133],[6.409544,52.714168],[6.409692,52.714213],[6.409846,52.714264],[6.409934,52.714295],[6.410006,52.714327],[6.410035,52.714345],[6.410044,52.71435],[6.410133,52.714385],[6.410164,52.714395],[6.410268,52.714449],[6.410391,52.714511],[6.410635,52.714629],[6.410834,52.714726],[6.410853,52.714735],[6.410901,52.71476],[6.410998,52.714812],[6.411246,52.71494],[6.411512,52.715086],[6.41155,52.715108],[6.411622,52.715149],[6.411701,52.715193],[6.411744,52.715217],[6.411947,52.715338],[6.41212,52.715447],[6.412299,52.715558],[6.412445,52.715652],[6.412566,52.715738],[6.412718,52.715846],[6.412909,52.715986],[6.41307,52.716106],[6.413203,52.716209],[6.413349,52.716327],[6.413515,52.716471],[6.413583,52.716528],[6.413669,52.716601],[6.413749,52.716677],[6.413829,52.716752],[6.41391,52.716827],[6.414218,52.717126],[6.414365,52.717261],[6.413971,52.719222],[6.414064,52.719298],[6.414341,52.719521],[6.414378,52.719553],[6.414456,52.719619],[6.414637,52.720221],[6.414441,52.72027],[6.413242,52.720573],[6.413147,52.720698],[6.411885,52.722233],[6.410953,52.723365],[6.410257,52.724212],[6.406803,52.72841],[6.410733,52.729224],[6.414742,52.730053],[6.416819,52.730483],[6.418021,52.730732],[6.419072,52.730949],[6.419986,52.731138],[6.420078,52.731157],[6.420656,52.731277],[6.421326,52.731415],[6.421279,52.731489],[6.420776,52.73229],[6.420734,52.732358],[6.420041,52.733462],[6.419317,52.734613],[6.418558,52.735821],[6.417785,52.737051],[6.416981,52.738329],[6.415392,52.740857],[6.423193,52.743],[6.423246,52.743097],[6.42332,52.743246],[6.423327,52.743263],[6.423456,52.743572],[6.423387,52.74368],[6.42335,52.74374],[6.423188,52.743995],[6.421589,52.746514],[6.421568,52.746548],[6.421275,52.747009],[6.42122,52.747098],[6.421209,52.747117],[6.420594,52.748112],[6.42058,52.748135],[6.420523,52.748227],[6.426286,52.751423],[6.424775,52.752427],[6.419403,52.755994],[6.419134,52.755935],[6.417567,52.75561],[6.417271,52.755548],[6.416509,52.755396],[6.416145,52.755317],[6.416073,52.755432],[6.416041,52.755482],[6.412143,52.761688],[6.41213,52.761709],[6.412105,52.761748],[6.412096,52.761764],[6.410876,52.763706],[6.410287,52.764651],[6.410278,52.764663],[6.410134,52.764885],[6.410502,52.764996],[6.410914,52.765116],[6.411331,52.765234],[6.411746,52.765349],[6.412176,52.765462],[6.412605,52.765573],[6.413035,52.76568],[6.413464,52.765782],[6.413727,52.765842],[6.413988,52.765902],[6.413948,52.765966],[6.413891,52.76606],[6.415209,52.766183],[6.416145,52.766337],[6.416917,52.766474],[6.417774,52.766611],[6.418716,52.766749],[6.419745,52.766886],[6.421369,52.76708],[6.423002,52.767283],[6.423088,52.767286],[6.424547,52.767462],[6.424696,52.767494],[6.425436,52.767573],[6.425717,52.767638],[6.42607,52.767706],[6.427038,52.767808],[6.427572,52.767848],[6.428337,52.76796],[6.428343,52.767972],[6.428726,52.768031],[6.429437,52.768155],[6.430132,52.768296],[6.430832,52.768454],[6.431524,52.768624],[6.432181,52.768802],[6.432842,52.769002],[6.433486,52.769208],[6.434129,52.769426],[6.434748,52.769656],[6.435297,52.769877],[6.435389,52.769914],[6.435433,52.769933],[6.435869,52.770127],[6.436459,52.770399],[6.43703,52.770682],[6.437528,52.770943],[6.43806,52.771246],[6.438575,52.771556],[6.439072,52.771877],[6.440016,52.772518],[6.440589,52.772907],[6.44071,52.772988],[6.441301,52.773383],[6.441349,52.773415],[6.441587,52.773578],[6.441784,52.773713],[6.44204,52.773888],[6.442459,52.77417],[6.442738,52.774345],[6.443049,52.774528],[6.443077,52.774544],[6.443567,52.774802],[6.443765,52.774995],[6.443789,52.774986],[6.444311,52.775094],[6.444332,52.7751],[6.444416,52.775125],[6.444523,52.775163],[6.444616,52.775201],[6.4447,52.775242],[6.444725,52.775253],[6.444732,52.775258],[6.444792,52.775291],[6.44484,52.775318],[6.444903,52.775355],[6.444928,52.775373],[6.444948,52.775387],[6.445002,52.775428],[6.44505,52.775469],[6.4452,52.775606],[6.445241,52.775645],[6.44529,52.775697],[6.445365,52.775791],[6.445434,52.775884],[6.445685,52.776241],[6.446089,52.776153],[6.446152,52.776095],[6.446197,52.776224],[6.446319,52.776604],[6.446339,52.776664],[6.446361,52.776731],[6.446362,52.776735],[6.446621,52.776745],[6.446645,52.776836],[6.44646,52.776831],[6.446464,52.776849],[6.446504,52.777056],[6.446525,52.7772],[6.44653,52.777239],[6.44655,52.777426],[6.44655,52.777431],[6.446552,52.777453],[6.446559,52.777544],[6.446361,52.777535],[6.446269,52.777656],[6.446214,52.777728],[6.446294,52.777803],[6.446325,52.777837],[6.446342,52.777872],[6.44639,52.779057],[6.446423,52.779859],[6.446495,52.781642],[6.446483,52.781641],[6.446496,52.782001],[6.446633,52.782073],[6.446625,52.782586],[6.446625,52.783163],[6.446642,52.783631],[6.446646,52.783741],[6.446688,52.784319],[6.446614,52.78483],[6.446613,52.78484],[6.446677,52.784897],[6.446688,52.78492],[6.446717,52.784977],[6.44681,52.78526],[6.446813,52.785276],[6.446915,52.785865],[6.44692,52.785889],[6.44707,52.786572],[6.447211,52.787129],[6.447358,52.787638],[6.447377,52.787702],[6.447609,52.788398],[6.447638,52.788487],[6.447644,52.788505],[6.447863,52.789092],[6.448114,52.789694],[6.448155,52.789782],[6.44839,52.790295],[6.448397,52.790308],[6.448504,52.790523],[6.4487,52.790914],[6.449052,52.791547],[6.449179,52.79176],[6.44941,52.792147],[6.449734,52.792763],[6.450608,52.793972],[6.450805,52.794236],[6.451075,52.794559],[6.451209,52.794728],[6.451282,52.794828],[6.452728,52.796824],[6.453265,52.79755],[6.454875,52.799728],[6.455219,52.800209],[6.455451,52.800556],[6.456414,52.80036],[6.456761,52.800289],[6.461499,52.799321],[6.462338,52.799153],[6.46426,52.798757],[6.465007,52.798604],[6.46567,52.798469],[6.468623,52.797865],[6.46957,52.797672],[6.469988,52.797586],[6.474861,52.79659],[6.475122,52.796537],[6.475175,52.796526],[6.475216,52.796518],[6.478272,52.795893],[6.478309,52.795885],[6.478379,52.795871],[6.478415,52.795863],[6.478441,52.795858],[6.478585,52.795829],[6.480067,52.795525],[6.480081,52.795523],[6.480565,52.795423],[6.480944,52.795346],[6.481324,52.795268],[6.481689,52.795194],[6.482053,52.795119],[6.482418,52.795044],[6.482811,52.794964],[6.483475,52.794828],[6.48477,52.794563],[6.485542,52.794405],[6.486225,52.794265],[6.48959,52.793577],[6.491805,52.793123],[6.492451,52.792102],[6.492931,52.791341],[6.493858,52.789874],[6.494278,52.78921],[6.494318,52.789148],[6.494327,52.789132],[6.494329,52.789129],[6.49433,52.789128],[6.494398,52.78902],[6.494579,52.788735],[6.494965,52.788124],[6.494971,52.788114],[6.495034,52.788013],[6.495747,52.786885],[6.496104,52.786319],[6.496164,52.786225],[6.495917,52.785544],[6.494623,52.781976],[6.493981,52.780252],[6.494052,52.780259],[6.493835,52.779664],[6.493507,52.778763],[6.493497,52.778763],[6.493497,52.778763],[6.493496,52.778763],[6.492971,52.777274],[6.493008,52.777274],[6.492761,52.776585],[6.492663,52.77659],[6.4924,52.775934],[6.491834,52.774343],[6.49158,52.773628],[6.49156,52.773573],[6.491343,52.772963],[6.491416,52.772956],[6.49138,52.77283],[6.491262,52.7725],[6.491252,52.772474],[6.491137,52.772163],[6.491027,52.771861],[6.490874,52.771439],[6.490719,52.771022],[6.490696,52.77096],[6.49067,52.770886],[6.490669,52.770885],[6.490712,52.770888],[6.490718,52.770888],[6.490983,52.770879],[6.490999,52.770878],[6.491122,52.770884],[6.491215,52.770888],[6.491272,52.770891],[6.492027,52.770926],[6.492354,52.770947],[6.49248,52.770956],[6.492533,52.770959],[6.492571,52.770961],[6.492617,52.770962],[6.492659,52.770962],[6.492701,52.770962],[6.492745,52.770961],[6.492811,52.770961],[6.492877,52.770958],[6.492928,52.770956],[6.493061,52.770946],[6.493156,52.770938],[6.49317,52.770936],[6.493519,52.770887],[6.493527,52.770886],[6.493569,52.770877],[6.493649,52.770866],[6.493669,52.770863],[6.494095,52.770796],[6.494461,52.770744],[6.49463,52.77072],[6.494656,52.770716],[6.494665,52.770715],[6.495182,52.770634],[6.496316,52.770466],[6.496316,52.770466],[6.496316,52.770466],[6.497094,52.770347],[6.497149,52.770334],[6.497191,52.770325],[6.497244,52.770316],[6.497462,52.77028],[6.498073,52.770184],[6.498126,52.770175],[6.498146,52.770172],[6.498208,52.770162],[6.498515,52.770116],[6.498516,52.770116],[6.498526,52.770114],[6.498526,52.770114],[6.499359,52.769986],[6.499767,52.769925],[6.499789,52.769922],[6.499876,52.769911],[6.500176,52.769863],[6.500508,52.769808],[6.500561,52.769797],[6.500744,52.769766],[6.501233,52.769694],[6.501533,52.769647],[6.501654,52.76963],[6.501771,52.769614],[6.502385,52.769526],[6.502841,52.769455],[6.503135,52.769408],[6.503234,52.76939],[6.503274,52.769381],[6.503309,52.76937],[6.503328,52.769355],[6.503365,52.769346],[6.503412,52.769334],[6.503408,52.769214],[6.503407,52.769205],[6.503544,52.769134],[6.503573,52.769119],[6.504241,52.768735],[6.504278,52.768715],[6.504325,52.768688],[6.504384,52.768656],[6.50449,52.768596],[6.505401,52.768085],[6.505437,52.768013],[6.505533,52.76807],[6.505539,52.768074],[6.506221,52.768484],[6.506238,52.768495],[6.506284,52.768522],[6.506296,52.768529],[6.506299,52.768531],[6.506493,52.768648],[6.506563,52.76869],[6.506674,52.768748],[6.506746,52.768778],[6.507021,52.768877],[6.507216,52.768951],[6.507291,52.76898],[6.507591,52.769096],[6.507609,52.769103],[6.507643,52.769084],[6.507704,52.769043],[6.507719,52.769032],[6.507811,52.768966],[6.507847,52.768921],[6.507905,52.768847],[6.508151,52.7685],[6.508329,52.768257],[6.508558,52.76793],[6.508725,52.767691],[6.50874,52.767671],[6.508768,52.767634],[6.508832,52.767547],[6.508843,52.767532],[6.508903,52.76743],[6.50907,52.7672],[6.509214,52.767001],[6.509214,52.767],[6.509214,52.767],[6.509215,52.767],[6.509242,52.766962],[6.509242,52.766962],[6.509242,52.766962],[6.509291,52.766894],[6.509448,52.766679],[6.509526,52.766577],[6.509633,52.766426],[6.509718,52.766308],[6.509724,52.7663],[6.509786,52.76621],[6.509915,52.766022],[6.510006,52.76589],[6.510043,52.765832],[6.51038,52.765372],[6.51072,52.764898],[6.510965,52.764558],[6.511192,52.764243],[6.511328,52.764053],[6.511384,52.763976],[6.511417,52.763908],[6.511559,52.763708],[6.511688,52.763534],[6.511748,52.763453],[6.511799,52.76338],[6.511907,52.763224],[6.511955,52.763159],[6.511982,52.763121],[6.512115,52.762934],[6.512265,52.762719],[6.512483,52.76242],[6.512651,52.762191],[6.512681,52.76215],[6.512729,52.762084],[6.512737,52.762086],[6.512761,52.762092],[6.512891,52.762127],[6.512925,52.762136],[6.513524,52.762293],[6.514273,52.762491],[6.515023,52.76269],[6.516929,52.763192],[6.518449,52.763592],[6.519576,52.763889],[6.519658,52.763911],[6.519718,52.763927],[6.52005,52.764015],[6.520151,52.764041],[6.520249,52.764067],[6.520668,52.764176],[6.521837,52.764482],[6.522417,52.764635],[6.522794,52.764734],[6.523826,52.765008],[6.524075,52.765073],[6.524555,52.765199],[6.525049,52.765329],[6.52511,52.765345],[6.52638,52.765681],[6.527719,52.766033],[6.527973,52.766099],[6.528059,52.766121],[6.528227,52.766164],[6.528306,52.766185],[6.528371,52.766201],[6.528518,52.766241],[6.528805,52.766294],[6.530715,52.766821],[6.532098,52.767203],[6.535368,52.768104],[6.537521,52.765234],[6.539382,52.765257],[6.541518,52.765283],[6.541526,52.765283],[6.542818,52.765298],[6.543314,52.765304],[6.543332,52.765304],[6.544664,52.765322],[6.545078,52.765327],[6.545107,52.765327],[6.545449,52.765331],[6.547294,52.765354],[6.547498,52.765356],[6.550071,52.765388],[6.550072,52.765388],[6.551185,52.765401],[6.554909,52.765452],[6.563404,52.765565],[6.563439,52.765536],[6.563482,52.76553],[6.56357,52.765519],[6.566317,52.765578],[6.566348,52.765578],[6.566385,52.765579],[6.564631,52.761716],[6.564053,52.760498],[6.563796,52.759954],[6.563174,52.758384],[6.562916,52.757799],[6.562329,52.756465],[6.561846,52.75537],[6.561507,52.754607],[6.560991,52.753446],[6.560955,52.753365],[6.560932,52.753312],[6.56093,52.753309],[6.560357,52.75202],[6.560347,52.751996],[6.560148,52.751549],[6.559769,52.750696],[6.55976,52.750675],[6.559215,52.749449],[6.559174,52.749358],[6.558639,52.748154],[6.557548,52.745698],[6.557535,52.745669],[6.557401,52.745368],[6.5574,52.745365],[6.557735,52.745337],[6.557768,52.745334],[6.558262,52.745293],[6.558849,52.745244],[6.558995,52.745226],[6.55914,52.745202],[6.559211,52.745188],[6.559283,52.745173],[6.559354,52.745156],[6.559444,52.745134],[6.559532,52.745109],[6.559661,52.745065],[6.559789,52.745019],[6.560041,52.744925],[6.561289,52.744442],[6.562542,52.743962],[6.573102,52.739891],[6.57316,52.73987],[6.57322,52.739858],[6.573281,52.73986],[6.573341,52.739877],[6.573382,52.739897],[6.573589,52.740097],[6.573683,52.740187],[6.574036,52.740523],[6.574179,52.740468],[6.574336,52.740407],[6.574369,52.740394],[6.577017,52.739364],[6.586119,52.735825],[6.586301,52.735754],[6.586593,52.736034],[6.587467,52.73569],[6.584979,52.733327],[6.584401,52.732778],[6.583011,52.731457],[6.580782,52.72934],[6.580298,52.72888],[6.578952,52.727601],[6.576503,52.72525],[6.576533,52.725249],[6.576428,52.724266],[6.578981,52.724174],[6.582531,52.724032],[6.586173,52.723909],[6.589695,52.723784],[6.593119,52.723648],[6.595888,52.723539],[6.596246,52.723534],[6.59658,52.72354],[6.596779,52.723547],[6.596773,52.723474],[6.596767,52.723412],[6.596624,52.721897],[6.596567,52.721296],[6.596509,52.720679],[6.59645,52.720055],[6.59639,52.719414],[6.596265,52.718089],[6.596144,52.716806],[6.596134,52.7167],[6.596133,52.716699],[6.595922,52.714524],[6.595863,52.713921],[6.595794,52.713218],[6.598849,52.713096],[6.601779,52.712978],[6.604138,52.712884],[6.607206,52.712761],[6.607208,52.712777],[6.607293,52.712776],[6.607293,52.712779],[6.60817,52.712754],[6.609354,52.712725],[6.609978,52.712715],[6.609979,52.71268],[6.610232,52.712675],[6.610689,52.712666],[6.610722,52.712847],[6.610747,52.712843],[6.610827,52.712831],[6.611104,52.712793],[6.611351,52.712758],[6.611626,52.712723],[6.6119,52.712697],[6.612211,52.712674],[6.612275,52.712671],[6.612423,52.712662],[6.612517,52.712657],[6.612855,52.712644],[6.613684,52.712622],[6.615148,52.712593],[6.616606,52.712562],[6.618328,52.712526],[6.619563,52.712503],[6.621039,52.712476],[6.62301,52.712439],[6.62405,52.712423],[6.624862,52.712418],[6.625598,52.712432],[6.626332,52.712451],[6.627098,52.712488],[6.627803,52.71253],[6.628557,52.712588],[6.629283,52.712656],[6.629937,52.712727],[6.62993,52.712441],[6.629899,52.712375],[6.629843,52.712297],[6.629823,52.712053],[6.629816,52.711963],[6.629772,52.711415],[6.629757,52.711239],[6.629713,52.710508],[6.629658,52.709604],[6.629604,52.708706],[6.629562,52.707983],[6.629547,52.707806],[6.629533,52.707629],[6.629513,52.707277],[6.629493,52.706919],[6.629489,52.706893],[6.629475,52.706801],[6.629469,52.70667],[6.629469,52.706528],[6.629451,52.706106],[6.629443,52.706002],[6.62943,52.705821],[6.629387,52.705098],[6.62935,52.704454],[6.629335,52.704251],[6.629326,52.70413],[6.629359,52.704129],[6.629358,52.704107],[6.629306,52.703291],[6.629249,52.70239],[6.629192,52.701485],[6.629135,52.700581],[6.629156,52.700581],[6.629096,52.69968],[6.629086,52.69968],[6.629021,52.698777],[6.628987,52.698061],[6.628977,52.698025],[6.628929,52.697995],[6.62884,52.697863],[6.628887,52.697821],[6.628848,52.697085],[6.628848,52.696997],[6.628847,52.696918],[6.62884,52.696665],[6.628842,52.696415],[6.628856,52.696226],[6.628904,52.695858],[6.628986,52.695859],[6.629017,52.695585],[6.628951,52.695586],[6.628957,52.695543],[6.628972,52.695418],[6.628975,52.695394],[6.629012,52.695097],[6.629066,52.694665],[6.629102,52.694367],[6.629136,52.694091],[6.629167,52.693844],[6.629259,52.693029],[6.629293,52.692758],[6.629327,52.692573],[6.629361,52.692464],[6.629427,52.692282],[6.629463,52.692207],[6.629674,52.69184],[6.630033,52.691218],[6.630043,52.691201],[6.630054,52.691182],[6.630076,52.691145],[6.630077,52.691142],[6.630407,52.690587],[6.630477,52.690462],[6.630723,52.69004],[6.631009,52.68955],[6.631537,52.688657],[6.631949,52.68796],[6.632092,52.687717],[6.632149,52.687609],[6.632198,52.687502],[6.632267,52.687303],[6.632294,52.687189],[6.632316,52.687058],[6.63232,52.687046],[6.632346,52.686957],[6.632372,52.686867],[6.632413,52.68673],[6.632394,52.686422],[6.632379,52.686163],[6.632223,52.68335],[6.632219,52.68328],[6.632155,52.682038],[6.632122,52.681214],[6.63212,52.681213],[6.632097,52.680999],[6.632083,52.680699],[6.632107,52.68056],[6.63213,52.680527],[6.632176,52.680382],[6.632186,52.680332],[6.632184,52.680222],[6.632188,52.680197],[6.632194,52.680163],[6.632181,52.679971],[6.63218,52.679955],[6.632202,52.679946],[6.632207,52.67993],[6.632203,52.679876],[6.632181,52.679852],[6.632173,52.679732],[6.632128,52.679051],[6.632137,52.679034],[6.632136,52.678915],[6.632121,52.67856],[6.632074,52.678561],[6.632028,52.677292],[6.631982,52.676183],[6.631958,52.675767],[6.631935,52.675328],[6.631923,52.674963],[6.631905,52.674584],[6.631903,52.674552],[6.631886,52.674417],[6.63187,52.674317],[6.631846,52.674181],[6.63182,52.674087],[6.631812,52.674045],[6.631785,52.673943],[6.631768,52.673873],[6.631626,52.673528],[6.631583,52.673439],[6.631427,52.673159],[6.631419,52.673146],[6.631348,52.673017],[6.631337,52.672999],[6.631079,52.672534],[6.630794,52.672016],[6.630756,52.671958],[6.630486,52.671482],[6.630185,52.67095],[6.630175,52.670933],[6.629819,52.670277],[6.62977,52.670186],[6.629533,52.669792],[6.629453,52.669688],[6.6293,52.669733],[6.629205,52.669761],[6.629051,52.669806],[6.626369,52.670589],[6.624597,52.671106],[6.619643,52.672557],[6.619613,52.672566],[6.619556,52.672582],[6.618304,52.672947],[6.617181,52.673275],[6.616549,52.673459],[6.616012,52.673616],[6.614527,52.674049],[6.614311,52.67402],[6.614102,52.673991],[6.609115,52.673311],[6.609005,52.673296],[6.608811,52.673269],[6.608778,52.673265],[6.608101,52.673173],[6.608032,52.673164],[6.607903,52.673147],[6.607882,52.673144],[6.607504,52.673093],[6.607273,52.673061],[6.607258,52.673059],[6.60605,52.672893],[6.605671,52.672841],[6.60551,52.672819],[6.60516,52.672772],[6.605035,52.672755],[6.604641,52.672701],[6.604423,52.672671],[6.603875,52.672596],[6.603029,52.672479],[6.602527,52.672409],[6.602509,52.672406],[6.601641,52.672284],[6.601538,52.672269],[6.599633,52.672002],[6.597027,52.67167],[6.596797,52.671636],[6.594996,52.67139],[6.594974,52.671387],[6.594115,52.67127],[6.593355,52.671166],[6.593216,52.671147],[6.591759,52.670948],[6.590004,52.670708],[6.589489,52.670637],[6.588899,52.670557],[6.588635,52.670521],[6.585564,52.670102],[6.585158,52.670047],[6.584809,52.669999],[6.584511,52.669956],[6.582494,52.669674],[6.582484,52.669673],[6.581647,52.669556],[6.581567,52.669545],[6.58105,52.669473],[6.581019,52.669469],[6.580958,52.66946],[6.580927,52.669456],[6.579666,52.669276],[6.579658,52.669275],[6.57948,52.66925],[6.57685,52.668888],[6.574949,52.668626],[6.574948,52.668626],[6.572032,52.668224],[6.571902,52.668206],[6.571644,52.668171],[6.570384,52.667998],[6.568958,52.667802],[6.568242,52.667704],[6.568198,52.667698],[6.567877,52.667654],[6.567841,52.667649],[6.563754,52.667096],[6.562814,52.666968],[6.562644,52.666945],[6.561879,52.666839],[6.560913,52.666705],[6.560707,52.666677],[6.55933,52.666486],[6.558276,52.66634],[6.558269,52.666339],[6.558267,52.666339],[6.556898,52.666152],[6.555712,52.66599],[6.555404,52.665948],[6.555239,52.665925],[6.555236,52.665925],[6.554693,52.665851],[6.553814,52.665731],[6.553812,52.665731],[6.553759,52.665723],[6.553685,52.665713],[6.553676,52.665712],[6.552821,52.665595],[6.552211,52.6654],[6.552184,52.665391],[6.551831,52.665278],[6.550426,52.664829],[6.549723,52.664604],[6.549335,52.66448],[6.548498,52.664212],[6.548482,52.664207],[6.54744,52.663873],[6.547435,52.663852],[6.5465,52.663553],[6.546476,52.663543],[6.546458,52.663535],[6.54596,52.663272],[6.545813,52.663195],[6.544983,52.662757],[6.544929,52.662728],[6.54393,52.6622],[6.543701,52.662079],[6.543295,52.661865],[6.542854,52.661633],[6.542817,52.661613],[6.541751,52.66105],[6.541126,52.660721],[6.541117,52.660716],[6.540663,52.660476],[6.540503,52.660391],[6.54048,52.660379],[6.5404,52.660337],[6.540389,52.660331],[6.539785,52.660012],[6.539779,52.660009],[6.539777,52.660008],[6.539766,52.660002],[6.539378,52.659798],[6.539103,52.659653],[6.539099,52.659651],[6.539095,52.659649],[6.538557,52.659366],[6.537648,52.658886],[6.537225,52.658663],[6.536571,52.658319],[6.536003,52.658028],[6.536,52.658026],[6.535998,52.658025],[6.535995,52.658024],[6.535908,52.657979],[6.535888,52.657969],[6.535588,52.657809],[6.534588,52.657277],[6.534325,52.657137],[6.534318,52.657133],[6.533815,52.656866],[6.533322,52.656603],[6.533316,52.6566],[6.533309,52.656596],[6.532559,52.656198],[6.532109,52.655958],[6.530918,52.655325],[6.530806,52.655265],[6.530757,52.65524],[6.530755,52.655239],[6.530536,52.655122],[6.529647,52.654649],[6.529639,52.654644],[6.529415,52.654525],[6.529381,52.654507],[6.529726,52.659624],[6.529994,52.663375],[6.530064,52.664534],[6.530136,52.665729],[6.530253,52.667354],[6.530376,52.669503],[6.530416,52.670093],[6.530429,52.670388],[6.530461,52.671076],[6.530513,52.671947],[6.530556,52.672472],[6.53053,52.672472],[6.530526,52.672473],[6.52796,52.672548],[6.527497,52.672561],[6.526101,52.67261],[6.525224,52.67264],[6.525166,52.672642],[6.522801,52.672726],[6.521247,52.672781],[6.515854,52.672967],[6.515843,52.672967],[6.51579,52.672969],[6.513926,52.673035],[6.511268,52.673129],[6.510808,52.673146],[6.51021,52.673169],[6.508328,52.673244],[6.508161,52.67325],[6.506589,52.673305],[6.506151,52.67332],[6.505815,52.673333],[6.503692,52.673416],[6.503319,52.673429],[6.502363,52.673462],[6.502114,52.673484],[6.501416,52.673503],[6.499552,52.673554],[6.499773,52.675634],[6.499774,52.675643],[6.499249,52.675657],[6.49876,52.675671],[6.498763,52.675705],[6.497921,52.675742],[6.496732,52.675793],[6.495566,52.675844],[6.49284,52.67596],[6.49259,52.67597],[6.492579,52.675971],[6.492574,52.675971],[6.49258,52.676071],[6.49259,52.676304],[6.492602,52.676528],[6.492602,52.676534],[6.492623,52.676958],[6.492659,52.677678],[6.492662,52.677733],[6.492665,52.67781],[6.492692,52.67834],[6.492729,52.679],[6.49273,52.679029],[6.492733,52.679081],[6.492735,52.679106],[6.492762,52.679795],[6.49279,52.680489],[6.492791,52.680529],[6.492796,52.680637],[6.492818,52.681118],[6.492835,52.681467],[6.492837,52.681503],[6.492839,52.681545],[6.492858,52.681947],[6.492877,52.682364],[6.49288,52.682419],[6.492882,52.682489],[6.492903,52.682999],[6.492922,52.683499],[6.492925,52.683555],[6.492926,52.683587],[6.493062,52.683585],[6.493066,52.683585],[6.49325,52.683583],[6.493322,52.683582],[6.493331,52.684126],[6.492966,52.684129],[6.492078,52.684142],[6.491642,52.68415],[6.490183,52.684169],[6.49003,52.684172],[6.488855,52.684189],[6.488854,52.684189],[6.488781,52.684188],[6.488753,52.684188],[6.487697,52.684206],[6.487607,52.684205],[6.486563,52.684221],[6.486481,52.684221],[6.485059,52.684242],[6.484981,52.684244],[6.484977,52.684244],[6.484852,52.684246],[6.484872,52.684413],[6.484936,52.684951],[6.485005,52.685537],[6.485007,52.685555],[6.485015,52.68562],[6.485076,52.686136],[6.48512,52.686471],[6.485125,52.686513],[6.485131,52.686557],[6.485191,52.68702],[6.485197,52.687061],[6.485214,52.687195],[6.485215,52.687201],[6.485219,52.68723],[6.485222,52.687256],[6.485224,52.687273],[6.485243,52.687414],[6.485292,52.687808],[6.485301,52.687878],[6.485302,52.687885],[6.485338,52.688225],[6.485385,52.688673],[6.485389,52.68871],[6.485393,52.688758],[6.485436,52.689261],[6.485439,52.689289],[6.48544,52.689303],[6.485443,52.689321],[6.4855,52.68978],[6.485506,52.689835],[6.485553,52.690214],[6.485573,52.690374],[6.485619,52.690742],[6.485622,52.690761],[6.485674,52.691165],[6.485677,52.691191],[6.485725,52.691524],[6.485732,52.691575],[6.485736,52.691603],[6.485772,52.691968],[6.485776,52.692007],[6.48582,52.692469],[6.485825,52.692529],[6.485828,52.692554],[6.485829,52.692563],[6.485904,52.693095],[6.485956,52.693458],[6.485972,52.693575],[6.485973,52.693579],[6.48598,52.693633],[6.485342,52.693654],[6.483227,52.693732],[6.480691,52.693816],[6.479435,52.693888],[6.478621,52.693916],[6.477614,52.693965],[6.477576,52.693967],[6.477426,52.693974],[6.477277,52.693981],[6.477265,52.693982],[6.477251,52.693982],[6.476946,52.693993],[6.4762,52.694004],[6.475915,52.694028],[6.475761,52.694046],[6.474699,52.694208],[6.474486,52.694233],[6.47401,52.694283],[6.473632,52.694294],[6.473365,52.694292],[6.473084,52.694273],[6.47173,52.69413],[6.466223,52.693591],[6.463319,52.693308],[6.463294,52.693391],[6.46329,52.693402],[6.463146,52.693864],[6.462976,52.694579],[6.462815,52.695203],[6.462572,52.695179],[6.461538,52.695075],[6.460675,52.69499],[6.46066,52.694989],[6.459395,52.694866],[6.458324,52.694756],[6.457282,52.694654],[6.456108,52.69454],[6.455821,52.694512],[6.453661,52.694299],[6.452716,52.694204],[6.452104,52.69414],[6.451898,52.694118],[6.45141,52.694069],[6.450377,52.693965],[6.449605,52.693889],[6.448677,52.693788],[6.448713,52.693926],[6.44877,52.694119],[6.448816,52.694283],[6.448865,52.694429],[6.448905,52.694549],[6.448955,52.694696],[6.44901,52.694865],[6.449067,52.695018],[6.449135,52.695211],[6.449151,52.695264],[6.44919,52.69536],[6.449241,52.695499],[6.449296,52.695642],[6.449353,52.695774],[6.449408,52.695901],[6.449457,52.696027],[6.449534,52.696192],[6.449619,52.696375],[6.449691,52.696538],[6.449725,52.696615],[6.449791,52.696746],[6.449853,52.696868],[6.449912,52.696989],[6.449982,52.697128],[6.450097,52.697352],[6.450147,52.697446],[6.450204,52.697556],[6.450256,52.697651],[6.450308,52.697748],[6.450419,52.697962],[6.450474,52.698063],[6.45056,52.698209],[6.450651,52.698373],[6.450759,52.69855],[6.450864,52.698722],[6.450956,52.698868],[6.451065,52.699038],[6.451175,52.699202],[6.451312,52.699406],[6.451037,52.700565],[6.451034,52.700578],[6.450991,52.700758],[6.450985,52.700784],[6.450669,52.702116],[6.45064,52.702236],[6.450632,52.702272],[6.450629,52.702283],[6.450628,52.702288],[6.450341,52.703499],[6.45034,52.703502],[6.450276,52.703748],[6.450271,52.703764],[6.450228,52.70393],[6.450225,52.703942],[6.449876,52.705275],[6.450042,52.705497],[6.45017,52.705676],[6.45028,52.705826],[6.450362,52.705936],[6.450491,52.706107],[6.450664,52.706339],[6.450838,52.70657],[6.450978,52.706756],[6.451098,52.706921],[6.451114,52.706942],[6.451142,52.706982],[6.449157,52.706904],[6.448224,52.706884],[6.44554,52.706736],[6.443556,52.706627],[6.443076,52.706601],[6.440846,52.706432],[6.440363,52.706398],[6.436129,52.706105],[6.43613,52.706124],[6.435906,52.706107],[6.435791,52.706099],[6.435503,52.706094],[6.435419,52.706087],[6.434286,52.705996],[6.432774,52.705876],[6.431773,52.705795],[6.430889,52.705677],[6.430821,52.705667],[6.430744,52.705648],[6.429114,52.705103],[6.429063,52.705086],[6.428848,52.70532],[6.428815,52.705312],[6.428645,52.705275],[6.42769,52.70507],[6.427533,52.705029],[6.426519,52.704779],[6.426237,52.7047],[6.42581,52.704556],[6.425534,52.704468],[6.424962,52.704269],[6.424594,52.704146],[6.424407,52.704075],[6.423781,52.703848],[6.423213,52.70356],[6.422974,52.703391],[6.422892,52.703325],[6.422855,52.703292],[6.422739,52.70319],[6.422666,52.703137],[6.422316,52.7029],[6.422096,52.702771],[6.422006,52.702725],[6.421856,52.702654],[6.42161,52.702545],[6.421344,52.702445],[6.420354,52.702039],[6.420164,52.701924],[6.42004,52.701841],[6.419976,52.70179],[6.419928,52.701712],[6.420274,52.701514],[6.420367,52.701347],[6.420094,52.701465],[6.419666,52.701655],[6.419442,52.701755],[6.41893,52.701992],[6.418612,52.702144],[6.418272,52.70233],[6.41825,52.702342],[6.417322,52.70289],[6.416869,52.703152],[6.41672,52.703231],[6.416386,52.703398],[6.416222,52.703464],[6.415579,52.703724],[6.415476,52.703763],[6.415044,52.703925],[6.414312,52.704192],[6.413398,52.704515],[6.413247,52.704564],[6.410255,52.705629],[6.409376,52.705936],[6.408572,52.706218],[6.408052,52.706407],[6.408019,52.706421],[6.407963,52.706444],[6.407848,52.706493],[6.407562,52.706614],[6.407413,52.706677],[6.407195,52.706782],[6.407168,52.706796],[6.407098,52.706735],[6.40625,52.705994],[6.405504,52.70534],[6.40475,52.704675]]]},"properties":{"type":"boundary","gemeente":"Hoogeveen"}}]}