{"type":"FeatureCollection","metadata":{"gemeente":"Kampen","slug":"kampen","generated_at":"2026-09-28T08:23:32.338734Z","total_points":71,"providers":["Amazon","DeBuren","DHL","DPD","PostNL","VintedGo","GLS","ViaTim","FedEx","InPost"],"bounds":[5.87231,52.517638,6.0071276,52.566850305095905]},"features":[{"type":"Feature","geometry":{"type":"Point","coordinates":[5.883996154523846,52.55755539831996]},"properties":{"type":"pakketpunt","locatieNaam":"DHL - DeBuren Locker 24-7 Plaza N50","straatNaam":"Zambonistraat 9","straatNr":"","vervoerder":"Amazon","puntType":"3p","bezettingsgraad":50,"latitude":52.55755539831996,"longitude":5.883996154523846,"canPickup":true,"canDropoff":false,"openingstijden":null}},{"type":"Feature","geometry":{"type":"Point","coordinates":[5.889508188,52.56139686]},"properties":{"type":"pakketpunt","locatieNaam":"PostNL Business Point Kampen","straatNaam":"Ambachtsstraat 21","straatNr":"","vervoerder":"Amazon","puntType":"3p","bezettingsgraad":50,"latitude":52.56139686,"longitude":5.889508188,"canPickup":true,"canDropoff":false,"openingstijden":null}},{"type":"Feature","geometry":{"type":"Point","coordinates":[5.916930449,52.53375824]},"properties":{"type":"pakketpunt","locatieNaam":"Primera Stationskwartier","straatNaam":"De Arend 7","straatNr":"","vervoerder":"Amazon","puntType":"3p","bezettingsgraad":50,"latitude":52.53375824,"longitude":5.916930449,"canPickup":true,"canDropoff":false,"openingstijden":null}},{"type":"Feature","geometry":{"type":"Point","coordinates":[5.9157562,52.5408413]},"properties":{"type":"pakketpunt","locatieNaam":"DHL - Pakketautomaat Basic-Fit De Maten","straatNaam":"De Maten 10","straatNr":"","vervoerder":"Amazon","puntType":"3p","bezettingsgraad":50,"latitude":52.5408413,"longitude":5.9157562,"canPickup":true,"canDropoff":false,"openingstijden":null}},{"type":"Feature","geometry":{"type":"Point","coordinates":[5.905315694019829,52.546100305454736]},"properties":{"type":"pakketpunt","locatieNaam":"DHL - Pakketautomaat KJLTC Kampen","straatNaam":"Cellesbroeksweg 2-A-TC/","straatNr":"","vervoerder":"Amazon","puntType":"3p","bezettingsgraad":50,"latitude":52.546100305454736,"longitude":5.905315694019829,"canPickup":true,"canDropoff":false,"openingstijden":null}},{"type":"Feature","geometry":{"type":"Point","coordinates":[5.8916496,52.5622378]},"properties":{"type":"pakketpunt","locatieNaam":"Kampen | Ambachtsstraat | TinQ | Pakket-automaat","straatNaam":"Ambachtsstraat ","straatNr":"3-a","vervoerder":"DeBuren","puntType":"Buitenkluis","bezettingsgraad":50,"latitude":52.5622378,"longitude":5.8916496,"canPickup":true,"canDropoff":true,"openingstijden":null}},{"type":"Feature","geometry":{"type":"Point","coordinates":[5.88424458,52.5575928]},"properties":{"type":"pakketpunt","locatieNaam":"Kampen | Zambonistraat | Plaza N50 | Pakketautomaat","straatNaam":"Zambonistraat","straatNr":"9b","vervoerder":"DeBuren","puntType":"Buitenkluis","bezettingsgraad":50,"latitude":52.5575928,"longitude":5.88424458,"canPickup":true,"canDropoff":true,"openingstijden":null}},{"type":"Feature","geometry":{"type":"Point","coordinates":[6.0071276,52.5177273]},"properties":{"type":"pakketpunt","locatieNaam":"Dorpshuis an de Steege","straatNaam":"Broeksteeg","straatNr":"42","vervoerder":"DHL","puntType":"parcelShop","bezettingsgraad":50,"latitude":52.5177273,"longitude":6.0071276,"canPickup":true,"canDropoff":true,"openingstijden":{"ma":"16:00 - 18:00","di":"16:00 - 18:00","wo":"16:00 - 18:00","do":"16:00 - 18:00","vr":"16:00 - 18:00","za":"gesloten","zo":"gesloten"}}},{"type":"Feature","geometry":{"type":"Point","coordinates":[5.9157562,52.5408413]},"properties":{"type":"pakketpunt","locatieNaam":"Pakketautomaat Basic-Fit De Maten","straatNaam":"De Maten","straatNr":"10","vervoerder":"DHL","puntType":"packStation","bezettingsgraad":50,"latitude":52.5408413,"longitude":5.9157562,"canPickup":true,"canDropoff":true,"openingstijden":{"ma":"00:00 - 23:59","di":"00:00 - 23:59","wo":"00:00 - 23:59","do":"00:00 - 23:59","vr":"00:00 - 23:59","za":"00:00 - 23:59","zo":"00:00 - 23:59"}}},{"type":"Feature","geometry":{"type":"Point","coordinates":[5.936766029112571,52.55241317504517]},"properties":{"type":"pakketpunt","locatieNaam":"Pakketautomaat Praxis IJsselmuiden","straatNaam":"Veldoven","straatNr":"9","vervoerder":"DHL","puntType":"packStation","bezettingsgraad":50,"latitude":52.55241317504517,"longitude":5.936766029112571,"canPickup":true,"canDropoff":true,"openingstijden":{"ma":"00:00 - 23:59","di":"00:00 - 23:59","wo":"00:00 - 23:59","do":"00:00 - 23:59","vr":"00:00 - 23:59","za":"00:00 - 23:59","zo":"00:00 - 23:59"}}},{"type":"Feature","geometry":{"type":"Point","coordinates":[5.905315694019829,52.546100305454736]},"properties":{"type":"pakketpunt","locatieNaam":"Pakketautomaat KJLTC Kampen","straatNaam":"Cellesbroeksweg","straatNr":"2-A-TC/","vervoerder":"DHL","puntType":"packStation","bezettingsgraad":50,"latitude":52.546100305454736,"longitude":5.905315694019829,"canPickup":true,"canDropoff":true,"openingstijden":{"ma":"00:00 - 23:59","di":"00:00 - 23:59","wo":"00:00 - 23:59","do":"00:00 - 23:59","vr":"00:00 - 23:59","za":"00:00 - 23:59","zo":"00:00 - 23:59"}}},{"type":"Feature","geometry":{"type":"Point","coordinates":[5.9325645,52.555849]},"properties":{"type":"pakketpunt","locatieNaam":"IJsselmotoren en scooters","straatNaam":"Spoorstraat","straatNr":"33","vervoerder":"DHL","puntType":"parcelShop","bezettingsgraad":50,"latitude":52.555849,"longitude":5.9325645,"canPickup":true,"canDropoff":true,"openingstijden":{"ma":"gesloten","di":"09:00 - 17:30","wo":"09:00 - 17:30","do":"09:00 - 17:30","vr":"09:00 - 17:30","za":"09:00 - 12:00","zo":"gesloten"}}},{"type":"Feature","geometry":{"type":"Point","coordinates":[5.9183406,52.5568925]},"properties":{"type":"pakketpunt","locatieNaam":"Intertoys Kampen","straatNaam":"Oudestraat","straatNr":"61","vervoerder":"DHL","puntType":"parcelShop","bezettingsgraad":50,"latitude":52.5568925,"longitude":5.9183406,"canPickup":true,"canDropoff":true,"openingstijden":{"ma":"11:00 - 17:00","di":"10:00 - 17:00","wo":"10:00 - 17:00","do":"10:00 - 17:00","vr":"10:00 - 20:00","za":"10:00 - 16:00","zo":"gesloten"}}},{"type":"Feature","geometry":{"type":"Point","coordinates":[5.9170708,52.557927]},"properties":{"type":"pakketpunt","locatieNaam":"Jeans Centre Kampen","straatNaam":"Oudestraat","straatNr":"110","vervoerder":"DHL","puntType":"parcelShop","bezettingsgraad":50,"latitude":52.557927,"longitude":5.9170708,"canPickup":true,"canDropoff":true,"openingstijden":{"ma":"12:00 - 18:00","di":"10:00 - 18:00","wo":"10:00 - 18:00","do":"10:00 - 18:00","vr":"10:00 - 21:00","za":"10:00 - 17:00","zo":"gesloten"}}},{"type":"Feature","geometry":{"type":"Point","coordinates":[5.879660954970072,52.55899403869221]},"properties":{"type":"pakketpunt","locatieNaam":"Pakketautomaat Praxis Kampen","straatNaam":"Eastmanstraat","straatNr":"1","vervoerder":"DHL","puntType":"packStation","bezettingsgraad":50,"latitude":52.55899403869221,"longitude":5.879660954970072,"canPickup":true,"canDropoff":true,"openingstijden":{"ma":"00:00 - 23:59","di":"00:00 - 23:59","wo":"00:00 - 23:59","do":"00:00 - 23:59","vr":"00:00 - 23:59","za":"00:00 - 23:59","zo":"00:00 - 23:00"}}},{"type":"Feature","geometry":{"type":"Point","coordinates":[5.883996154523846,52.55755539831996]},"properties":{"type":"pakketpunt","locatieNaam":"DeBuren Locker 24-7 Plaza N50","straatNaam":"Zambonistraat","straatNr":"9","vervoerder":"DHL","puntType":"packStation","bezettingsgraad":50,"latitude":52.55755539831996,"longitude":5.883996154523846,"canPickup":true,"canDropoff":true,"openingstijden":{"ma":"00:00 - 23:59","di":"00:00 - 23:59","wo":"00:00 - 23:59","do":"00:00 - 23:59","vr":"00:00 - 23:59","za":"00:00 - 23:59","zo":"00:00 - 23:59"}}},{"type":"Feature","geometry":{"type":"Point","coordinates":[5.891610239252023,52.56322906395236]},"properties":{"type":"pakketpunt","locatieNaam":"Pakketautomaat Karwei Kampen","straatNaam":"Ambachtsstraat","straatNr":"1","vervoerder":"DHL","puntType":"packStation","bezettingsgraad":50,"latitude":52.56322906395236,"longitude":5.891610239252023,"canPickup":true,"canDropoff":true,"openingstijden":{"ma":"00:00 - 23:59","di":"00:00 - 23:59","wo":"00:00 - 23:59","do":"00:00 - 23:59","vr":"00:00 - 23:59","za":"00:00 - 23:59","zo":"00:00 - 23:59"}}},{"type":"Feature","geometry":{"type":"Point","coordinates":[5.901883835410483,52.566850305095905]},"properties":{"type":"pakketpunt","locatieNaam":"DHL Pakketpunt Kampen","straatNaam":"Loswal","straatNr":"4-A","vervoerder":"DHL","puntType":"parcelShop","bezettingsgraad":50,"latitude":52.566850305095905,"longitude":5.901883835410483,"canPickup":true,"canDropoff":true,"openingstijden":{"ma":"10:00 - 12:30, 13:00 - 17:30","di":"10:00 - 12:30, 13:00 - 17:30","wo":"10:00 - 12:30, 13:00 - 17:30","do":"10:00 - 12:30, 13:00 - 17:30","vr":"10:00 - 12:30, 13:00 - 17:30","za":"09:00 - 12:00","zo":"gesloten"}}},{"type":"Feature","geometry":{"type":"Point","coordinates":[5.900382,52.559447]},"properties":{"type":"pakketpunt","locatieNaam":"Pakketautomaat Lidl Hanzeplein","straatNaam":"Hanzeplein","straatNr":"29","vervoerder":"DHL","puntType":"packStation","bezettingsgraad":50,"latitude":52.559447,"longitude":5.900382,"canPickup":true,"canDropoff":true,"openingstijden":{"ma":"08:00 - 21:00","di":"08:00 - 21:00","wo":"08:00 - 21:00","do":"08:00 - 21:00","vr":"08:00 - 21:00","za":"08:00 - 21:00","zo":"12:00 - 18:00"}}},{"type":"Feature","geometry":{"type":"Point","coordinates":[5.9275573,52.5656476]},"properties":{"type":"pakketpunt","locatieNaam":"De Pelgrim","straatNaam":"Dorpsweg","straatNr":"75","vervoerder":"DHL","puntType":"parcelShop","bezettingsgraad":50,"latitude":52.5656476,"longitude":5.9275573,"canPickup":true,"canDropoff":true,"openingstijden":{"ma":"gesloten","di":"08:30 - 12:30, 13:30 - 17:00","wo":"08:30 - 12:30, 13:30 - 17:00","do":"08:30 - 12:30, 13:30 - 17:45","vr":"08:30 - 12:30, 13:30 - 17:45","za":"08:30 - 12:30, 13:30 - 16:00","zo":"gesloten"}}},{"type":"Feature","geometry":{"type":"Point","coordinates":[5.936043,52.564572]},"properties":{"type":"pakketpunt","locatieNaam":"Drogisterij Pieter Oud","straatNaam":"Burgemeester van Engelenweg","straatNr":"169","vervoerder":"DHL","puntType":"parcelShop","bezettingsgraad":50,"latitude":52.564572,"longitude":5.936043,"canPickup":true,"canDropoff":true,"openingstijden":{"ma":"08:30 - 18:00","di":"08:30 - 18:00","wo":"08:30 - 18:00","do":"08:30 - 18:00","vr":"08:30 - 18:00","za":"08:30 - 17:00","zo":"gesloten"}}},{"type":"Feature","geometry":{"type":"Point","coordinates":[5.9403548,52.5667672]},"properties":{"type":"pakketpunt","locatieNaam":"DHL Buurtpunt ViaTim & Groenedael","straatNaam":"Groenendael","straatNr":"72","vervoerder":"DHL","puntType":"parcelShop","bezettingsgraad":50,"latitude":52.5667672,"longitude":5.9403548,"canPickup":true,"canDropoff":true,"openingstijden":{"ma":"09:00 - 20:00","di":"16:00 - 20:00","wo":"16:00 - 20:00","do":"09:00 - 20:00","vr":"16:00 - 20:00","za":"gesloten","zo":"gesloten"}}},{"type":"Feature","geometry":{"type":"Point","coordinates":[6.00686,52.517638]},"properties":{"type":"pakketpunt","locatieNaam":"Dorpshuis An de Steege","straatNaam":"BROEKSTEEG","straatNr":"42","vervoerder":"DPD","puntType":"pickup_point","bezettingsgraad":50,"latitude":52.517638,"longitude":6.00686,"canPickup":true,"canDropoff":true,"openingstijden":{"ma":"16:00 - 18:00","di":"16:00 - 18:00","wo":"16:00 - 18:00","do":"16:00 - 18:00","vr":"16:00 - 18:00","za":"gesloten","zo":"gesloten"}}},{"type":"Feature","geometry":{"type":"Point","coordinates":[5.9316058159,52.5561714172]},"properties":{"type":"pakketpunt","locatieNaam":"Business Point - IJsselmotoren en S","straatNaam":"SPOORSTRAAT","straatNr":"33","vervoerder":"DPD","puntType":"pickup_point","bezettingsgraad":50,"latitude":52.5561714172,"longitude":5.9316058159,"canPickup":true,"canDropoff":true,"openingstijden":{"ma":"gesloten","di":"09:00 - 17:30","wo":"09:00 - 17:30","do":"09:00 - 17:30","vr":"09:00 - 17:30","za":"09:00 - 12:00","zo":"gesloten"}}},{"type":"Feature","geometry":{"type":"Point","coordinates":[5.9184923172,52.5554924011]},"properties":{"type":"pakketpunt","locatieNaam":"Nur Design","straatNaam":"GEERSTRAAT","straatNr":"20","vervoerder":"DPD","puntType":"pickup_point","bezettingsgraad":50,"latitude":52.5554924011,"longitude":5.9184923172,"canPickup":true,"canDropoff":true,"openingstijden":{"ma":"13:00 - 18:00","di":"09:30 - 18:00","wo":"09:30 - 18:00","do":"09:30 - 18:00","vr":"09:30 - 21:00","za":"09:30 - 17:00","zo":"gesloten"}}},{"type":"Feature","geometry":{"type":"Point","coordinates":[5.8916496,52.5622378]},"properties":{"type":"pakketpunt","locatieNaam":"Pakketautomaat TinQ Ambachtsstraat","straatNaam":"AMBACHTSSTRAAT","straatNr":"3-a","vervoerder":"DPD","puntType":"dpd_box","bezettingsgraad":50,"latitude":52.5622378,"longitude":5.8916496,"canPickup":true,"canDropoff":true,"openingstijden":{"ma":"00:00 - 23:59","di":"00:00 - 23:59","wo":"00:00 - 23:59","do":"00:00 - 23:59","vr":"00:00 - 23:59","za":"00:00 - 23:59","zo":"00:00 - 23:59"}}},{"type":"Feature","geometry":{"type":"Point","coordinates":[5.9275573,52.5656476]},"properties":{"type":"pakketpunt","locatieNaam":"Boekhandel de Pelgrim","straatNaam":"DORPSWEG","straatNr":"75","vervoerder":"DPD","puntType":"pickup_point","bezettingsgraad":50,"latitude":52.5656476,"longitude":5.9275573,"canPickup":true,"canDropoff":true,"openingstijden":{"ma":"gesloten","di":"08:30 - 12:30, 13:30 - 17:50","wo":"08:30 - 12:30, 13:30 - 17:50","do":"08:30 - 12:30, 13:30 - 17:50","vr":"08:30 - 12:30, 13:30 - 17:50","za":"08:30 - 12:30, 13:30 - 16:00","zo":"gesloten"}}},{"type":"Feature","geometry":{"type":"Point","coordinates":[5.937776,52.5667984]},"properties":{"type":"pakketpunt","locatieNaam":"ViaTim & Groenendael","straatNaam":"GROENENDAEL","straatNr":"72","vervoerder":"DPD","puntType":"pickup_point","bezettingsgraad":50,"latitude":52.5667984,"longitude":5.937776,"canPickup":true,"canDropoff":true,"openingstijden":{"ma":"09:00 - 20:00","di":"16:00 - 20:00","wo":"16:00 - 20:00","do":"09:00 - 20:00","vr":"16:00 - 20:00","za":"gesloten","zo":"gesloten"}}},{"type":"Feature","geometry":{"type":"Point","coordinates":[5.88407,52.55737]},"properties":{"type":"pakketpunt","locatieNaam":"Pakketautomaat Plaza N50 Zambonistr","straatNaam":"ZAMBONISTRAAT","straatNr":"9","vervoerder":"DPD","puntType":"dpd_box","bezettingsgraad":50,"latitude":52.55737,"longitude":5.88407,"canPickup":true,"canDropoff":true,"openingstijden":{"ma":"00:01 - 23:59","di":"00:01 - 23:59","wo":"00:01 - 23:59","do":"00:01 - 23:59","vr":"00:01 - 23:59","za":"00:01 - 23:59","zo":"00:01 - 23:59"}}},{"type":"Feature","geometry":{"type":"Point","coordinates":[5.90007614,52.55329]},"properties":{"type":"pakketpunt","locatieNaam":"Firma Th. Goosen","straatNaam":"Penningkruid","straatNr":"27","vervoerder":"PostNL","puntType":"servicepunt","bezettingsgraad":50,"latitude":52.55329,"longitude":5.90007614,"canPickup":true,"canDropoff":true,"openingstijden":"08:30 - 18:00"}},{"type":"Feature","geometry":{"type":"Point","coordinates":[5.91057456237633,52.5483460391719]},"properties":{"type":"pakketpunt","locatieNaam":"Pakketautomaat","straatNaam":"Lovinkstraat","straatNr":"20PBA","vervoerder":"PostNL","puntType":"automaat","bezettingsgraad":50,"latitude":52.5483460391719,"longitude":5.91057456237633,"canPickup":true,"canDropoff":true,"openingstijden":"00:00 - 23:59"}},{"type":"Feature","geometry":{"type":"Point","coordinates":[5.901051237,52.55978364]},"properties":{"type":"pakketpunt","locatieNaam":"Primera Hanzehof","straatNaam":"Dr. Damstraat","straatNr":"111","vervoerder":"PostNL","puntType":"servicepunt","bezettingsgraad":50,"latitude":52.55978364,"longitude":5.901051237,"canPickup":true,"canDropoff":true,"openingstijden":"08:00 - 20:00"}},{"type":"Feature","geometry":{"type":"Point","coordinates":[5.919928563,52.54892454]},"properties":{"type":"pakketpunt","locatieNaam":"Primera Kampen Zuid","straatNaam":"Jan van Arkelstraat","straatNr":"75","vervoerder":"PostNL","puntType":"servicepunt","bezettingsgraad":50,"latitude":52.54892454,"longitude":5.919928563,"canPickup":true,"canDropoff":true,"openingstijden":"09:00 - 18:00"}},{"type":"Feature","geometry":{"type":"Point","coordinates":[5.918882582,52.55632585]},"properties":{"type":"pakketpunt","locatieNaam":"The Read Shop","straatNaam":"Oudestraat","straatNr":"41-43","vervoerder":"PostNL","puntType":"servicepunt","bezettingsgraad":50,"latitude":52.55632585,"longitude":5.918882582,"canPickup":true,"canDropoff":true,"openingstijden":"09:00 - 18:00 (Na 18:00 open; Zaterdag open)"}},{"type":"Feature","geometry":{"type":"Point","coordinates":[5.9169423642008,52.5580690910095]},"properties":{"type":"pakketpunt","locatieNaam":"Smartphone House","straatNaam":"Oudestraat","straatNr":"116","vervoerder":"PostNL","puntType":"servicepunt","bezettingsgraad":50,"latitude":52.5580690910095,"longitude":5.9169423642008,"canPickup":true,"canDropoff":true,"openingstijden":"12:00 - 18:00"}},{"type":"Feature","geometry":{"type":"Point","coordinates":[5.885595921,52.55710841]},"properties":{"type":"pakketpunt","locatieNaam":"Pakket- en briefautomaat","straatNaam":"Zambonistraat","straatNr":"5PBA","vervoerder":"PostNL","puntType":"automaat","bezettingsgraad":50,"latitude":52.55710841,"longitude":5.885595921,"canPickup":true,"canDropoff":true,"openingstijden":"00:00 - 23:59"}},{"type":"Feature","geometry":{"type":"Point","coordinates":[5.889508188,52.56139686]},"properties":{"type":"pakketpunt","locatieNaam":"PostNL Business Point Kampen","straatNaam":"Ambachtsstraat","straatNr":"21","vervoerder":"PostNL","puntType":"servicepunt","bezettingsgraad":50,"latitude":52.56139686,"longitude":5.889508188,"canPickup":true,"canDropoff":true,"openingstijden":"12:00 - 18:00 (Na 18:00 open)"}},{"type":"Feature","geometry":{"type":"Point","coordinates":[5.892344654,52.56311938]},"properties":{"type":"pakketpunt","locatieNaam":"KARWEI Kampen","straatNaam":"Ambachtsstraat","straatNr":"1","vervoerder":"PostNL","puntType":"servicepunt","bezettingsgraad":50,"latitude":52.56311938,"longitude":5.892344654,"canPickup":true,"canDropoff":true,"openingstijden":"09:00 - 21:00"}},{"type":"Feature","geometry":{"type":"Point","coordinates":[5.8923298038027,52.5631104522406]},"properties":{"type":"pakketpunt","locatieNaam":"Pakketautomaat","straatNaam":"Ambachtsstraat","straatNr":"1PBA","vervoerder":"PostNL","puntType":"automaat","bezettingsgraad":50,"latitude":52.5631104522406,"longitude":5.8923298038027,"canPickup":true,"canDropoff":true,"openingstijden":"00:00 - 23:59"}},{"type":"Feature","geometry":{"type":"Point","coordinates":[5.916930449,52.53375824]},"properties":{"type":"pakketpunt","locatieNaam":"Primera Stationskwartier","straatNaam":"De Arend","straatNr":"7","vervoerder":"PostNL","puntType":"servicepunt","bezettingsgraad":50,"latitude":52.53375824,"longitude":5.916930449,"canPickup":true,"canDropoff":true,"openingstijden":"09:00 - 20:00 (Na 18:00 open; Zaterdag open)"}},{"type":"Feature","geometry":{"type":"Point","coordinates":[5.93095054982502,52.5639913300949]},"properties":{"type":"pakketpunt","locatieNaam":"Gentlefashion","straatNaam":"Dorpsweg","straatNr":"17","vervoerder":"PostNL","puntType":"servicepunt","bezettingsgraad":50,"latitude":52.5639913300949,"longitude":5.93095054982502,"canPickup":true,"canDropoff":true,"openingstijden":"13:00 - 17:30 (Zaterdag open)"}},{"type":"Feature","geometry":{"type":"Point","coordinates":[5.93072733641214,52.5650258995443]},"properties":{"type":"pakketpunt","locatieNaam":"Pakketautomaat","straatNaam":"Slenkstraat","straatNr":"12PBA","vervoerder":"PostNL","puntType":"automaat","bezettingsgraad":50,"latitude":52.5650258995443,"longitude":5.93072733641214,"canPickup":true,"canDropoff":true,"openingstijden":"00:00 - 23:59"}},{"type":"Feature","geometry":{"type":"Point","coordinates":[5.929249756,52.56600329]},"properties":{"type":"pakketpunt","locatieNaam":"Pakket- en briefautomaat","straatNaam":"Markeresplein","straatNr":"4PBA","vervoerder":"PostNL","puntType":"automaat","bezettingsgraad":50,"latitude":52.56600329,"longitude":5.929249756,"canPickup":true,"canDropoff":true,"openingstijden":"00:00 - 23:59"}},{"type":"Feature","geometry":{"type":"Point","coordinates":[5.94718,52.5645145]},"properties":{"type":"pakketpunt","locatieNaam":"A. Potkamp","straatNaam":"Zeegravensingel 47","straatNr":"","vervoerder":"VintedGo","puntType":"social","bezettingsgraad":50,"latitude":52.5645145,"longitude":5.94718,"canPickup":true,"canDropoff":true,"openingstijden":null}},{"type":"Feature","geometry":{"type":"Point","coordinates":[5.93257,52.55585]},"properties":{"type":"pakketpunt","locatieNaam":"Ijsselmotoren","straatNaam":"Spoorstraat 33","straatNr":"","vervoerder":"VintedGo","puntType":"parcel_shop","bezettingsgraad":50,"latitude":52.55585,"longitude":5.93257,"canPickup":true,"canDropoff":true,"openingstijden":null}},{"type":"Feature","geometry":{"type":"Point","coordinates":[5.9403563,52.5667984]},"properties":{"type":"pakketpunt","locatieNaam":"Groenendael","straatNaam":"Groenendael 72","straatNr":"","vervoerder":"VintedGo","puntType":"parcel_shop","bezettingsgraad":50,"latitude":52.5667984,"longitude":5.9403563,"canPickup":true,"canDropoff":true,"openingstijden":null}},{"type":"Feature","geometry":{"type":"Point","coordinates":[5.8913249,52.5625241]},"properties":{"type":"pakketpunt","locatieNaam":"Kringloop Kampen","straatNaam":"Ambachtsstraat 3","straatNr":"","vervoerder":"VintedGo","puntType":"locker","bezettingsgraad":50,"latitude":52.5625241,"longitude":5.8913249,"canPickup":true,"canDropoff":true,"openingstijden":null}},{"type":"Feature","geometry":{"type":"Point","coordinates":[5.9136115,52.5619383]},"properties":{"type":"pakketpunt","locatieNaam":"Topcleaning Kampen","straatNaam":"Oudestraat 234 ","straatNr":"","vervoerder":"VintedGo","puntType":"locker","bezettingsgraad":50,"latitude":52.5619383,"longitude":5.9136115,"canPickup":true,"canDropoff":true,"openingstijden":null}},{"type":"Feature","geometry":{"type":"Point","coordinates":[5.9325661,52.555849]},"properties":{"type":"pakketpunt","locatieNaam":"Viatim en Ijsselmotoren","straatNaam":"Spoorstraat","straatNr":"33","vervoerder":"GLS","puntType":"parcel_shop","bezettingsgraad":50,"latitude":52.555849,"longitude":5.9325661,"canPickup":true,"canDropoff":true,"openingstijden":{"ma":"00:00 - 00:00","di":"09:00 - 17:30","wo":"09:00 - 17:30","do":"09:00 - 17:30","vr":"09:00 - 17:30","za":"09:00 - 12:00","zo":"00:00 - 00:00"}}},{"type":"Feature","geometry":{"type":"Point","coordinates":[5.93072733,52.5650258]},"properties":{"type":"pakketpunt","locatieNaam":"Pakketautomaat","straatNaam":"Slenkstraat","straatNr":"12","vervoerder":"GLS","puntType":"locker","bezettingsgraad":50,"latitude":52.5650258,"longitude":5.93072733,"canPickup":true,"canDropoff":true,"openingstijden":{"ma":"00:00 - 23:59","di":"00:00 - 23:59","wo":"00:00 - 23:59","do":"00:00 - 23:59","vr":"00:00 - 23:59","za":"00:00 - 23:59","zo":"00:00 - 23:59"}}},{"type":"Feature","geometry":{"type":"Point","coordinates":[5.92924975,52.5660032]},"properties":{"type":"pakketpunt","locatieNaam":"Pakketautomaat","straatNaam":"Markeresplein","straatNr":"4","vervoerder":"GLS","puntType":"locker","bezettingsgraad":50,"latitude":52.5660032,"longitude":5.92924975,"canPickup":true,"canDropoff":true,"openingstijden":{"ma":"00:00 - 23:59","di":"00:00 - 23:59","wo":"00:00 - 23:59","do":"00:00 - 23:59","vr":"00:00 - 23:59","za":"00:00 - 23:59","zo":"00:00 - 23:59"}}},{"type":"Feature","geometry":{"type":"Point","coordinates":[5.9168223,52.5563972]},"properties":{"type":"pakketpunt","locatieNaam":"Trading Card Games Center","straatNaam":"Burgwalstraat","straatNr":"22","vervoerder":"GLS","puntType":"parcel_shop","bezettingsgraad":50,"latitude":52.5563972,"longitude":5.9168223,"canPickup":true,"canDropoff":true,"openingstijden":{"ma":"12:00 - 17:00","di":"12:00 - 17:30, 18:30 - 21:00","wo":"12:00 - 18:00","do":"12:00 - 18:00","vr":"12:00 - 17:30, 18:30 - 21:00","za":"12:00 - 17:30, 18:30 - 21:00","zo":"00:00 - 00:00"}}},{"type":"Feature","geometry":{"type":"Point","coordinates":[5.91057456,52.548346]},"properties":{"type":"pakketpunt","locatieNaam":"Pakketautomaat","straatNaam":"Lovinkstraat","straatNr":"20","vervoerder":"GLS","puntType":"locker","bezettingsgraad":50,"latitude":52.548346,"longitude":5.91057456,"canPickup":true,"canDropoff":true,"openingstijden":{"ma":"00:00 - 23:59","di":"00:00 - 23:59","wo":"00:00 - 23:59","do":"00:00 - 23:59","vr":"00:00 - 23:59","za":"00:00 - 23:59","zo":"00:00 - 23:59"}}},{"type":"Feature","geometry":{"type":"Point","coordinates":[5.8923298,52.5631104]},"properties":{"type":"pakketpunt","locatieNaam":"Pakketautomaat","straatNaam":"Ambachtsstraat","straatNr":"1","vervoerder":"GLS","puntType":"locker","bezettingsgraad":50,"latitude":52.5631104,"longitude":5.8923298,"canPickup":true,"canDropoff":true,"openingstijden":{"ma":"00:00 - 23:59","di":"00:00 - 23:59","wo":"00:00 - 23:59","do":"00:00 - 23:59","vr":"00:00 - 23:59","za":"00:00 - 23:59","zo":"00:00 - 23:59"}}},{"type":"Feature","geometry":{"type":"Point","coordinates":[5.88559592,52.5571084]},"properties":{"type":"pakketpunt","locatieNaam":"Pakketautomaat","straatNaam":"Zambonistraat","straatNr":"5","vervoerder":"GLS","puntType":"locker","bezettingsgraad":50,"latitude":52.5571084,"longitude":5.88559592,"canPickup":true,"canDropoff":true,"openingstijden":{"ma":"00:00 - 23:59","di":"00:00 - 23:59","wo":"00:00 - 23:59","do":"00:00 - 23:59","vr":"00:00 - 23:59","za":"00:00 - 23:59","zo":"00:00 - 23:59"}}},{"type":"Feature","geometry":{"type":"Point","coordinates":[5.91555353,52.55884527]},"properties":{"type":"pakketpunt","locatieNaam":"ViaTim en The Corner","straatNaam":"Torenstraat","straatNr":"11","vervoerder":"ViaTim","puntType":"servicepunt","bezettingsgraad":50,"latitude":52.55884527,"longitude":5.91555353,"canPickup":true,"canDropoff":true,"openingstijden":{"ma":"gesloten","di":"gesloten","wo":"gesloten","do":"19:00 - 00:00","vr":"19:00 - 03:00","za":"16:00 - 03:00","zo":"19:00 - 00:00"}}},{"type":"Feature","geometry":{"type":"Point","coordinates":[5.92799211,52.56542965]},"properties":{"type":"pakketpunt","locatieNaam":"ViaTim en Sanne","straatNaam":"Dorpsweg","straatNr":"57","vervoerder":"ViaTim","puntType":"servicepunt","bezettingsgraad":50,"latitude":52.56542965,"longitude":5.92799211,"canPickup":true,"canDropoff":true,"openingstijden":{"ma":"gesloten","di":"15:00 - 18:00","wo":"10:00 - 15:00","do":"gesloten","vr":"gesloten","za":"gesloten","zo":"gesloten"}}},{"type":"Feature","geometry":{"type":"Point","coordinates":[5.91816499,52.55623842]},"properties":{"type":"pakketpunt","locatieNaam":"ViaTim en De Verzamelkramer Vintage Woonwinkel","straatNaam":"Hofstraat","straatNr":"27","vervoerder":"ViaTim","puntType":"servicepunt","bezettingsgraad":50,"latitude":52.55623842,"longitude":5.91816499,"canPickup":true,"canDropoff":true,"openingstijden":{"ma":"gesloten","di":"gesloten","wo":"gesloten","do":"gesloten","vr":"12:00 - 17:00","za":"12:00 - 17:00","zo":"gesloten"}}},{"type":"Feature","geometry":{"type":"Point","coordinates":[5.9403548043782335,52.5667672116256]},"properties":{"type":"pakketpunt","locatieNaam":"ViaTim en Groenendael","straatNaam":"Groenendael","straatNr":"72","vervoerder":"ViaTim","puntType":"servicepunt","bezettingsgraad":50,"latitude":52.5667672116256,"longitude":5.9403548043782335,"canPickup":true,"canDropoff":true,"openingstijden":{"ma":"09:00 - 20:00","di":"16:00 - 20:00","wo":"16:00 - 20:00","do":"09:00 - 20:00","vr":"16:00 - 20:00","za":"gesloten","zo":"gesloten"}}},{"type":"Feature","geometry":{"type":"Point","coordinates":[5.932564529948912,52.55584904350756]},"properties":{"type":"pakketpunt","locatieNaam":"Viatim en Ijsselmotoren","straatNaam":"Spoorstraat","straatNr":"33","vervoerder":"ViaTim","puntType":"servicepunt","bezettingsgraad":50,"latitude":52.55584904350756,"longitude":5.932564529948912,"canPickup":true,"canDropoff":true,"openingstijden":{"ma":"gesloten","di":"09:00 - 17:30","wo":"09:00 - 17:30","do":"09:00 - 17:30","vr":"09:00 - 17:30","za":"09:00 - 12:00","zo":"gesloten"}}},{"type":"Feature","geometry":{"type":"Point","coordinates":[5.910613250926229,52.548319288009054]},"properties":{"type":"pakketpunt","locatieNaam":"FedEx Ship&Get","straatNaam":"Lovinkstraat 20 PBA","straatNr":"","vervoerder":"FedEx","puntType":"servicepunt","bezettingsgraad":50,"latitude":52.548319288009054,"longitude":5.910613250926229,"canPickup":true,"canDropoff":true,"openingstijden":{"ma":"00:00 - 23:59","di":"00:00 - 23:59","wo":"00:00 - 23:59","do":"00:00 - 23:59","vr":"00:00 - 23:59","za":"00:00 - 23:59","zo":"00:00 - 23:59"}}},{"type":"Feature","geometry":{"type":"Point","coordinates":[5.932456665623369,52.55579360032564]},"properties":{"type":"pakketpunt","locatieNaam":"FedEx OnSite","straatNaam":"SPOORSTRAAT 33","straatNr":"","vervoerder":"FedEx","puntType":"servicepunt","bezettingsgraad":50,"latitude":52.55579360032564,"longitude":5.932456665623369,"canPickup":true,"canDropoff":true,"openingstijden":{"ma":"gesloten","di":"08:30 - 17:30","wo":"08:30 - 17:30","do":"08:30 - 17:30","vr":"08:30 - 17:30","za":"08:30 - 12:00","zo":"gesloten"}}},{"type":"Feature","geometry":{"type":"Point","coordinates":[5.918559,52.55563]},"properties":{"type":"pakketpunt","locatieNaam":"FedEx OnSite","straatNaam":"GEERSTRAAT 16","straatNr":"","vervoerder":"FedEx","puntType":"servicepunt","bezettingsgraad":50,"latitude":52.55563,"longitude":5.918559,"canPickup":true,"canDropoff":true,"openingstijden":{"ma":"gesloten","di":"10:00 - 17:30","wo":"10:00 - 17:30","do":"10:00 - 17:30","vr":"10:00 - 20:00","za":"10:00 - 17:00","zo":"gesloten"}}},{"type":"Feature","geometry":{"type":"Point","coordinates":[5.885774818023806,52.556979189577014]},"properties":{"type":"pakketpunt","locatieNaam":"FedEx Ship&Get","straatNaam":"Zambonistraat 5 PBA","straatNr":"","vervoerder":"FedEx","puntType":"servicepunt","bezettingsgraad":50,"latitude":52.556979189577014,"longitude":5.885774818023806,"canPickup":true,"canDropoff":true,"openingstijden":{"ma":"00:00 - 23:59","di":"00:00 - 23:59","wo":"00:00 - 23:59","do":"00:00 - 23:59","vr":"00:00 - 23:59","za":"00:00 - 23:59","zo":"00:00 - 23:59"}}},{"type":"Feature","geometry":{"type":"Point","coordinates":[5.930727,52.565026]},"properties":{"type":"pakketpunt","locatieNaam":"FedEx Ship&Get","straatNaam":"Slenkstraat 12 PBA","straatNr":"","vervoerder":"FedEx","puntType":"servicepunt","bezettingsgraad":50,"latitude":52.565026,"longitude":5.930727,"canPickup":true,"canDropoff":true,"openingstijden":{"ma":"00:00 - 23:59","di":"00:00 - 23:59","wo":"00:00 - 23:59","do":"00:00 - 23:59","vr":"00:00 - 23:59","za":"00:00 - 23:59","zo":"00:00 - 23:59"}}},{"type":"Feature","geometry":{"type":"Point","coordinates":[5.927578,52.565661]},"properties":{"type":"pakketpunt","locatieNaam":"FedEx OnSite","straatNaam":"DORPSWEG 75","straatNr":"","vervoerder":"FedEx","puntType":"servicepunt","bezettingsgraad":50,"latitude":52.565661,"longitude":5.927578,"canPickup":true,"canDropoff":true,"openingstijden":{"ma":"gesloten","di":"08:30 - 12:30, 13:30 - 17:00","wo":"08:30 - 12:30, 13:30 - 17:00","do":"08:30 - 12:30","vr":"08:30 - 12:30, 13:30 - 17:00","za":"08:30 - 12:30, 13:30 - 16:00","zo":"gesloten"}}},{"type":"Feature","geometry":{"type":"Point","coordinates":[5.9293037964437545,52.56592680443633]},"properties":{"type":"pakketpunt","locatieNaam":"FedEx Ship&Get","straatNaam":"Markeresplein 4 Pba","straatNr":"","vervoerder":"FedEx","puntType":"servicepunt","bezettingsgraad":50,"latitude":52.56592680443633,"longitude":5.9293037964437545,"canPickup":true,"canDropoff":true,"openingstijden":{"ma":"09:00 - 19:00","di":"09:00 - 19:00","wo":"09:00 - 19:00","do":"09:00 - 19:00","vr":"09:00 - 19:00","za":"09:00 - 19:00","zo":"09:00 - 19:00"}}},{"type":"Feature","geometry":{"type":"Point","coordinates":[5.91856,52.55563]},"properties":{"type":"pakketpunt","locatieNaam":"ZOETELIEF KAMPEN","straatNaam":"Geerstraat 16","straatNr":"","vervoerder":"InPost","puntType":"servicepunt","bezettingsgraad":50,"latitude":52.55563,"longitude":5.91856,"canPickup":true,"canDropoff":true,"openingstijden":null}},{"type":"Feature","geometry":{"type":"Point","coordinates":[5.92758,52.56566]},"properties":{"type":"pakketpunt","locatieNaam":"BOEKHANDEL DE PELGRIM","straatNaam":"Dorpsweg 75","straatNr":"","vervoerder":"InPost","puntType":"servicepunt","bezettingsgraad":50,"latitude":52.56566,"longitude":5.92758,"canPickup":true,"canDropoff":true,"openingstijden":null}},{"type":"Feature","geometry":{"type":"Point","coordinates":[5.93237,52.55579]},"properties":{"type":"pakketpunt","locatieNaam":"IJSSELMOTOREN VOF","straatNaam":"Spoorstraat 33","straatNr":"","vervoerder":"InPost","puntType":"servicepunt","bezettingsgraad":50,"latitude":52.55579,"longitude":5.93237,"canPickup":true,"canDropoff":true,"openingstijden":null}},{"type":"Feature","geometry":{"type":"Point","coordinates":[5.87231,52.56469]},"properties":{"type":"pakketpunt","locatieNaam":"","straatNaam":"Carlsonstraat","straatNr":"25","vervoerder":"InPost","puntType":"automaat","bezettingsgraad":50,"latitude":52.56469,"longitude":5.87231,"canPickup":true,"canDropoff":true,"openingstijden":"24/7"}},{"type":"Feature","geometry":{"type":"Polygon","coordinates":[[[5.777968,52.607534],[5.785793,52.607509],[5.811384,52.607423],[5.815317,52.60741],[5.837214,52.607331],[5.840525,52.610413],[5.844298,52.610926],[5.84488,52.611005],[5.84516,52.611043],[5.845218,52.611051],[5.856692,52.612608],[5.857651,52.612738],[5.867372,52.614057],[5.874452,52.615016],[5.888085,52.616863],[5.891548,52.617332],[5.891569,52.617335],[5.904029,52.61902],[5.90547,52.619215],[5.908194,52.61839],[5.910602,52.617661],[5.910608,52.617655],[5.915664,52.613534],[5.921887,52.614042],[5.922278,52.614074],[5.932222,52.614885],[5.93269,52.614923],[5.933516,52.615267],[5.940349,52.618113],[5.950127,52.621189],[5.95562,52.622917],[5.955285,52.624842],[5.956177,52.624962],[5.956497,52.625006],[5.956539,52.625011],[5.956929,52.625064],[5.963186,52.625905],[5.971495,52.627023],[5.974325,52.627403],[5.981015,52.628302],[5.983862,52.626565],[5.98427,52.626319],[5.985331,52.625673],[5.986624,52.624882],[5.987736,52.624202],[5.989008,52.623426],[5.989312,52.623238],[5.99053,52.62249],[5.991029,52.62219],[5.9914,52.62196],[5.991402,52.621959],[5.991745,52.621747],[5.991792,52.621377],[5.99182,52.621142],[5.991845,52.620931],[5.991872,52.620707],[5.991894,52.620494],[5.991917,52.620278],[5.991937,52.620117],[5.991956,52.619974],[5.991981,52.61975],[5.992002,52.61959],[5.992022,52.619447],[5.992045,52.619299],[5.992059,52.61923],[5.992077,52.6191],[5.992106,52.618981],[5.99214,52.618824],[5.992182,52.618632],[5.992206,52.618519],[5.992232,52.618391],[5.992257,52.618245],[5.992267,52.618175],[5.992277,52.618126],[5.992278,52.618085],[5.992281,52.618003],[5.992283,52.617968],[5.99228,52.617941],[5.992277,52.617915],[5.992272,52.617903],[5.992257,52.617868],[5.992248,52.617843],[5.992233,52.617804],[5.992219,52.617764],[5.992196,52.617695],[5.992177,52.617644],[5.992168,52.617616],[5.99216,52.617585],[5.992139,52.617539],[5.992112,52.61748],[5.992058,52.617373],[5.992007,52.617265],[5.99199,52.617229],[5.991956,52.617157],[5.991925,52.617093],[5.991903,52.617046],[5.991867,52.616962],[5.991836,52.616895],[5.991805,52.616829],[5.991722,52.616651],[5.991692,52.616587],[5.991655,52.616514],[5.991621,52.616438],[5.991586,52.616363],[5.991547,52.616289],[5.99153,52.616253],[5.991519,52.616207],[5.991499,52.616109],[5.99148,52.616022],[5.991462,52.615951],[5.991445,52.615874],[5.99142,52.61576],[5.991407,52.615679],[5.9914,52.615559],[5.991392,52.615485],[5.991388,52.615417],[5.991381,52.615334],[5.991376,52.615257],[5.99137,52.615185],[5.991364,52.615088],[5.991354,52.614998],[5.991348,52.614897],[5.991341,52.614818],[5.991334,52.614742],[5.99133,52.614668],[5.991317,52.614542],[5.991309,52.61443],[5.991302,52.614397],[5.991271,52.614292],[5.991247,52.614212],[5.991206,52.614087],[5.991167,52.613968],[5.991148,52.61393],[5.991062,52.613777],[5.991006,52.613678],[5.990968,52.613608],[5.990927,52.613535],[5.990909,52.613509],[5.990849,52.613444],[5.990776,52.613368],[5.990712,52.613302],[5.990649,52.613235],[5.990614,52.613202],[5.990602,52.61319],[5.990574,52.613171],[5.99053,52.613136],[5.990445,52.613071],[5.990381,52.61302],[5.990303,52.612961],[5.990223,52.612903],[5.990068,52.612794],[5.989944,52.612711],[5.989815,52.612631],[5.98967,52.612548],[5.989573,52.612495],[5.989496,52.612449],[5.989435,52.612415],[5.989353,52.612365],[5.989294,52.612329],[5.98924,52.612294],[5.989159,52.612242],[5.989108,52.61221],[5.988992,52.612135],[5.988903,52.612079],[5.988822,52.612026],[5.988711,52.611959],[5.988632,52.611909],[5.988431,52.611781],[5.988265,52.611674],[5.988084,52.611562],[5.987894,52.611442],[5.987723,52.611331],[5.987565,52.611227],[5.987472,52.611153],[5.987339,52.611038],[5.98719,52.610911],[5.987038,52.610779],[5.986886,52.610642],[5.98675,52.610522],[5.986608,52.610394],[5.986459,52.610256],[5.986325,52.61013],[5.986209,52.610014],[5.986015,52.609825],[5.985856,52.609669],[5.985674,52.609492],[5.985456,52.609282],[5.985237,52.609069],[5.984953,52.608792],[5.984616,52.608489],[5.984434,52.608335],[5.98412,52.608091],[5.983851,52.607876],[5.983515,52.607609],[5.983145,52.607318],[5.982772,52.607031],[5.982397,52.60675],[5.982142,52.606564],[5.981863,52.606357],[5.981489,52.60608],[5.981245,52.605894],[5.981099,52.605782],[5.980978,52.605684],[5.980836,52.605567],[5.980744,52.605494],[5.980599,52.605378],[5.980518,52.605308],[5.98043,52.605237],[5.9803,52.605131],[5.980243,52.605089],[5.980192,52.605036],[5.980137,52.604968],[5.980071,52.604894],[5.980006,52.604823],[5.979891,52.604696],[5.97981,52.604602],[5.97975,52.604528],[5.979655,52.604411],[5.979537,52.604261],[5.979433,52.604134],[5.979344,52.604003],[5.979274,52.60389],[5.979165,52.603699],[5.979066,52.603519],[5.979006,52.603413],[5.978924,52.603254],[5.978849,52.603115],[5.978798,52.603016],[5.978699,52.602869],[5.978544,52.602579],[5.978357,52.602234],[5.978228,52.602],[5.978139,52.601835],[5.977981,52.601557],[5.977845,52.601324],[5.97774,52.60117],[5.977571,52.600935],[5.977441,52.600746],[5.977246,52.60047],[5.977116,52.600284],[5.976975,52.600076],[5.976673,52.599652],[5.976171,52.599046],[5.975307,52.598221],[5.974517,52.59746],[5.973426,52.596344],[5.972795,52.595617],[5.971789,52.594553],[5.971341,52.594157],[5.97138,52.593925],[5.971497,52.593667],[5.971563,52.593368],[5.971683,52.593267],[5.97193,52.593058],[5.971973,52.593009],[5.972307,52.592636],[5.972413,52.592555],[5.972417,52.592429],[5.972423,52.592265],[5.972431,52.592018],[5.972658,52.591358],[5.973009,52.590903],[5.973843,52.589821],[5.974567,52.588849],[5.977501,52.584905],[5.977637,52.584722],[5.977875,52.584274],[5.978153,52.583889],[5.978452,52.583481],[5.980598,52.58069],[5.981739,52.579154],[5.982715,52.577911],[5.982802,52.577756],[5.982941,52.577514],[5.983083,52.577554],[5.984138,52.577848],[5.98449,52.577947],[5.985072,52.578109],[5.986132,52.578406],[5.986927,52.578628],[5.988132,52.578964],[5.989402,52.579319],[5.990043,52.579498],[5.99246,52.580158],[5.993677,52.580491],[5.996486,52.581257],[5.996616,52.581292],[5.996626,52.581295],[5.997733,52.581591],[5.997808,52.581611],[5.998436,52.581779],[5.999359,52.582043],[5.999392,52.582052],[6.000195,52.582272],[6.000696,52.58241],[6.003815,52.583265],[6.004176,52.583364],[6.004957,52.583579],[6.005566,52.583745],[6.005769,52.583801],[6.006187,52.583916],[6.007056,52.584154],[6.00719,52.584191],[6.007801,52.584359],[6.007841,52.584307],[6.00794,52.584334],[6.008489,52.584483],[6.009327,52.584713],[6.01021,52.584953],[6.011466,52.585294],[6.012145,52.585484],[6.012688,52.585636],[6.012727,52.585649],[6.012764,52.585673],[6.012788,52.585702],[6.012795,52.58574],[6.012766,52.585799],[6.012719,52.585839],[6.012609,52.586036],[6.012888,52.586114],[6.012878,52.58605],[6.012863,52.585951],[6.012862,52.585942],[6.013166,52.58554],[6.013177,52.585525],[6.013272,52.585404],[6.013306,52.585343],[6.013508,52.585087],[6.015709,52.582182],[6.01625,52.58147],[6.016454,52.581203],[6.01682,52.580657],[6.01733,52.580018],[6.017792,52.579422],[6.018542,52.578429],[6.019592,52.577035],[6.019843,52.576756],[6.020444,52.576096],[6.020549,52.576043],[6.020571,52.576047],[6.020719,52.575837],[6.020854,52.575662],[6.020953,52.575533],[6.020921,52.575507],[6.021291,52.574999],[6.021311,52.574973],[6.021379,52.574884],[6.021461,52.574771],[6.02148,52.574745],[6.021484,52.574739],[6.021569,52.574626],[6.021741,52.574394],[6.021768,52.574401],[6.021894,52.574224],[6.021924,52.574232],[6.022028,52.574093],[6.022013,52.574089],[6.022209,52.573864],[6.02227,52.573797],[6.02233,52.573689],[6.022391,52.573582],[6.022468,52.573418],[6.022545,52.573227],[6.0226,52.573148],[6.022637,52.573093],[6.022669,52.573054],[6.022938,52.572728],[6.023128,52.57248],[6.023827,52.571565],[6.023979,52.571389],[6.023995,52.571345],[6.024266,52.57102],[6.024482,52.570782],[6.024892,52.57027],[6.026477,52.568187],[6.026513,52.568111],[6.026585,52.568023],[6.026677,52.567891],[6.026818,52.56771],[6.027341,52.567023],[6.028448,52.565555],[6.02885,52.565026],[6.029523,52.564117],[6.029854,52.563675],[6.030054,52.563386],[6.030143,52.563282],[6.031459,52.561487],[6.031556,52.56137],[6.031588,52.56131],[6.032099,52.56061],[6.032172,52.560521],[6.032222,52.560459],[6.033038,52.559404],[6.032824,52.559344],[6.032732,52.559318],[6.032289,52.559194],[6.031742,52.559041],[6.027658,52.557885],[6.025385,52.557242],[6.024582,52.557017],[6.021256,52.556078],[6.01801,52.555161],[6.018451,52.554549],[6.016644,52.554048],[6.016622,52.554042],[6.016536,52.554018],[6.016516,52.554012],[6.014522,52.55345],[6.014508,52.553447],[6.00897,52.551893],[6.008809,52.551848],[6.007759,52.551553],[6.003619,52.550392],[6.003668,52.550356],[6.003849,52.550115],[6.004561,52.549177],[6.004683,52.549019],[6.005388,52.548111],[6.005444,52.548038],[6.005948,52.547367],[6.005965,52.547316],[6.006272,52.546909],[6.006207,52.54689],[6.006253,52.546816],[6.006497,52.546494],[6.006519,52.546486],[6.006595,52.546382],[6.006661,52.546263],[6.006707,52.546159],[6.006748,52.546072],[6.006788,52.546046],[6.006818,52.54594],[6.006819,52.545849],[6.006873,52.545731],[6.006949,52.545591],[6.006985,52.545537],[6.007039,52.545457],[6.007186,52.54527],[6.007274,52.545138],[6.007288,52.545118],[6.007758,52.545024],[6.007808,52.544958],[6.007817,52.544946],[6.009323,52.544599],[6.009401,52.54458],[6.010863,52.544229],[6.011075,52.544175],[6.012658,52.543778],[6.01457,52.543278],[6.014553,52.543298],[6.014546,52.543307],[6.015219,52.543126],[6.01663,52.54274],[6.018346,52.542232],[6.018362,52.542252],[6.018507,52.542209],[6.019453,52.541922],[6.01951,52.541939],[6.019791,52.541851],[6.019775,52.541821],[6.019759,52.54179],[6.020644,52.541512],[6.021044,52.541385],[6.021581,52.541215],[6.02251,52.540912],[6.023396,52.540619],[6.024123,52.540372],[6.024712,52.540169],[6.025415,52.539922],[6.025668,52.539834],[6.026276,52.539615],[6.027139,52.539302],[6.027784,52.539063],[6.027786,52.539062],[6.027787,52.539075],[6.027787,52.539084],[6.028229,52.538921],[6.029484,52.538441],[6.030455,52.538061],[6.030465,52.537898],[6.030462,52.537812],[6.030437,52.53696],[6.030422,52.536462],[6.030372,52.535404],[6.030326,52.534458],[6.030243,52.532719],[6.030282,52.53272],[6.030233,52.531604],[6.030237,52.531557],[6.030218,52.531245],[6.030212,52.531004],[6.030146,52.530909],[6.029932,52.5306],[6.029899,52.530553],[6.030124,52.530353],[6.030176,52.530189],[6.030181,52.530174],[6.030171,52.529147],[6.030175,52.529088],[6.030166,52.527937],[6.030161,52.527169],[6.030171,52.526754],[6.029856,52.526729],[6.029793,52.526724],[6.029752,52.526721],[6.029274,52.526673],[6.029262,52.526672],[6.02922,52.526667],[6.028411,52.526489],[6.028314,52.526425],[6.028187,52.526343],[6.027605,52.526396],[6.027446,52.526404],[6.027366,52.526396],[6.026946,52.526303],[6.026784,52.526267],[6.026592,52.526254],[6.026589,52.526254],[6.026403,52.526251],[6.026067,52.526245],[6.025746,52.526266],[6.025564,52.526309],[6.025387,52.526324],[6.025166,52.526309],[6.025156,52.526308],[6.025012,52.526297],[6.024912,52.526304],[6.024832,52.526308],[6.024676,52.526445],[6.024005,52.527034],[6.023643,52.527366],[6.022867,52.527127],[6.020831,52.526541],[6.020616,52.526479],[6.018974,52.526006],[6.01867,52.525919],[6.018224,52.525527],[6.017055,52.524584],[6.016556,52.524143],[6.016215,52.523765],[6.015879,52.52335],[6.01551,52.522771],[6.015204,52.522023],[6.015197,52.522002],[6.014993,52.521413],[6.014921,52.521175],[6.01484,52.52095],[6.014803,52.520762],[6.01474,52.520261],[6.014733,52.519816],[6.014714,52.51943],[6.014744,52.519032],[6.014818,52.518678],[6.014991,52.518149],[6.015066,52.517909],[6.015296,52.517495],[6.015411,52.517309],[6.015525,52.517127],[6.015678,52.516885],[6.015977,52.516487],[6.016185,52.516237],[6.016769,52.515563],[6.017085,52.515251],[6.018807,52.513879],[6.020248,52.512987],[6.02047,52.512854],[6.020633,52.512765],[6.022112,52.511963],[6.023459,52.511282],[6.024093,52.510993],[6.024398,52.510857],[6.024571,52.510782],[6.025473,52.51043],[6.026035,52.510204],[6.027832,52.509601],[6.027858,52.509606],[6.02778,52.509489],[6.027636,52.509274],[6.027555,52.509147],[6.027543,52.509128],[6.027464,52.509004],[6.027323,52.50878],[6.027243,52.508655],[6.027095,52.508422],[6.027013,52.508292],[6.026976,52.50823],[6.02692,52.508165],[6.02687,52.508106],[6.02684,52.508072],[6.026776,52.508003],[6.026643,52.507861],[6.026442,52.507647],[6.0261,52.507283],[6.026009,52.507187],[6.025883,52.507051],[6.025838,52.507002],[6.025821,52.506986],[6.025803,52.506969],[6.025643,52.506831],[6.025463,52.506675],[6.025366,52.506591],[6.025347,52.506573],[6.025329,52.506561],[6.025249,52.506506],[6.025216,52.506483],[6.025189,52.506466],[6.02516,52.506445],[6.025145,52.506438],[6.025124,52.506428],[6.025109,52.506421],[6.025086,52.506411],[6.025003,52.506373],[6.024536,52.506166],[6.02429,52.506056],[6.024239,52.506033],[6.023963,52.505915],[6.023538,52.505731],[6.023462,52.505701],[6.023328,52.505617],[6.02317,52.505516],[6.023086,52.505462],[6.023065,52.505448],[6.023023,52.505427],[6.022988,52.505409],[6.022926,52.505367],[6.022851,52.505332],[6.02276,52.505318],[6.022661,52.505304],[6.022583,52.505293],[6.022299,52.505252],[6.022197,52.505237],[6.021937,52.505201],[6.02154,52.505144],[6.021202,52.505095],[6.020902,52.505052],[6.020544,52.505],[6.020522,52.504997],[6.01994,52.504914],[6.019509,52.504853],[6.019338,52.504827],[6.019264,52.504857],[6.019173,52.50489],[6.019141,52.504903],[6.019118,52.504908],[6.018996,52.504941],[6.018912,52.504962],[6.018671,52.505017],[6.018192,52.50513],[6.018034,52.505167],[6.017665,52.50526],[6.017555,52.505277],[6.016862,52.505445],[6.016374,52.505569],[6.016017,52.505655],[6.015901,52.505681],[6.015633,52.505762],[6.015416,52.505825],[6.015318,52.505859],[6.015273,52.505873],[6.015207,52.505905],[6.015197,52.50591],[6.015186,52.505915],[6.01516,52.505926],[6.015122,52.505943],[6.015073,52.505966],[6.014821,52.505858],[6.01473,52.505819],[6.014675,52.505803],[6.014626,52.505788],[6.014543,52.505774],[6.014451,52.505776],[6.014318,52.505793],[6.014087,52.505831],[6.013908,52.505859],[6.01378,52.505879],[6.013614,52.505904],[6.013054,52.505938],[6.012877,52.50595],[6.012821,52.505951],[6.012744,52.505952],[6.012695,52.505951],[6.012561,52.505948],[6.012367,52.50594],[6.012366,52.505907],[6.012091,52.505802],[6.011667,52.505685],[6.011587,52.505663],[6.01152,52.505662],[6.011236,52.50556],[6.011175,52.505538],[6.010958,52.505454],[6.010554,52.505299],[6.010457,52.505261],[6.010421,52.505249],[6.010296,52.505211],[6.010109,52.505225],[6.010084,52.505199],[6.009932,52.505144],[6.009723,52.50507],[6.009611,52.505024],[6.009478,52.504977],[6.009146,52.504861],[6.008912,52.50478],[6.008846,52.504756],[6.008756,52.504723],[6.008658,52.504693],[6.008577,52.504671],[6.008372,52.504593],[6.008156,52.504507],[6.008087,52.504482],[6.008002,52.504444],[6.007856,52.504377],[6.007756,52.504329],[6.00761,52.50426],[6.007396,52.504151],[6.007263,52.504084],[6.007231,52.504069],[6.007199,52.504053],[6.007122,52.504027],[6.007127,52.503913],[6.006969,52.503839],[6.006205,52.503475],[6.005889,52.503323],[6.005598,52.503183],[6.005331,52.503057],[6.005106,52.502948],[6.00494,52.502867],[6.004872,52.50282],[6.004766,52.502747],[6.004607,52.50264],[6.004458,52.502539],[6.00436,52.502472],[6.004211,52.502371],[6.003965,52.502206],[6.003856,52.502131],[6.003761,52.502068],[6.003687,52.502021],[6.003629,52.501985],[6.003425,52.501856],[6.00339,52.501835],[6.003228,52.501734],[6.002463,52.501257],[6.002199,52.501092],[6.002021,52.500978],[6.001812,52.500839],[6.001775,52.500816],[6.001569,52.500678],[6.001554,52.500668],[6.001412,52.500575],[6.00131,52.500501],[6.001148,52.500392],[6.000894,52.50022],[6.000826,52.500176],[6.000789,52.500149],[6.000788,52.500149],[6.000732,52.500115],[6.000703,52.500098],[6.000702,52.500098],[6.000595,52.500079],[5.998921,52.498936],[5.998056,52.498348],[5.99797,52.498294],[5.99753,52.497994],[5.995189,52.49642],[5.994925,52.496233],[5.994807,52.496149],[5.994435,52.495884],[5.993407,52.495163],[5.993393,52.495153],[5.99315,52.494972],[5.992967,52.494824],[5.992324,52.494336],[5.991722,52.493899],[5.991556,52.493791],[5.990907,52.493429],[5.990597,52.493257],[5.987012,52.491269],[5.986764,52.491135],[5.986758,52.491132],[5.986613,52.491026],[5.985692,52.490476],[5.983369,52.489101],[5.982504,52.488578],[5.982216,52.488388],[5.980707,52.487328],[5.979142,52.486237],[5.978444,52.485751],[5.978415,52.485716],[5.978417,52.485702],[5.978417,52.485702],[5.977771,52.485269],[5.975485,52.483711],[5.972929,52.481972],[5.971809,52.481252],[5.970477,52.480397],[5.970691,52.48024],[5.970578,52.480159],[5.970544,52.480134],[5.970343,52.479985],[5.970043,52.479778],[5.96946,52.479368],[5.968951,52.479013],[5.966764,52.47749],[5.966501,52.477312],[5.966424,52.47726],[5.966365,52.477221],[5.96623,52.477128],[5.965487,52.476548],[5.965361,52.476456],[5.965327,52.476445],[5.965302,52.476444],[5.965284,52.476448],[5.96527,52.476454],[5.965258,52.476463],[5.964786,52.476957],[5.964429,52.477322],[5.964216,52.477539],[5.961919,52.479916],[5.961539,52.480302],[5.96129,52.48056],[5.960452,52.481428],[5.959792,52.482105],[5.959771,52.482144],[5.959671,52.482332],[5.959627,52.48244],[5.959581,52.482675],[5.959527,52.48284],[5.959461,52.482974],[5.959324,52.483159],[5.959061,52.483448],[5.958697,52.483838],[5.95857,52.483889],[5.958413,52.48402],[5.958301,52.484063],[5.958156,52.48408],[5.957191,52.484053],[5.95705,52.48406],[5.95687,52.484084],[5.956588,52.484128],[5.956541,52.484136],[5.956424,52.484145],[5.955547,52.484142],[5.95466,52.484142],[5.953782,52.484141],[5.953399,52.484362],[5.953292,52.484405],[5.953123,52.484435],[5.952985,52.484448],[5.952882,52.484439],[5.952761,52.484395],[5.952648,52.484331],[5.952627,52.484315],[5.952527,52.484254],[5.952395,52.484205],[5.952259,52.484178],[5.952165,52.48417],[5.951452,52.484133],[5.951257,52.484121],[5.951147,52.484104],[5.951012,52.484072],[5.950717,52.483989],[5.950459,52.483919],[5.95024,52.483874],[5.950119,52.483849],[5.950013,52.483836],[5.94989,52.483809],[5.949784,52.483731],[5.949708,52.483685],[5.949525,52.48359],[5.949177,52.483432],[5.948856,52.483267],[5.948401,52.483053],[5.948183,52.482956],[5.947938,52.482858],[5.947836,52.482867],[5.947765,52.482856],[5.94745,52.482736],[5.947013,52.482536],[5.946795,52.482434],[5.94632,52.482161],[5.946206,52.482092],[5.94604,52.481989],[5.945982,52.481946],[5.945936,52.481886],[5.945894,52.48182],[5.945853,52.481733],[5.945782,52.48167],[5.94572,52.481628],[5.945003,52.481147],[5.944737,52.480931],[5.944548,52.480813],[5.943971,52.480451],[5.94314,52.479958],[5.942677,52.479682],[5.94258,52.479628],[5.942451,52.479557],[5.942179,52.479401],[5.941979,52.47929],[5.941678,52.479129],[5.941528,52.479047],[5.941248,52.478911],[5.941041,52.478813],[5.940673,52.478649],[5.939969,52.478331],[5.939783,52.478248],[5.939625,52.478174],[5.939434,52.478073],[5.939125,52.477894],[5.938808,52.477691],[5.938666,52.47759],[5.938464,52.477446],[5.938406,52.477404],[5.93826,52.477326],[5.937984,52.477123],[5.937772,52.476955],[5.937767,52.476952],[5.937662,52.476872],[5.937565,52.47681],[5.937547,52.476798],[5.937199,52.476625],[5.93688,52.476499],[5.936766,52.476481],[5.936755,52.47648],[5.936737,52.476477],[5.936623,52.47648],[5.93649,52.476509],[5.936337,52.476553],[5.936298,52.476564],[5.936198,52.476688],[5.93612,52.476796],[5.936028,52.476922],[5.935938,52.477035],[5.935829,52.477147],[5.935799,52.477169],[5.935636,52.477295],[5.935583,52.477318],[5.93541,52.477392],[5.935243,52.477307],[5.934631,52.477112],[5.933705,52.476812],[5.933287,52.47668],[5.933051,52.476593],[5.932791,52.476478],[5.932191,52.47628],[5.931795,52.476152],[5.930708,52.475802],[5.930438,52.475723],[5.929966,52.475588],[5.929757,52.475519],[5.929658,52.475476],[5.92935,52.475338],[5.929016,52.475188],[5.928263,52.474955],[5.927305,52.474645],[5.92556,52.474058],[5.925421,52.47422],[5.925284,52.474424],[5.925172,52.474613],[5.925137,52.474702],[5.924896,52.475114],[5.92409,52.476454],[5.924026,52.476579],[5.92398,52.476691],[5.923922,52.47691],[5.923886,52.477097],[5.923722,52.477418],[5.923665,52.477514],[5.923621,52.477587],[5.92338,52.477989],[5.923175,52.478353],[5.922936,52.478783],[5.922734,52.479173],[5.922371,52.479889],[5.921932,52.480686],[5.920794,52.482655],[5.920768,52.4827],[5.920646,52.482857],[5.919371,52.484914],[5.918879,52.485691],[5.918532,52.486202],[5.918303,52.486525],[5.918106,52.486802],[5.91757,52.487623],[5.917085,52.488351],[5.916575,52.489085],[5.915259,52.490868],[5.914408,52.491958],[5.914347,52.492044],[5.913787,52.492729],[5.911782,52.495193],[5.9115,52.495543],[5.91131,52.495779],[5.91022,52.497143],[5.910229,52.497195],[5.91024,52.497247],[5.910217,52.497305],[5.910171,52.497343],[5.910091,52.497386],[5.910003,52.497402],[5.90956,52.497955],[5.909119,52.498435],[5.908685,52.498872],[5.908386,52.499184],[5.907477,52.500141],[5.906847,52.500797],[5.906112,52.501487],[5.905575,52.502017],[5.905362,52.502233],[5.904901,52.502678],[5.904716,52.502862],[5.903836,52.503705],[5.903525,52.503999],[5.903101,52.504405],[5.902907,52.504568],[5.902691,52.504749],[5.901259,52.505949],[5.90108,52.506102],[5.900943,52.50623],[5.900846,52.506319],[5.900465,52.50667],[5.900289,52.506836],[5.900079,52.506991],[5.899731,52.50725],[5.899424,52.507483],[5.899118,52.5077],[5.898963,52.507847],[5.898746,52.507947],[5.898554,52.508077],[5.898425,52.508166],[5.897942,52.508491],[5.897449,52.508824],[5.897247,52.50897],[5.896784,52.509372],[5.896465,52.509636],[5.896154,52.509901],[5.895529,52.510421],[5.89528,52.510611],[5.89444,52.511222],[5.894354,52.5113],[5.894329,52.511341],[5.894271,52.511388],[5.894133,52.5115],[5.894009,52.511591],[5.893638,52.511861],[5.89347,52.511975],[5.893025,52.512283],[5.892808,52.512432],[5.892738,52.512485],[5.89262,52.512581],[5.892349,52.512821],[5.892215,52.512989],[5.891789,52.513318],[5.891405,52.513605],[5.889907,52.514723],[5.889877,52.514745],[5.889825,52.514783],[5.889769,52.514821],[5.887854,52.516331],[5.887603,52.516555],[5.887512,52.516656],[5.887404,52.516794],[5.887277,52.516906],[5.886535,52.517378],[5.886416,52.517435],[5.886317,52.517472],[5.886177,52.517506],[5.886006,52.517548],[5.885953,52.517562],[5.885893,52.517576],[5.88576,52.517636],[5.885819,52.51767],[5.885549,52.51782],[5.88543,52.517873],[5.885255,52.517929],[5.885295,52.518003],[5.885301,52.518021],[5.884912,52.51837],[5.883364,52.519232],[5.883344,52.519236],[5.883319,52.519231],[5.883307,52.519225],[5.882956,52.519092],[5.88273,52.518997],[5.882679,52.518978],[5.882605,52.518961],[5.882544,52.519015],[5.882433,52.519101],[5.882293,52.519192],[5.881891,52.519395],[5.88183,52.519441],[5.881762,52.519521],[5.881977,52.519598],[5.881996,52.519607],[5.882008,52.519626],[5.882005,52.519638],[5.881997,52.519665],[5.881932,52.519738],[5.8819,52.519768],[5.881898,52.51977],[5.88187,52.519803],[5.881814,52.519859],[5.881784,52.519882],[5.881724,52.519938],[5.881559,52.520006],[5.881471,52.520063],[5.881293,52.520198],[5.881,52.520451],[5.880931,52.520524],[5.880611,52.520766],[5.880507,52.520864],[5.880448,52.520898],[5.880329,52.520999],[5.880054,52.521155],[5.87987,52.521248],[5.879781,52.521302],[5.879707,52.521342],[5.879452,52.521431],[5.879215,52.521558],[5.879138,52.521595],[5.879074,52.521629],[5.879023,52.521662],[5.878986,52.521671],[5.878946,52.521678],[5.87891,52.521673],[5.878718,52.521601],[5.878473,52.521496],[5.878044,52.521299],[5.87786,52.521208],[5.877763,52.521149],[5.877421,52.521341],[5.876584,52.521817],[5.876206,52.522025],[5.876065,52.521962],[5.875764,52.521874],[5.874254,52.521383],[5.873415,52.521116],[5.873299,52.521079],[5.872211,52.52073],[5.871827,52.520593],[5.870886,52.520293],[5.870815,52.520267],[5.870519,52.520173],[5.868131,52.519411],[5.867686,52.519267],[5.865796,52.518656],[5.865673,52.518617],[5.86431,52.518173],[5.864502,52.518653],[5.864191,52.519781],[5.862055,52.521583],[5.862626,52.523345],[5.861836,52.524786],[5.861295,52.526327],[5.860945,52.527323],[5.860754,52.527867],[5.860608,52.528281],[5.86114,52.531073],[5.860881,52.531706],[5.859252,52.535689],[5.859054,52.536343],[5.858952,52.53668],[5.857771,52.540706],[5.85705,52.54316],[5.856903,52.543734],[5.856845,52.543961],[5.85787,52.544604],[5.857761,52.545027],[5.857726,52.545163],[5.857601,52.54565],[5.857502,52.545696],[5.857305,52.545781],[5.857162,52.545836],[5.857014,52.54587],[5.856359,52.545844],[5.855365,52.549702],[5.855076,52.550824],[5.846336,52.556687],[5.844329,52.558032],[5.843279,52.558737],[5.829795,52.567775],[5.828334,52.568754],[5.816307,52.576812],[5.815361,52.577445],[5.815028,52.577659],[5.81488,52.577754],[5.814378,52.57805],[5.813856,52.578334],[5.813315,52.578603],[5.813241,52.578639],[5.813136,52.578688],[5.81301,52.578745],[5.812861,52.578813],[5.812726,52.578872],[5.812604,52.578925],[5.812497,52.57897],[5.81238,52.579019],[5.812279,52.57906],[5.812143,52.579115],[5.812006,52.579169],[5.811877,52.579219],[5.81176,52.579263],[5.811636,52.579309],[5.811472,52.579368],[5.811308,52.579426],[5.811144,52.579483],[5.811022,52.579523],[5.810903,52.579563],[5.810772,52.579605],[5.810629,52.57965],[5.810464,52.579701],[5.810249,52.579765],[5.809994,52.579838],[5.809802,52.579891],[5.809696,52.579919],[5.809649,52.579932],[5.809516,52.579966],[5.80938,52.580001],[5.80921,52.580043],[5.809003,52.580092],[5.80892,52.580112],[5.80882,52.580134],[5.808676,52.580167],[5.808617,52.580179],[5.808569,52.58019],[5.80847,52.580211],[5.808397,52.580226],[5.808196,52.580267],[5.808015,52.580303],[5.807833,52.580336],[5.807697,52.580361],[5.807669,52.580366],[5.807486,52.580397],[5.807222,52.58044],[5.806951,52.580481],[5.806673,52.580521],[5.806373,52.580561],[5.806176,52.580584],[5.806016,52.580602],[5.805888,52.580616],[5.805597,52.580646],[5.805499,52.580655],[5.805407,52.580663],[5.805326,52.58067],[5.805244,52.580677],[5.805154,52.580683],[5.805057,52.580691],[5.804959,52.580698],[5.804864,52.580705],[5.804757,52.580711],[5.804662,52.580718],[5.804552,52.580724],[5.804462,52.580729],[5.804371,52.580733],[5.804283,52.580738],[5.804185,52.580742],[5.8041,52.580745],[5.803982,52.58075],[5.803887,52.580753],[5.803786,52.580756],[5.803665,52.580759],[5.803545,52.580762],[5.803319,52.580765],[5.803127,52.580766],[5.785551,52.580827],[5.77793,52.580852],[5.777949,52.582998],[5.77775,52.582999],[5.777751,52.583134],[5.77776,52.584075],[5.777776,52.585932],[5.777856,52.594919],[5.777935,52.603906],[5.777968,52.607534]]]},"properties":{"type":"boundary","gemeente":"Kampen"}}]}