{"type":"FeatureCollection","metadata":{"gemeente":"Koggenland","slug":"koggenland","generated_at":"2026-09-28T08:23:52.550187Z","total_points":19,"providers":["Amazon","DHL","DPD","PostNL","VintedGo","GLS","ViaTim","InPost"],"bounds":[4.892359,52.62331,4.96891,52.6764631]},"features":[{"type":"Feature","geometry":{"type":"Point","coordinates":[4.893847433,52.66913866]},"properties":{"type":"pakketpunt","locatieNaam":"Mailbox bv","straatNaam":"Braken 43","straatNr":"","vervoerder":"Amazon","puntType":"3p","bezettingsgraad":50,"latitude":52.66913866,"longitude":4.893847433,"canPickup":true,"canDropoff":false,"openingstijden":null}},{"type":"Feature","geometry":{"type":"Point","coordinates":[4.893847433,52.66913866]},"properties":{"type":"pakketpunt","locatieNaam":"Mailbox bv+","straatNaam":"Braken 43","straatNr":"","vervoerder":"Amazon","puntType":"3p","bezettingsgraad":50,"latitude":52.66913866,"longitude":4.893847433,"canPickup":true,"canDropoff":false,"openingstijden":null}},{"type":"Feature","geometry":{"type":"Point","coordinates":[4.9471677,52.6239578]},"properties":{"type":"pakketpunt","locatieNaam":"Pakketautomaat Lidl Avenhorn","straatNaam":"Vijverhof","straatNr":"42","vervoerder":"DHL","puntType":"packStation","bezettingsgraad":50,"latitude":52.6239578,"longitude":4.9471677,"canPickup":true,"canDropoff":true,"openingstijden":{"ma":"00:00 - 23:59","di":"00:00 - 23:59","wo":"00:00 - 23:59","do":"00:00 - 23:59","vr":"00:00 - 23:59","za":"00:00 - 23:59","zo":"00:00 - 23:59"}}},{"type":"Feature","geometry":{"type":"Point","coordinates":[4.949159,52.623784]},"properties":{"type":"pakketpunt","locatieNaam":"Drogisterij Carla van der Hulst","straatNaam":"Vijverhof","straatNr":"19","vervoerder":"DHL","puntType":"parcelShop","bezettingsgraad":50,"latitude":52.623784,"longitude":4.949159,"canPickup":true,"canDropoff":true,"openingstijden":{"ma":"09:00 - 18:00","di":"09:00 - 18:00","wo":"09:00 - 18:00","do":"09:00 - 18:00","vr":"09:00 - 18:00","za":"09:00 - 17:00","zo":"gesloten"}}},{"type":"Feature","geometry":{"type":"Point","coordinates":[4.9057479,52.6759034]},"properties":{"type":"pakketpunt","locatieNaam":"DHL Buurtpunt ViaTim & Lily","straatNaam":"Bosstraat","straatNr":"28","vervoerder":"DHL","puntType":"parcelShop","bezettingsgraad":50,"latitude":52.6759034,"longitude":4.9057479,"canPickup":true,"canDropoff":true,"openingstijden":{"ma":"15:30 - 21:00","di":"15:30 - 21:00","wo":"15:30 - 21:00","do":"15:30 - 21:00","vr":"15:30 - 21:00","za":"gesloten","zo":"gesloten"}}},{"type":"Feature","geometry":{"type":"Point","coordinates":[4.908636,52.676457]},"properties":{"type":"pakketpunt","locatieNaam":"EP Obdam","straatNaam":"Dorpsstraat","straatNr":"126","vervoerder":"DHL","puntType":"parcelShop","bezettingsgraad":50,"latitude":52.676457,"longitude":4.908636,"canPickup":true,"canDropoff":true,"openingstijden":{"ma":"10:00 - 18:00","di":"08:30 - 18:00","wo":"08:30 - 18:00","do":"08:30 - 18:00","vr":"08:30 - 18:00","za":"08:30 - 17:00","zo":"gesloten"}}},{"type":"Feature","geometry":{"type":"Point","coordinates":[4.9057479,52.6759034]},"properties":{"type":"pakketpunt","locatieNaam":"ViaTim & Lily","straatNaam":"BOSSTRAAT","straatNr":"28","vervoerder":"DPD","puntType":"pickup_point","bezettingsgraad":50,"latitude":52.6759034,"longitude":4.9057479,"canPickup":true,"canDropoff":true,"openingstijden":{"ma":"16:00 - 21:00","di":"16:00 - 21:00","wo":"16:00 - 21:00","do":"16:00 - 21:00","vr":"16:00 - 21:00","za":"gesloten","zo":"gesloten"}}},{"type":"Feature","geometry":{"type":"Point","coordinates":[4.892359,52.6276731]},"properties":{"type":"pakketpunt","locatieNaam":"Pakketautomaat SPAR Tijms","straatNaam":"AMMERDORFFERSTRAAT","straatNr":"3","vervoerder":"DPD","puntType":"dpd_box","bezettingsgraad":50,"latitude":52.6276731,"longitude":4.892359,"canPickup":true,"canDropoff":true,"openingstijden":{"ma":"08:00 - 20:00","di":"08:00 - 20:00","wo":"08:00 - 20:00","do":"08:00 - 20:00","vr":"08:00 - 20:00","za":"08:00 - 20:00","zo":"11:00 - 18:00"}}},{"type":"Feature","geometry":{"type":"Point","coordinates":[4.9598885,52.6245328]},"properties":{"type":"pakketpunt","locatieNaam":"PDB-Reclame","straatNaam":"WIEDER","straatNr":"19","vervoerder":"DPD","puntType":"pickup_point","bezettingsgraad":50,"latitude":52.6245328,"longitude":4.9598885,"canPickup":true,"canDropoff":true,"openingstijden":{"ma":"09:00 - 16:00","di":"09:00 - 17:30","wo":"09:00 - 17:30","do":"09:00 - 17:30","vr":"09:00 - 17:30","za":"gesloten","zo":"gesloten"}}},{"type":"Feature","geometry":{"type":"Point","coordinates":[4.96891,52.62331]},"properties":{"type":"pakketpunt","locatieNaam":"Pakketautomaat Jurgh Car Detailing","straatNaam":"SCHOFFEL","straatNr":"6","vervoerder":"DPD","puntType":"dpd_box","bezettingsgraad":50,"latitude":52.62331,"longitude":4.96891,"canPickup":true,"canDropoff":true,"openingstijden":{"ma":"00:01 - 23:59","di":"00:01 - 23:59","wo":"00:01 - 23:59","do":"00:01 - 23:59","vr":"00:01 - 23:59","za":"00:01 - 23:59","zo":"00:01 - 23:59"}}},{"type":"Feature","geometry":{"type":"Point","coordinates":[4.892377283,52.62768379]},"properties":{"type":"pakketpunt","locatieNaam":"Spar Tijms","straatNaam":"Ammerdorfferstraat","straatNr":"3","vervoerder":"PostNL","puntType":"servicepunt","bezettingsgraad":50,"latitude":52.62768379,"longitude":4.892377283,"canPickup":true,"canDropoff":true,"openingstijden":"08:00 - 20:00 (Na 18:00 open; Zaterdag open; Zondag open)"}},{"type":"Feature","geometry":{"type":"Point","coordinates":[4.893847433,52.66913866]},"properties":{"type":"pakketpunt","locatieNaam":"Mailbox bv","straatNaam":"Braken","straatNr":"43","vervoerder":"PostNL","puntType":"servicepunt","bezettingsgraad":50,"latitude":52.66913866,"longitude":4.893847433,"canPickup":true,"canDropoff":true,"openingstijden":"08:30 - 17:30"}},{"type":"Feature","geometry":{"type":"Point","coordinates":[4.90575,52.6759]},"properties":{"type":"pakketpunt","locatieNaam":"L. Eijgenberger","straatNaam":"Bosstraat 28","straatNr":"","vervoerder":"VintedGo","puntType":"social","bezettingsgraad":50,"latitude":52.6759,"longitude":4.90575,"canPickup":true,"canDropoff":true,"openingstijden":null}},{"type":"Feature","geometry":{"type":"Point","coordinates":[4.9086817,52.6764631]},"properties":{"type":"pakketpunt","locatieNaam":"Ep Klaver","straatNaam":"Dorpsstraat 126","straatNr":"","vervoerder":"VintedGo","puntType":"parcel_shop","bezettingsgraad":50,"latitude":52.6764631,"longitude":4.9086817,"canPickup":true,"canDropoff":true,"openingstijden":null}},{"type":"Feature","geometry":{"type":"Point","coordinates":[4.9598718,52.624557]},"properties":{"type":"pakketpunt","locatieNaam":"Pdb-reclame","straatNaam":"Wieder 19","straatNr":"","vervoerder":"VintedGo","puntType":"parcel_shop","bezettingsgraad":50,"latitude":52.624557,"longitude":4.9598718,"canPickup":true,"canDropoff":true,"openingstijden":null}},{"type":"Feature","geometry":{"type":"Point","coordinates":[4.9057464,52.6759037]},"properties":{"type":"pakketpunt","locatieNaam":"ViaTim & Lily","straatNaam":"Bosstraat","straatNr":"28","vervoerder":"GLS","puntType":"parcel_shop","bezettingsgraad":50,"latitude":52.6759037,"longitude":4.9057464,"canPickup":true,"canDropoff":true,"openingstijden":{"ma":"15:30 - 21:00","di":"15:30 - 21:00","wo":"15:30 - 21:00","do":"15:30 - 21:00","vr":"15:30 - 21:00","za":"00:00 - 00:00","zo":"00:00 - 00:00"}}},{"type":"Feature","geometry":{"type":"Point","coordinates":[4.90574797148225,52.6759034060887]},"properties":{"type":"pakketpunt","locatieNaam":"ViaTim & Lily","straatNaam":"Bosstraat","straatNr":"28","vervoerder":"ViaTim","puntType":"servicepunt","bezettingsgraad":50,"latitude":52.6759034060887,"longitude":4.90574797148225,"canPickup":true,"canDropoff":true,"openingstijden":{"ma":"15:30 - 21:00","di":"15:30 - 21:00","wo":"15:30 - 21:00","do":"15:30 - 21:00","vr":"15:30 - 21:00","za":"gesloten","zo":"gesloten"}}},{"type":"Feature","geometry":{"type":"Point","coordinates":[4.95987,52.62456]},"properties":{"type":"pakketpunt","locatieNaam":"PDB-RECLAME DE GOORN","straatNaam":"Wieder 19","straatNr":"","vervoerder":"InPost","puntType":"servicepunt","bezettingsgraad":50,"latitude":52.62456,"longitude":4.95987,"canPickup":true,"canDropoff":true,"openingstijden":null}},{"type":"Feature","geometry":{"type":"Point","coordinates":[4.9597,52.62464]},"properties":{"type":"pakketpunt","locatieNaam":"","straatNaam":"Wieder","straatNr":"19","vervoerder":"InPost","puntType":"automaat","bezettingsgraad":50,"latitude":52.62464,"longitude":4.9597,"canPickup":true,"canDropoff":true,"openingstijden":"24/7"}},{"type":"Feature","geometry":{"type":"Polygon","coordinates":[[[4.862733,52.653655],[4.863002,52.65582],[4.863179,52.656469],[4.864121,52.657561],[4.866506,52.660087],[4.866585,52.660181],[4.866676,52.66029],[4.866754,52.6604],[4.866797,52.66048],[4.867877,52.663185],[4.867967,52.663395],[4.867986,52.663446],[4.867993,52.663498],[4.868024,52.663714],[4.868222,52.664207],[4.868325,52.664373],[4.868466,52.664533],[4.868734,52.664826],[4.869511,52.66568],[4.869578,52.665761],[4.869663,52.665864],[4.869751,52.665977],[4.869914,52.666217],[4.870018,52.666392],[4.870116,52.666565],[4.870214,52.666768],[4.870411,52.667151],[4.870647,52.667599],[4.870769,52.667819],[4.870776,52.667833],[4.870781,52.66784],[4.870937,52.668109],[4.871076,52.66834],[4.871242,52.668577],[4.87145,52.668867],[4.871629,52.669136],[4.871782,52.66938],[4.872014,52.66975],[4.872052,52.669822],[4.872107,52.66993],[4.872152,52.670044],[4.872275,52.670394],[4.872356,52.670564],[4.872506,52.67089],[4.872679,52.671281],[4.872739,52.671421],[4.872844,52.671584],[4.872994,52.671826],[4.873048,52.671934],[4.873174,52.672182],[4.873423,52.672693],[4.873527,52.673028],[4.873619,52.673325],[4.87365,52.67344],[4.87367,52.673622],[4.873686,52.6738],[4.873691,52.674176],[4.873698,52.674231],[4.873714,52.674287],[4.873755,52.674413],[4.873856,52.674723],[4.873895,52.674862],[4.87392,52.674978],[4.873946,52.675092],[4.873974,52.675169],[4.874004,52.675245],[4.874042,52.675342],[4.87409,52.67546],[4.874143,52.675592],[4.87418,52.675743],[4.87428,52.676007],[4.874335,52.676122],[4.874393,52.676239],[4.874443,52.676327],[4.874501,52.676414],[4.874564,52.676497],[4.874678,52.67662],[4.874879,52.676851],[4.875177,52.677187],[4.875442,52.677488],[4.875517,52.677561],[4.875622,52.677654],[4.87571,52.677732],[4.875795,52.677791],[4.875884,52.677847],[4.876076,52.677947],[4.876277,52.678047],[4.876516,52.678153],[4.876907,52.678348],[4.877335,52.678574],[4.877438,52.678631],[4.877493,52.678669],[4.877524,52.678694],[4.877565,52.678728],[4.877668,52.678811],[4.877679,52.678819],[4.877786,52.678902],[4.878105,52.679165],[4.878184,52.679218],[4.87914,52.67995],[4.879208,52.67999],[4.879371,52.680075],[4.879396,52.680081],[4.879385,52.680188],[4.87938,52.680231],[4.879371,52.680298],[4.879357,52.680401],[4.879111,52.680822],[4.878531,52.681848],[4.878154,52.682511],[4.878148,52.682521],[4.878126,52.682561],[4.878099,52.682613],[4.877956,52.682893],[4.877741,52.683278],[4.87769,52.68337],[4.877193,52.684268],[4.877072,52.684489],[4.877016,52.684508],[4.87701,52.684509],[4.87693,52.684637],[4.87666,52.685106],[4.876341,52.685651],[4.876328,52.685675],[4.876329,52.685713],[4.876337,52.685733],[4.876181,52.685764],[4.87608,52.685785],[4.876062,52.685788],[4.876005,52.6858],[4.875975,52.685825],[4.876023,52.68586],[4.876072,52.685903],[4.876107,52.685975],[4.876226,52.686253],[4.876249,52.686292],[4.876293,52.686343],[4.876332,52.686372],[4.876824,52.686654],[4.87703,52.686771],[4.877109,52.686818],[4.877165,52.686859],[4.877621,52.68721],[4.877692,52.687262],[4.877781,52.6873],[4.879131,52.687827],[4.879326,52.687981],[4.879383,52.688016],[4.879458,52.688036],[4.879775,52.688113],[4.879952,52.688153],[4.880017,52.68816],[4.880059,52.688161],[4.880207,52.688152],[4.880898,52.688117],[4.881803,52.68808],[4.881896,52.688082],[4.881985,52.688096],[4.882072,52.688119],[4.882156,52.688145],[4.882667,52.688334],[4.882977,52.688446],[4.883093,52.688479],[4.883519,52.68861],[4.884226,52.688854],[4.884794,52.689056],[4.88506,52.68917],[4.88612,52.689671],[4.886229,52.689717],[4.886458,52.689802],[4.886675,52.689866],[4.888592,52.690415],[4.888704,52.690455],[4.888764,52.690496],[4.888811,52.690548],[4.888851,52.690661],[4.889057,52.691108],[4.889516,52.69231],[4.890198,52.693979],[4.890269,52.694118],[4.890346,52.69419],[4.890401,52.694249],[4.890464,52.694309],[4.891148,52.694936],[4.891268,52.695056],[4.891361,52.695135],[4.891419,52.695176],[4.891471,52.695202],[4.891533,52.695224],[4.891612,52.695244],[4.891673,52.695257],[4.892745,52.695502],[4.892812,52.695515],[4.893007,52.695549],[4.893109,52.695569],[4.893236,52.695602],[4.895654,52.696232],[4.89683,52.696624],[4.898013,52.696958],[4.898946,52.697271],[4.89934,52.697392],[4.899567,52.69748],[4.89982,52.697563],[4.89986,52.697587],[4.899987,52.697609],[4.91067,52.69988],[4.910847,52.699909],[4.910929,52.699912],[4.912727,52.699701],[4.913464,52.699631],[4.91476,52.699465],[4.915153,52.699436],[4.9157,52.699375],[4.915862,52.699341],[4.915913,52.699322],[4.915949,52.699305],[4.91611,52.699147],[4.916994,52.698148],[4.918056,52.697017],[4.918095,52.696968],[4.918124,52.696875],[4.91813,52.696827],[4.917621,52.69445],[4.917556,52.694214],[4.917466,52.69365],[4.917376,52.693314],[4.917325,52.692957],[4.917314,52.692909],[4.917139,52.692886],[4.914128,52.691499],[4.906764,52.688108],[4.906314,52.687903],[4.905902,52.687705],[4.905807,52.687658],[4.905757,52.687631],[4.905673,52.687578],[4.905592,52.687521],[4.905514,52.687472],[4.905425,52.687419],[4.905346,52.687379],[4.905292,52.687356],[4.905239,52.687335],[4.905235,52.687334],[4.905222,52.68733],[4.905151,52.687308],[4.905054,52.687283],[4.905,52.687273],[4.904979,52.687269],[4.904965,52.687147],[4.905,52.687114],[4.905044,52.687075],[4.905087,52.687018],[4.905135,52.686962],[4.905291,52.686778],[4.905435,52.686609],[4.905513,52.686528],[4.905618,52.686419],[4.905663,52.686405],[4.905713,52.68639],[4.905764,52.686374],[4.90584,52.68635],[4.905914,52.686327],[4.906006,52.686299],[4.906054,52.686284],[4.906106,52.686267],[4.906152,52.686253],[4.906209,52.686234],[4.906296,52.686207],[4.906361,52.686187],[4.906427,52.686166],[4.906484,52.686148],[4.90654,52.68613],[4.906587,52.686115],[4.906627,52.686102],[4.906667,52.68609],[4.906743,52.686069],[4.906815,52.68605],[4.906895,52.686028],[4.906987,52.686004],[4.907116,52.685969],[4.907196,52.685948],[4.907263,52.68593],[4.907378,52.685899],[4.907465,52.685875],[4.907597,52.685839],[4.907699,52.685812],[4.907803,52.685783],[4.907959,52.685741],[4.907987,52.685733],[4.907988,52.685733],[4.908018,52.685724],[4.908031,52.685721],[4.908042,52.685718],[4.908055,52.685714],[4.908066,52.685711],[4.908093,52.685704],[4.908109,52.685699],[4.908124,52.685695],[4.908144,52.685689],[4.908184,52.685677],[4.908226,52.685665],[4.908266,52.685654],[4.908304,52.685642],[4.908347,52.68563],[4.908509,52.685578],[4.908707,52.685514],[4.908912,52.685454],[4.909182,52.685374],[4.909384,52.685316],[4.909581,52.68526],[4.909702,52.685225],[4.909766,52.685207],[4.909812,52.685193],[4.909851,52.685182],[4.910201,52.685082],[4.910309,52.685052],[4.910375,52.685034],[4.91048,52.685005],[4.910558,52.684983],[4.91064,52.684961],[4.910723,52.684937],[4.910782,52.684921],[4.910829,52.684908],[4.910869,52.684897],[4.910948,52.684875],[4.911016,52.684857],[4.911072,52.684841],[4.911114,52.684829],[4.911195,52.684807],[4.911266,52.684787],[4.911305,52.684777],[4.911368,52.684759],[4.911394,52.684752],[4.911423,52.684744],[4.91148,52.684728],[4.911533,52.684714],[4.911615,52.684691],[4.911708,52.684665],[4.911867,52.684619],[4.912016,52.684576],[4.912186,52.684526],[4.912346,52.68448],[4.912469,52.684444],[4.912681,52.684382],[4.912775,52.684355],[4.91286,52.684331],[4.913058,52.684275],[4.913253,52.684219],[4.91331,52.684203],[4.913448,52.684164],[4.913669,52.684101],[4.913746,52.68408],[4.913907,52.684036],[4.914117,52.683978],[4.914287,52.683931],[4.914519,52.683869],[4.914578,52.683852],[4.914757,52.683798],[4.915211,52.683663],[4.915299,52.683637],[4.915425,52.683605],[4.915716,52.683519],[4.915869,52.683474],[4.916057,52.683419],[4.916496,52.68329],[4.916821,52.683191],[4.917051,52.683121],[4.917083,52.683111],[4.917435,52.683008],[4.917582,52.682966],[4.917768,52.682908],[4.91782,52.682892],[4.917829,52.682889],[4.917992,52.682839],[4.91855,52.682659],[4.918631,52.682634],[4.918703,52.682597],[4.918768,52.682569],[4.918837,52.682559],[4.918894,52.68255],[4.918911,52.682566],[4.91892,52.682565],[4.918933,52.682564],[4.918946,52.682564],[4.918961,52.682563],[4.918976,52.682562],[4.918996,52.682556],[4.919032,52.682545],[4.919069,52.682534],[4.919117,52.682519],[4.919163,52.682505],[4.919221,52.682488],[4.919272,52.682472],[4.919329,52.682456],[4.919387,52.68244],[4.919466,52.682417],[4.919549,52.682394],[4.919634,52.68237],[4.91973,52.682347],[4.919825,52.682324],[4.919994,52.682285],[4.920083,52.682274],[4.920176,52.682263],[4.920394,52.682238],[4.920651,52.682209],[4.920736,52.682199],[4.920862,52.682183],[4.920964,52.68217],[4.921078,52.682156],[4.921212,52.682133],[4.921328,52.682112],[4.92155,52.682078],[4.921714,52.682049],[4.921971,52.681995],[4.92213,52.681963],[4.922281,52.681932],[4.922343,52.681919],[4.922447,52.681898],[4.922614,52.68186],[4.922721,52.681837],[4.922811,52.681817],[4.922931,52.681792],[4.923136,52.681749],[4.92325,52.681726],[4.923445,52.681688],[4.923689,52.681639],[4.923715,52.681633],[4.923955,52.681581],[4.924036,52.681563],[4.92409,52.681546],[4.924134,52.681532],[4.92421,52.681508],[4.924293,52.681482],[4.924449,52.681429],[4.924867,52.681288],[4.924908,52.681276],[4.924991,52.681252],[4.925182,52.68119],[4.925498,52.68109],[4.925666,52.681035],[4.925865,52.680972],[4.92605,52.680912],[4.926205,52.680864],[4.926334,52.680823],[4.926475,52.680779],[4.926691,52.68072],[4.926769,52.6807],[4.926825,52.680686],[4.926875,52.680673],[4.92693,52.680659],[4.927045,52.68063],[4.927147,52.680599],[4.92728,52.680554],[4.927484,52.680485],[4.927555,52.680461],[4.92763,52.680435],[4.927685,52.680415],[4.927752,52.680392],[4.927821,52.680368],[4.927862,52.680355],[4.927927,52.680334],[4.927994,52.680312],[4.928051,52.680293],[4.928115,52.680273],[4.92818,52.680256],[4.928251,52.680236],[4.928324,52.680217],[4.928406,52.680195],[4.928469,52.680178],[4.928516,52.680165],[4.928589,52.680145],[4.9287,52.680116],[4.928805,52.680087],[4.92893,52.680054],[4.929057,52.68002],[4.929071,52.680016],[4.929246,52.679963],[4.929424,52.67991],[4.929563,52.679865],[4.92971,52.679818],[4.929844,52.679776],[4.929946,52.679743],[4.930021,52.679722],[4.930097,52.6797],[4.930189,52.679674],[4.930268,52.679651],[4.930353,52.67963],[4.930436,52.67961],[4.930513,52.679594],[4.930572,52.679581],[4.930653,52.679565],[4.93074,52.679547],[4.930851,52.679527],[4.930953,52.679509],[4.931016,52.679494],[4.931077,52.679479],[4.931123,52.679468],[4.931161,52.679459],[4.931196,52.679451],[4.931222,52.679444],[4.931226,52.679443],[4.931347,52.679397],[4.931373,52.679389],[4.93142,52.679375],[4.931525,52.679345],[4.931613,52.679319],[4.931989,52.679205],[4.932309,52.679109],[4.932405,52.679078],[4.93264,52.679005],[4.932646,52.679004],[4.932919,52.678924],[4.933093,52.678873],[4.933224,52.678835],[4.933307,52.67881],[4.933395,52.678784],[4.933854,52.67865],[4.934014,52.678603],[4.934513,52.678466],[4.934676,52.678421],[4.93506,52.678303],[4.935407,52.678204],[4.935665,52.678131],[4.935913,52.678061],[4.936116,52.678001],[4.938036,52.677451],[4.938058,52.677444],[4.938909,52.67718],[4.939538,52.676989],[4.940211,52.676783],[4.9405,52.676693],[4.940715,52.676621],[4.940719,52.67662],[4.940753,52.676609],[4.941386,52.676454],[4.941638,52.676389],[4.941819,52.676361],[4.942075,52.676318],[4.942248,52.676279],[4.94248,52.676215],[4.943264,52.675983],[4.943839,52.675809],[4.944357,52.675654],[4.944543,52.675596],[4.945075,52.675434],[4.945409,52.675326],[4.94555,52.675275],[4.9458,52.675183],[4.945824,52.675174],[4.945991,52.675113],[4.94601,52.675106],[4.94601,52.675106],[4.946108,52.675208],[4.946328,52.675438],[4.947475,52.675086],[4.94848,52.674778],[4.949118,52.674576],[4.949412,52.674483],[4.949349,52.674388],[4.949401,52.674339],[4.949728,52.673992],[4.950009,52.673691],[4.950204,52.673482],[4.950364,52.673313],[4.950388,52.673287],[4.95065,52.673004],[4.950785,52.672866],[4.950791,52.672859],[4.950793,52.672859],[4.951163,52.672653],[4.951783,52.672305],[4.95208,52.672138],[4.952743,52.671765],[4.952744,52.671771],[4.952757,52.671809],[4.952786,52.671935],[4.952812,52.672052],[4.952843,52.672099],[4.95289,52.67213],[4.953057,52.672191],[4.953263,52.672253],[4.953492,52.672309],[4.953576,52.672334],[4.95358,52.672334],[4.953581,52.672335],[4.953785,52.672376],[4.954142,52.672451],[4.954304,52.672491],[4.954651,52.672562],[4.954875,52.672611],[4.95489,52.672614],[4.954904,52.672617],[4.954919,52.67262],[4.95492,52.67262],[4.95498,52.672642],[4.954996,52.672648],[4.955039,52.672673],[4.95508,52.672699],[4.955122,52.672716],[4.955213,52.672741],[4.955315,52.67277],[4.955413,52.672792],[4.955529,52.672821],[4.955664,52.672854],[4.955827,52.672892],[4.956027,52.672936],[4.956168,52.672966],[4.95633,52.673005],[4.956447,52.673032],[4.956757,52.673095],[4.956882,52.673117],[4.956953,52.673131],[4.956982,52.673137],[4.957029,52.673138],[4.95709,52.673143],[4.95717,52.673151],[4.957274,52.673165],[4.957302,52.673169],[4.957433,52.673182],[4.957603,52.673215],[4.957691,52.673231],[4.957763,52.673244],[4.957838,52.673259],[4.957903,52.673275],[4.95797,52.673294],[4.95804,52.673313],[4.958177,52.673357],[4.958242,52.673375],[4.958282,52.673386],[4.958352,52.6734],[4.95842,52.673411],[4.95847,52.673418],[4.958492,52.673419],[4.958514,52.673414],[4.958547,52.6734],[4.958576,52.673382],[4.958598,52.673366],[4.958631,52.673356],[4.958673,52.673354],[4.958728,52.673361],[4.958767,52.673368],[4.959012,52.67341],[4.959121,52.673431],[4.959206,52.673448],[4.959274,52.673465],[4.959342,52.673484],[4.959409,52.673502],[4.959471,52.673516],[4.959571,52.673535],[4.959696,52.673554],[4.959814,52.673573],[4.959925,52.673589],[4.960016,52.673605],[4.96011,52.673624],[4.960192,52.673643],[4.960266,52.673661],[4.960311,52.673676],[4.960335,52.673683],[4.960337,52.673686],[4.960541,52.673737],[4.960565,52.673739],[4.960581,52.673739],[4.960595,52.673738],[4.96061,52.673732],[4.960632,52.673716],[4.96067,52.673681],[4.960735,52.673607],[4.960762,52.673569],[4.960774,52.67355],[4.960788,52.673523],[4.960948,52.673524],[4.961044,52.673534],[4.961179,52.673561],[4.961314,52.673591],[4.961566,52.673646],[4.96164,52.673663],[4.961766,52.673709],[4.961779,52.673749],[4.96179,52.673781],[4.961795,52.673795],[4.961771,52.673813],[4.961726,52.673845],[4.961699,52.673865],[4.961583,52.673949],[4.961602,52.673975],[4.961603,52.673977],[4.961629,52.674012],[4.961629,52.674038],[4.961614,52.674058],[4.961595,52.674127],[4.961603,52.674187],[4.961618,52.674272],[4.961625,52.67444],[4.961646,52.67453],[4.961681,52.674647],[4.961702,52.674733],[4.961714,52.674807],[4.961737,52.674957],[4.961745,52.675001],[4.961769,52.675048],[4.961777,52.675061],[4.961778,52.675062],[4.961818,52.675126],[4.96189,52.675285],[4.961983,52.67552],[4.962027,52.675654],[4.962057,52.675794],[4.962077,52.675925],[4.962094,52.675992],[4.962131,52.676027],[4.962186,52.67605],[4.962219,52.676061],[4.962244,52.676035],[4.96227,52.676012],[4.962289,52.67599],[4.962319,52.675962],[4.962364,52.675936],[4.962429,52.675909],[4.962713,52.675811],[4.962828,52.675774],[4.962828,52.675774],[4.962954,52.675733],[4.963091,52.67569],[4.963207,52.675653],[4.963321,52.675617],[4.963378,52.6756],[4.963411,52.675597],[4.963444,52.675597],[4.96346,52.675597],[4.963491,52.675601],[4.963517,52.675607],[4.963546,52.675615],[4.96357,52.67563],[4.963587,52.675641],[4.963603,52.67566],[4.963632,52.675688],[4.963665,52.675722],[4.963705,52.675758],[4.963754,52.675796],[4.963814,52.675836],[4.9639,52.675894],[4.964025,52.675977],[4.964063,52.675997],[4.964145,52.676039],[4.964199,52.676065],[4.964243,52.676084],[4.964294,52.676102],[4.96434,52.676119],[4.964379,52.676129],[4.964411,52.676141],[4.964464,52.676152],[4.964517,52.676166],[4.964568,52.676177],[4.964603,52.67619],[4.964632,52.67621],[4.964687,52.676239],[4.964703,52.67625],[4.964728,52.676267],[4.964742,52.676285],[4.964747,52.676306],[4.964752,52.676366],[4.964751,52.676455],[4.964744,52.676662],[4.964734,52.676956],[4.964738,52.67705],[4.964793,52.677056],[4.96496,52.677058],[4.965344,52.677059],[4.965506,52.677056],[4.965571,52.677062],[4.965588,52.677067],[4.965595,52.677073],[4.965608,52.677085],[4.965616,52.677104],[4.965619,52.677139],[4.965621,52.677172],[4.965618,52.677221],[4.965668,52.677228],[4.96572,52.677228],[4.965824,52.677225],[4.965969,52.677216],[4.966107,52.677207],[4.966279,52.677197],[4.966321,52.677195],[4.966325,52.677262],[4.966328,52.677438],[4.966336,52.677763],[4.966342,52.67791],[4.966346,52.678017],[4.966351,52.678081],[4.966363,52.678145],[4.966373,52.678206],[4.966382,52.678279],[4.966392,52.678363],[4.9664,52.678425],[4.966408,52.678491],[4.966419,52.67855],[4.96645,52.678548],[4.966506,52.678544],[4.966534,52.678543],[4.966564,52.678557],[4.966637,52.678542],[4.966696,52.678548],[4.966767,52.678555],[4.966844,52.678564],[4.96686,52.678565],[4.96692,52.67857],[4.966976,52.678577],[4.967044,52.678591],[4.967122,52.67861],[4.967186,52.678643],[4.967225,52.678632],[4.967285,52.678635],[4.967326,52.678635],[4.967327,52.678635],[4.967401,52.678654],[4.967474,52.678669],[4.967526,52.678681],[4.967535,52.678683],[4.967567,52.678686],[4.967615,52.678687],[4.9677,52.678694],[4.967818,52.678712],[4.967958,52.678739],[4.968056,52.678764],[4.968108,52.678781],[4.968134,52.678799],[4.968185,52.678843],[4.968236,52.678883],[4.968257,52.678893],[4.968283,52.6789],[4.968322,52.678908],[4.968438,52.678922],[4.968572,52.678944],[4.968704,52.678963],[4.968817,52.678973],[4.968885,52.67898],[4.968893,52.678981],[4.968916,52.67899],[4.96894,52.679006],[4.969049,52.679004],[4.969111,52.679002],[4.969216,52.678977],[4.969402,52.678933],[4.969549,52.678902],[4.9696,52.678896],[4.96963,52.678931],[4.969709,52.678992],[4.969926,52.679164],[4.97017,52.679343],[4.970381,52.67949],[4.970543,52.679604],[4.970587,52.679626],[4.970609,52.679631],[4.970623,52.679631],[4.970635,52.679628],[4.970658,52.679618],[4.97075,52.679578],[4.970878,52.679522],[4.97098,52.679473],[4.971063,52.679431],[4.971144,52.679397],[4.971163,52.679389],[4.971172,52.679386],[4.971212,52.679363],[4.971301,52.679317],[4.971415,52.679253],[4.971525,52.679188],[4.971579,52.679159],[4.971627,52.679135],[4.972868,52.67872],[4.974086,52.678313],[4.975194,52.677943],[4.975634,52.677796],[4.975873,52.677716],[4.975882,52.677713],[4.975895,52.677709],[4.976522,52.677499],[4.976522,52.677499],[4.976554,52.677489],[4.97665,52.677456],[4.976661,52.677453],[4.97676,52.67742],[4.976794,52.677452],[4.976829,52.677483],[4.97696,52.677601],[4.977093,52.677717],[4.977151,52.677769],[4.977212,52.677825],[4.977421,52.678006],[4.977579,52.678139],[4.977727,52.678264],[4.977906,52.678416],[4.97806,52.67855],[4.978172,52.678647],[4.978339,52.678794],[4.978491,52.678928],[4.978581,52.67901],[4.978595,52.679029],[4.978602,52.679054],[4.978598,52.679066],[4.978582,52.67908],[4.978581,52.679081],[4.978558,52.679102],[4.978534,52.679124],[4.978511,52.679151],[4.978508,52.679179],[4.978546,52.679227],[4.978599,52.679279],[4.978673,52.679339],[4.978766,52.679416],[4.978835,52.679474],[4.978929,52.679561],[4.978954,52.679603],[4.979004,52.679622],[4.979061,52.679646],[4.979142,52.679667],[4.979205,52.679679],[4.979214,52.679664],[4.979182,52.679658],[4.979109,52.679645],[4.979221,52.679549],[4.979298,52.679435],[4.979448,52.679232],[4.979557,52.679096],[4.979702,52.678914],[4.979882,52.678684],[4.980043,52.678498],[4.980253,52.678264],[4.980417,52.678079],[4.980499,52.677993],[4.980548,52.677936],[4.980582,52.677889],[4.980589,52.677878],[4.98059,52.677877],[4.980677,52.677793],[4.980802,52.677653],[4.980906,52.677532],[4.980984,52.677439],[4.981046,52.677368],[4.981075,52.677343],[4.98111,52.677308],[4.981146,52.677258],[4.981284,52.677093],[4.981309,52.677063],[4.98131,52.677062],[4.981367,52.676995],[4.981638,52.676687],[4.98182,52.676477],[4.981969,52.676302],[4.982134,52.676111],[4.982274,52.675946],[4.982434,52.675757],[4.982551,52.675618],[4.982711,52.67543],[4.982747,52.675388],[4.983009,52.6751],[4.983086,52.675099],[4.983088,52.675099],[4.983115,52.675099],[4.983142,52.675099],[4.983144,52.675099],[4.986152,52.675072],[4.987959,52.675056],[4.987961,52.675056],[4.987979,52.675056],[4.988006,52.675056],[4.988227,52.675054],[4.988443,52.675052],[4.990924,52.67503],[4.991972,52.67502],[5.000221,52.674946],[5.000223,52.674946],[5.00224,52.674928],[5.002241,52.674928],[5.002353,52.674927],[5.001997,52.674442],[5.001604,52.673908],[5.001629,52.673906],[5.001612,52.673883],[5.001596,52.673861],[5.001593,52.673857],[5.001579,52.673838],[5.001578,52.673836],[5.001493,52.673721],[5.001499,52.673721],[5.001504,52.673721],[5.00154,52.673724],[5.001576,52.673725],[5.00162,52.673725],[5.001664,52.673723],[5.001723,52.673719],[5.001804,52.673711],[5.001973,52.673694],[5.002149,52.673671],[5.00242,52.673628],[5.002682,52.673584],[5.002804,52.673561],[5.002939,52.673536],[5.002989,52.673522],[5.00303,52.673509],[5.003064,52.673494],[5.003094,52.673479],[5.003126,52.673458],[5.003153,52.673437],[5.003172,52.67342],[5.00319,52.673405],[5.003205,52.673384],[5.003213,52.673364],[5.003215,52.673349],[5.00322,52.673324],[5.003224,52.673295],[5.003233,52.673257],[5.003238,52.67322],[5.003246,52.673183],[5.003257,52.673152],[5.00327,52.673119],[5.003279,52.673091],[5.003298,52.673061],[5.003324,52.673026],[5.003366,52.672978],[5.00341,52.672926],[5.003454,52.672883],[5.003497,52.672844],[5.003543,52.672805],[5.003602,52.672763],[5.003675,52.672724],[5.003749,52.672688],[5.003799,52.672664],[5.003847,52.672633],[5.003876,52.672586],[5.0039,52.672499],[5.003928,52.672369],[5.003963,52.672244],[5.004001,52.672096],[5.00404,52.671942],[5.004057,52.671854],[5.004054,52.671819],[5.004046,52.671781],[5.00403,52.671744],[5.004002,52.671702],[5.003979,52.671676],[5.003918,52.671625],[5.003851,52.671574],[5.003741,52.671518],[5.00366,52.671478],[5.003622,52.671447],[5.003588,52.671394],[5.00357,52.671334],[5.003567,52.671325],[5.003548,52.671168],[5.003536,52.671067],[5.003521,52.670937],[5.003512,52.670855],[5.003499,52.670795],[5.003454,52.670632],[5.003446,52.670605],[5.003431,52.670531],[5.003423,52.67052],[5.003414,52.670489],[5.004203,52.670362],[5.004315,52.670344],[5.004392,52.670331],[5.004467,52.670344],[5.004644,52.670369],[5.004798,52.67038],[5.00494,52.670383],[5.005067,52.670378],[5.005191,52.670379],[5.00569,52.670329],[5.005899,52.670311],[5.006104,52.670269],[5.006447,52.670177],[5.007074,52.670007],[5.007237,52.66996],[5.007285,52.669946],[5.00765,52.669779],[5.007933,52.669707],[5.008167,52.669619],[5.008762,52.669411],[5.009253,52.669234],[5.009713,52.669124],[5.010133,52.669032],[5.010512,52.668946],[5.011044,52.668799],[5.011589,52.668645],[5.012026,52.668535],[5.012433,52.668383],[5.012654,52.668277],[5.012927,52.668117],[5.013166,52.667958],[5.013454,52.667797],[5.014035,52.667586],[5.014449,52.667448],[5.014887,52.667272],[5.015032,52.667202],[5.015323,52.667089],[5.01562,52.66699],[5.015741,52.666948],[5.015881,52.666879],[5.016068,52.666787],[5.016069,52.666787],[5.016197,52.66674],[5.016197,52.66674],[5.016408,52.666664],[5.016834,52.666504],[5.017094,52.666406],[5.017429,52.666232],[5.017535,52.666109],[5.017652,52.665997],[5.017654,52.665995],[5.01771,52.665937],[5.017725,52.665906],[5.017742,52.665863],[5.018014,52.665751],[5.019777,52.664978],[5.020163,52.664715],[5.020342,52.664702],[5.020429,52.664696],[5.02049,52.664692],[5.020792,52.66467],[5.021222,52.664438],[5.021267,52.66442],[5.021314,52.664409],[5.021368,52.664404],[5.021431,52.664403],[5.022011,52.664422],[5.023915,52.664595],[5.028653,52.665458],[5.028879,52.665483],[5.029192,52.665518],[5.029337,52.665534],[5.02952,52.665529],[5.029635,52.66554],[5.029807,52.665564],[5.030212,52.665631],[5.031195,52.665831],[5.032434,52.666092],[5.033641,52.666347],[5.033955,52.666406],[5.034076,52.666429],[5.034763,52.666556],[5.035385,52.664949],[5.035483,52.664787],[5.036428,52.662448],[5.036573,52.662092],[5.037671,52.659312],[5.038647,52.656842],[5.038684,52.656748],[5.038841,52.656357],[5.03893,52.65614],[5.039043,52.655864],[5.038986,52.655857],[5.038702,52.655804],[5.038683,52.655802],[5.038665,52.655798],[5.038646,52.655795],[5.038629,52.655791],[5.038611,52.655786],[5.038586,52.655778],[5.038579,52.655776],[5.038572,52.655772],[5.038566,52.655769],[5.038561,52.655765],[5.038556,52.65576],[5.038552,52.655755],[5.038549,52.65575],[5.038546,52.655745],[5.038545,52.65574],[5.038545,52.655734],[5.03855,52.655619],[5.038564,52.655449],[5.038568,52.655274],[5.038578,52.655101],[5.038587,52.654925],[5.038579,52.654741],[5.038578,52.654566],[5.038563,52.654383],[5.038542,52.654203],[5.038519,52.653996],[5.038498,52.653826],[5.038474,52.653649],[5.038409,52.653306],[5.038376,52.653134],[5.03834,52.652962],[5.0383,52.652784],[5.038263,52.652621],[5.038218,52.652451],[5.038176,52.652281],[5.038135,52.652108],[5.038084,52.651934],[5.038041,52.651772],[5.037988,52.651605],[5.037939,52.651438],[5.037885,52.651271],[5.037823,52.651058],[5.037781,52.650955],[5.037755,52.650834],[5.037725,52.650706],[5.037713,52.650656],[5.037702,52.650607],[5.037692,52.650557],[5.037683,52.650507],[5.037675,52.650457],[5.037673,52.650411],[5.037673,52.650366],[5.037674,52.65032],[5.037675,52.650275],[5.037678,52.65023],[5.037683,52.650118],[5.037693,52.650061],[5.037704,52.650003],[5.037716,52.649946],[5.037721,52.649919],[5.037727,52.649892],[5.037735,52.649865],[5.037743,52.649838],[5.037752,52.649811],[5.037762,52.649785],[5.037773,52.649758],[5.037785,52.649732],[5.03784,52.649627],[5.037885,52.649536],[5.037928,52.649451],[5.037948,52.649413],[5.037994,52.649309],[5.038003,52.649287],[5.038012,52.649264],[5.038019,52.649242],[5.038025,52.649219],[5.03803,52.649196],[5.038034,52.649173],[5.038037,52.649109],[5.038041,52.649045],[5.038042,52.64904],[5.038044,52.649035],[5.038047,52.64903],[5.03805,52.649026],[5.038054,52.649022],[5.038143,52.648961],[5.038144,52.648956],[5.038145,52.64895],[5.038144,52.648945],[5.038143,52.64894],[5.03814,52.648934],[5.038137,52.648929],[5.038094,52.648875],[5.038032,52.648789],[5.037978,52.648708],[5.037943,52.648638],[5.037917,52.648589],[5.037912,52.648578],[5.037903,52.64856],[5.037446,52.648021],[5.037278,52.648086],[5.037257,52.648094],[5.037186,52.648121],[5.037128,52.648144],[5.037019,52.648187],[5.036861,52.648247],[5.036797,52.648268],[5.036761,52.648275],[5.036626,52.648327],[5.036543,52.648358],[5.036308,52.648446],[5.036167,52.648499],[5.036133,52.64848],[5.036081,52.648461],[5.036037,52.648461],[5.035843,52.64853],[5.035557,52.648634],[5.035407,52.648692],[5.03532,52.648722],[5.035258,52.648755],[5.035234,52.648776],[5.035226,52.648808],[5.035236,52.648848],[5.034892,52.648978],[5.03448,52.649135],[5.03442,52.649158],[5.033973,52.649328],[5.033786,52.649399],[5.033633,52.649458],[5.033569,52.649482],[5.033473,52.649518],[5.033434,52.649688],[5.033422,52.649677],[5.033265,52.649735],[5.033257,52.649726],[5.033222,52.649698],[5.033179,52.649679],[5.032929,52.649631],[5.032948,52.649292],[5.032987,52.649293],[5.03299,52.649243],[5.032993,52.649186],[5.033006,52.648951],[5.033086,52.648882],[5.033163,52.648815],[5.033168,52.648775],[5.033389,52.648806],[5.03367,52.648834],[5.033893,52.648851],[5.033916,52.648805],[5.034022,52.648773],[5.034041,52.648797],[5.034045,52.648802],[5.034079,52.648788],[5.034218,52.648736],[5.034778,52.648523],[5.034791,52.648519],[5.034925,52.648468],[5.03493,52.648472],[5.034997,52.648487],[5.035076,52.648479],[5.03516,52.648461],[5.035214,52.648441],[5.035452,52.648352],[5.035646,52.648279],[5.035736,52.648243],[5.03589,52.648155],[5.035911,52.648129],[5.035922,52.648097],[5.035919,52.64808],[5.036023,52.648037],[5.036178,52.647976],[5.036257,52.647943],[5.036353,52.647904],[5.036467,52.647858],[5.036621,52.647796],[5.036759,52.64774],[5.036829,52.647712],[5.036948,52.647664],[5.037095,52.647605],[5.037047,52.647549],[5.036946,52.647446],[5.036831,52.647335],[5.036708,52.647238],[5.036553,52.647114],[5.036444,52.647046],[5.036322,52.646972],[5.036198,52.646917],[5.036058,52.646858],[5.036032,52.646847],[5.035938,52.646817],[5.035767,52.646762],[5.035519,52.646683],[5.035353,52.646629],[5.035216,52.646584],[5.03519,52.646565],[5.035015,52.646441],[5.034795,52.646284],[5.034378,52.645986],[5.034168,52.645837],[5.034115,52.645786],[5.034072,52.645746],[5.034035,52.645712],[5.03399,52.645674],[5.032746,52.644676],[5.03255,52.644513],[5.03216,52.644177],[5.031123,52.644068],[5.030072,52.643465],[5.029922,52.643509],[5.029654,52.64336],[5.029662,52.643357],[5.029745,52.643304],[5.029425,52.643107],[5.029005,52.642894],[5.028187,52.642505],[5.027557,52.642191],[5.02714,52.642032],[5.026222,52.641679],[5.02553,52.641423],[5.02451,52.641057],[5.023628,52.640752],[5.022531,52.640413],[5.022505,52.640262],[5.022481,52.640099],[5.022472,52.64006],[5.02202,52.639923],[5.021346,52.6397],[5.020892,52.639531],[5.020276,52.63928],[5.019796,52.639064],[5.01976,52.639047],[5.019712,52.639025],[5.019664,52.639002],[5.019616,52.638979],[5.019569,52.638956],[5.019522,52.638933],[5.019475,52.63891],[5.019427,52.638887],[5.019381,52.638864],[5.019334,52.63884],[5.019287,52.638817],[5.019241,52.638793],[5.019195,52.638769],[5.019149,52.638746],[5.019103,52.638722],[5.019057,52.638697],[5.019011,52.638673],[5.018966,52.638649],[5.018921,52.638625],[5.018876,52.6386],[5.01883,52.638576],[5.018786,52.638551],[5.018741,52.638526],[5.018696,52.638501],[5.018652,52.638476],[5.018608,52.638451],[5.018564,52.638426],[5.01852,52.6384],[5.018476,52.638375],[5.018433,52.638349],[5.018389,52.638323],[5.018292,52.638263],[5.018053,52.638116],[5.01774,52.637909],[5.017502,52.637745],[5.017489,52.637738],[5.017125,52.637467],[5.016738,52.637149],[5.016294,52.636749],[5.015914,52.636364],[5.015692,52.636114],[5.015453,52.635821],[5.015214,52.635504],[5.015023,52.63523],[5.014875,52.634996],[5.014818,52.634901],[5.014701,52.6347],[5.014679,52.634661],[5.014538,52.634382],[5.014407,52.634087],[5.014342,52.633925],[5.014301,52.633815],[5.014214,52.633561],[5.014139,52.633306],[5.014075,52.633049],[5.013955,52.632459],[5.013907,52.632264],[5.013827,52.631862],[5.013676,52.631083],[5.01365,52.630955],[5.01354,52.630445],[5.013537,52.630431],[5.014005,52.630502],[5.016102,52.630812],[5.016511,52.630805],[5.016562,52.630769],[5.016715,52.630575],[5.016793,52.630474],[5.016825,52.630433],[5.016848,52.63039],[5.016868,52.63032],[5.016862,52.630278],[5.018563,52.629966],[5.018596,52.629958],[5.018665,52.629942],[5.01887,52.629917],[5.019669,52.629962],[5.020494,52.630008],[5.02159,52.627091],[5.027031,52.612606],[5.021115,52.612483],[5.01987,52.612458],[5.019641,52.612453],[5.019283,52.612446],[5.019099,52.612442],[5.019077,52.612442],[5.018978,52.61244],[5.018853,52.612437],[5.018817,52.612348],[5.01882,52.612121],[5.0188,52.612052],[5.018711,52.612004],[5.018628,52.61199],[5.018367,52.611961],[5.018163,52.611938],[5.018106,52.611931],[5.018045,52.611924],[5.017931,52.611899],[5.017819,52.611875],[5.017701,52.611854],[5.017466,52.611828],[5.017224,52.611842],[5.016782,52.611866],[5.016477,52.61184],[5.01631,52.611801],[5.016116,52.611713],[5.01595,52.611661],[5.015828,52.611638],[5.015564,52.611587],[5.015432,52.611566],[5.014959,52.611498],[5.01472,52.611483],[5.014619,52.611474],[5.014393,52.611438],[5.014041,52.611412],[5.013948,52.611401],[5.01366,52.611351],[5.013423,52.611317],[5.013296,52.611306],[5.013002,52.611288],[5.012576,52.61125],[5.012323,52.61107],[5.012153,52.611077],[5.012012,52.611077],[5.01189,52.611065],[5.011762,52.61105],[5.011506,52.61101],[5.011239,52.61097],[5.010876,52.61092],[5.010444,52.610862],[5.010333,52.610861],[5.010256,52.610935],[5.010179,52.610957],[5.01014,52.610951],[5.010139,52.610951],[5.010087,52.610945],[5.009454,52.610861],[5.009428,52.610858],[5.008939,52.610794],[5.00877,52.610777],[5.008487,52.610753],[5.008262,52.610725],[5.008083,52.610695],[5.007714,52.610645],[5.007332,52.610591],[5.00669,52.610519],[5.006574,52.610506],[5.006616,52.610428],[5.00678,52.610119],[5.007044,52.60964],[5.007299,52.609168],[5.007603,52.608598],[5.007843,52.608148],[5.007953,52.607932],[5.007949,52.607799],[5.007778,52.607327],[5.007716,52.607118],[5.007635,52.606824],[5.00753,52.606393],[5.007487,52.606082],[5.007462,52.605968],[5.007366,52.605652],[5.007178,52.605101],[5.007126,52.604967],[5.007029,52.604689],[5.007016,52.604652],[5.006844,52.604033],[5.006634,52.603263],[5.006591,52.603082],[5.006413,52.602531],[5.006264,52.602091],[5.006248,52.602051],[5.006219,52.601974],[5.006187,52.601905],[5.006144,52.601844],[5.0061,52.601861],[5.006036,52.601801],[5.006042,52.601723],[5.006058,52.601572],[5.006127,52.601572],[5.006102,52.601489],[5.00602,52.601215],[5.006001,52.601151],[5.005964,52.601027],[5.005764,52.600332],[5.00576,52.600318],[5.005609,52.599791],[5.005464,52.599378],[5.005443,52.599312],[5.00541,52.599207],[5.005192,52.598534],[5.005077,52.598166],[5.004909,52.597669],[5.004881,52.597573],[5.004843,52.597574],[5.004745,52.597575],[5.004344,52.597575],[5.003988,52.59757],[5.003577,52.597567],[5.003329,52.597562],[5.003155,52.597558],[5.002971,52.597559],[5.002944,52.597558],[5.00281,52.597559],[5.002771,52.597559],[5.002487,52.597568],[5.002428,52.59757],[5.002431,52.597587],[5.002394,52.597589],[5.002314,52.597687],[5.002309,52.597687],[5.002312,52.597701],[5.00221,52.597705],[5.002167,52.597705],[5.002107,52.597703],[5.002052,52.597701],[5.001999,52.597699],[5.001911,52.597699],[5.00185,52.597675],[5.001804,52.597642],[5.001753,52.5976],[5.001726,52.59758],[5.001675,52.597563],[5.001487,52.597563],[5.001222,52.597558],[5.000822,52.597535],[5.000551,52.597533],[5.000509,52.597532],[5.000402,52.597532],[5.00038,52.597532],[5.000123,52.59752],[4.99994,52.597517],[4.999526,52.597516],[4.999402,52.597506],[4.999358,52.597502],[4.998944,52.597503],[4.998525,52.597508],[4.998185,52.597511],[4.99787,52.597494],[4.997581,52.597475],[4.997154,52.59747],[4.996915,52.597455],[4.996733,52.597451],[4.99649,52.597454],[4.99638,52.597449],[4.996218,52.597447],[4.996035,52.597434],[4.99587,52.597426],[4.995609,52.597415],[4.995308,52.597391],[4.995091,52.597373],[4.994873,52.597364],[4.994569,52.597354],[4.994326,52.597332],[4.994135,52.597321],[4.99386,52.597311],[4.993556,52.597296],[4.99332,52.597275],[4.993071,52.597262],[4.992807,52.597248],[4.992491,52.597237],[4.99208,52.597225],[4.991736,52.597215],[4.991333,52.597192],[4.99082,52.597177],[4.990367,52.597162],[4.989908,52.59716],[4.989537,52.597151],[4.989258,52.597123],[4.988961,52.597104],[4.988597,52.597073],[4.988256,52.597047],[4.987907,52.597035],[4.98746,52.597014],[4.986972,52.596994],[4.98679,52.596979],[4.986555,52.596966],[4.986417,52.596958],[4.986288,52.59695],[4.98615,52.596947],[4.985939,52.596944],[4.985474,52.596942],[4.985174,52.596917],[4.984648,52.59689],[4.984286,52.59689],[4.983853,52.596854],[4.983513,52.596828],[4.983141,52.596822],[4.982776,52.596816],[4.982533,52.5968],[4.982195,52.596782],[4.981989,52.596772],[4.981802,52.596761],[4.98161,52.596765],[4.981348,52.596758],[4.981098,52.596751],[4.980872,52.596746],[4.980743,52.596737],[4.980637,52.596722],[4.980532,52.596687],[4.980334,52.596676],[4.980146,52.596674],[4.979865,52.596676],[4.979718,52.596679],[4.979579,52.596685],[4.979429,52.596687],[4.979088,52.59668],[4.978887,52.596678],[4.97873,52.596673],[4.978576,52.59666],[4.978274,52.596652],[4.978002,52.596638],[4.977805,52.596607],[4.977655,52.596577],[4.977437,52.596564],[4.977162,52.596579],[4.976985,52.596575],[4.976753,52.596559],[4.976392,52.596534],[4.976164,52.596526],[4.97595,52.596522],[4.975814,52.596519],[4.97568,52.596506],[4.975602,52.596498],[4.975378,52.596475],[4.975187,52.59645],[4.974973,52.596441],[4.97456,52.596436],[4.974128,52.596422],[4.973727,52.596391],[4.973178,52.596366],[4.972671,52.59635],[4.972196,52.59636],[4.971532,52.596331],[4.971271,52.596312],[4.970991,52.596285],[4.970761,52.596269],[4.970426,52.596263],[4.970205,52.596245],[4.969913,52.59623],[4.969667,52.596221],[4.969456,52.596205],[4.969198,52.596156],[4.968956,52.596155],[4.968522,52.596169],[4.968207,52.59613],[4.968006,52.5961],[4.967723,52.596095],[4.967473,52.596081],[4.96717,52.596055],[4.966888,52.596041],[4.966613,52.596036],[4.966413,52.596045],[4.966208,52.596054],[4.965913,52.596048],[4.965493,52.596051],[4.965221,52.596041],[4.964988,52.59603],[4.964615,52.596006],[4.964114,52.595977],[4.963786,52.595956],[4.963457,52.595949],[4.963065,52.595939],[4.962631,52.595899],[4.962415,52.595877],[4.96218,52.595875],[4.961908,52.595864],[4.961573,52.595827],[4.961378,52.595798],[4.961092,52.595788],[4.960922,52.5958],[4.96075,52.595801],[4.960453,52.595787],[4.960027,52.595769],[4.959828,52.595755],[4.959488,52.595751],[4.95937,52.595752],[4.95915,52.595739],[4.958962,52.59573],[4.958722,52.595703],[4.958498,52.595689],[4.958115,52.595666],[4.957937,52.595665],[4.95777,52.595653],[4.957609,52.595638],[4.95745,52.595627],[4.957069,52.595607],[4.956767,52.595586],[4.956619,52.595581],[4.956564,52.595599],[4.956527,52.595588],[4.956414,52.595593],[4.956298,52.595586],[4.956149,52.595581],[4.956052,52.59557],[4.95599,52.595572],[4.955928,52.595568],[4.955724,52.595558],[4.955505,52.595549],[4.955339,52.595542],[4.955145,52.595536],[4.955028,52.595534],[4.954897,52.595529],[4.954768,52.595517],[4.954634,52.595505],[4.954438,52.595502],[4.954177,52.595503],[4.953942,52.595496],[4.953765,52.595487],[4.953574,52.59547],[4.953386,52.595458],[4.953192,52.595448],[4.952996,52.595439],[4.952782,52.59543],[4.952645,52.59542],[4.952566,52.595413],[4.952348,52.595404],[4.952148,52.595394],[4.951951,52.595386],[4.951786,52.595379],[4.951586,52.595368],[4.951357,52.595358],[4.951175,52.59535],[4.951058,52.595346],[4.950887,52.595339],[4.950646,52.595328],[4.950538,52.595322],[4.950295,52.595309],[4.950023,52.595295],[4.94985,52.595285],[4.949875,52.595323],[4.949902,52.59536],[4.949916,52.595392],[4.949914,52.595425],[4.949913,52.595462],[4.949912,52.595496],[4.949906,52.595546],[4.949884,52.595654],[4.94985,52.595855],[4.949806,52.596115],[4.949779,52.596245],[4.949719,52.596585],[4.94971,52.596646],[4.949696,52.596687],[4.949689,52.59672],[4.949673,52.596762],[4.949653,52.596799],[4.949642,52.596833],[4.949586,52.596936],[4.949493,52.597111],[4.949403,52.597284],[4.949295,52.597489],[4.949179,52.597733],[4.949039,52.598039],[4.94893,52.598314],[4.948909,52.598362],[4.948891,52.598404],[4.948859,52.598494],[4.948845,52.598544],[4.948833,52.598596],[4.948827,52.598651],[4.948829,52.598719],[4.948841,52.598785],[4.948862,52.598858],[4.948878,52.598925],[4.948906,52.599001],[4.948926,52.599051],[4.948942,52.599098],[4.948972,52.59915],[4.948997,52.599193],[4.949058,52.59929],[4.949087,52.59933],[4.949132,52.59939],[4.949159,52.599424],[4.949182,52.599454],[4.949217,52.599489],[4.949258,52.599533],[4.949316,52.599577],[4.949358,52.599604],[4.949411,52.599637],[4.949468,52.599668],[4.949941,52.59993],[4.950232,52.600098],[4.950681,52.600365],[4.950737,52.600398],[4.950787,52.600428],[4.950828,52.60045],[4.950872,52.60047],[4.950937,52.600502],[4.951359,52.600693],[4.951899,52.600919],[4.952291,52.601077],[4.952373,52.601112],[4.952434,52.601138],[4.952494,52.60116],[4.952523,52.601171],[4.952559,52.601183],[4.952893,52.60127],[4.953157,52.601341],[4.953714,52.601487],[4.954353,52.601651],[4.954463,52.601681],[4.954528,52.601698],[4.954583,52.601711],[4.954634,52.60172],[4.954679,52.601728],[4.954786,52.60175],[4.954959,52.60178],[4.955186,52.601821],[4.95546,52.601871],[4.955583,52.601891],[4.955736,52.60192],[4.955868,52.60195],[4.955991,52.601974],[4.956178,52.602018],[4.956374,52.602069],[4.956592,52.602129],[4.95676,52.60217],[4.956873,52.602197],[4.956941,52.602223],[4.95697,52.602249],[4.957002,52.602277],[4.957068,52.602327],[4.957128,52.602377],[4.957181,52.602412],[4.957249,52.602457],[4.95731,52.602494],[4.957384,52.602533],[4.95746,52.602578],[4.95754,52.602627],[4.957639,52.602681],[4.957789,52.602761],[4.958034,52.602887],[4.958237,52.602994],[4.958431,52.603097],[4.958528,52.60315],[4.958611,52.603208],[4.958676,52.603263],[4.958712,52.603319],[4.958739,52.603354],[4.958759,52.603386],[4.958778,52.603423],[4.958787,52.603458],[4.958792,52.603497],[4.958799,52.603543],[4.958814,52.603585],[4.958834,52.603626],[4.958858,52.603669],[4.958888,52.603733],[4.958921,52.6038],[4.95896,52.603888],[4.959017,52.604004],[4.95907,52.604117],[4.959124,52.604228],[4.959129,52.604238],[4.959174,52.604345],[4.95927,52.604543],[4.959291,52.604586],[4.9593,52.604608],[4.959308,52.604648],[4.959316,52.604681],[4.959321,52.60471],[4.959308,52.60474],[4.959303,52.60477],[4.959283,52.604837],[4.959262,52.604924],[4.959223,52.605051],[4.959148,52.605277],[4.959066,52.605503],[4.958975,52.60574],[4.958872,52.606019],[4.958794,52.606223],[4.958706,52.606432],[4.958589,52.606724],[4.958318,52.607307],[4.957996,52.608012],[4.957698,52.608657],[4.957622,52.608825],[4.957597,52.608888],[4.957562,52.60895],[4.957505,52.609053],[4.957243,52.609548],[4.956955,52.610081],[4.95675,52.610461],[4.956635,52.610669],[4.95594,52.611511],[4.955639,52.61188],[4.955575,52.611965],[4.955506,52.612046],[4.955443,52.612117],[4.955352,52.61222],[4.955292,52.612285],[4.955231,52.612345],[4.955177,52.612397],[4.955119,52.612437],[4.955054,52.612478],[4.954983,52.612529],[4.954871,52.612594],[4.954742,52.612673],[4.954647,52.612726],[4.954541,52.612778],[4.95449,52.612812],[4.954407,52.612852],[4.954316,52.612903],[4.954212,52.612956],[4.954133,52.613],[4.954031,52.61305],[4.953921,52.613107],[4.953857,52.613143],[4.953833,52.613156],[4.953724,52.613207],[4.953685,52.613227],[4.953627,52.613256],[4.953565,52.613286],[4.953493,52.613322],[4.953432,52.613349],[4.953335,52.613391],[4.953194,52.613456],[4.953057,52.613512],[4.952882,52.613584],[4.952702,52.613656],[4.952564,52.613713],[4.952378,52.613786],[4.952271,52.613831],[4.952159,52.613867],[4.951912,52.613952],[4.951778,52.61399],[4.951621,52.614021],[4.951512,52.614043],[4.951413,52.614052],[4.951323,52.61407],[4.95122,52.614082],[4.951127,52.614092],[4.951022,52.614102],[4.950933,52.614106],[4.95082,52.614108],[4.950721,52.614106],[4.950648,52.614101],[4.950534,52.614096],[4.950417,52.614086],[4.950318,52.614067],[4.950218,52.614039],[4.950011,52.613978],[4.949834,52.613925],[4.94965,52.613877],[4.949403,52.613807],[4.94929,52.613778],[4.948995,52.613698],[4.94894,52.613683],[4.948851,52.613653],[4.948739,52.613623],[4.948616,52.613589],[4.948498,52.613551],[4.948446,52.613531],[4.948394,52.613508],[4.948288,52.613459],[4.948208,52.613417],[4.94816,52.613389],[4.948112,52.613361],[4.948035,52.61331],[4.948005,52.613291],[4.947977,52.613274],[4.947939,52.613249],[4.947849,52.613197],[4.947775,52.613145],[4.947688,52.613099],[4.94756,52.61302],[4.947428,52.612942],[4.947261,52.612842],[4.947187,52.612794],[4.947056,52.612722],[4.94701,52.612696],[4.946851,52.612589],[4.946686,52.612491],[4.946601,52.612442],[4.946463,52.612358],[4.946258,52.612233],[4.94609,52.612137],[4.945972,52.612059],[4.945847,52.611983],[4.945749,52.611924],[4.945623,52.611845],[4.945469,52.611757],[4.945377,52.611701],[4.945246,52.611622],[4.945167,52.611571],[4.944848,52.611383],[4.944699,52.61129],[4.944613,52.611238],[4.944554,52.611204],[4.944456,52.611146],[4.94438,52.611105],[4.944307,52.611064],[4.944294,52.611058],[4.944233,52.611027],[4.944162,52.610991],[4.944074,52.610945],[4.943989,52.610902],[4.943907,52.610856],[4.943801,52.610808],[4.943693,52.610764],[4.943582,52.610705],[4.943474,52.610659],[4.943338,52.610598],[4.943244,52.61055],[4.943174,52.610513],[4.943072,52.61047],[4.942986,52.610428],[4.942894,52.610382],[4.942806,52.610337],[4.942702,52.610292],[4.942612,52.610252],[4.942546,52.610218],[4.942466,52.610185],[4.942336,52.610126],[4.942279,52.610103],[4.942233,52.610084],[4.942174,52.610054],[4.942084,52.610018],[4.942036,52.610001],[4.941982,52.609982],[4.941939,52.609966],[4.941883,52.609948],[4.941836,52.609932],[4.941733,52.609893],[4.941675,52.609874],[4.941627,52.609854],[4.941575,52.609837],[4.941531,52.609818],[4.941477,52.6098],[4.941428,52.609784],[4.941372,52.609765],[4.941316,52.609749],[4.941244,52.609721],[4.941157,52.609688],[4.941043,52.609647],[4.940925,52.609608],[4.940823,52.609571],[4.940719,52.609527],[4.940589,52.609479],[4.940506,52.609437],[4.940403,52.609394],[4.940311,52.609354],[4.940194,52.609299],[4.940087,52.609247],[4.93999,52.609195],[4.939916,52.60915],[4.939867,52.609127],[4.939807,52.609099],[4.939759,52.609068],[4.939706,52.60903],[4.939656,52.608986],[4.939609,52.608943],[4.939358,52.608747],[4.939255,52.608667],[4.939189,52.608613],[4.939114,52.608554],[4.939026,52.608479],[4.938939,52.60841],[4.938863,52.608348],[4.938755,52.608254],[4.938689,52.608197],[4.938617,52.608134],[4.938473,52.607998],[4.938335,52.607871],[4.938267,52.607809],[4.938201,52.607747],[4.938113,52.60766],[4.938073,52.607628],[4.938035,52.607599],[4.937947,52.607537],[4.937916,52.607513],[4.937868,52.607483],[4.937825,52.607459],[4.937794,52.607436],[4.937748,52.60741],[4.937695,52.607379],[4.93766,52.607362],[4.937609,52.607338],[4.937559,52.607317],[4.937511,52.607293],[4.93746,52.607274],[4.937368,52.607232],[4.937269,52.607193],[4.937159,52.60715],[4.937069,52.607115],[4.936972,52.607078],[4.93687,52.607041],[4.936767,52.607009],[4.936666,52.606969],[4.936562,52.606934],[4.93646,52.606898],[4.936362,52.606865],[4.936249,52.60683],[4.936165,52.606798],[4.936079,52.606769],[4.935978,52.606734],[4.935878,52.606693],[4.935777,52.606655],[4.935677,52.606615],[4.935578,52.606577],[4.935482,52.606536],[4.935378,52.606495],[4.935284,52.606454],[4.935191,52.606414],[4.935088,52.606376],[4.934987,52.606336],[4.934935,52.606315],[4.934884,52.606295],[4.934839,52.606277],[4.934787,52.606259],[4.934726,52.60624],[4.934669,52.606226],[4.934613,52.606211],[4.934571,52.606202],[4.934512,52.606189],[4.934421,52.606172],[4.934241,52.60614],[4.93405,52.606108],[4.933897,52.606086],[4.933245,52.605989],[4.932804,52.60592],[4.932351,52.605851],[4.932121,52.605818],[4.932006,52.605799],[4.931773,52.605764],[4.931657,52.605746],[4.931542,52.605725],[4.931434,52.605711],[4.931307,52.605688],[4.931203,52.60567],[4.931087,52.605653],[4.93097,52.605632],[4.930863,52.60561],[4.930732,52.605584],[4.930645,52.605565],[4.930537,52.605537],[4.930428,52.60551],[4.930315,52.605484],[4.930204,52.605455],[4.930096,52.60543],[4.929987,52.605401],[4.929766,52.605343],[4.92959,52.60529],[4.929554,52.605279],[4.929447,52.605248],[4.929395,52.60523],[4.929342,52.605215],[4.92929,52.605198],[4.929227,52.605184],[4.92918,52.605173],[4.929117,52.605164],[4.929062,52.605162],[4.928999,52.605161],[4.928948,52.605165],[4.928889,52.605175],[4.928833,52.605188],[4.928783,52.605208],[4.928745,52.605232],[4.928709,52.60526],[4.928671,52.605284],[4.928529,52.605384],[4.928342,52.605516],[4.928069,52.605712],[4.92787,52.605882],[4.92748,52.606219],[4.927114,52.606534],[4.926965,52.606663],[4.926926,52.606697],[4.926837,52.606961],[4.926794,52.607086],[4.926778,52.607131],[4.926736,52.607258],[4.926449,52.60815],[4.926211,52.608886],[4.925791,52.609476],[4.925255,52.609805],[4.924716,52.610344],[4.924258,52.610621],[4.923544,52.61106],[4.923252,52.611239],[4.922427,52.611471],[4.922045,52.611484],[4.922035,52.611485],[4.921843,52.611496],[4.921592,52.611539],[4.921358,52.6116],[4.921158,52.611634],[4.92096,52.611639],[4.920662,52.611558],[4.920361,52.611529],[4.919946,52.611566],[4.919598,52.611576],[4.919482,52.611584],[4.919335,52.611588],[4.919153,52.611569],[4.918946,52.611558],[4.918425,52.611567],[4.917827,52.611571],[4.917527,52.611575],[4.917271,52.611573],[4.917025,52.611549],[4.916656,52.611546],[4.916401,52.611535],[4.916059,52.611591],[4.915837,52.611626],[4.915725,52.611641],[4.915634,52.611648],[4.915294,52.611701],[4.914878,52.611792],[4.914758,52.6118],[4.913651,52.611873],[4.911369,52.611974],[4.911265,52.611969],[4.91108,52.611948],[4.91052,52.612104],[4.910248,52.612168],[4.909901,52.612233],[4.909666,52.612256],[4.909584,52.612251],[4.909404,52.612292],[4.90924,52.612316],[4.908866,52.612347],[4.908143,52.612422],[4.907766,52.612452],[4.907496,52.612468],[4.907391,52.612468],[4.90731,52.612463],[4.90726,52.61245],[4.907228,52.612429],[4.907216,52.612403],[4.907216,52.612343],[4.906875,52.612353],[4.90666,52.612371],[4.906481,52.612418],[4.906448,52.612427],[4.90632,52.612433],[4.905592,52.612445],[4.905322,52.612472],[4.905068,52.612475],[4.904836,52.612498],[4.90457,52.612529],[4.904457,52.612531],[4.904214,52.612526],[4.904072,52.612529],[4.903807,52.612554],[4.903703,52.612564],[4.903584,52.612569],[4.903458,52.61267],[4.903328,52.612697],[4.902998,52.612801],[4.902805,52.612851],[4.902646,52.61287],[4.902291,52.612891],[4.901439,52.612971],[4.901011,52.612984],[4.900807,52.612975],[4.900435,52.61297],[4.900287,52.613001],[4.900061,52.613074],[4.89998,52.613098],[4.899963,52.613102],[4.899809,52.613101],[4.899316,52.613155],[4.898792,52.613238],[4.897831,52.613293],[4.896931,52.613352],[4.896268,52.613323],[4.895575,52.613308],[4.895374,52.613309],[4.895299,52.613318],[4.895163,52.61331],[4.895091,52.613301],[4.895029,52.613266],[4.894966,52.613202],[4.89494,52.613197],[4.894843,52.613192],[4.894565,52.613192],[4.894203,52.613197],[4.894,52.613196],[4.893839,52.61318],[4.893477,52.613162],[4.892896,52.613116],[4.892742,52.613128],[4.892645,52.613097],[4.892441,52.613078],[4.892066,52.613052],[4.891773,52.613042],[4.891562,52.613052],[4.891383,52.613073],[4.890722,52.613127],[4.889928,52.61311],[4.889353,52.613049],[4.888268,52.613121],[4.888012,52.613168],[4.887974,52.613185],[4.887886,52.613188],[4.887452,52.613155],[4.887258,52.613123],[4.886081,52.613086],[4.885216,52.613089],[4.88493,52.61309],[4.884462,52.613102],[4.884474,52.613136],[4.884285,52.613137],[4.883992,52.613139],[4.883992,52.613139],[4.884002,52.613165],[4.884156,52.613566],[4.884321,52.61397],[4.884491,52.614376],[4.884665,52.614785],[4.884837,52.615196],[4.884998,52.615609],[4.885165,52.616024],[4.885182,52.616069],[4.885324,52.616441],[4.885485,52.616858],[4.885531,52.616972],[4.885655,52.617279],[4.885814,52.6177],[4.885994,52.618123],[4.886188,52.618549],[4.886346,52.618813],[4.88662,52.61932],[4.886664,52.619392],[4.886723,52.619507],[4.886794,52.61971],[4.886822,52.619807],[4.886843,52.619914],[4.886874,52.620208],[4.886891,52.620435],[4.886976,52.620976],[4.887032,52.621313],[4.887054,52.621472],[4.887083,52.621685],[4.887211,52.622403],[4.887251,52.622594],[4.887311,52.622658],[4.888183,52.623009],[4.88855,52.62315],[4.889116,52.623384],[4.889238,52.623455],[4.889269,52.623501],[4.889346,52.623656],[4.889385,52.623785],[4.889388,52.623809],[4.889414,52.624033],[4.889407,52.624061],[4.889378,52.624166],[4.889334,52.624357],[4.889321,52.624502],[4.889341,52.624559],[4.889356,52.62463],[4.889326,52.624718],[4.889336,52.624975],[4.889334,52.625144],[4.88929,52.625391],[4.889288,52.625541],[4.889216,52.625713],[4.889051,52.625974],[4.889048,52.625978],[4.888952,52.6261],[4.888905,52.626157],[4.888782,52.626321],[4.888603,52.626496],[4.888441,52.626648],[4.888402,52.626695],[4.888333,52.626793],[4.888301,52.626856],[4.888274,52.626946],[4.888193,52.627172],[4.888089,52.627313],[4.88805,52.627379],[4.887854,52.627643],[4.887091,52.628299],[4.886312,52.628876],[4.885906,52.629151],[4.88568,52.629349],[4.885589,52.629442],[4.885525,52.629513],[4.885485,52.629545],[4.885441,52.629626],[4.885409,52.629706],[4.885389,52.629772],[4.885351,52.630137],[4.885264,52.630451],[4.88523,52.630576],[4.885181,52.63075],[4.885147,52.630829],[4.885109,52.630924],[4.885071,52.630995],[4.885036,52.631052],[4.88501,52.631082],[4.884998,52.631095],[4.884925,52.631164],[4.884793,52.631274],[4.884699,52.631348],[4.884605,52.631413],[4.884603,52.631414],[4.883184,52.632493],[4.882674,52.632866],[4.882568,52.632933],[4.882397,52.633027],[4.882015,52.633186],[4.881332,52.633454],[4.881273,52.633478],[4.881167,52.633534],[4.881105,52.63357],[4.881035,52.633601],[4.88097,52.633624],[4.880879,52.633653],[4.88079,52.633677],[4.880723,52.633693],[4.880652,52.633704],[4.880599,52.633711],[4.880466,52.633719],[4.880368,52.633719],[4.880123,52.633707],[4.879524,52.633711],[4.877659,52.633858],[4.875756,52.634082],[4.875537,52.634113],[4.874364,52.634273],[4.874325,52.634273],[4.874047,52.634231],[4.873515,52.634167],[4.873399,52.634447],[4.873283,52.634729],[4.873449,52.634761],[4.874294,52.634898],[4.874694,52.634963],[4.875062,52.635024],[4.87508,52.635026],[4.875571,52.635107],[4.875581,52.635109],[4.875635,52.635118],[4.875704,52.635147],[4.875828,52.635211],[4.875959,52.635306],[4.876157,52.635462],[4.876244,52.635571],[4.876297,52.635663],[4.876402,52.635852],[4.876448,52.635974],[4.876499,52.636181],[4.8766,52.636589],[4.876691,52.636993],[4.876809,52.637486],[4.876998,52.638293],[4.877224,52.639198],[4.877273,52.639404],[4.877274,52.639407],[4.877274,52.639466],[4.877269,52.639491],[4.877263,52.639558],[4.877234,52.639616],[4.877176,52.63972],[4.87672,52.640532],[4.876602,52.640699],[4.8766,52.640761],[4.876561,52.640809],[4.8765,52.640965],[4.876372,52.641035],[4.876298,52.641154],[4.876194,52.641289],[4.875947,52.641615],[4.875728,52.641932],[4.875612,52.642083],[4.875553,52.642149],[4.875492,52.642238],[4.875457,52.642276],[4.87541,52.642315],[4.875236,52.642425],[4.874863,52.642677],[4.873588,52.643621],[4.873022,52.644025],[4.872357,52.644523],[4.872048,52.644748],[4.871639,52.645068],[4.871238,52.645342],[4.871116,52.645441],[4.870969,52.645552],[4.87053,52.64591],[4.870226,52.646149],[4.87015,52.6462],[4.87002,52.646277],[4.869767,52.646426],[4.869586,52.646551],[4.869494,52.646584],[4.869453,52.646606],[4.869345,52.646682],[4.869129,52.646798],[4.869036,52.646844],[4.868927,52.646892],[4.868789,52.646939],[4.868713,52.646969],[4.867774,52.647441],[4.865075,52.649436],[4.86428,52.65039],[4.8627,52.652999],[4.862733,52.653655]]]},"properties":{"type":"boundary","gemeente":"Koggenland"}}]}