{"type":"FeatureCollection","metadata":{"gemeente":"Land van Cuijk","slug":"land-van-cuijk","generated_at":"2026-09-28T08:24:14.305134Z","total_points":105,"providers":["Amazon","DHL","DPD","PostNL","VintedGo","ViaTim","FedEx","InPost"],"bounds":[5.73432,51.57058244234387,6.010323931,51.761613]},"features":[{"type":"Feature","geometry":{"type":"Point","coordinates":[5.87186960483471,51.6058620854915]},"properties":{"type":"pakketpunt","locatieNaam":"Spar","straatNaam":"Vloetweg 4 B","straatNr":"","vervoerder":"Amazon","puntType":"3p","bezettingsgraad":50,"latitude":51.6058620854915,"longitude":5.87186960483471,"canPickup":true,"canDropoff":false,"openingstijden":null}},{"type":"Feature","geometry":{"type":"Point","coordinates":[5.88026467437901,51.6265099775053]},"properties":{"type":"pakketpunt","locatieNaam":"De DorpShop/GereedschapShop","straatNaam":"De Merret 6","straatNr":"","vervoerder":"Amazon","puntType":"3p","bezettingsgraad":50,"latitude":51.6265099775053,"longitude":5.88026467437901,"canPickup":true,"canDropoff":false,"openingstijden":null}},{"type":"Feature","geometry":{"type":"Point","coordinates":[5.746932150074511,51.751659767686526]},"properties":{"type":"pakketpunt","locatieNaam":"DHL - Pakketautomaat Jumbo Grave","straatNaam":"Essinklaan 72","straatNr":"","vervoerder":"Amazon","puntType":"3p","bezettingsgraad":50,"latitude":51.751659767686526,"longitude":5.746932150074511,"canPickup":true,"canDropoff":false,"openingstijden":null}},{"type":"Feature","geometry":{"type":"Point","coordinates":[5.865115,51.73084]},"properties":{"type":"pakketpunt","locatieNaam":"DHL - Pakketautomaat Basic-Fit Cuijk","straatNaam":"Spinding 6","straatNr":"","vervoerder":"Amazon","puntType":"3p","bezettingsgraad":50,"latitude":51.73084,"longitude":5.865115,"canPickup":true,"canDropoff":false,"openingstijden":null}},{"type":"Feature","geometry":{"type":"Point","coordinates":[5.869611115,51.72592384]},"properties":{"type":"pakketpunt","locatieNaam":"Staete Vrijdaggevoel","straatNaam":"De Nieuwe Erven 3","straatNr":"","vervoerder":"Amazon","puntType":"3p","bezettingsgraad":50,"latitude":51.72592384,"longitude":5.869611115,"canPickup":true,"canDropoff":false,"openingstijden":null}},{"type":"Feature","geometry":{"type":"Point","coordinates":[5.949112599,51.64767352]},"properties":{"type":"pakketpunt","locatieNaam":"Boerderijwinkel Verdaasdonk","straatNaam":"Steenstraat 106 R","straatNr":"","vervoerder":"Amazon","puntType":"3p","bezettingsgraad":50,"latitude":51.64767352,"longitude":5.949112599,"canPickup":true,"canDropoff":false,"openingstijden":null}},{"type":"Feature","geometry":{"type":"Point","coordinates":[5.950772105,51.64750374]},"properties":{"type":"pakketpunt","locatieNaam":"Primera Hutten","straatNaam":"Steenstraat 63","straatNr":"","vervoerder":"Amazon","puntType":"3p","bezettingsgraad":50,"latitude":51.64750374,"longitude":5.950772105,"canPickup":true,"canDropoff":false,"openingstijden":null}},{"type":"Feature","geometry":{"type":"Point","coordinates":[5.945391,51.571065]},"properties":{"type":"pakketpunt","locatieNaam":"DA Drogisterij Overloon","straatNaam":"Irenestraat","straatNr":"5-A","vervoerder":"DHL","puntType":"parcelShop","bezettingsgraad":50,"latitude":51.571065,"longitude":5.945391,"canPickup":true,"canDropoff":true,"openingstijden":{"ma":"09:00 - 18:00","di":"09:00 - 18:00","wo":"09:00 - 18:00","do":"09:00 - 18:00","vr":"09:00 - 18:00","za":"09:00 - 16:00","zo":"gesloten"}}},{"type":"Feature","geometry":{"type":"Point","coordinates":[5.800532,51.674524]},"properties":{"type":"pakketpunt","locatieNaam":"Hubo Mill","straatNaam":"Pastoor Jacobsstraat","straatNr":"2-A","vervoerder":"DHL","puntType":"parcelShop","bezettingsgraad":50,"latitude":51.674524,"longitude":5.800532,"canPickup":true,"canDropoff":true,"openingstijden":{"ma":"09:00 - 20:00","di":"09:00 - 20:00","wo":"09:00 - 20:00","do":"09:00 - 20:00","vr":"09:00 - 20:00","za":"09:00 - 17:00","zo":"12:00 - 16:00"}}},{"type":"Feature","geometry":{"type":"Point","coordinates":[5.7828029,51.6856115]},"properties":{"type":"pakketpunt","locatieNaam":"Pakketautomaat terStal Mill","straatNaam":"Markt","straatNr":"1-Kast","vervoerder":"DHL","puntType":"packStation","bezettingsgraad":50,"latitude":51.6856115,"longitude":5.7828029,"canPickup":true,"canDropoff":true,"openingstijden":{"ma":"13:00 - 17:30","di":"09:00 - 17:30","wo":"09:00 - 17:30","do":"09:00 - 17:30","vr":"09:00 - 17:30","za":"09:30 - 17:00","zo":"gesloten"}}},{"type":"Feature","geometry":{"type":"Point","coordinates":[5.880403,51.6266416]},"properties":{"type":"pakketpunt","locatieNaam":"U zegt het maar","straatNaam":"De Merret","straatNr":"10","vervoerder":"DHL","puntType":"parcelShop","bezettingsgraad":50,"latitude":51.6266416,"longitude":5.880403,"canPickup":true,"canDropoff":true,"openingstijden":{"ma":"14:00 - 17:30","di":"10:00 - 13:00, 14:00 - 17:30","wo":"10:00 - 13:00, 14:00 - 17:30","do":"10:00 - 13:00, 14:00 - 17:30","vr":"10:00 - 13:00, 14:00 - 17:30","za":"gesloten","zo":"gesloten"}}},{"type":"Feature","geometry":{"type":"Point","coordinates":[5.931983,51.644835]},"properties":{"type":"pakketpunt","locatieNaam":"Anjas winkeltje","straatNaam":"St Anthonisweg","straatNr":"55","vervoerder":"DHL","puntType":"parcelShop","bezettingsgraad":50,"latitude":51.644835,"longitude":5.931983,"canPickup":true,"canDropoff":true,"openingstijden":{"ma":"gesloten","di":"07:00 - 17:30","wo":"07:00 - 17:30","do":"07:00 - 17:30","vr":"07:00 - 17:30","za":"08:30 - 15:15","zo":"gesloten"}}},{"type":"Feature","geometry":{"type":"Point","coordinates":[5.945755,51.642552]},"properties":{"type":"pakketpunt","locatieNaam":"DeBuren Locker 24-7 Het Leucker","straatNaam":"Het Leucker","straatNr":"12","vervoerder":"DHL","puntType":"packStation","bezettingsgraad":50,"latitude":51.642552,"longitude":5.945755,"canPickup":true,"canDropoff":true,"openingstijden":{"ma":"00:00 - 23:59","di":"00:00 - 23:59","wo":"00:00 - 23:59","do":"00:00 - 23:59","vr":"00:00 - 23:59","za":"00:00 - 23:59","zo":"00:00 - 23:59"}}},{"type":"Feature","geometry":{"type":"Point","coordinates":[5.9441518,51.6482608]},"properties":{"type":"pakketpunt","locatieNaam":"Pakketautomaat Lidl Boxmeer","straatNaam":"Spoorstraat","straatNr":"2","vervoerder":"DHL","puntType":"packStation","bezettingsgraad":50,"latitude":51.6482608,"longitude":5.9441518,"canPickup":true,"canDropoff":true,"openingstijden":{"ma":"00:00 - 23:59","di":"00:00 - 23:59","wo":"00:00 - 23:59","do":"00:00 - 23:59","vr":"00:00 - 23:59","za":"00:00 - 23:59","zo":"00:00 - 23:59"}}},{"type":"Feature","geometry":{"type":"Point","coordinates":[5.949495,51.647332]},"properties":{"type":"pakketpunt","locatieNaam":"Inkstation Boxmeer","straatNaam":"Hoogkoorpassage","straatNr":"14-A","vervoerder":"DHL","puntType":"parcelShop","bezettingsgraad":50,"latitude":51.647332,"longitude":5.949495,"canPickup":true,"canDropoff":true,"openingstijden":{"ma":"gesloten","di":"09:30 - 17:30","wo":"09:30 - 17:30","do":"09:30 - 17:30","vr":"09:30 - 20:00","za":"09:30 - 17:00","zo":"gesloten"}}},{"type":"Feature","geometry":{"type":"Point","coordinates":[5.950380325317383,51.6475944519043]},"properties":{"type":"pakketpunt","locatieNaam":"Intertoys Boxmeer","straatNaam":"Steenstraat","straatNr":"77","vervoerder":"DHL","puntType":"parcelShop","bezettingsgraad":50,"latitude":51.6475944519043,"longitude":5.950380325317383,"canPickup":true,"canDropoff":true,"openingstijden":{"ma":"12:00 - 18:00","di":"09:00 - 18:00","wo":"09:00 - 18:00","do":"09:00 - 18:00","vr":"09:00 - 20:00","za":"09:00 - 17:00","zo":"gesloten"}}},{"type":"Feature","geometry":{"type":"Point","coordinates":[5.9489426612854,51.648101806640625]},"properties":{"type":"pakketpunt","locatieNaam":"Shoeby Boxmeer","straatNaam":"Steenstraat","straatNr":"116","vervoerder":"DHL","puntType":"parcelShop","bezettingsgraad":50,"latitude":51.648101806640625,"longitude":5.9489426612854,"canPickup":true,"canDropoff":true,"openingstijden":{"ma":"13:00 - 17:30","di":"09:00 - 17:30","wo":"09:30 - 17:30","do":"09:30 - 17:30","vr":"09:00 - 20:00","za":"09:30 - 17:00","zo":"gesloten"}}},{"type":"Feature","geometry":{"type":"Point","coordinates":[5.744731,51.743706]},"properties":{"type":"pakketpunt","locatieNaam":"G. vd Braak 2 Wielers","straatNaam":"Burg.de Bourbonplein","straatNr":"7","vervoerder":"DHL","puntType":"parcelShop","bezettingsgraad":50,"latitude":51.743706,"longitude":5.744731,"canPickup":true,"canDropoff":true,"openingstijden":{"ma":"gesloten","di":"09:00 - 17:30","wo":"09:00 - 17:30","do":"09:00 - 17:30","vr":"09:00 - 17:30","za":"09:00 - 17:00","zo":"gesloten"}}},{"type":"Feature","geometry":{"type":"Point","coordinates":[5.746932150074511,51.751659767686526]},"properties":{"type":"pakketpunt","locatieNaam":"Pakketautomaat Jumbo Grave","straatNaam":"Essinklaan","straatNr":"72","vervoerder":"DHL","puntType":"packStation","bezettingsgraad":50,"latitude":51.751659767686526,"longitude":5.746932150074511,"canPickup":true,"canDropoff":true,"openingstijden":{"ma":"00:00 - 23:59","di":"00:00 - 23:59","wo":"00:00 - 23:59","do":"00:00 - 23:59","vr":"00:00 - 23:59","za":"00:00 - 23:59","zo":"00:00 - 23:59"}}},{"type":"Feature","geometry":{"type":"Point","coordinates":[5.7409177,51.7585644]},"properties":{"type":"pakketpunt","locatieNaam":"Ons Buurtje","straatNaam":"Brugstraat","straatNr":"2","vervoerder":"DHL","puntType":"parcelShop","bezettingsgraad":50,"latitude":51.7585644,"longitude":5.7409177,"canPickup":true,"canDropoff":true,"openingstijden":{"ma":"09:00 - 19:00","di":"09:00 - 19:00","wo":"09:00 - 19:00","do":"09:00 - 19:00","vr":"09:00 - 19:00","za":"09:00 - 19:00","zo":"12:00 - 18:00"}}},{"type":"Feature","geometry":{"type":"Point","coordinates":[5.734365,51.761613]},"properties":{"type":"pakketpunt","locatieNaam":"Dhz en alleswinkel Leny van Kempen","straatNaam":"Arnoud van gelderweg","straatNr":"83","vervoerder":"DHL","puntType":"parcelShop","bezettingsgraad":50,"latitude":51.761613,"longitude":5.734365,"canPickup":true,"canDropoff":true,"openingstijden":{"ma":"09:30 - 17:30","di":"09:30 - 17:30","wo":"09:30 - 17:30","do":"09:30 - 17:30","vr":"09:00 - 18:00","za":"09:00 - 17:00","zo":"gesloten"}}},{"type":"Feature","geometry":{"type":"Point","coordinates":[5.8317758,51.7246197]},"properties":{"type":"pakketpunt","locatieNaam":"Buurtmarkt Beers","straatNaam":"Gildeweg","straatNr":"12","vervoerder":"DHL","puntType":"parcelShop","bezettingsgraad":50,"latitude":51.7246197,"longitude":5.8317758,"canPickup":true,"canDropoff":true,"openingstijden":{"ma":"08:00 - 17:00","di":"08:00 - 17:00","wo":"08:00 - 17:00","do":"08:00 - 17:00","vr":"08:00 - 17:00","za":"08:00 - 14:00","zo":"gesloten"}}},{"type":"Feature","geometry":{"type":"Point","coordinates":[5.857771,51.717795]},"properties":{"type":"pakketpunt","locatieNaam":"Servicepartner Jan Eltink","straatNaam":"Franssenstraat","straatNr":"57","vervoerder":"DHL","puntType":"parcelShop","bezettingsgraad":50,"latitude":51.717795,"longitude":5.857771,"canPickup":true,"canDropoff":true,"openingstijden":{"ma":"10:00 - 18:00","di":"10:00 - 18:00","wo":"10:00 - 18:00","do":"10:00 - 18:00","vr":"10:00 - 18:00","za":"10:00 - 13:00","zo":"gesloten"}}},{"type":"Feature","geometry":{"type":"Point","coordinates":[5.859203,51.741285]},"properties":{"type":"pakketpunt","locatieNaam":"DeBuren Locker 24-7  Bosmans","straatNaam":"Lavendel","straatNr":"382","vervoerder":"DHL","puntType":"packStation","bezettingsgraad":50,"latitude":51.741285,"longitude":5.859203,"canPickup":true,"canDropoff":true,"openingstijden":{"ma":"00:00 - 23:59","di":"00:00 - 23:59","wo":"00:00 - 23:59","do":"00:00 - 23:59","vr":"00:00 - 23:59","za":"00:00 - 23:59","zo":"00:00 - 23:59"}}},{"type":"Feature","geometry":{"type":"Point","coordinates":[5.865115,51.73084]},"properties":{"type":"pakketpunt","locatieNaam":"Pakketautomaat Basic-Fit Cuijk","straatNaam":"Spinding","straatNr":"6","vervoerder":"DHL","puntType":"packStation","bezettingsgraad":50,"latitude":51.73084,"longitude":5.865115,"canPickup":true,"canDropoff":true,"openingstijden":{"ma":"00:00 - 23:59","di":"00:00 - 23:59","wo":"00:00 - 23:59","do":"00:00 - 23:59","vr":"00:00 - 23:59","za":"00:00 - 23:59","zo":"00:00 - 23:59"}}},{"type":"Feature","geometry":{"type":"Point","coordinates":[5.868443432799794,51.724790814492145]},"properties":{"type":"pakketpunt","locatieNaam":"Pakketautomaat Karwei Cuijk","straatNaam":"Beversestraat","straatNr":"22","vervoerder":"DHL","puntType":"packStation","bezettingsgraad":50,"latitude":51.724790814492145,"longitude":5.868443432799794,"canPickup":true,"canDropoff":true,"openingstijden":{"ma":"09:00 - 21:00","di":"09:00 - 21:00","wo":"09:00 - 21:00","do":"09:00 - 21:00","vr":"09:00 - 21:00","za":"09:00 - 18:00","zo":"12:00 - 17:00"}}},{"type":"Feature","geometry":{"type":"Point","coordinates":[5.8695948,51.7260529]},"properties":{"type":"pakketpunt","locatieNaam":"Servicepunt Heeswijkse Kampen","straatNaam":"De Nieuwe Erven","straatNr":"3-B","vervoerder":"DHL","puntType":"parcelShop","bezettingsgraad":50,"latitude":51.7260529,"longitude":5.8695948,"canPickup":true,"canDropoff":true,"openingstijden":{"ma":"09:00 - 18:30","di":"09:00 - 18:30","wo":"09:00 - 18:30","do":"09:00 - 18:30","vr":"09:00 - 18:00","za":"11:00 - 16:00","zo":"gesloten"}}},{"type":"Feature","geometry":{"type":"Point","coordinates":[5.8742445,51.7370618]},"properties":{"type":"pakketpunt","locatieNaam":"Yipp bloemen en planten","straatNaam":"De Valuwe","straatNr":"9","vervoerder":"DHL","puntType":"parcelShop","bezettingsgraad":50,"latitude":51.7370618,"longitude":5.8742445,"canPickup":true,"canDropoff":true,"openingstijden":{"ma":"gesloten","di":"09:30 - 17:30","wo":"09:30 - 17:30","do":"09:30 - 17:30","vr":"09:30 - 17:30","za":"09:30 - 16:30","zo":"gesloten"}}},{"type":"Feature","geometry":{"type":"Point","coordinates":[5.8794421,51.7291983]},"properties":{"type":"pakketpunt","locatieNaam":"Shoeby Cuijk","straatNaam":"Maasburg","straatNr":"47-48","vervoerder":"DHL","puntType":"parcelShop","bezettingsgraad":50,"latitude":51.7291983,"longitude":5.8794421,"canPickup":true,"canDropoff":true,"openingstijden":{"ma":"13:00 - 17:00","di":"09:30 - 17:00","wo":"09:30 - 17:00","do":"09:30 - 17:00","vr":"09:30 - 17:00","za":"09:30 - 16:00","zo":"gesloten"}}},{"type":"Feature","geometry":{"type":"Point","coordinates":[5.879506,51.729687]},"properties":{"type":"pakketpunt","locatieNaam":"Cuijk GSM","straatNaam":"Maasburg","straatNr":"32","vervoerder":"DHL","puntType":"parcelShop","bezettingsgraad":50,"latitude":51.729687,"longitude":5.879506,"canPickup":true,"canDropoff":true,"openingstijden":{"ma":"13:00 - 18:00","di":"10:00 - 18:00","wo":"10:00 - 18:00","do":"10:00 - 18:00","vr":"10:00 - 18:00","za":"10:00 - 17:00","zo":"gesloten"}}},{"type":"Feature","geometry":{"type":"Point","coordinates":[5.8801395,51.728975]},"properties":{"type":"pakketpunt","locatieNaam":"Intertoys Cuijk","straatNaam":"Korte molenstraat","straatNr":"22","vervoerder":"DHL","puntType":"parcelShop","bezettingsgraad":50,"latitude":51.728975,"longitude":5.8801395,"canPickup":true,"canDropoff":true,"openingstijden":{"ma":"12:00 - 18:00","di":"09:30 - 18:00","wo":"09:30 - 18:00","do":"09:30 - 18:00","vr":"09:30 - 18:00","za":"09:30 - 17:00","zo":"gesloten"}}},{"type":"Feature","geometry":{"type":"Point","coordinates":[5.88092041015625,51.7288932800293]},"properties":{"type":"pakketpunt","locatieNaam":"Trendy Fashion","straatNaam":"Korte Molenstraat","straatNr":"13-C","vervoerder":"DHL","puntType":"parcelShop","bezettingsgraad":50,"latitude":51.7288932800293,"longitude":5.88092041015625,"canPickup":true,"canDropoff":true,"openingstijden":{"ma":"13:30 - 17:30","di":"10:00 - 17:30","wo":"10:00 - 17:30","do":"10:00 - 17:30","vr":"10:00 - 17:30","za":"10:00 - 17:00","zo":"gesloten"}}},{"type":"Feature","geometry":{"type":"Point","coordinates":[5.734333,51.761596]},"properties":{"type":"pakketpunt","locatieNaam":"DHZ Leny van Kempen","straatNaam":"ARNOUD VAN GELDERWEG","straatNr":"83","vervoerder":"DPD","puntType":"pickup_point","bezettingsgraad":50,"latitude":51.761596,"longitude":5.734333,"canPickup":true,"canDropoff":true,"openingstijden":{"ma":"09:30 - 17:30","di":"09:30 - 17:30","wo":"09:30 - 17:30","do":"09:30 - 17:30","vr":"09:00 - 18:00","za":"09:00 - 17:00","zo":"gesloten"}}},{"type":"Feature","geometry":{"type":"Point","coordinates":[5.8742445,51.7370618]},"properties":{"type":"pakketpunt","locatieNaam":"Yipp bloemen en planten","straatNaam":"DE VALUWE","straatNr":"9","vervoerder":"DPD","puntType":"pickup_point","bezettingsgraad":50,"latitude":51.7370618,"longitude":5.8742445,"canPickup":true,"canDropoff":true,"openingstijden":{"ma":"gesloten","di":"09:30 - 17:30","wo":"09:30 - 17:30","do":"09:30 - 17:30","vr":"09:30 - 17:30","za":"09:30 - 16:30","zo":"gesloten"}}},{"type":"Feature","geometry":{"type":"Point","coordinates":[5.7446813,51.74365]},"properties":{"type":"pakketpunt","locatieNaam":"G. van den Braak 2wielers","straatNaam":"BURGEMEESTER DE BOURBONPLEIN","straatNr":"7","vervoerder":"DPD","puntType":"pickup_point","bezettingsgraad":50,"latitude":51.74365,"longitude":5.7446813,"canPickup":true,"canDropoff":true,"openingstijden":{"ma":"gesloten","di":"09:00 - 17:30","wo":"09:00 - 17:30","do":"09:00 - 17:30","vr":"09:00 - 17:30","za":"09:00 - 17:00","zo":"gesloten"}}},{"type":"Feature","geometry":{"type":"Point","coordinates":[5.7831908,51.6868713]},"properties":{"type":"pakketpunt","locatieNaam":"Piko Style","straatNaam":"KERKSTRAAT","straatNr":"6a","vervoerder":"DPD","puntType":"pickup_point","bezettingsgraad":50,"latitude":51.6868713,"longitude":5.7831908,"canPickup":true,"canDropoff":true,"openingstijden":{"ma":"gesloten","di":"09:30 - 17:00","wo":"09:30 - 17:00","do":"09:30 - 17:00","vr":"09:30 - 17:00","za":"09:30 - 13:00","zo":"gesloten"}}},{"type":"Feature","geometry":{"type":"Point","coordinates":[5.945755,51.642552]},"properties":{"type":"pakketpunt","locatieNaam":"Pakketautomaat Meerbox Het Leucker","straatNaam":"HET LEUCKER","straatNr":"12","vervoerder":"DPD","puntType":"dpd_box","bezettingsgraad":50,"latitude":51.642552,"longitude":5.945755,"canPickup":true,"canDropoff":true,"openingstijden":{"ma":"00:00 - 23:59","di":"00:00 - 23:59","wo":"00:00 - 23:59","do":"00:00 - 23:59","vr":"00:00 - 23:59","za":"00:00 - 23:59","zo":"00:00 - 23:59"}}},{"type":"Feature","geometry":{"type":"Point","coordinates":[5.880403,51.626641]},"properties":{"type":"pakketpunt","locatieNaam":"U zegt het maar","straatNaam":"DE MERRET","straatNr":"10","vervoerder":"DPD","puntType":"pickup_point","bezettingsgraad":50,"latitude":51.626641,"longitude":5.880403,"canPickup":true,"canDropoff":true,"openingstijden":{"ma":"14:00 - 17:30","di":"10:00 - 13:00, 14:00 - 17:30","wo":"10:00 - 13:00, 14:00 - 17:30","do":"10:00 - 13:00, 14:00 - 17:30","vr":"10:00 - 13:00, 14:00 - 17:30","za":"gesloten","zo":"gesloten"}}},{"type":"Feature","geometry":{"type":"Point","coordinates":[5.8695948,51.7260529]},"properties":{"type":"pakketpunt","locatieNaam":"Business Point - Pakketpunt Cuijk","straatNaam":"DE NIEUWE ERVEN","straatNr":"3 B","vervoerder":"DPD","puntType":"pickup_point","bezettingsgraad":50,"latitude":51.7260529,"longitude":5.8695948,"canPickup":true,"canDropoff":true,"openingstijden":{"ma":"09:00 - 18:30","di":"09:00 - 18:30","wo":"09:00 - 18:30","do":"09:00 - 18:30","vr":"09:00 - 18:00","za":"gesloten","zo":"gesloten"}}},{"type":"Feature","geometry":{"type":"Point","coordinates":[5.949099,51.647973]},"properties":{"type":"pakketpunt","locatieNaam":"Bloemkadootje","straatNaam":"STEENSTRAAT","straatNr":"110","vervoerder":"DPD","puntType":"pickup_point","bezettingsgraad":50,"latitude":51.647973,"longitude":5.949099,"canPickup":true,"canDropoff":true,"openingstijden":{"ma":"gesloten","di":"09:00 - 17:00","wo":"09:00 - 17:00","do":"09:00 - 17:00","vr":"09:00 - 17:00","za":"10:00 - 16:00","zo":"gesloten"}}},{"type":"Feature","geometry":{"type":"Point","coordinates":[5.8591558,51.7415641]},"properties":{"type":"pakketpunt","locatieNaam":"Pakketautomaat Jumbo Bosmans Lavend","straatNaam":"LAVENDEL","straatNr":"382","vervoerder":"DPD","puntType":"dpd_box","bezettingsgraad":50,"latitude":51.7415641,"longitude":5.8591558,"canPickup":true,"canDropoff":true,"openingstijden":{"ma":"00:01 - 23:59","di":"00:01 - 23:59","wo":"00:01 - 23:59","do":"00:01 - 23:59","vr":"00:01 - 23:59","za":"00:01 - 23:59","zo":"00:01 - 23:59"}}},{"type":"Feature","geometry":{"type":"Point","coordinates":[5.887382,51.722636]},"properties":{"type":"pakketpunt","locatieNaam":"Emilio's Bazaar","straatNaam":"GROTESTRAAT","straatNr":"93","vervoerder":"DPD","puntType":"pickup_point","bezettingsgraad":50,"latitude":51.722636,"longitude":5.887382,"canPickup":true,"canDropoff":true,"openingstijden":{"ma":"10:00 - 17:00","di":"10:00 - 17:00","wo":"10:00 - 17:00","do":"10:00 - 17:00","vr":"10:00 - 17:00","za":"10:00 - 17:00","zo":"10:00 - 17:00"}}},{"type":"Feature","geometry":{"type":"Point","coordinates":[5.87128,51.71958]},"properties":{"type":"pakketpunt","locatieNaam":"Pakketautomaat Selfstorage Cuijk","straatNaam":"HULSBOS","straatNr":"4A","vervoerder":"DPD","puntType":"dpd_box","bezettingsgraad":50,"latitude":51.71958,"longitude":5.87128,"canPickup":true,"canDropoff":true,"openingstijden":{"ma":"00:01 - 23:59","di":"00:01 - 23:59","wo":"00:01 - 23:59","do":"00:01 - 23:59","vr":"00:01 - 23:59","za":"00:01 - 23:59","zo":"00:01 - 23:59"}}},{"type":"Feature","geometry":{"type":"Point","coordinates":[5.86156,51.6885]},"properties":{"type":"pakketpunt","locatieNaam":"Pakketautomaat Spar Haps","straatNaam":"RAADHUISPLEIN","straatNr":"4","vervoerder":"DPD","puntType":"dpd_box","bezettingsgraad":50,"latitude":51.6885,"longitude":5.86156,"canPickup":true,"canDropoff":true,"openingstijden":{"ma":"00:01 - 23:59","di":"00:01 - 23:59","wo":"00:01 - 23:59","do":"00:01 - 23:59","vr":"00:01 - 23:59","za":"00:01 - 23:59","zo":"00:01 - 23:59"}}},{"type":"Feature","geometry":{"type":"Point","coordinates":[5.78318,51.68074]},"properties":{"type":"pakketpunt","locatieNaam":"Business Point - Aske Logistic & Bu","straatNaam":"HOUTZAGERIJSTRAAT","straatNr":"37","vervoerder":"DPD","puntType":"pickup_point","bezettingsgraad":50,"latitude":51.68074,"longitude":5.78318,"canPickup":true,"canDropoff":true,"openingstijden":{"ma":"10:00 - 20:00","di":"10:00 - 20:00","wo":"10:00 - 20:00","do":"10:00 - 20:00","vr":"10:00 - 20:00","za":"10:00 - 12:30","zo":"gesloten"}}},{"type":"Feature","geometry":{"type":"Point","coordinates":[5.884572967,51.65717909]},"properties":{"type":"pakketpunt","locatieNaam":"Spar Kuijpers","straatNaam":"Kapelstraat","straatNr":"11A","vervoerder":"PostNL","puntType":"servicepunt","bezettingsgraad":50,"latitude":51.65717909,"longitude":5.884572967,"canPickup":true,"canDropoff":true,"openingstijden":"08:00 - 18:30 (Na 18:00 open; Zaterdag open; Zondag open)"}},{"type":"Feature","geometry":{"type":"Point","coordinates":[5.861561565,51.68850118]},"properties":{"type":"pakketpunt","locatieNaam":"Spar Haps","straatNaam":"Raadhuisplein","straatNr":"4","vervoerder":"PostNL","puntType":"servicepunt","bezettingsgraad":50,"latitude":51.68850118,"longitude":5.861561565,"canPickup":true,"canDropoff":true,"openingstijden":"08:00 - 20:00 (Na 18:00 open; Zaterdag open; Zondag open)"}},{"type":"Feature","geometry":{"type":"Point","coordinates":[5.821741395,51.65617988]},"properties":{"type":"pakketpunt","locatieNaam":"PixelABrick","straatNaam":"Dorpsstraat","straatNr":"23","vervoerder":"PostNL","puntType":"servicepunt","bezettingsgraad":50,"latitude":51.65617988,"longitude":5.821741395,"canPickup":true,"canDropoff":true,"openingstijden":"09:00 - 18:00 (Na 18:00 open)"}},{"type":"Feature","geometry":{"type":"Point","coordinates":[5.88026467437901,51.6265099775053]},"properties":{"type":"pakketpunt","locatieNaam":"De DorpShop/GereedschapShop","straatNaam":"De Merret","straatNr":"6","vervoerder":"PostNL","puntType":"servicepunt","bezettingsgraad":50,"latitude":51.6265099775053,"longitude":5.88026467437901,"canPickup":true,"canDropoff":true,"openingstijden":"13:00 - 17:30 (Zaterdag open)"}},{"type":"Feature","geometry":{"type":"Point","coordinates":[5.935707707,51.64558884]},"properties":{"type":"pakketpunt","locatieNaam":"GAMMA Boxmeer","straatNaam":"Sint Anthonisweg","straatNr":"6A","vervoerder":"PostNL","puntType":"servicepunt","bezettingsgraad":50,"latitude":51.64558884,"longitude":5.935707707,"canPickup":true,"canDropoff":true,"openingstijden":"09:00 - 21:00"}},{"type":"Feature","geometry":{"type":"Point","coordinates":[5.935454702,51.64497879]},"properties":{"type":"pakketpunt","locatieNaam":"Pakket- en briefautomaat","straatNaam":"Sint Anthonisweg","straatNr":"6PBA","vervoerder":"PostNL","puntType":"automaat","bezettingsgraad":50,"latitude":51.64497879,"longitude":5.935454702,"canPickup":true,"canDropoff":true,"openingstijden":"09:00 - 21:00"}},{"type":"Feature","geometry":{"type":"Point","coordinates":[5.9344003,51.68564856]},"properties":{"type":"pakketpunt","locatieNaam":"Van Keijsteren","straatNaam":"Laag Werveld","straatNr":"1","vervoerder":"PostNL","puntType":"servicepunt","bezettingsgraad":50,"latitude":51.68564856,"longitude":5.9344003,"canPickup":true,"canDropoff":true,"openingstijden":"08:00 - 18:00"}},{"type":"Feature","geometry":{"type":"Point","coordinates":[5.949112599,51.64767352]},"properties":{"type":"pakketpunt","locatieNaam":"Boerderijwinkel Verdaasdonk","straatNaam":"Steenstraat","straatNr":"106R","vervoerder":"PostNL","puntType":"servicepunt","bezettingsgraad":50,"latitude":51.64767352,"longitude":5.949112599,"canPickup":true,"canDropoff":true,"openingstijden":"10:00 - 18:00 (Na 18:00 open; Zaterdag open)"}},{"type":"Feature","geometry":{"type":"Point","coordinates":[5.935847493,51.69765964]},"properties":{"type":"pakketpunt","locatieNaam":"Spar","straatNaam":"Lietingsestraat","straatNr":"8A","vervoerder":"PostNL","puntType":"servicepunt","bezettingsgraad":50,"latitude":51.69765964,"longitude":5.935847493,"canPickup":true,"canDropoff":true,"openingstijden":"08:00 - 19:00 (Na 18:00 open; Zaterdag open; Zondag open)"}},{"type":"Feature","geometry":{"type":"Point","coordinates":[5.785845539,51.68424428]},"properties":{"type":"pakketpunt","locatieNaam":"Primera Schipperheijn Mill","straatNaam":"Schoolstraat","straatNr":"39","vervoerder":"PostNL","puntType":"servicepunt","bezettingsgraad":50,"latitude":51.68424428,"longitude":5.785845539,"canPickup":true,"canDropoff":true,"openingstijden":"08:30 - 18:00 (Na 18:00 open; Zaterdag open)"}},{"type":"Feature","geometry":{"type":"Point","coordinates":[5.785083589,51.68475023]},"properties":{"type":"pakketpunt","locatieNaam":"Pakket- en briefautomaat","straatNaam":"Schoolstraat","straatNr":"28PBA","vervoerder":"PostNL","puntType":"automaat","bezettingsgraad":50,"latitude":51.68475023,"longitude":5.785083589,"canPickup":true,"canDropoff":true,"openingstijden":"00:00 - 23:59"}},{"type":"Feature","geometry":{"type":"Point","coordinates":[5.78346544241271,51.6832636130955]},"properties":{"type":"pakketpunt","locatieNaam":"Pakket- en briefautomaat","straatNaam":"Spoorstraat","straatNr":"17PBA","vervoerder":"PostNL","puntType":"automaat","bezettingsgraad":50,"latitude":51.6832636130955,"longitude":5.78346544241271,"canPickup":true,"canDropoff":true,"openingstijden":"00:00 - 23:59"}},{"type":"Feature","geometry":{"type":"Point","coordinates":[5.87186960483471,51.6058620854915]},"properties":{"type":"pakketpunt","locatieNaam":"Spar","straatNaam":"Vloetweg","straatNr":"4B","vervoerder":"PostNL","puntType":"servicepunt","bezettingsgraad":50,"latitude":51.6058620854915,"longitude":5.87186960483471,"canPickup":true,"canDropoff":true,"openingstijden":"08:00 - 19:00 (Na 18:00 open; Zaterdag open; Zondag open)"}},{"type":"Feature","geometry":{"type":"Point","coordinates":[5.868698547,51.72449841]},"properties":{"type":"pakketpunt","locatieNaam":"KARWEI Cuijk","straatNaam":"Beversestraat","straatNr":"22","vervoerder":"PostNL","puntType":"servicepunt","bezettingsgraad":50,"latitude":51.72449841,"longitude":5.868698547,"canPickup":true,"canDropoff":true,"openingstijden":"09:00 - 21:00"}},{"type":"Feature","geometry":{"type":"Point","coordinates":[5.868683978,51.72448948]},"properties":{"type":"pakketpunt","locatieNaam":"Pakket- en briefautomaat","straatNaam":"Beversestraat","straatNr":"22PBA","vervoerder":"PostNL","puntType":"automaat","bezettingsgraad":50,"latitude":51.72448948,"longitude":5.868683978,"canPickup":true,"canDropoff":true,"openingstijden":"09:00 - 21:00"}},{"type":"Feature","geometry":{"type":"Point","coordinates":[5.86961111536472,51.7259238375309]},"properties":{"type":"pakketpunt","locatieNaam":"Pakketautomaat","straatNaam":"De Nieuwe Erven","straatNr":"3PBA","vervoerder":"PostNL","puntType":"automaat","bezettingsgraad":50,"latitude":51.7259238375309,"longitude":5.86961111536472,"canPickup":true,"canDropoff":true,"openingstijden":"00:00 - 23:59"}},{"type":"Feature","geometry":{"type":"Point","coordinates":[5.869611115,51.72592384]},"properties":{"type":"pakketpunt","locatieNaam":"Staete Vrijdaggevoel","straatNaam":"De Nieuwe Erven","straatNr":"3","vervoerder":"PostNL","puntType":"servicepunt","bezettingsgraad":50,"latitude":51.72592384,"longitude":5.869611115,"canPickup":true,"canDropoff":true,"openingstijden":"15:00 - 18:30 (Na 18:00 open; Zaterdag open)"}},{"type":"Feature","geometry":{"type":"Point","coordinates":[5.879476971,51.7294243]},"properties":{"type":"pakketpunt","locatieNaam":"The Read Shop","straatNaam":"Maasburg","straatNr":"30","vervoerder":"PostNL","puntType":"servicepunt","bezettingsgraad":50,"latitude":51.7294243,"longitude":5.879476971,"canPickup":true,"canDropoff":true,"openingstijden":"09:30 - 18:00 (Na 18:00 open; Zaterdag open)"}},{"type":"Feature","geometry":{"type":"Point","coordinates":[5.88016059643833,51.729727035213]},"properties":{"type":"pakketpunt","locatieNaam":"Pakketautomaat","straatNaam":"Maasburg","straatNr":"24PBA","vervoerder":"PostNL","puntType":"automaat","bezettingsgraad":50,"latitude":51.729727035213,"longitude":5.88016059643833,"canPickup":true,"canDropoff":true,"openingstijden":"08:00 - 20:00"}},{"type":"Feature","geometry":{"type":"Point","coordinates":[5.879021135,51.73010036]},"properties":{"type":"pakketpunt","locatieNaam":"Primera Cuijk","straatNaam":"Maasburg","straatNr":"41","vervoerder":"PostNL","puntType":"servicepunt","bezettingsgraad":50,"latitude":51.73010036,"longitude":5.879021135,"canPickup":true,"canDropoff":true,"openingstijden":"09:00 - 18:00"}},{"type":"Feature","geometry":{"type":"Point","coordinates":[5.85917959858948,51.7415525393095]},"properties":{"type":"pakketpunt","locatieNaam":"Pakket- en briefautomaat","straatNaam":"Lavendel","straatNr":"382PBA","vervoerder":"PostNL","puntType":"automaat","bezettingsgraad":50,"latitude":51.7415525393095,"longitude":5.85917959858948,"canPickup":true,"canDropoff":true,"openingstijden":"00:00 - 23:59"}},{"type":"Feature","geometry":{"type":"Point","coordinates":[5.78321988,51.7395981]},"properties":{"type":"pakketpunt","locatieNaam":"Pakketautomaat","straatNaam":"Dorpstraat","straatNr":"2PBA","vervoerder":"PostNL","puntType":"automaat","bezettingsgraad":50,"latitude":51.7395981,"longitude":5.78321988,"canPickup":true,"canDropoff":true,"openingstijden":"00:00 - 23:59"}},{"type":"Feature","geometry":{"type":"Point","coordinates":[5.946628878,51.57058896]},"properties":{"type":"pakketpunt","locatieNaam":"Pakket- en briefautomaat","straatNaam":"14 Oktoberplein","straatNr":"4PBA","vervoerder":"PostNL","puntType":"automaat","bezettingsgraad":50,"latitude":51.57058896,"longitude":5.946628878,"canPickup":true,"canDropoff":true,"openingstijden":"00:00 - 23:59"}},{"type":"Feature","geometry":{"type":"Point","coordinates":[5.946628878,51.57058896]},"properties":{"type":"pakketpunt","locatieNaam":"Plus","straatNaam":"14 Oktoberplein","straatNr":"4","vervoerder":"PostNL","puntType":"servicepunt","bezettingsgraad":50,"latitude":51.57058896,"longitude":5.946628878,"canPickup":true,"canDropoff":true,"openingstijden":"07:30 - 20:00 (Na 18:00 open; Zaterdag open; Zondag open)"}},{"type":"Feature","geometry":{"type":"Point","coordinates":[6.010323931,51.59663984]},"properties":{"type":"pakketpunt","locatieNaam":"Plus Verbeeten Vierlingsbeek","straatNaam":"Vrijthof","straatNr":"15","vervoerder":"PostNL","puntType":"servicepunt","bezettingsgraad":50,"latitude":51.59663984,"longitude":6.010323931,"canPickup":true,"canDropoff":true,"openingstijden":"08:00 - 20:00 (Na 18:00 open; Zaterdag open; Zondag open)"}},{"type":"Feature","geometry":{"type":"Point","coordinates":[6.010309376,51.59663093]},"properties":{"type":"pakketpunt","locatieNaam":"Pakket- en briefautomaat","straatNaam":"Vrijthof","straatNr":"15PBA","vervoerder":"PostNL","puntType":"automaat","bezettingsgraad":50,"latitude":51.59663093,"longitude":6.010309376,"canPickup":true,"canDropoff":true,"openingstijden":"00:00 - 23:59"}},{"type":"Feature","geometry":{"type":"Point","coordinates":[5.74691952068447,51.7516586137052]},"properties":{"type":"pakketpunt","locatieNaam":"Pakket- en briefautomaat","straatNaam":"Essinklaan","straatNr":"72PBA","vervoerder":"PostNL","puntType":"automaat","bezettingsgraad":50,"latitude":51.7516586137052,"longitude":5.74691952068447,"canPickup":true,"canDropoff":true,"openingstijden":"00:00 - 23:59"}},{"type":"Feature","geometry":{"type":"Point","coordinates":[5.740059998,51.75969722]},"properties":{"type":"pakketpunt","locatieNaam":"Primera Hart van Grave","straatNaam":"Hoofdwagt","straatNr":"8","vervoerder":"PostNL","puntType":"servicepunt","bezettingsgraad":50,"latitude":51.75969722,"longitude":5.740059998,"canPickup":true,"canDropoff":true,"openingstijden":"09:30 - 18:00 (Na 18:00 open; Zaterdag open)"}},{"type":"Feature","geometry":{"type":"Point","coordinates":[5.8691108,51.7259355]},"properties":{"type":"pakketpunt","locatieNaam":"Servicepunt Heeswijkse Kampen","straatNaam":"De Nieuwe Erven 3B","straatNr":"","vervoerder":"VintedGo","puntType":"parcel_shop","bezettingsgraad":50,"latitude":51.7259355,"longitude":5.8691108,"canPickup":true,"canDropoff":true,"openingstijden":null}},{"type":"Feature","geometry":{"type":"Point","coordinates":[5.87422,51.73711]},"properties":{"type":"pakketpunt","locatieNaam":"Yipp Bloemen En Planten ","straatNaam":"De Valuwe 9","straatNr":"","vervoerder":"VintedGo","puntType":"parcel_shop","bezettingsgraad":50,"latitude":51.73711,"longitude":5.87422,"canPickup":true,"canDropoff":true,"openingstijden":null}},{"type":"Feature","geometry":{"type":"Point","coordinates":[5.73437,51.76161]},"properties":{"type":"pakketpunt","locatieNaam":"DHZ","straatNaam":"Arnoud van Gelderweg 83","straatNr":"","vervoerder":"VintedGo","puntType":"parcel_shop","bezettingsgraad":50,"latitude":51.76161,"longitude":5.73437,"canPickup":true,"canDropoff":true,"openingstijden":null}},{"type":"Feature","geometry":{"type":"Point","coordinates":[5.7703793,51.6562717]},"properties":{"type":"pakketpunt","locatieNaam":"Creaties Van Hier","straatNaam":"Wethouder Lindersstraat 36","straatNr":"","vervoerder":"VintedGo","puntType":"parcel_shop","bezettingsgraad":50,"latitude":51.6562717,"longitude":5.7703793,"canPickup":true,"canDropoff":true,"openingstijden":null}},{"type":"Feature","geometry":{"type":"Point","coordinates":[5.8317301,51.7246455]},"properties":{"type":"pakketpunt","locatieNaam":"Buurtmarkt Beers","straatNaam":"Gildeweg 12","straatNr":"","vervoerder":"VintedGo","puntType":"parcel_shop","bezettingsgraad":50,"latitude":51.7246455,"longitude":5.8317301,"canPickup":true,"canDropoff":true,"openingstijden":null}},{"type":"Feature","geometry":{"type":"Point","coordinates":[5.9322872,51.6449059]},"properties":{"type":"pakketpunt","locatieNaam":"Van Rooij Car Care","straatNaam":"Sint Anthonisweg 53B","straatNr":"","vervoerder":"VintedGo","puntType":"locker","bezettingsgraad":50,"latitude":51.6449059,"longitude":5.9322872,"canPickup":true,"canDropoff":true,"openingstijden":null}},{"type":"Feature","geometry":{"type":"Point","coordinates":[5.8794133,51.7296406]},"properties":{"type":"pakketpunt","locatieNaam":"Cuijk Gsm","straatNaam":"Maasburg 32","straatNr":"","vervoerder":"VintedGo","puntType":"parcel_shop","bezettingsgraad":50,"latitude":51.7296406,"longitude":5.8794133,"canPickup":true,"canDropoff":true,"openingstijden":null}},{"type":"Feature","geometry":{"type":"Point","coordinates":[5.8872039,51.7224319]},"properties":{"type":"pakketpunt","locatieNaam":"Emilio's Bazaar","straatNaam":"Grotestraat 93","straatNr":"","vervoerder":"VintedGo","puntType":"parcel_shop","bezettingsgraad":50,"latitude":51.7224319,"longitude":5.8872039,"canPickup":true,"canDropoff":true,"openingstijden":null}},{"type":"Feature","geometry":{"type":"Point","coordinates":[5.739218,51.7594424]},"properties":{"type":"pakketpunt","locatieNaam":"Snoeperij Heintje","straatNaam":"Hoofschestrast 13B","straatNr":"","vervoerder":"VintedGo","puntType":"parcel_shop","bezettingsgraad":50,"latitude":51.7594424,"longitude":5.739218,"canPickup":true,"canDropoff":true,"openingstijden":null}},{"type":"Feature","geometry":{"type":"Point","coordinates":[5.78328896,51.68064514]},"properties":{"type":"pakketpunt","locatieNaam":"Aske Logistic&bussines","straatNaam":"Houtzagerijstraat 37","straatNr":"","vervoerder":"VintedGo","puntType":"parcel_shop","bezettingsgraad":50,"latitude":51.68064514,"longitude":5.78328896,"canPickup":true,"canDropoff":true,"openingstijden":null}},{"type":"Feature","geometry":{"type":"Point","coordinates":[5.85918,51.741554]},"properties":{"type":"pakketpunt","locatieNaam":"Jumbo Bosmans - Cuijk ","straatNaam":"Lavendel 382","straatNr":"","vervoerder":"VintedGo","puntType":"locker","bezettingsgraad":50,"latitude":51.741554,"longitude":5.85918,"canPickup":true,"canDropoff":true,"openingstijden":null}},{"type":"Feature","geometry":{"type":"Point","coordinates":[5.9451299,51.5710639]},"properties":{"type":"pakketpunt","locatieNaam":"Da Overloon","straatNaam":"Irenestraat 5A","straatNr":"","vervoerder":"VintedGo","puntType":"locker","bezettingsgraad":50,"latitude":51.5710639,"longitude":5.9451299,"canPickup":true,"canDropoff":true,"openingstijden":null}},{"type":"Feature","geometry":{"type":"Point","coordinates":[5.875953024264636,51.7357423499402]},"properties":{"type":"pakketpunt","locatieNaam":"ViaTim en Fast on time","straatNaam":"Guldengaarde","straatNr":"16C","vervoerder":"ViaTim","puntType":"servicepunt","bezettingsgraad":50,"latitude":51.7357423499402,"longitude":5.875953024264636,"canPickup":true,"canDropoff":true,"openingstijden":{"ma":"09:30 - 22:00","di":"09:30 - 22:00","wo":"09:30 - 22:00","do":"09:30 - 22:00","vr":"09:30 - 22:00","za":"gesloten","zo":"gesloten"}}},{"type":"Feature","geometry":{"type":"Point","coordinates":[5.783703372315427,51.68316132427825]},"properties":{"type":"pakketpunt","locatieNaam":"FedEx Ship&Get","straatNaam":"Spoorstraat 17 PBA","straatNr":"","vervoerder":"FedEx","puntType":"servicepunt","bezettingsgraad":50,"latitude":51.68316132427825,"longitude":5.783703372315427,"canPickup":true,"canDropoff":true,"openingstijden":{"ma":"00:00 - 23:59","di":"00:00 - 23:59","wo":"00:00 - 23:59","do":"00:00 - 23:59","vr":"00:00 - 23:59","za":"00:00 - 23:59","zo":"00:00 - 23:59"}}},{"type":"Feature","geometry":{"type":"Point","coordinates":[5.785055107357606,51.68473212621981]},"properties":{"type":"pakketpunt","locatieNaam":"FedEx Ship&Get","straatNaam":"Schoolstraat 28 PBA","straatNr":"","vervoerder":"FedEx","puntType":"servicepunt","bezettingsgraad":50,"latitude":51.68473212621981,"longitude":5.785055107357606,"canPickup":true,"canDropoff":true,"openingstijden":{"ma":"00:00 - 23:59","di":"00:00 - 23:59","wo":"00:00 - 23:59","do":"00:00 - 23:59","vr":"00:00 - 23:59","za":"00:00 - 23:59","zo":"00:00 - 23:59"}}},{"type":"Feature","geometry":{"type":"Point","coordinates":[5.734322,51.761576]},"properties":{"type":"pakketpunt","locatieNaam":"FedEx OnSite","straatNaam":"ARNOUD VAN GELDERWEG 83","straatNr":"","vervoerder":"FedEx","puntType":"servicepunt","bezettingsgraad":50,"latitude":51.761576,"longitude":5.734322,"canPickup":true,"canDropoff":true,"openingstijden":{"ma":"09:30 - 17:30","di":"09:30 - 17:30","wo":"09:30 - 17:30","do":"09:30 - 17:30","vr":"09:00 - 18:00","za":"09:00 - 18:00","zo":"gesloten"}}},{"type":"Feature","geometry":{"type":"Point","coordinates":[5.746932765246315,51.751595202030266]},"properties":{"type":"pakketpunt","locatieNaam":"FedEx Ship&Get","straatNaam":"Essinklaan 72 PBA","straatNr":"","vervoerder":"FedEx","puntType":"servicepunt","bezettingsgraad":50,"latitude":51.751595202030266,"longitude":5.746932765246315,"canPickup":true,"canDropoff":true,"openingstijden":{"ma":"00:00 - 23:59","di":"00:00 - 23:59","wo":"00:00 - 23:59","do":"00:00 - 23:59","vr":"00:00 - 23:59","za":"00:00 - 23:59","zo":"00:00 - 23:59"}}},{"type":"Feature","geometry":{"type":"Point","coordinates":[5.868521587948985,51.724703792609574]},"properties":{"type":"pakketpunt","locatieNaam":"FedEx Ship&Get","straatNaam":"Beversestraat 22 PBA","straatNr":"","vervoerder":"FedEx","puntType":"servicepunt","bezettingsgraad":50,"latitude":51.724703792609574,"longitude":5.868521587948985,"canPickup":true,"canDropoff":true,"openingstijden":{"ma":"09:00 - 21:00","di":"09:00 - 21:00","wo":"09:00 - 21:00","do":"09:00 - 21:00","vr":"09:00 - 21:00","za":"09:00 - 18:00","zo":"12:00 - 17:00"}}},{"type":"Feature","geometry":{"type":"Point","coordinates":[5.859099628493549,51.741455593235756]},"properties":{"type":"pakketpunt","locatieNaam":"FedEx Ship&Get","straatNaam":"Lavendel 382 PBA","straatNr":"","vervoerder":"FedEx","puntType":"servicepunt","bezettingsgraad":50,"latitude":51.741455593235756,"longitude":5.859099628493549,"canPickup":true,"canDropoff":true,"openingstijden":{"ma":"00:00 - 23:59","di":"00:00 - 23:59","wo":"00:00 - 23:59","do":"00:00 - 23:59","vr":"00:00 - 23:59","za":"00:00 - 23:59","zo":"00:00 - 23:59"}}},{"type":"Feature","geometry":{"type":"Point","coordinates":[5.869485876259826,51.725801759042994]},"properties":{"type":"pakketpunt","locatieNaam":"FedEx OnSite","straatNaam":"DE NIEUWE ERVEN 3B","straatNr":"","vervoerder":"FedEx","puntType":"servicepunt","bezettingsgraad":50,"latitude":51.725801759042994,"longitude":5.869485876259826,"canPickup":true,"canDropoff":true,"openingstijden":{"ma":"09:00 - 18:30","di":"09:00 - 18:30","wo":"09:00 - 18:30","do":"09:00 - 18:30","vr":"09:00 - 18:00","za":"11:00 - 15:00","zo":"gesloten"}}},{"type":"Feature","geometry":{"type":"Point","coordinates":[5.946620367476454,51.57058244234387]},"properties":{"type":"pakketpunt","locatieNaam":"FedEx Ship&Get","straatNaam":"14 Oktoberplein 4 PBA","straatNr":"","vervoerder":"FedEx","puntType":"servicepunt","bezettingsgraad":50,"latitude":51.57058244234387,"longitude":5.946620367476454,"canPickup":true,"canDropoff":true,"openingstijden":{"ma":"00:00 - 23:59","di":"00:00 - 23:59","wo":"00:00 - 23:59","do":"00:00 - 23:59","vr":"00:00 - 23:59","za":"00:00 - 23:59","zo":"00:00 - 23:59"}}},{"type":"Feature","geometry":{"type":"Point","coordinates":[5.874231,51.737116]},"properties":{"type":"pakketpunt","locatieNaam":"FedEx OnSite","straatNaam":"DE VALUWE 9","straatNr":"","vervoerder":"FedEx","puntType":"servicepunt","bezettingsgraad":50,"latitude":51.737116,"longitude":5.874231,"canPickup":true,"canDropoff":true,"openingstijden":{"ma":"gesloten","di":"09:30 - 17:30","wo":"09:30 - 17:30","do":"09:30 - 17:30","vr":"09:30 - 17:30","za":"09:30 - 16:30","zo":"gesloten"}}},{"type":"Feature","geometry":{"type":"Point","coordinates":[6.010273936921271,51.59667862552126]},"properties":{"type":"pakketpunt","locatieNaam":"FedEx Ship&Get","straatNaam":"Vrijthof 15 PBA","straatNr":"","vervoerder":"FedEx","puntType":"servicepunt","bezettingsgraad":50,"latitude":51.59667862552126,"longitude":6.010273936921271,"canPickup":true,"canDropoff":true,"openingstijden":{"ma":"00:00 - 23:59","di":"00:00 - 23:59","wo":"00:00 - 23:59","do":"00:00 - 23:59","vr":"00:00 - 23:59","za":"00:00 - 23:59","zo":"00:00 - 23:59"}}},{"type":"Feature","geometry":{"type":"Point","coordinates":[5.73432,51.76158]},"properties":{"type":"pakketpunt","locatieNaam":"DHZ LENY VAN KEMPEN","straatNaam":"Arnoud van Gelderweg 83","straatNr":"","vervoerder":"InPost","puntType":"servicepunt","bezettingsgraad":50,"latitude":51.76158,"longitude":5.73432,"canPickup":true,"canDropoff":true,"openingstijden":null}},{"type":"Feature","geometry":{"type":"Point","coordinates":[5.87423,51.73712]},"properties":{"type":"pakketpunt","locatieNaam":"YIPP BLOEMEN EN PLANTEN","straatNaam":"De Valuwe 9","straatNr":"","vervoerder":"InPost","puntType":"servicepunt","bezettingsgraad":50,"latitude":51.73712,"longitude":5.87423,"canPickup":true,"canDropoff":true,"openingstijden":null}},{"type":"Feature","geometry":{"type":"Point","coordinates":[5.86948,51.72606]},"properties":{"type":"pakketpunt","locatieNaam":"PAKKETPUNT DE HEESWIJKSE KAMPEN","straatNaam":"de Nieuwe Erven 3B","straatNr":"","vervoerder":"InPost","puntType":"servicepunt","bezettingsgraad":50,"latitude":51.72606,"longitude":5.86948,"canPickup":true,"canDropoff":true,"openingstijden":null}},{"type":"Feature","geometry":{"type":"Point","coordinates":[5.78308,51.68045]},"properties":{"type":"pakketpunt","locatieNaam":"ASKE LOGISTIC & BUSINESS","straatNaam":"Houtzagerijstraat 37","straatNr":"","vervoerder":"InPost","puntType":"servicepunt","bezettingsgraad":50,"latitude":51.68045,"longitude":5.78308,"canPickup":true,"canDropoff":true,"openingstijden":null}},{"type":"Feature","geometry":{"type":"Point","coordinates":[5.77038,51.65627]},"properties":{"type":"pakketpunt","locatieNaam":"CREATIES VAN HIER","straatNaam":"Wethouder Lindersstraat 36","straatNr":"","vervoerder":"InPost","puntType":"servicepunt","bezettingsgraad":50,"latitude":51.65627,"longitude":5.77038,"canPickup":true,"canDropoff":true,"openingstijden":null}},{"type":"Feature","geometry":{"type":"Point","coordinates":[5.86975,51.7257]},"properties":{"type":"pakketpunt","locatieNaam":"","straatNaam":"De Nieuwe Erven","straatNr":"3","vervoerder":"InPost","puntType":"automaat","bezettingsgraad":50,"latitude":51.7257,"longitude":5.86975,"canPickup":true,"canDropoff":true,"openingstijden":"24/7"}},{"type":"Feature","geometry":{"type":"Point","coordinates":[5.87131,51.71967]},"properties":{"type":"pakketpunt","locatieNaam":"","straatNaam":"Hulsbos","straatNr":"4 - 4A","vervoerder":"InPost","puntType":"automaat","bezettingsgraad":50,"latitude":51.71967,"longitude":5.87131,"canPickup":true,"canDropoff":true,"openingstijden":"24/7"}},{"type":"Feature","geometry":{"type":"Point","coordinates":[5.78463,51.68496]},"properties":{"type":"pakketpunt","locatieNaam":"","straatNaam":"Schoolstraat","straatNr":"28","vervoerder":"InPost","puntType":"automaat","bezettingsgraad":50,"latitude":51.68496,"longitude":5.78463,"canPickup":true,"canDropoff":true,"openingstijden":"24/7"}},{"type":"Feature","geometry":{"type":"Point","coordinates":[5.86847,51.7248]},"properties":{"type":"pakketpunt","locatieNaam":"","straatNaam":"Beversestraat","straatNr":"22","vervoerder":"InPost","puntType":"automaat","bezettingsgraad":50,"latitude":51.7248,"longitude":5.86847,"canPickup":true,"canDropoff":true,"openingstijden":"24/7"}},{"type":"Feature","geometry":{"type":"Polygon","coordinates":[[[5.690858,51.759131],[5.691372,51.759258],[5.691529,51.759296],[5.692294,51.759485],[5.693556,51.760148],[5.694602,51.760798],[5.695812,51.761255],[5.695826,51.76126],[5.695936,51.761302],[5.695942,51.761304],[5.696002,51.761327],[5.696036,51.76134],[5.696128,51.76146],[5.696608,51.762253],[5.696612,51.76226],[5.697083,51.763142],[5.697213,51.763466],[5.697355,51.763731],[5.697384,51.763775],[5.697534,51.764009],[5.697993,51.764875],[5.698123,51.765089],[5.69832,51.765416],[5.698505,51.765718],[5.698666,51.765981],[5.698895,51.766319],[5.699,51.766488],[5.699405,51.767041],[5.699655,51.767349],[5.699883,51.767605],[5.700322,51.768068],[5.700429,51.768168],[5.700529,51.768261],[5.701048,51.768747],[5.70196,51.76943],[5.702164,51.769562],[5.702886,51.770006],[5.703549,51.770338],[5.703989,51.770551],[5.704943,51.771048],[5.705943,51.771506],[5.706078,51.771568],[5.706724,51.771883],[5.707008,51.77203],[5.70795,51.772452],[5.708164,51.772546],[5.708339,51.772681],[5.708403,51.772734],[5.709394,51.773558],[5.709719,51.77382],[5.709807,51.77389],[5.710372,51.774344],[5.710527,51.774469],[5.710537,51.774477],[5.71123,51.775034],[5.711763,51.774963],[5.713212,51.774887],[5.714661,51.774892],[5.71611,51.774942],[5.717559,51.774992],[5.719008,51.775005],[5.720457,51.774956],[5.721905,51.774827],[5.723352,51.774634],[5.724799,51.774378],[5.726246,51.774032],[5.727691,51.773605],[5.729137,51.773107],[5.729745,51.772851],[5.730581,51.7725],[5.732025,51.771894],[5.733596,51.770865],[5.734647,51.769963],[5.735553,51.769061],[5.735613,51.768993],[5.735627,51.768977],[5.736341,51.768164],[5.736345,51.76816],[5.737958,51.766289],[5.738589,51.765541],[5.738927,51.765145],[5.739079,51.764966],[5.739429,51.764555],[5.740249,51.763762],[5.741068,51.762968],[5.741888,51.762175],[5.742707,51.761381],[5.743482,51.760631],[5.743526,51.760588],[5.744375,51.759866],[5.745239,51.759144],[5.746406,51.758386],[5.747491,51.757794],[5.747848,51.757599],[5.749291,51.756975],[5.750735,51.756404],[5.752178,51.75587],[5.752179,51.755869],[5.753623,51.755388],[5.755068,51.754952],[5.756513,51.754552],[5.757959,51.754188],[5.759404,51.753842],[5.76085,51.753541],[5.762296,51.753258],[5.763742,51.75301],[5.765188,51.75279],[5.766635,51.752605],[5.768082,51.752457],[5.768972,51.752377],[5.769299,51.752347],[5.769529,51.752326],[5.770976,51.752232],[5.772424,51.752173],[5.772736,51.752162],[5.773872,51.752123],[5.77532,51.752101],[5.776768,51.752123],[5.778217,51.752154],[5.779666,51.752212],[5.781115,51.752306],[5.782564,51.752427],[5.784013,51.752566],[5.785463,51.752732],[5.786913,51.752924],[5.788363,51.753144],[5.789814,51.753382],[5.790534,51.753509],[5.791264,51.753638],[5.792417,51.753869],[5.792715,51.753929],[5.794166,51.754257],[5.794261,51.754275],[5.795617,51.75453],[5.797068,51.754822],[5.798519,51.755096],[5.799969,51.755351],[5.80142,51.755571],[5.80287,51.755781],[5.80432,51.755965],[5.80577,51.75613],[5.805937,51.756151],[5.80722,51.756305],[5.807431,51.756327],[5.808669,51.756453],[5.810119,51.7566],[5.811569,51.756739],[5.813019,51.756868],[5.814468,51.756989],[5.815917,51.7571],[5.817367,51.757203],[5.818816,51.757306],[5.820265,51.757381],[5.821598,51.757451],[5.821714,51.757457],[5.823163,51.757532],[5.824613,51.757608],[5.826062,51.757674],[5.827511,51.75775],[5.82766,51.757757],[5.82896,51.757825],[5.830409,51.757909],[5.831858,51.757994],[5.833308,51.758087],[5.834757,51.75819],[5.836207,51.758292],[5.837656,51.758403],[5.837656,51.758403],[5.839106,51.758524],[5.839946,51.758593],[5.840555,51.758644],[5.842005,51.758773],[5.842368,51.758808],[5.842416,51.758812],[5.843455,51.758911],[5.844905,51.759058],[5.844947,51.759062],[5.846355,51.759187],[5.847804,51.759272],[5.849253,51.759329],[5.850701,51.759341],[5.85215,51.759317],[5.853597,51.75924],[5.855045,51.759135],[5.856492,51.758995],[5.857938,51.758827],[5.858459,51.758744],[5.859384,51.758596],[5.86083,51.758339],[5.862276,51.75809],[5.863722,51.757842],[5.864185,51.757742],[5.864403,51.757696],[5.864469,51.757682],[5.864513,51.757672],[5.864949,51.75756],[5.865166,51.757503],[5.86533,51.757454],[5.865746,51.757323],[5.866534,51.75708],[5.866996,51.756919],[5.867307,51.756814],[5.868426,51.756405],[5.869188,51.756116],[5.870183,51.755666],[5.87052,51.755485],[5.871283,51.755076],[5.871495,51.754964],[5.871652,51.754877],[5.872083,51.754693],[5.872274,51.754606],[5.872765,51.754356],[5.873074,51.75419],[5.873334,51.75405],[5.874053,51.753659],[5.874589,51.753361],[5.874975,51.753139],[5.875194,51.753011],[5.875394,51.752895],[5.876222,51.752399],[5.876734,51.752093],[5.877008,51.751897],[5.877574,51.751493],[5.878241,51.751019],[5.879561,51.749914],[5.879568,51.749902],[5.87971,51.749668],[5.87983,51.749472],[5.880026,51.749158],[5.880327,51.74855],[5.880332,51.748474],[5.880493,51.746971],[5.88047,51.746113],[5.880451,51.745424],[5.880486,51.74517],[5.880598,51.744357],[5.881609,51.741546],[5.882058,51.740669],[5.883338,51.738164],[5.883566,51.737557],[5.883724,51.736875],[5.883843,51.736168],[5.883867,51.736023],[5.884003,51.735315],[5.884035,51.734685],[5.884065,51.734044],[5.884069,51.733973],[5.884081,51.733919],[5.884256,51.733168],[5.884508,51.732003],[5.884547,51.731707],[5.884553,51.73167],[5.884618,51.731288],[5.884668,51.731085],[5.884696,51.730944],[5.884826,51.730531],[5.885012,51.72993],[5.885159,51.729605],[5.885259,51.729146],[5.885317,51.728744],[5.885355,51.728482],[5.885404,51.728314],[5.886001,51.727212],[5.886028,51.72717],[5.886335,51.726695],[5.886468,51.726505],[5.886548,51.726389],[5.886635,51.726266],[5.886825,51.726089],[5.887271,51.725718],[5.887647,51.725398],[5.887959,51.725192],[5.88897,51.724528],[5.890033,51.723865],[5.890395,51.723663],[5.891626,51.723043],[5.892057,51.722825],[5.892459,51.722648],[5.893737,51.722084],[5.893783,51.722064],[5.89706,51.720887],[5.898238,51.720543],[5.899567,51.72019],[5.900764,51.719939],[5.902501,51.719562],[5.90469,51.719088],[5.906057,51.718764],[5.906765,51.718632],[5.907437,51.718508],[5.908167,51.718407],[5.909075,51.718281],[5.910572,51.718074],[5.912002,51.717877],[5.913466,51.7178],[5.917368,51.717709],[5.918322,51.717692],[5.91947,51.717672],[5.919473,51.717671],[5.920692,51.717602],[5.921103,51.717572],[5.922628,51.717492],[5.92305,51.717469],[5.925499,51.717266],[5.926425,51.717203],[5.927706,51.717098],[5.928461,51.717015],[5.929208,51.716906],[5.930803,51.716636],[5.931638,51.716511],[5.933785,51.71614],[5.934025,51.716099],[5.935719,51.71573],[5.937175,51.715442],[5.937676,51.715351],[5.940192,51.714986],[5.941296,51.714776],[5.942957,51.714447],[5.943139,51.714405],[5.944172,51.714129],[5.945013,51.71389],[5.946061,51.713611],[5.94672,51.713441],[5.946832,51.713412],[5.946891,51.713397],[5.948927,51.712873],[5.949418,51.712703],[5.95,51.712491],[5.950746,51.712203],[5.951211,51.711991],[5.9515,51.711856],[5.95183,51.711701],[5.952163,51.711518],[5.952949,51.711075],[5.953203,51.710917],[5.953698,51.710562],[5.9541,51.710279],[5.954765,51.709767],[5.955291,51.709305],[5.955417,51.709131],[5.955558,51.708876],[5.955697,51.708623],[5.95594,51.708135],[5.955943,51.708131],[5.956179,51.707248],[5.956255,51.706606],[5.956297,51.705709],[5.956289,51.70533],[5.956267,51.704378],[5.956257,51.703934],[5.956235,51.703485],[5.95609,51.701886],[5.956078,51.701526],[5.956079,51.701273],[5.956079,51.701143],[5.956124,51.700777],[5.956205,51.700331],[5.956315,51.699883],[5.956376,51.699633],[5.956568,51.698941],[5.956779,51.698384],[5.956899,51.698112],[5.957065,51.697754],[5.957857,51.696063],[5.958172,51.69538],[5.958224,51.695267],[5.958459,51.694625],[5.958731,51.69385],[5.958874,51.693295],[5.958905,51.693174],[5.958943,51.693062],[5.959067,51.692538],[5.959135,51.692316],[5.959198,51.69215],[5.959297,51.691908],[5.959382,51.691719],[5.959499,51.6915],[5.959559,51.691403],[5.959785,51.690878],[5.960173,51.689977],[5.960944,51.688177],[5.961384,51.687129],[5.961395,51.6871],[5.961681,51.686374],[5.961701,51.686325],[5.962404,51.684576],[5.96303,51.682779],[5.963325,51.681872],[5.963711,51.680688],[5.963737,51.680576],[5.96395,51.679673],[5.964067,51.679174],[5.964393,51.677372],[5.964587,51.675573],[5.964674,51.673773],[5.964658,51.672876],[5.964652,51.672504],[5.964643,51.671978],[5.964498,51.670181],[5.964282,51.668384],[5.964228,51.668051],[5.964224,51.668027],[5.964139,51.667498],[5.964138,51.667493],[5.96405,51.666893],[5.963901,51.665885],[5.963754,51.665064],[5.963581,51.663893],[5.963541,51.663623],[5.963365,51.662333],[5.963276,51.661429],[5.963256,51.660982],[5.963243,51.660139],[5.963273,51.6594],[5.963281,51.659191],[5.963304,51.658961],[5.963371,51.658265],[5.963482,51.657324],[5.963677,51.656281],[5.963838,51.655636],[5.964025,51.654902],[5.964034,51.654864],[5.964256,51.654155],[5.964514,51.653522],[5.964856,51.652732],[5.965105,51.65225],[5.965205,51.652096],[5.965611,51.651466],[5.966244,51.650629],[5.966432,51.650396],[5.966449,51.650374],[5.966621,51.650178],[5.966908,51.649867],[5.96747,51.649285],[5.967932,51.648865],[5.968484,51.648411],[5.968543,51.648362],[5.968801,51.648147],[5.969394,51.647712],[5.969592,51.647575],[5.971666,51.646133],[5.971997,51.645874],[5.972128,51.645772],[5.972386,51.64557],[5.972674,51.645378],[5.973072,51.645121],[5.973788,51.644718],[5.973931,51.644611],[5.974163,51.644496],[5.974752,51.644242],[5.974936,51.644167],[5.975083,51.644128],[5.975527,51.644023],[5.976607,51.643783],[5.979353,51.643173],[5.980605,51.642921],[5.98099,51.642831],[5.98185,51.642613],[5.982122,51.64252],[5.982921,51.642218],[5.983877,51.641863],[5.984664,51.641584],[5.985084,51.641425],[5.98551,51.64125],[5.98579,51.64112],[5.986205,51.640914],[5.986378,51.640841],[5.986735,51.640691],[5.991401,51.638733],[5.996016,51.63687],[5.996188,51.636791],[5.996352,51.636719],[5.996624,51.636567],[5.996826,51.636446],[5.997321,51.636129],[5.999297,51.634863],[6.001563,51.633308],[6.003809,51.632137],[6.004471,51.631777],[6.004859,51.63158],[6.00544,51.631267],[6.006497,51.630672],[6.007228,51.630211],[6.007463,51.630026],[6.007671,51.629848],[6.008327,51.629239],[6.009731,51.628241],[6.010678,51.627602],[6.01085,51.627491],[6.011528,51.627095],[6.0125,51.626579],[6.013612,51.625986],[6.014286,51.625615],[6.015207,51.62507],[6.015637,51.624799],[6.017955,51.623292],[6.01895,51.622637],[6.019802,51.622051],[6.01998,51.621921],[6.020056,51.621859],[6.020207,51.621712],[6.02063,51.621291],[6.020947,51.620923],[6.02202,51.619664],[6.02259,51.618948],[6.022659,51.618851],[6.022715,51.618759],[6.022939,51.618297],[6.023098,51.617969],[6.023414,51.617245],[6.023853,51.616125],[6.023918,51.61578],[6.024066,51.614803],[6.024107,51.614379],[6.024101,51.613443],[6.024118,51.612629],[6.024121,51.61155],[6.02412,51.610616],[6.024086,51.609564],[6.024022,51.608628],[6.023956,51.607382],[6.023933,51.606776],[6.023934,51.605748],[6.023855,51.605012],[6.023789,51.604256],[6.023747,51.603877],[6.023767,51.603245],[6.023784,51.603035],[6.023837,51.602389],[6.024047,51.60076],[6.024426,51.599411],[6.024944,51.598064],[6.025573,51.596791],[6.026281,51.595577],[6.026947,51.594687],[6.027244,51.594298],[6.027711,51.593868],[6.028355,51.59326],[6.028785,51.592855],[6.029847,51.592092],[6.03206,51.590643],[6.032758,51.59014],[6.03339,51.589683],[6.033479,51.589611],[6.034156,51.589059],[6.034641,51.588678],[6.034957,51.588422],[6.035264,51.588165],[6.03542,51.588024],[6.035578,51.587883],[6.035874,51.587596],[6.03646,51.587005],[6.036595,51.586859],[6.036893,51.586535],[6.037145,51.586254],[6.037385,51.58597],[6.037632,51.585673],[6.037749,51.585517],[6.037968,51.585226],[6.038072,51.585074],[6.038186,51.5849],[6.038473,51.584452],[6.038572,51.584286],[6.03866,51.584131],[6.038962,51.583577],[6.039334,51.582847],[6.039537,51.58225],[6.039577,51.582108],[6.039718,51.581616],[6.039785,51.58087],[6.039592,51.579725],[6.03941,51.579129],[6.039314,51.578815],[6.039044,51.578103],[6.038712,51.577216],[6.038638,51.576983],[6.038437,51.576353],[6.0382,51.575631],[6.037961,51.574829],[6.037818,51.574115],[6.037737,51.573385],[6.037657,51.572629],[6.037596,51.571568],[6.037585,51.571564],[6.037568,51.571238],[6.03756,51.570972],[6.037555,51.570715],[6.037555,51.570425],[6.03759,51.570188],[6.037659,51.569959],[6.037766,51.569677],[6.03787,51.569411],[6.038005,51.569125],[6.038136,51.568847],[6.03827,51.568564],[6.038407,51.568269],[6.038585,51.567869],[6.038746,51.567516],[6.039308,51.566548],[6.039732,51.565833],[6.040123,51.565212],[6.040177,51.565135],[6.040712,51.564455],[6.040809,51.564348],[6.041422,51.563681],[6.041453,51.563647],[6.042081,51.563038],[6.042854,51.562264],[6.043501,51.561693],[6.043792,51.56143],[6.044344,51.560983],[6.044852,51.560569],[6.046274,51.559442],[6.046841,51.559134],[6.047564,51.55875],[6.048121,51.558462],[6.047221,51.558066],[6.04708,51.558004],[6.046766,51.557865],[6.046425,51.557641],[6.045589,51.558331],[6.045517,51.5583],[6.044655,51.559029],[6.042862,51.558696],[6.042782,51.558679],[6.042916,51.558542],[6.043478,51.558113],[6.044383,51.557487],[6.044328,51.557448],[6.042395,51.556811],[6.042217,51.556767],[6.040913,51.55663],[6.040137,51.556667],[6.039969,51.556735],[6.039774,51.556859],[6.038795,51.557363],[6.038196,51.557638],[6.037469,51.558035],[6.037308,51.558149],[6.03687,51.558025],[6.035971,51.557689],[6.034812,51.557572],[6.034434,51.557529],[6.034321,51.557497],[6.033958,51.557169],[6.033845,51.557109],[6.032728,51.556867],[6.032598,51.556852],[6.032631,51.556821],[6.033209,51.556067],[6.033301,51.555785],[6.033532,51.555515],[6.033688,51.555447],[6.033529,51.555233],[6.033456,51.55518],[6.033387,51.555103],[6.033335,51.555026],[6.033322,51.554954],[6.033373,51.554877],[6.033514,51.554747],[6.03349,51.554677],[6.033445,51.554612],[6.033278,51.554517],[6.033163,51.554437],[6.033035,51.554324],[6.03227,51.553538],[6.031717,51.552434],[6.031709,51.552419],[6.031669,51.552339],[6.030673,51.553151],[6.029115,51.554428],[6.028665,51.554796],[6.028531,51.554906],[6.027375,51.555852],[6.025336,51.557513],[6.023631,51.558907],[6.023628,51.55891],[6.021722,51.560474],[6.020586,51.561406],[6.020575,51.561405],[6.020231,51.561686],[6.020222,51.561694],[6.018212,51.563335],[6.018011,51.563434],[6.018005,51.563437],[6.017945,51.563467],[6.017939,51.56347],[6.0178,51.563539],[6.017797,51.56354],[6.017789,51.563544],[6.017208,51.563832],[6.016577,51.564144],[6.016552,51.564157],[6.016396,51.564234],[6.0148,51.565025],[6.014736,51.565056],[6.012913,51.565959],[6.012036,51.566393],[6.011861,51.56648],[6.01152,51.566649],[6.009801,51.567499],[6.009613,51.567592],[6.00834,51.568222],[6.008281,51.568251],[6.00825,51.568267],[6.005543,51.569605],[6.00506,51.569844],[6.005057,51.569846],[6.004387,51.570177],[6.004345,51.570198],[6.004284,51.570228],[6.004253,51.570243],[6.003488,51.569976],[6.003183,51.569878],[6.003083,51.569859],[6.002899,51.569812],[6.002814,51.569789],[6.000679,51.569233],[5.999878,51.569024],[5.998981,51.56879],[5.998871,51.568761],[5.998644,51.568675],[5.998416,51.568588],[5.997778,51.568345],[5.996756,51.567956],[5.99668,51.567927],[5.996417,51.567827],[5.996332,51.567794],[5.994675,51.567164],[5.99419,51.566979],[5.994058,51.566929],[5.993903,51.56687],[5.993451,51.566698],[5.993245,51.56664],[5.993242,51.566639],[5.99311,51.566602],[5.99127,51.566085],[5.991212,51.566069],[5.991119,51.566043],[5.990663,51.565915],[5.987365,51.564989],[5.987252,51.564957],[5.986249,51.564675],[5.984693,51.564198],[5.983913,51.563959],[5.983532,51.563842],[5.978645,51.562343],[5.978506,51.562301],[5.977914,51.562119],[5.976346,51.561638],[5.975597,51.561495],[5.975479,51.561472],[5.973387,51.561063],[5.972406,51.560872],[5.970718,51.560543],[5.970492,51.560499],[5.969325,51.560272],[5.963528,51.559144],[5.959785,51.558415],[5.9592,51.558301],[5.958851,51.558233],[5.957319,51.557935],[5.95569,51.557618],[5.952975,51.557089],[5.952399,51.556977],[5.952382,51.556973],[5.952275,51.556952],[5.952184,51.556934],[5.949009,51.556302],[5.947906,51.556082],[5.947899,51.556081],[5.945977,51.555698],[5.945687,51.55564],[5.944589,51.555422],[5.944494,51.555403],[5.941668,51.55484],[5.940499,51.554607],[5.940453,51.554598],[5.938205,51.55415],[5.938049,51.554119],[5.935445,51.5536],[5.934227,51.553534],[5.93255,51.553443],[5.9295,51.553277],[5.929493,51.553276],[5.928042,51.553197],[5.926619,51.55312],[5.925181,51.553041],[5.92307,51.552926],[5.922295,51.552884],[5.921385,51.552834],[5.920541,51.552788],[5.920129,51.552766],[5.919791,51.552748],[5.918245,51.552663],[5.918124,51.552657],[5.917841,51.552641],[5.916162,51.55255],[5.914412,51.552454],[5.91241,51.552345],[5.908969,51.552157],[5.906663,51.552031],[5.904892,51.552983],[5.9002,51.555507],[5.900133,51.555543],[5.900024,51.555602],[5.897029,51.557213],[5.894938,51.558338],[5.894853,51.558383],[5.893096,51.559328],[5.892954,51.559405],[5.891466,51.560205],[5.890778,51.560287],[5.890646,51.560302],[5.890474,51.560323],[5.886476,51.560797],[5.871965,51.562517],[5.870893,51.562644],[5.867394,51.563068],[5.860217,51.563921],[5.855861,51.564428],[5.852997,51.56476],[5.845867,51.565559],[5.838836,51.56635],[5.838778,51.566357],[5.838762,51.566358],[5.838239,51.566415],[5.822577,51.568317],[5.821439,51.568455],[5.820553,51.568559],[5.820216,51.568674],[5.81182,51.572935],[5.811589,51.573062],[5.809539,51.574103],[5.808539,51.57461],[5.806856,51.575463],[5.805714,51.576041],[5.805593,51.576103],[5.804396,51.576704],[5.801412,51.578206],[5.800586,51.578622],[5.798372,51.581464],[5.797028,51.583191],[5.796047,51.58445],[5.795433,51.585238],[5.794095,51.586931],[5.793803,51.587311],[5.792629,51.588782],[5.792115,51.58943],[5.791276,51.590488],[5.790273,51.591763],[5.788342,51.594191],[5.787868,51.595328],[5.787504,51.596214],[5.787054,51.597292],[5.786678,51.598208],[5.785544,51.598031],[5.783421,51.597707],[5.782438,51.597557],[5.781456,51.597409],[5.780632,51.597282],[5.77972,51.597148],[5.779005,51.59704],[5.77835,51.59694],[5.777164,51.596763],[5.773758,51.596248],[5.770722,51.595796],[5.767707,51.595336],[5.758966,51.594009],[5.758615,51.593947],[5.758442,51.59442],[5.758281,51.594878],[5.758138,51.595352],[5.757947,51.596044],[5.757773,51.596666],[5.757746,51.596762],[5.757591,51.597312],[5.757018,51.599344],[5.756465,51.601298],[5.756412,51.601488],[5.756322,51.60181],[5.7557,51.604039],[5.755109,51.606149],[5.755064,51.606308],[5.754438,51.608551],[5.754414,51.60864],[5.754106,51.609735],[5.753954,51.610276],[5.753819,51.610755],[5.753813,51.610776],[5.753811,51.610783],[5.753805,51.610807],[5.753728,51.611079],[5.753591,51.611566],[5.753343,51.612447],[5.753313,51.612557],[5.752804,51.614389],[5.752548,51.615305],[5.752284,51.616249],[5.751769,51.618078],[5.751745,51.61816],[5.751725,51.618233],[5.751285,51.619803],[5.750522,51.622526],[5.750478,51.622683],[5.750034,51.624286],[5.74956,51.625965],[5.749089,51.627642],[5.748624,51.629297],[5.748127,51.631076],[5.747676,51.632668],[5.747668,51.632698],[5.747487,51.633298],[5.747471,51.633353],[5.747202,51.634291],[5.746909,51.635299],[5.746905,51.635313],[5.746874,51.635419],[5.74665,51.636173],[5.746595,51.636366],[5.746399,51.637059],[5.746188,51.637796],[5.746182,51.637814],[5.74613,51.637942],[5.745865,51.638826],[5.745603,51.639709],[5.745008,51.641743],[5.744898,51.642105],[5.74484,51.642294],[5.744599,51.64309],[5.744137,51.644664],[5.74351,51.646793],[5.743504,51.646813],[5.743123,51.648108],[5.742855,51.649028],[5.742546,51.650062],[5.74224,51.651118],[5.742189,51.651291],[5.741454,51.65377],[5.741189,51.654653],[5.740927,51.655537],[5.740854,51.655789],[5.740669,51.656422],[5.740405,51.657305],[5.740142,51.658189],[5.739883,51.659073],[5.73962,51.659959],[5.739523,51.660288],[5.73908,51.661782],[5.739061,51.661844],[5.739008,51.662025],[5.739005,51.662033],[5.738976,51.66213],[5.738964,51.662171],[5.738953,51.662208],[5.738919,51.662324],[5.738915,51.662336],[5.738841,51.662587],[5.73857,51.6635],[5.738432,51.663967],[5.738286,51.664456],[5.738189,51.664786],[5.738162,51.664876],[5.737656,51.666581],[5.737554,51.666924],[5.736854,51.669284],[5.736644,51.669993],[5.73619,51.671521],[5.735519,51.673783],[5.73533,51.674419],[5.735329,51.674422],[5.735276,51.674603],[5.735139,51.675054],[5.734988,51.675549],[5.734982,51.67557],[5.734963,51.675633],[5.734734,51.676388],[5.734359,51.677622],[5.734199,51.677779],[5.733782,51.678187],[5.733766,51.678203],[5.733727,51.678241],[5.733685,51.678282],[5.733653,51.678314],[5.733647,51.67832],[5.73354,51.678425],[5.732121,51.679814],[5.732113,51.679822],[5.730717,51.681189],[5.730652,51.681253],[5.730404,51.681495],[5.730355,51.681543],[5.729196,51.682682],[5.729182,51.682691],[5.729178,51.682695],[5.729082,51.68279],[5.724506,51.687298],[5.723115,51.688668],[5.723029,51.688758],[5.723016,51.688771],[5.722329,51.689337],[5.720695,51.691053],[5.71993,51.691805],[5.719855,51.69188],[5.719844,51.69189],[5.718367,51.693342],[5.718293,51.693416],[5.718264,51.693443],[5.718232,51.693475],[5.717448,51.694249],[5.716936,51.694752],[5.716876,51.694812],[5.716617,51.695066],[5.715767,51.695901],[5.715585,51.69608],[5.715349,51.696312],[5.714999,51.696656],[5.714676,51.696974],[5.714637,51.697012],[5.714322,51.697322],[5.714312,51.697332],[5.713779,51.697857],[5.713699,51.697936],[5.713246,51.698382],[5.712842,51.698779],[5.712773,51.698847],[5.712587,51.69903],[5.712504,51.699112],[5.710768,51.700819],[5.710693,51.700894],[5.710132,51.701446],[5.709983,51.701592],[5.709087,51.702474],[5.708636,51.702918],[5.707806,51.703734],[5.707069,51.704459],[5.706205,51.70531],[5.706188,51.705326],[5.706165,51.705349],[5.706129,51.705384],[5.706039,51.705472],[5.706023,51.705488],[5.705982,51.705528],[5.705481,51.706021],[5.705396,51.706105],[5.70501,51.706485],[5.704593,51.706894],[5.702522,51.708931],[5.702423,51.70903],[5.701963,51.709483],[5.701607,51.709833],[5.700055,51.711359],[5.700054,51.71136],[5.700035,51.711377],[5.69996,51.711452],[5.69997,51.711472],[5.699979,51.711493],[5.701324,51.714328],[5.701904,51.715549],[5.703454,51.718816],[5.703825,51.719599],[5.703853,51.719603],[5.703883,51.719623],[5.704096,51.719661],[5.704199,51.719699],[5.704259,51.719758],[5.704296,51.71983],[5.70448,51.720225],[5.704468,51.7204],[5.704604,51.72073],[5.704711,51.720806],[5.704752,51.720832],[5.704756,51.720872],[5.704668,51.721034],[5.704691,51.721093],[5.704819,51.72116],[5.704866,51.721219],[5.704851,51.721323],[5.704866,51.721445],[5.704923,51.721527],[5.704994,51.7216],[5.705013,51.721674],[5.704975,51.721728],[5.704906,51.721832],[5.70492,51.721879],[5.705063,51.721976],[5.705159,51.722159],[5.705362,51.722286],[5.705409,51.722432],[5.705471,51.722482],[5.705583,51.722515],[5.705597,51.722514],[5.705798,51.72251],[5.706013,51.722604],[5.70608,51.72265],[5.706311,51.722764],[5.706495,51.722895],[5.70669,51.722963],[5.706865,51.723067],[5.706989,51.723116],[5.70738,51.723233],[5.707533,51.7233],[5.707566,51.723314],[5.707649,51.723374],[5.707693,51.723494],[5.707711,51.723658],[5.707783,51.723802],[5.707846,51.723876],[5.707972,51.723966],[5.70827,51.72416],[5.708313,51.724235],[5.708402,51.724324],[5.708573,51.724469],[5.708618,51.724622],[5.708815,51.724738],[5.708916,51.724877],[5.70903,51.724983],[5.709265,51.725262],[5.709294,51.72531],[5.709322,51.725358],[5.70933,51.725376],[5.709362,51.725507],[5.709465,51.725627],[5.709522,51.72569],[5.709588,51.725763],[5.709721,51.725873],[5.709812,51.725942],[5.709879,51.725989],[5.709952,51.726023],[5.710037,51.726056],[5.710088,51.726057],[5.710188,51.726054],[5.710311,51.726061],[5.710447,51.726089],[5.710673,51.726128],[5.710957,51.726158],[5.711118,51.72617],[5.711282,51.72618],[5.711506,51.726197],[5.711702,51.726211],[5.711837,51.72621],[5.712002,51.726226],[5.71212,51.726241],[5.712208,51.726269],[5.712284,51.726276],[5.712413,51.726288],[5.712544,51.726282],[5.712696,51.7263],[5.712826,51.726309],[5.712941,51.726354],[5.713112,51.726409],[5.713139,51.726415],[5.713125,51.726451],[5.71317,51.726461],[5.713222,51.726472],[5.713239,51.726556],[5.713225,51.726601],[5.713211,51.726637],[5.713168,51.726691],[5.712559,51.727135],[5.712531,51.72717],[5.711877,51.727659],[5.711766,51.727723],[5.711593,51.727783],[5.710678,51.728099],[5.710411,51.728194],[5.709818,51.728406],[5.709553,51.728504],[5.709472,51.728539],[5.709417,51.728572],[5.710642,51.729169],[5.711364,51.729523],[5.714539,51.730097],[5.714992,51.730179],[5.715047,51.730189],[5.718063,51.731104],[5.718198,51.730911],[5.718394,51.730974],[5.718668,51.732257],[5.718812,51.732926],[5.718627,51.732903],[5.717312,51.732739],[5.714717,51.732415],[5.713572,51.732272],[5.712663,51.732158],[5.71238,51.732123],[5.710147,51.731843],[5.709863,51.731808],[5.709769,51.731817],[5.709621,51.731833],[5.7096,51.731902],[5.709582,51.731963],[5.709579,51.732014],[5.709578,51.732066],[5.709593,51.732116],[5.709604,51.732144],[5.709621,51.732183],[5.709639,51.732211],[5.709648,51.732225],[5.709088,51.732121],[5.708712,51.732039],[5.708351,51.731997],[5.708152,51.731984],[5.707954,51.731977],[5.70747,51.731995],[5.706724,51.732062],[5.706152,51.732117],[5.706096,51.732123],[5.706125,51.732194],[5.706165,51.732292],[5.707862,51.73646],[5.707879,51.736504],[5.707911,51.736582],[5.707793,51.736602],[5.707785,51.736603],[5.707716,51.736615],[5.70669,51.736785],[5.705699,51.736949],[5.70557,51.73697],[5.704927,51.737077],[5.70248,51.737431],[5.701651,51.737605],[5.700588,51.737851],[5.700054,51.737973],[5.699081,51.738195],[5.69912,51.738276],[5.698859,51.738339],[5.69842,51.738437],[5.69814,51.738501],[5.698116,51.738507],[5.698156,51.738586],[5.698173,51.738618],[5.698257,51.738794],[5.698361,51.738977],[5.698406,51.739075],[5.698628,51.739562],[5.698661,51.739554],[5.698918,51.740054],[5.698936,51.74009],[5.699119,51.740446],[5.699304,51.740808],[5.699449,51.741089],[5.699512,51.741074],[5.69963,51.741298],[5.699666,51.741368],[5.699902,51.741906],[5.701059,51.742133],[5.701114,51.742427],[5.701125,51.74249],[5.701336,51.743702],[5.701378,51.743946],[5.701419,51.74418],[5.701447,51.744343],[5.701379,51.744466],[5.701382,51.744475],[5.701681,51.745319],[5.701695,51.745357],[5.70185,51.745786],[5.70194,51.746036],[5.702704,51.748153],[5.702577,51.748167],[5.703415,51.750276],[5.703488,51.75046],[5.703493,51.750473],[5.699911,51.750469],[5.700341,51.751558],[5.700446,51.751825],[5.700654,51.752333],[5.700924,51.752995],[5.701035,51.753269],[5.701297,51.753882],[5.701424,51.754208],[5.701606,51.754682],[5.701641,51.754775],[5.701757,51.755091],[5.701869,51.755398],[5.701895,51.755459],[5.701924,51.755529],[5.70184,51.755497],[5.701677,51.755452],[5.701517,51.755416],[5.701088,51.755362],[5.700962,51.755343],[5.700842,51.755325],[5.70063,51.755289],[5.700327,51.755253],[5.700031,51.75523],[5.699663,51.755224],[5.699373,51.755231],[5.699056,51.75526],[5.698856,51.755296],[5.698688,51.755319],[5.698424,51.755348],[5.698136,51.755371],[5.697919,51.755382],[5.697665,51.755383],[5.696833,51.755384],[5.696397,51.755387],[5.695816,51.755384],[5.695511,51.755383],[5.695236,51.755389],[5.69502,51.755399],[5.694948,51.755406],[5.694733,51.755434],[5.694662,51.755446],[5.694445,51.755479],[5.694374,51.755486],[5.694241,51.755488],[5.694181,51.755547],[5.694038,51.755689],[5.692267,51.757438],[5.692231,51.757473],[5.692223,51.757481],[5.692223,51.757482],[5.691366,51.758366],[5.691152,51.758587],[5.691074,51.758667],[5.691051,51.758716],[5.691021,51.758783],[5.690981,51.758867],[5.690978,51.758873],[5.690887,51.75907],[5.690858,51.759131]]]},"properties":{"type":"boundary","gemeente":"Land van Cuijk"}}]}