{"type":"FeatureCollection","metadata":{"gemeente":"Lelystad","slug":"lelystad","generated_at":"2026-10-05T08:57:03.663400Z","total_points":121,"providers":["Amazon","DeBuren","DHL","DPD","PostNL","VintedGo","GLS","ViaTim","FedEx","InPost","Budbee"],"bounds":[5.4187084397359575,52.4811309,5.5278358,52.5416537]},"features":[{"type":"Feature","geometry":{"type":"Point","coordinates":[5.484185921917188,52.49062010814802]},"properties":{"type":"pakketpunt","locatieNaam":"DHL - Pakketautomaat Praxis Palazzo","straatNaam":"Zuiderpoort 35","straatNr":"","vervoerder":"Amazon","puntType":"3p","bezettingsgraad":50,"latitude":52.49062010814802,"longitude":5.484185921917188,"canPickup":true,"canDropoff":false,"openingstijden":null}},{"type":"Feature","geometry":{"type":"Point","coordinates":[5.481632216324907,52.49226514964351]},"properties":{"type":"pakketpunt","locatieNaam":"DHL - Pakketautomaat GAMMA Lelystad","straatNaam":"Zuiderpoort 3","straatNr":"","vervoerder":"Amazon","puntType":"3p","bezettingsgraad":50,"latitude":52.49226514964351,"longitude":5.481632216324907,"canPickup":true,"canDropoff":false,"openingstijden":null}},{"type":"Feature","geometry":{"type":"Point","coordinates":[5.48903647207897,52.485233548036]},"properties":{"type":"pakketpunt","locatieNaam":"D Magnetic Academy","straatNaam":"Apolloweg 2 C","straatNr":"","vervoerder":"Amazon","puntType":"3p","bezettingsgraad":50,"latitude":52.485233548036,"longitude":5.48903647207897,"canPickup":true,"canDropoff":false,"openingstijden":null}},{"type":"Feature","geometry":{"type":"Point","coordinates":[5.471931457519531,52.501441955566406]},"properties":{"type":"pakketpunt","locatieNaam":"DHL - Pakketautomaat Lidl Tjalk","straatNaam":"Tjalk 15 9","straatNr":"","vervoerder":"Amazon","puntType":"3p","bezettingsgraad":50,"latitude":52.501441955566406,"longitude":5.471931457519531,"canPickup":true,"canDropoff":false,"openingstijden":null}},{"type":"Feature","geometry":{"type":"Point","coordinates":[5.43315127103585,52.4973923665031]},"properties":{"type":"pakketpunt","locatieNaam":"M for M Tuning","straatNaam":"Werfweg 1 11","straatNr":"","vervoerder":"Amazon","puntType":"3p","bezettingsgraad":50,"latitude":52.4973923665031,"longitude":5.43315127103585,"canPickup":true,"canDropoff":false,"openingstijden":null}},{"type":"Feature","geometry":{"type":"Point","coordinates":[5.460408940851405,52.51777131510631]},"properties":{"type":"pakketpunt","locatieNaam":"DHL - Pakketautomaat AH Lelystad","straatNaam":"Kempenaar 03 41","straatNr":"","vervoerder":"Amazon","puntType":"3p","bezettingsgraad":50,"latitude":52.51777131510631,"longitude":5.460408940851405,"canPickup":true,"canDropoff":false,"openingstijden":null}},{"type":"Feature","geometry":{"type":"Point","coordinates":[5.4616832,52.5037845]},"properties":{"type":"pakketpunt","locatieNaam":"DHL - DeBuren Locker 24-7 PLUS Postma","straatNaam":"Botter 44 31","straatNr":"","vervoerder":"Amazon","puntType":"3p","bezettingsgraad":50,"latitude":52.5037845,"longitude":5.4616832,"canPickup":true,"canDropoff":false,"openingstijden":null}},{"type":"Feature","geometry":{"type":"Point","coordinates":[5.47276347,52.51074233]},"properties":{"type":"pakketpunt","locatieNaam":"DHL - Pakketautomaat Tango Lelystad","straatNaam":"Stationsweg 51","straatNr":"","vervoerder":"Amazon","puntType":"3p","bezettingsgraad":50,"latitude":52.51074233,"longitude":5.47276347,"canPickup":true,"canDropoff":false,"openingstijden":null}},{"type":"Feature","geometry":{"type":"Point","coordinates":[5.47632094891448,52.5090422531589]},"properties":{"type":"pakketpunt","locatieNaam":"Doctor Smartphone","straatNaam":"De Wissel 15","straatNr":"","vervoerder":"Amazon","puntType":"3p","bezettingsgraad":50,"latitude":52.5090422531589,"longitude":5.47632094891448,"canPickup":true,"canDropoff":false,"openingstijden":null}},{"type":"Feature","geometry":{"type":"Point","coordinates":[5.476246303,52.50854801]},"properties":{"type":"pakketpunt","locatieNaam":"Used Products Lelystad","straatNaam":"Neringpassage 70","straatNr":"","vervoerder":"Amazon","puntType":"3p","bezettingsgraad":50,"latitude":52.50854801,"longitude":5.476246303,"canPickup":true,"canDropoff":false,"openingstijden":null}},{"type":"Feature","geometry":{"type":"Point","coordinates":[5.496398445257815,52.52282822284565]},"properties":{"type":"pakketpunt","locatieNaam":"DHL - Pakketautomaat Praxis Lelystad","straatNaam":"Schroefstraat 8","straatNr":"","vervoerder":"Amazon","puntType":"3p","bezettingsgraad":50,"latitude":52.52282822284565,"longitude":5.496398445257815,"canPickup":true,"canDropoff":false,"openingstijden":null}},{"type":"Feature","geometry":{"type":"Point","coordinates":[5.496534,52.5210336]},"properties":{"type":"pakketpunt","locatieNaam":"DHL - Pakketautomaat Basic-Fit Badweg","straatNaam":"Badweg 10","straatNr":"","vervoerder":"Amazon","puntType":"3p","bezettingsgraad":50,"latitude":52.5210336,"longitude":5.496534,"canPickup":true,"canDropoff":false,"openingstijden":null}},{"type":"Feature","geometry":{"type":"Point","coordinates":[5.46185262,52.50278577]},"properties":{"type":"pakketpunt","locatieNaam":"Lelystad | Botter | Plus Postma | Pakketautomaat","straatNaam":"Botter","straatNr":"4431","vervoerder":"DeBuren","puntType":"Buitenkluis","bezettingsgraad":50,"latitude":52.50278577,"longitude":5.46185262,"canPickup":true,"canDropoff":true,"openingstijden":null}},{"type":"Feature","geometry":{"type":"Point","coordinates":[5.48853804,52.49081562]},"properties":{"type":"pakketpunt","locatieNaam":"Lelystad | Ketelmeerstraat | Simply Outlet | Pakketautomaat","straatNaam":"Ketelmeerstraat","straatNr":"146","vervoerder":"DeBuren","puntType":"Afhaalpunt","bezettingsgraad":50,"latitude":52.49081562,"longitude":5.48853804,"canPickup":true,"canDropoff":true,"openingstijden":null}},{"type":"Feature","geometry":{"type":"Point","coordinates":[5.4686705,52.4923557]},"properties":{"type":"pakketpunt","locatieNaam":"Lelystad | Larserdreef | PI | Pakketautomaat","straatNaam":"Larserdreef ","straatNr":"300","vervoerder":"DeBuren","puntType":"Buitenkluis","bezettingsgraad":50,"latitude":52.4923557,"longitude":5.4686705,"canPickup":true,"canDropoff":true,"openingstijden":null}},{"type":"Feature","geometry":{"type":"Point","coordinates":[5.47276347,52.51074233]},"properties":{"type":"pakketpunt","locatieNaam":"Lelystad | Stationsweg | Tango | Pakketautomaat","straatNaam":"Stationsweg","straatNr":"51","vervoerder":"DeBuren","puntType":"Buitenkluis","bezettingsgraad":50,"latitude":52.51074233,"longitude":5.47276347,"canPickup":true,"canDropoff":true,"openingstijden":null}},{"type":"Feature","geometry":{"type":"Point","coordinates":[5.4814872,52.4813302]},"properties":{"type":"pakketpunt","locatieNaam":"V&O Group","straatNaam":"Apolloweg","straatNr":"138","vervoerder":"DHL","puntType":"parcelShop","bezettingsgraad":50,"latitude":52.4813302,"longitude":5.4814872,"canPickup":true,"canDropoff":true,"openingstijden":{"ma":"09:00 - 18:00","di":"09:00 - 18:00","wo":"09:00 - 18:00","do":"09:00 - 18:00","vr":"09:00 - 18:00","za":"10:00 - 17:00","zo":"gesloten"}}},{"type":"Feature","geometry":{"type":"Point","coordinates":[5.4616832,52.5037845]},"properties":{"type":"pakketpunt","locatieNaam":"DeBuren Locker 24-7 PLUS Postma","straatNaam":"Botter 44","straatNr":"31","vervoerder":"DHL","puntType":"packStation","bezettingsgraad":50,"latitude":52.5037845,"longitude":5.4616832,"canPickup":true,"canDropoff":true,"openingstijden":{"ma":"08:00 - 23:59","di":"08:00 - 23:59","wo":"08:00 - 23:59","do":"08:00 - 23:59","vr":"08:00 - 23:59","za":"08:00 - 23:59","zo":"10:00 - 23:59"}}},{"type":"Feature","geometry":{"type":"Point","coordinates":[5.4455611,52.507207]},"properties":{"type":"pakketpunt","locatieNaam":"Sneltank Romeo Delta","straatNaam":"Jol 11","straatNr":"01","vervoerder":"DHL","puntType":"parcelShop","bezettingsgraad":50,"latitude":52.507207,"longitude":5.4455611,"canPickup":true,"canDropoff":true,"openingstijden":{"ma":"07:00 - 21:00","di":"07:00 - 21:00","wo":"07:00 - 21:00","do":"07:00 - 21:00","vr":"07:00 - 21:00","za":"08:00 - 21:00","zo":"09:00 - 21:00"}}},{"type":"Feature","geometry":{"type":"Point","coordinates":[5.481632216324907,52.49226514964351]},"properties":{"type":"pakketpunt","locatieNaam":"Pakketautomaat GAMMA Lelystad","straatNaam":"Zuiderpoort","straatNr":"3","vervoerder":"DHL","puntType":"packStation","bezettingsgraad":50,"latitude":52.49226514964351,"longitude":5.481632216324907,"canPickup":true,"canDropoff":true,"openingstijden":{"ma":"00:00 - 23:59","di":"00:00 - 23:59","wo":"00:00 - 23:59","do":"00:00 - 23:59","vr":"00:00 - 23:59","za":"00:00 - 23:59","zo":"00:00 - 23:59"}}},{"type":"Feature","geometry":{"type":"Point","coordinates":[5.484185921917188,52.49062010814802]},"properties":{"type":"pakketpunt","locatieNaam":"Pakketautomaat Praxis Palazzo","straatNaam":"Zuiderpoort","straatNr":"35","vervoerder":"DHL","puntType":"packStation","bezettingsgraad":50,"latitude":52.49062010814802,"longitude":5.484185921917188,"canPickup":true,"canDropoff":true,"openingstijden":{"ma":"00:00 - 23:59","di":"00:00 - 23:59","wo":"00:00 - 23:59","do":"00:00 - 23:59","vr":"00:00 - 23:59","za":"00:00 - 23:59","zo":"00:00 - 23:59"}}},{"type":"Feature","geometry":{"type":"Point","coordinates":[5.471931457519531,52.501441955566406]},"properties":{"type":"pakketpunt","locatieNaam":"Pakketautomaat Lidl Tjalk","straatNaam":"Tjalk 15","straatNr":"9","vervoerder":"DHL","puntType":"packStation","bezettingsgraad":50,"latitude":52.501441955566406,"longitude":5.471931457519531,"canPickup":true,"canDropoff":true,"openingstijden":{"ma":"00:00 - 23:59","di":"00:00 - 23:59","wo":"00:00 - 23:59","do":"00:00 - 23:59","vr":"00:00 - 23:59","za":"00:00 - 23:59","zo":"00:00 - 23:59"}}},{"type":"Feature","geometry":{"type":"Point","coordinates":[5.4903776,52.4811309]},"properties":{"type":"pakketpunt","locatieNaam":"Wantohave","straatNaam":"Artemisweg","straatNr":"145-G","vervoerder":"DHL","puntType":"parcelShop","bezettingsgraad":50,"latitude":52.4811309,"longitude":5.4903776,"canPickup":true,"canDropoff":true,"openingstijden":{"ma":"10:00 - 18:00","di":"10:00 - 18:00","wo":"10:00 - 18:00","do":"10:00 - 18:00","vr":"10:00 - 18:00","za":"gesloten","zo":"gesloten"}}},{"type":"Feature","geometry":{"type":"Point","coordinates":[5.487914,52.491088]},"properties":{"type":"pakketpunt","locatieNaam":"Gym Inn","straatNaam":"Ketelmeerstraat","straatNr":"138","vervoerder":"DHL","puntType":"parcelShop","bezettingsgraad":50,"latitude":52.491088,"longitude":5.487914,"canPickup":true,"canDropoff":true,"openingstijden":{"ma":"09:00 - 19:00","di":"09:00 - 19:00","wo":"09:00 - 19:00","do":"09:00 - 19:00","vr":"09:00 - 19:00","za":"09:00 - 12:30","zo":"gesloten"}}},{"type":"Feature","geometry":{"type":"Point","coordinates":[5.4889634,52.4907308]},"properties":{"type":"pakketpunt","locatieNaam":"Pakketautomaat Simply Outlet","straatNaam":"Ketelmeerstraat 146-148","straatNr":"146","vervoerder":"DHL","puntType":"packStation","bezettingsgraad":50,"latitude":52.4907308,"longitude":5.4889634,"canPickup":true,"canDropoff":true,"openingstijden":{"ma":"09:00 - 18:00","di":"09:00 - 18:00","wo":"09:00 - 18:00","do":"09:00 - 18:00","vr":"09:00 - 18:00","za":"09:00 - 17:00","zo":"gesloten"}}},{"type":"Feature","geometry":{"type":"Point","coordinates":[5.466848,52.510809]},"properties":{"type":"pakketpunt","locatieNaam":"DHL Buurtpunt ViaTim & Henry","straatNaam":"Schouw 16","straatNr":"3","vervoerder":"DHL","puntType":"parcelShop","bezettingsgraad":50,"latitude":52.510809,"longitude":5.466848,"canPickup":true,"canDropoff":true,"openingstijden":{"ma":"15:30 - 21:00","di":"15:30 - 21:00","wo":"15:30 - 21:00","do":"15:30 - 21:00","vr":"15:30 - 21:00","za":"gesloten","zo":"gesloten"}}},{"type":"Feature","geometry":{"type":"Point","coordinates":[5.4749598,52.5077134]},"properties":{"type":"pakketpunt","locatieNaam":"Enecas reparatie","straatNaam":"Kroonpassage","straatNr":"26","vervoerder":"DHL","puntType":"parcelShop","bezettingsgraad":50,"latitude":52.5077134,"longitude":5.4749598,"canPickup":true,"canDropoff":true,"openingstijden":{"ma":"12:00 - 18:00","di":"10:00 - 18:00","wo":"10:00 - 18:00","do":"10:00 - 18:00","vr":"10:00 - 18:00","za":"10:00 - 17:00","zo":"gesloten"}}},{"type":"Feature","geometry":{"type":"Point","coordinates":[5.474850913498101,52.50840459806646]},"properties":{"type":"pakketpunt","locatieNaam":"Pakketautomaat HEMA Lelystad","straatNaam":"Promesse","straatNr":"18-Kast","vervoerder":"DHL","puntType":"packStation","bezettingsgraad":50,"latitude":52.50840459806646,"longitude":5.474850913498101,"canPickup":true,"canDropoff":true,"openingstijden":{"ma":"09:00 - 18:00","di":"09:00 - 18:00","wo":"09:00 - 18:00","do":"09:00 - 21:00","vr":"09:00 - 18:00","za":"09:00 - 18:00","zo":"12:00 - 17:00"}}},{"type":"Feature","geometry":{"type":"Point","coordinates":[5.4749001,52.5090732]},"properties":{"type":"pakketpunt","locatieNaam":"Shoeby Lelystad","straatNaam":"Promesse","straatNr":"42","vervoerder":"DHL","puntType":"parcelShop","bezettingsgraad":50,"latitude":52.5090732,"longitude":5.4749001,"canPickup":true,"canDropoff":true,"openingstijden":{"ma":"13:00 - 18:00","di":"09:30 - 18:00","wo":"09:30 - 18:00","do":"09:30 - 18:00","vr":"09:30 - 18:00","za":"09:30 - 17:00","zo":"gesloten"}}},{"type":"Feature","geometry":{"type":"Point","coordinates":[5.4764842,52.5087166]},"properties":{"type":"pakketpunt","locatieNaam":"Pakketautomaat terStal Lelystad","straatNaam":"Neringpassage","straatNr":"60-Kast","vervoerder":"DHL","puntType":"packStation","bezettingsgraad":50,"latitude":52.5087166,"longitude":5.4764842,"canPickup":true,"canDropoff":true,"openingstijden":{"ma":"13:00 - 17:30","di":"09:30 - 17:30","wo":"09:30 - 17:30","do":"09:30 - 17:30","vr":"09:30 - 17:30","za":"09:30 - 17:00","zo":"gesloten"}}},{"type":"Feature","geometry":{"type":"Point","coordinates":[5.4756163,52.5094222]},"properties":{"type":"pakketpunt","locatieNaam":"Intertoys Lelystad","straatNaam":"De Wissel","straatNr":"39","vervoerder":"DHL","puntType":"parcelShop","bezettingsgraad":50,"latitude":52.5094222,"longitude":5.4756163,"canPickup":true,"canDropoff":true,"openingstijden":{"ma":"12:00 - 18:00","di":"09:30 - 18:00","wo":"09:30 - 18:00","do":"09:30 - 20:00","vr":"09:30 - 18:00","za":"09:00 - 17:00","zo":"gesloten"}}},{"type":"Feature","geometry":{"type":"Point","coordinates":[5.47276347,52.51074233]},"properties":{"type":"pakketpunt","locatieNaam":"Pakketautomaat Tango Lelystad","straatNaam":"Stationsweg","straatNr":"51","vervoerder":"DHL","puntType":"packStation","bezettingsgraad":50,"latitude":52.51074233,"longitude":5.47276347,"canPickup":true,"canDropoff":true,"openingstijden":{"ma":"00:00 - 23:59","di":"00:00 - 23:59","wo":"00:00 - 23:59","do":"00:00 - 23:59","vr":"00:00 - 23:59","za":"00:00 - 23:59","zo":"00:00 - 23:59"}}},{"type":"Feature","geometry":{"type":"Point","coordinates":[5.460408940851405,52.51777131510631]},"properties":{"type":"pakketpunt","locatieNaam":"Pakketautomaat AH Lelystad","straatNaam":"Kempenaar 03","straatNr":"41","vervoerder":"DHL","puntType":"packStation","bezettingsgraad":50,"latitude":52.51777131510631,"longitude":5.460408940851405,"canPickup":true,"canDropoff":true,"openingstijden":{"ma":"00:00 - 23:59","di":"00:00 - 23:59","wo":"00:00 - 23:59","do":"00:00 - 23:59","vr":"00:00 - 23:59","za":"00:00 - 23:59","zo":"00:00 - 23:59"}}},{"type":"Feature","geometry":{"type":"Point","coordinates":[5.483955383300781,52.51935958862305]},"properties":{"type":"pakketpunt","locatieNaam":"Bespanracket.nl","straatNaam":"Snijdersstraat","straatNr":"6","vervoerder":"DHL","puntType":"parcelShop","bezettingsgraad":50,"latitude":52.51935958862305,"longitude":5.483955383300781,"canPickup":true,"canDropoff":true,"openingstijden":{"ma":"gesloten","di":"10:00 - 17:30","wo":"10:00 - 17:30","do":"10:00 - 17:30","vr":"10:00 - 17:30","za":"10:00 - 16:00","zo":"gesloten"}}},{"type":"Feature","geometry":{"type":"Point","coordinates":[5.496534,52.5210336]},"properties":{"type":"pakketpunt","locatieNaam":"Pakketautomaat Basic-Fit Badweg","straatNaam":"Badweg","straatNr":"10","vervoerder":"DHL","puntType":"packStation","bezettingsgraad":50,"latitude":52.5210336,"longitude":5.496534,"canPickup":true,"canDropoff":true,"openingstijden":{"ma":"00:00 - 23:59","di":"00:00 - 23:59","wo":"00:00 - 23:59","do":"00:00 - 23:59","vr":"00:00 - 23:59","za":"00:00 - 23:59","zo":"00:00 - 23:59"}}},{"type":"Feature","geometry":{"type":"Point","coordinates":[5.496398445257815,52.52282822284565]},"properties":{"type":"pakketpunt","locatieNaam":"Pakketautomaat Praxis Lelystad","straatNaam":"Schroefstraat","straatNr":"8","vervoerder":"DHL","puntType":"packStation","bezettingsgraad":50,"latitude":52.52282822284565,"longitude":5.496398445257815,"canPickup":true,"canDropoff":true,"openingstijden":{"ma":"00:00 - 23:59","di":"00:00 - 23:59","wo":"00:00 - 23:59","do":"00:00 - 23:59","vr":"00:00 - 23:59","za":"00:00 - 23:59","zo":"00:00 - 23:59"}}},{"type":"Feature","geometry":{"type":"Point","coordinates":[5.5278354,52.5141315]},"properties":{"type":"pakketpunt","locatieNaam":"DHL Buurtpunt ViaTim & Brenda","straatNaam":"Haverlij","straatNr":"8","vervoerder":"DHL","puntType":"parcelShop","bezettingsgraad":50,"latitude":52.5141315,"longitude":5.5278354,"canPickup":true,"canDropoff":true,"openingstijden":{"ma":"15:30 - 20:00","di":"15:30 - 20:00","wo":"15:30 - 20:00","do":"15:30 - 20:00","vr":"15:30 - 20:00","za":"gesloten","zo":"gesloten"}}},{"type":"Feature","geometry":{"type":"Point","coordinates":[5.5226144,52.5416537]},"properties":{"type":"pakketpunt","locatieNaam":"DHL Pakketpunt Lelystad","straatNaam":"Staalstraat","straatNr":"2","vervoerder":"DHL","puntType":"parcelShop","bezettingsgraad":50,"latitude":52.5416537,"longitude":5.5226144,"canPickup":true,"canDropoff":true,"openingstijden":{"ma":"09:00 - 11:30, 14:00 - 20:30","di":"09:00 - 11:30, 14:00 - 20:30","wo":"09:00 - 11:30, 14:00 - 20:30","do":"09:00 - 11:30, 14:00 - 20:30","vr":"09:00 - 11:30, 14:00 - 20:30","za":"09:00 - 11:30, 14:00 - 20:30","zo":"gesloten"}}},{"type":"Feature","geometry":{"type":"Point","coordinates":[5.5278354,52.5141315]},"properties":{"type":"pakketpunt","locatieNaam":"ViaTim & Brenda","straatNaam":"HAVERLIJ","straatNr":"8","vervoerder":"DPD","puntType":"pickup_point","bezettingsgraad":50,"latitude":52.5141315,"longitude":5.5278354,"canPickup":true,"canDropoff":true,"openingstijden":{"ma":"16:00 - 20:00","di":"16:00 - 20:00","wo":"16:00 - 20:00","do":"16:00 - 20:00","vr":"16:00 - 20:00","za":"gesloten","zo":"gesloten"}}},{"type":"Feature","geometry":{"type":"Point","coordinates":[5.483431,52.5192371]},"properties":{"type":"pakketpunt","locatieNaam":"Bespanracket.nl","straatNaam":"SNIJDERSSTRAAT","straatNr":"6","vervoerder":"DPD","puntType":"pickup_point","bezettingsgraad":50,"latitude":52.5192371,"longitude":5.483431,"canPickup":true,"canDropoff":true,"openingstijden":{"ma":"gesloten","di":"10:00 - 17:30","wo":"10:00 - 17:30","do":"10:00 - 17:30","vr":"10:00 - 17:30","za":"10:00 - 16:00","zo":"gesloten"}}},{"type":"Feature","geometry":{"type":"Point","coordinates":[5.447083,52.507031]},"properties":{"type":"pakketpunt","locatieNaam":"Sneltank Romeo Delta","straatNaam":"JOL","straatNr":"11-01","vervoerder":"DPD","puntType":"pickup_point","bezettingsgraad":50,"latitude":52.507031,"longitude":5.447083,"canPickup":true,"canDropoff":true,"openingstijden":{"ma":"07:00 - 21:00","di":"07:00 - 21:00","wo":"07:00 - 21:00","do":"07:00 - 21:00","vr":"07:00 - 21:00","za":"08:00 - 21:00","zo":"09:00 - 21:00"}}},{"type":"Feature","geometry":{"type":"Point","coordinates":[5.4903776,52.4811309]},"properties":{"type":"pakketpunt","locatieNaam":"Business Point - Wantohave","straatNaam":"ARTEMISWEG","straatNr":"145 G","vervoerder":"DPD","puntType":"pickup_point","bezettingsgraad":50,"latitude":52.4811309,"longitude":5.4903776,"canPickup":true,"canDropoff":true,"openingstijden":{"ma":"10:00 - 18:00","di":"10:00 - 18:00","wo":"10:00 - 18:00","do":"10:00 - 18:00","vr":"10:00 - 18:00","za":"gesloten","zo":"gesloten"}}},{"type":"Feature","geometry":{"type":"Point","coordinates":[5.487914,52.491088]},"properties":{"type":"pakketpunt","locatieNaam":"Star City","straatNaam":"KETELMEERSTRAAT","straatNr":"138","vervoerder":"DPD","puntType":"pickup_point","bezettingsgraad":50,"latitude":52.491088,"longitude":5.487914,"canPickup":true,"canDropoff":true,"openingstijden":{"ma":"09:00 - 19:00","di":"09:00 - 19:00","wo":"09:00 - 19:00","do":"09:00 - 19:00","vr":"09:00 - 19:00","za":"09:00 - 12:30","zo":"gesloten"}}},{"type":"Feature","geometry":{"type":"Point","coordinates":[5.5205532,52.5414728]},"properties":{"type":"pakketpunt","locatieNaam":"Business Point - A.S. Koeriers","straatNaam":"KOPERSTRAAT","straatNr":"13","vervoerder":"DPD","puntType":"pickup_point","bezettingsgraad":50,"latitude":52.5414728,"longitude":5.5205532,"canPickup":true,"canDropoff":true,"openingstijden":{"ma":"08:00 - 17:00","di":"08:00 - 17:00","wo":"08:00 - 17:00","do":"08:00 - 17:00","vr":"08:00 - 17:00","za":"gesloten","zo":"gesloten"}}},{"type":"Feature","geometry":{"type":"Point","coordinates":[5.5211574,52.5390314]},"properties":{"type":"pakketpunt","locatieNaam":"Pakketautomaat Supertank Lelystad O","straatNaam":"BINNENHAVENWEG","straatNr":"40","vervoerder":"DPD","puntType":"dpd_box","bezettingsgraad":50,"latitude":52.5390314,"longitude":5.5211574,"canPickup":true,"canDropoff":true,"openingstijden":{"ma":"00:01 - 23:59","di":"00:01 - 23:59","wo":"00:01 - 23:59","do":"00:01 - 23:59","vr":"00:01 - 23:59","za":"00:01 - 23:59","zo":"00:01 - 23:59"}}},{"type":"Feature","geometry":{"type":"Point","coordinates":[5.4489902,52.4996084]},"properties":{"type":"pakketpunt","locatieNaam":"Pakketautomaat Supertank Lelystad N","straatNaam":"ZUIVERINGWEG","straatNr":"7","vervoerder":"DPD","puntType":"dpd_box","bezettingsgraad":50,"latitude":52.4996084,"longitude":5.4489902,"canPickup":true,"canDropoff":true,"openingstijden":{"ma":"00:01 - 23:59","di":"00:01 - 23:59","wo":"00:01 - 23:59","do":"00:01 - 23:59","vr":"00:01 - 23:59","za":"00:01 - 23:59","zo":"00:01 - 23:59"}}},{"type":"Feature","geometry":{"type":"Point","coordinates":[5.41875132095087,52.4997967058326]},"properties":{"type":"pakketpunt","locatieNaam":"Pakket- en briefautomaat","straatNaam":"Ringdijk","straatNr":"66PBA","vervoerder":"PostNL","puntType":"automaat","bezettingsgraad":50,"latitude":52.4997967058326,"longitude":5.41875132095087,"canPickup":true,"canDropoff":true,"openingstijden":"00:00 - 23:59"}},{"type":"Feature","geometry":{"type":"Point","coordinates":[5.44779164527081,52.5103454780902]},"properties":{"type":"pakketpunt","locatieNaam":"Primera Jol","straatNaam":"Jol 35","straatNr":"19","vervoerder":"PostNL","puntType":"servicepunt","bezettingsgraad":50,"latitude":52.5103454780902,"longitude":5.44779164527081,"canPickup":true,"canDropoff":true,"openingstijden":"09:00 - 18:00 (Na 18:00 open; Zaterdag open)"}},{"type":"Feature","geometry":{"type":"Point","coordinates":[5.44855707690413,52.5099676169804]},"properties":{"type":"pakketpunt","locatieNaam":"Pakket- en briefautomaat","straatNaam":"Jol 34","straatNr":"21PBA","vervoerder":"PostNL","puntType":"automaat","bezettingsgraad":50,"latitude":52.5099676169804,"longitude":5.44855707690413,"canPickup":true,"canDropoff":true,"openingstijden":"00:00 - 23:59"}},{"type":"Feature","geometry":{"type":"Point","coordinates":[5.448057074,52.4998931]},"properties":{"type":"pakketpunt","locatieNaam":"Pakket- en briefautomaat","straatNaam":"Zuiveringweg","straatNr":"15PBA","vervoerder":"PostNL","puntType":"automaat","bezettingsgraad":50,"latitude":52.4998931,"longitude":5.448057074,"canPickup":true,"canDropoff":true,"openingstijden":"00:00 - 23:59"}},{"type":"Feature","geometry":{"type":"Point","coordinates":[5.462391624,52.50322814]},"properties":{"type":"pakketpunt","locatieNaam":"Primera","straatNaam":"Botter 44","straatNr":"23","vervoerder":"PostNL","puntType":"servicepunt","bezettingsgraad":50,"latitude":52.50322814,"longitude":5.462391624,"canPickup":true,"canDropoff":true,"openingstijden":"09:00 - 17:30"}},{"type":"Feature","geometry":{"type":"Point","coordinates":[5.46233239211082,52.5030394452422]},"properties":{"type":"pakketpunt","locatieNaam":"Pakket- en briefautomaat","straatNaam":"Botter 44","straatNr":"27PBA","vervoerder":"PostNL","puntType":"automaat","bezettingsgraad":50,"latitude":52.5030394452422,"longitude":5.46233239211082,"canPickup":true,"canDropoff":true,"openingstijden":"00:00 - 23:59"}},{"type":"Feature","geometry":{"type":"Point","coordinates":[5.473517468,52.51407722]},"properties":{"type":"pakketpunt","locatieNaam":"Best Deals Online B.V.","straatNaam":"De Schans 18","straatNr":"2","vervoerder":"PostNL","puntType":"servicepunt","bezettingsgraad":50,"latitude":52.51407722,"longitude":5.473517468,"canPickup":true,"canDropoff":true,"openingstijden":"09:00 - 18:00 (Na 18:00 open; Zaterdag open)"}},{"type":"Feature","geometry":{"type":"Point","coordinates":[5.47437839552131,52.5099244551352]},"properties":{"type":"pakketpunt","locatieNaam":"Pakketautomaat","straatNaam":"Waagpassage","straatNr":"76PBA","vervoerder":"PostNL","puntType":"automaat","bezettingsgraad":50,"latitude":52.5099244551352,"longitude":5.47437839552131,"canPickup":true,"canDropoff":true,"openingstijden":"08:00 - 20:00"}},{"type":"Feature","geometry":{"type":"Point","coordinates":[5.47715528227387,52.5136880572815]},"properties":{"type":"pakketpunt","locatieNaam":"Pakketautomaat","straatNaam":"De Meent","straatNr":"14PBA","vervoerder":"PostNL","puntType":"automaat","bezettingsgraad":50,"latitude":52.5136880572815,"longitude":5.47715528227387,"canPickup":true,"canDropoff":true,"openingstijden":"09:00 - 18:00"}},{"type":"Feature","geometry":{"type":"Point","coordinates":[5.47632094891448,52.5090422531589]},"properties":{"type":"pakketpunt","locatieNaam":"Doctor Smartphone","straatNaam":"De Wissel","straatNr":"15","vervoerder":"PostNL","puntType":"servicepunt","bezettingsgraad":50,"latitude":52.5090422531589,"longitude":5.47632094891448,"canPickup":true,"canDropoff":true,"openingstijden":"12:00 - 17:00"}},{"type":"Feature","geometry":{"type":"Point","coordinates":[5.476246303,52.50854801]},"properties":{"type":"pakketpunt","locatieNaam":"Used Products Lelystad","straatNaam":"Neringpassage","straatNr":"70","vervoerder":"PostNL","puntType":"servicepunt","bezettingsgraad":50,"latitude":52.50854801,"longitude":5.476246303,"canPickup":true,"canDropoff":true,"openingstijden":"09:30 - 17:30 (Zaterdag open)"}},{"type":"Feature","geometry":{"type":"Point","coordinates":[5.47767562097307,52.5088255305332]},"properties":{"type":"pakketpunt","locatieNaam":"Pakket- en briefautomaat","straatNaam":"Neringpassage","straatNr":"127PBA","vervoerder":"PostNL","puntType":"automaat","bezettingsgraad":50,"latitude":52.5088255305332,"longitude":5.47767562097307,"canPickup":true,"canDropoff":true,"openingstijden":"00:00 - 23:59"}},{"type":"Feature","geometry":{"type":"Point","coordinates":[5.4837098795441,52.5200818488905]},"properties":{"type":"pakketpunt","locatieNaam":"Pakket- en briefautomaat","straatNaam":"Grutterswal","straatNr":"2PBA","vervoerder":"PostNL","puntType":"automaat","bezettingsgraad":50,"latitude":52.5200818488905,"longitude":5.4837098795441,"canPickup":true,"canDropoff":true,"openingstijden":"00:00 - 23:59"}},{"type":"Feature","geometry":{"type":"Point","coordinates":[5.48401799334049,52.5194974238997]},"properties":{"type":"pakketpunt","locatieNaam":"Primera Lelycentre-","straatNaam":"Snijdersstraat","straatNr":"8","vervoerder":"PostNL","puntType":"servicepunt","bezettingsgraad":50,"latitude":52.5194974238997,"longitude":5.48401799334049,"canPickup":true,"canDropoff":true,"openingstijden":"09:00 - 17:30 (Zaterdag open)"}},{"type":"Feature","geometry":{"type":"Point","coordinates":[5.48844161507915,52.5018696219388]},"properties":{"type":"pakketpunt","locatieNaam":"Pakket- en Briefautomaat","straatNaam":"Kamp 40","straatNr":"23PBA","vervoerder":"PostNL","puntType":"automaat","bezettingsgraad":50,"latitude":52.5018696219388,"longitude":5.48844161507915,"canPickup":true,"canDropoff":true,"openingstijden":"00:00 - 23:59"}},{"type":"Feature","geometry":{"type":"Point","coordinates":[5.48148374,52.49186348]},"properties":{"type":"pakketpunt","locatieNaam":"GAMMA Lelystad","straatNaam":"Zuiderpoort","straatNr":"3","vervoerder":"PostNL","puntType":"servicepunt","bezettingsgraad":50,"latitude":52.49186348,"longitude":5.48148374,"canPickup":true,"canDropoff":true,"openingstijden":"09:00 - 21:00"}},{"type":"Feature","geometry":{"type":"Point","coordinates":[5.48148374,52.49186348]},"properties":{"type":"pakketpunt","locatieNaam":"Pakket- en briefautomaat","straatNaam":"Zuiderpoort","straatNr":"3PBA","vervoerder":"PostNL","puntType":"automaat","bezettingsgraad":50,"latitude":52.49186348,"longitude":5.48148374,"canPickup":true,"canDropoff":true,"openingstijden":"00:00 - 23:59"}},{"type":"Feature","geometry":{"type":"Point","coordinates":[5.482216676,52.49035302]},"properties":{"type":"pakketpunt","locatieNaam":"Intratuin Lelystad","straatNaam":"Zuiderpoort","straatNr":"20","vervoerder":"PostNL","puntType":"servicepunt","bezettingsgraad":50,"latitude":52.49035302,"longitude":5.482216676,"canPickup":true,"canDropoff":true,"openingstijden":"11:00 - 18:00"}},{"type":"Feature","geometry":{"type":"Point","coordinates":[5.49094208897159,52.4942731641977]},"properties":{"type":"pakketpunt","locatieNaam":"Pakket- en briefautomaat","straatNaam":"Voorstraat","straatNr":"305PBA","vervoerder":"PostNL","puntType":"automaat","bezettingsgraad":50,"latitude":52.4942731641977,"longitude":5.49094208897159,"canPickup":true,"canDropoff":true,"openingstijden":"00:00 - 23:59"}},{"type":"Feature","geometry":{"type":"Point","coordinates":[5.50328887328594,52.5139349473336]},"properties":{"type":"pakketpunt","locatieNaam":"Pakket- en briefautomaat","straatNaam":"Voorhof","straatNr":"12PBA","vervoerder":"PostNL","puntType":"automaat","bezettingsgraad":50,"latitude":52.5139349473336,"longitude":5.50328887328594,"canPickup":true,"canDropoff":true,"openingstijden":"00:00 - 23:59"}},{"type":"Feature","geometry":{"type":"Point","coordinates":[5.48903647207897,52.485233548036]},"properties":{"type":"pakketpunt","locatieNaam":"D Magnetic Academy","straatNaam":"Apolloweg","straatNr":"2C","vervoerder":"PostNL","puntType":"servicepunt","bezettingsgraad":50,"latitude":52.485233548036,"longitude":5.48903647207897,"canPickup":true,"canDropoff":true,"openingstijden":"09:00 - 21:00"}},{"type":"Feature","geometry":{"type":"Point","coordinates":[5.47496,52.50771]},"properties":{"type":"pakketpunt","locatieNaam":"Enecasreparatie ","straatNaam":"Kroonpassage 26","straatNr":"","vervoerder":"VintedGo","puntType":"parcel_shop","bezettingsgraad":50,"latitude":52.50771,"longitude":5.47496,"canPickup":true,"canDropoff":true,"openingstijden":null}},{"type":"Feature","geometry":{"type":"Point","coordinates":[5.46248,52.50287]},"properties":{"type":"pakketpunt","locatieNaam":"Toko Lelydorp","straatNaam":"Botter 44 19","straatNr":"","vervoerder":"VintedGo","puntType":"parcel_shop","bezettingsgraad":50,"latitude":52.50287,"longitude":5.46248,"canPickup":true,"canDropoff":true,"openingstijden":null}},{"type":"Feature","geometry":{"type":"Point","coordinates":[5.48781,52.49099]},"properties":{"type":"pakketpunt","locatieNaam":"Star City","straatNaam":"Ketelmeerstraat 138","straatNr":"","vervoerder":"VintedGo","puntType":"parcel_shop","bezettingsgraad":50,"latitude":52.49099,"longitude":5.48781,"canPickup":true,"canDropoff":true,"openingstijden":null}},{"type":"Feature","geometry":{"type":"Point","coordinates":[5.44556,52.50721]},"properties":{"type":"pakketpunt","locatieNaam":"Sneltank Romeo Delta","straatNaam":"Jol 11 01","straatNr":"","vervoerder":"VintedGo","puntType":"parcel_shop","bezettingsgraad":50,"latitude":52.50721,"longitude":5.44556,"canPickup":true,"canDropoff":true,"openingstijden":null}},{"type":"Feature","geometry":{"type":"Point","coordinates":[5.483899,52.5201379]},"properties":{"type":"pakketpunt","locatieNaam":"SoapClub Grutterswal","straatNaam":"Grutterswal 6","straatNr":"","vervoerder":"VintedGo","puntType":"locker","bezettingsgraad":50,"latitude":52.5201379,"longitude":5.483899,"canPickup":true,"canDropoff":true,"openingstijden":null}},{"type":"Feature","geometry":{"type":"Point","coordinates":[5.4331169,52.499382]},"properties":{"type":"pakketpunt","locatieNaam":"Clean Look Wasserette Lelystad","straatNaam":"Zeilweg 13","straatNr":"","vervoerder":"VintedGo","puntType":"locker","bezettingsgraad":50,"latitude":52.499382,"longitude":5.4331169,"canPickup":true,"canDropoff":true,"openingstijden":null}},{"type":"Feature","geometry":{"type":"Point","coordinates":[5.4365582,52.5019431]},"properties":{"type":"pakketpunt","locatieNaam":"Myri’s Trimsalon","straatNaam":"Verlaatweg 74A","straatNr":"","vervoerder":"VintedGo","puntType":"parcel_shop","bezettingsgraad":50,"latitude":52.5019431,"longitude":5.4365582,"canPickup":true,"canDropoff":true,"openingstijden":null}},{"type":"Feature","geometry":{"type":"Point","coordinates":[5.4885166,52.4906916]},"properties":{"type":"pakketpunt","locatieNaam":"Simply Outlet","straatNaam":"Ketelmeerstraat 146","straatNr":"","vervoerder":"VintedGo","puntType":"locker","bezettingsgraad":50,"latitude":52.4906916,"longitude":5.4885166,"canPickup":true,"canDropoff":true,"openingstijden":null}},{"type":"Feature","geometry":{"type":"Point","coordinates":[5.4849739,52.5199944]},"properties":{"type":"pakketpunt","locatieNaam":"Evan's Kringloopwinkel","straatNaam":"Koopmansstraat 111","straatNr":"","vervoerder":"VintedGo","puntType":"parcel_shop","bezettingsgraad":50,"latitude":52.5199944,"longitude":5.4849739,"canPickup":true,"canDropoff":true,"openingstijden":null}},{"type":"Feature","geometry":{"type":"Point","coordinates":[5.46233239,52.5030394]},"properties":{"type":"pakketpunt","locatieNaam":"Pakketautomaat","straatNaam":"Botter 44","straatNr":"27","vervoerder":"GLS","puntType":"locker","bezettingsgraad":50,"latitude":52.5030394,"longitude":5.46233239,"canPickup":true,"canDropoff":true,"openingstijden":{"ma":"00:00 - 23:59","di":"00:00 - 23:59","wo":"00:00 - 23:59","do":"00:00 - 23:59","vr":"00:00 - 23:59","za":"00:00 - 23:59","zo":"00:00 - 23:59"}}},{"type":"Feature","geometry":{"type":"Point","coordinates":[5.47437839,52.5099244]},"properties":{"type":"pakketpunt","locatieNaam":"Pakketautomaat","straatNaam":"Waagpassage","straatNr":"76","vervoerder":"GLS","puntType":"locker","bezettingsgraad":50,"latitude":52.5099244,"longitude":5.47437839,"canPickup":true,"canDropoff":true,"openingstijden":{"ma":"08:00 - 20:00","di":"08:00 - 20:00","wo":"08:00 - 20:00","do":"08:00 - 21:00","vr":"08:00 - 21:00","za":"08:00 - 20:00","zo":"10:00 - 18:00"}}},{"type":"Feature","geometry":{"type":"Point","coordinates":[5.47767562,52.5088255]},"properties":{"type":"pakketpunt","locatieNaam":"Pakketautomaat","straatNaam":"Neringpassage","straatNr":"127","vervoerder":"GLS","puntType":"locker","bezettingsgraad":50,"latitude":52.5088255,"longitude":5.47767562,"canPickup":true,"canDropoff":true,"openingstijden":{"ma":"00:00 - 23:59","di":"00:00 - 23:59","wo":"00:00 - 23:59","do":"00:00 - 23:59","vr":"00:00 - 23:59","za":"00:00 - 23:59","zo":"00:00 - 23:59"}}},{"type":"Feature","geometry":{"type":"Point","coordinates":[5.47715528,52.513688]},"properties":{"type":"pakketpunt","locatieNaam":"Pakketautomaat","straatNaam":"De Meent","straatNr":"14","vervoerder":"GLS","puntType":"locker","bezettingsgraad":50,"latitude":52.513688,"longitude":5.47715528,"canPickup":true,"canDropoff":true,"openingstijden":{"ma":"09:00 - 18:00","di":"09:00 - 18:00","wo":"09:00 - 18:00","do":"09:00 - 18:00","vr":"09:00 - 18:00","za":"09:00 - 17:00","zo":"12:00 - 17:00"}}},{"type":"Feature","geometry":{"type":"Point","coordinates":[5.44855707,52.5099676]},"properties":{"type":"pakketpunt","locatieNaam":"Pakketautomaat","straatNaam":"Jol 34","straatNr":"21","vervoerder":"GLS","puntType":"locker","bezettingsgraad":50,"latitude":52.5099676,"longitude":5.44855707,"canPickup":true,"canDropoff":true,"openingstijden":{"ma":"00:00 - 23:59","di":"00:00 - 23:59","wo":"00:00 - 23:59","do":"00:00 - 23:59","vr":"00:00 - 23:59","za":"00:00 - 23:59","zo":"00:00 - 23:59"}}},{"type":"Feature","geometry":{"type":"Point","coordinates":[5.4457461,52.5072887]},"properties":{"type":"pakketpunt","locatieNaam":"Sneltank Romeo Delta","straatNaam":"Jol","straatNr":"11 1","vervoerder":"GLS","puntType":"parcel_shop","bezettingsgraad":50,"latitude":52.5072887,"longitude":5.4457461,"canPickup":true,"canDropoff":true,"openingstijden":{"ma":"07:00 - 21:00","di":"07:00 - 21:00","wo":"07:00 - 21:00","do":"07:00 - 21:00","vr":"07:00 - 21:00","za":"08:00 - 21:00","zo":"09:00 - 21:00"}}},{"type":"Feature","geometry":{"type":"Point","coordinates":[5.44805707,52.4998931]},"properties":{"type":"pakketpunt","locatieNaam":"Pakketautomaat","straatNaam":"Zuiveringweg","straatNr":"15","vervoerder":"GLS","puntType":"locker","bezettingsgraad":50,"latitude":52.4998931,"longitude":5.44805707,"canPickup":true,"canDropoff":true,"openingstijden":{"ma":"00:00 - 23:59","di":"00:00 - 23:59","wo":"00:00 - 23:59","do":"00:00 - 23:59","vr":"00:00 - 23:59","za":"00:00 - 23:59","zo":"00:00 - 23:59"}}},{"type":"Feature","geometry":{"type":"Point","coordinates":[5.48844161,52.5018696]},"properties":{"type":"pakketpunt","locatieNaam":"Pakketautomaat","straatNaam":"Kamp 40","straatNr":"23","vervoerder":"GLS","puntType":"locker","bezettingsgraad":50,"latitude":52.5018696,"longitude":5.48844161,"canPickup":true,"canDropoff":true,"openingstijden":{"ma":"00:00 - 23:59","di":"00:00 - 23:59","wo":"00:00 - 23:59","do":"00:00 - 23:59","vr":"00:00 - 23:59","za":"00:00 - 23:59","zo":"00:00 - 23:59"}}},{"type":"Feature","geometry":{"type":"Point","coordinates":[5.48370987,52.5200818]},"properties":{"type":"pakketpunt","locatieNaam":"Pakketautomaat","straatNaam":"Grutterswal","straatNr":"2","vervoerder":"GLS","puntType":"locker","bezettingsgraad":50,"latitude":52.5200818,"longitude":5.48370987,"canPickup":true,"canDropoff":true,"openingstijden":{"ma":"00:00 - 23:59","di":"00:00 - 23:59","wo":"00:00 - 23:59","do":"00:00 - 23:59","vr":"00:00 - 23:59","za":"00:00 - 23:59","zo":"00:00 - 23:59"}}},{"type":"Feature","geometry":{"type":"Point","coordinates":[5.48148374,52.4918634]},"properties":{"type":"pakketpunt","locatieNaam":"Pakketautomaat","straatNaam":"Zuiderpoort","straatNr":"3","vervoerder":"GLS","puntType":"locker","bezettingsgraad":50,"latitude":52.4918634,"longitude":5.48148374,"canPickup":true,"canDropoff":true,"openingstijden":{"ma":"00:00 - 23:59","di":"00:00 - 23:59","wo":"00:00 - 23:59","do":"00:00 - 23:59","vr":"00:00 - 23:59","za":"00:00 - 23:59","zo":"00:00 - 23:59"}}},{"type":"Feature","geometry":{"type":"Point","coordinates":[5.4849737,52.5199944]},"properties":{"type":"pakketpunt","locatieNaam":"Evan's kringloopwinkel","straatNaam":"Koopmansstraat","straatNr":"111","vervoerder":"GLS","puntType":"parcel_shop","bezettingsgraad":50,"latitude":52.5199944,"longitude":5.4849737,"canPickup":true,"canDropoff":true,"openingstijden":{"ma":"00:00 - 00:00","di":"10:00 - 17:00","wo":"10:00 - 17:00","do":"10:00 - 17:00","vr":"10:00 - 17:00","za":"10:00 - 17:00","zo":"00:00 - 00:00"}}},{"type":"Feature","geometry":{"type":"Point","coordinates":[5.49094208,52.4942731]},"properties":{"type":"pakketpunt","locatieNaam":"Pakketautomaat","straatNaam":"Voorstraat","straatNr":"305","vervoerder":"GLS","puntType":"locker","bezettingsgraad":50,"latitude":52.4942731,"longitude":5.49094208,"canPickup":true,"canDropoff":true,"openingstijden":{"ma":"00:00 - 23:59","di":"00:00 - 23:59","wo":"00:00 - 23:59","do":"00:00 - 23:59","vr":"00:00 - 23:59","za":"00:00 - 23:59","zo":"00:00 - 23:59"}}},{"type":"Feature","geometry":{"type":"Point","coordinates":[5.50328887,52.5139349]},"properties":{"type":"pakketpunt","locatieNaam":"Pakketautomaat","straatNaam":"Voorhof","straatNr":"12","vervoerder":"GLS","puntType":"locker","bezettingsgraad":50,"latitude":52.5139349,"longitude":5.50328887,"canPickup":true,"canDropoff":true,"openingstijden":{"ma":"00:00 - 23:59","di":"00:00 - 23:59","wo":"00:00 - 23:59","do":"00:00 - 23:59","vr":"00:00 - 23:59","za":"00:00 - 23:59","zo":"00:00 - 23:59"}}},{"type":"Feature","geometry":{"type":"Point","coordinates":[5.41875132,52.4997967]},"properties":{"type":"pakketpunt","locatieNaam":"Pakketautomaat","straatNaam":"Ringdijk","straatNr":"66","vervoerder":"GLS","puntType":"locker","bezettingsgraad":50,"latitude":52.4997967,"longitude":5.41875132,"canPickup":true,"canDropoff":true,"openingstijden":{"ma":"00:00 - 23:59","di":"00:00 - 23:59","wo":"00:00 - 23:59","do":"00:00 - 23:59","vr":"00:00 - 23:59","za":"00:00 - 23:59","zo":"00:00 - 23:59"}}},{"type":"Feature","geometry":{"type":"Point","coordinates":[5.5278358,52.514132]},"properties":{"type":"pakketpunt","locatieNaam":"ViaTim en Brenda","straatNaam":"Haverlij","straatNr":"8","vervoerder":"GLS","puntType":"parcel_shop","bezettingsgraad":50,"latitude":52.514132,"longitude":5.5278358,"canPickup":true,"canDropoff":true,"openingstijden":{"ma":"15:30 - 20:00","di":"15:30 - 20:00","wo":"15:30 - 20:00","do":"15:30 - 20:00","vr":"15:30 - 20:00","za":"00:00 - 00:00","zo":"00:00 - 00:00"}}},{"type":"Feature","geometry":{"type":"Point","coordinates":[5.45484789,52.48831789]},"properties":{"type":"pakketpunt","locatieNaam":"ViaTim en Romee","straatNaam":"Pinksterbloemlaan","straatNr":"84","vervoerder":"ViaTim","puntType":"servicepunt","bezettingsgraad":50,"latitude":52.48831789,"longitude":5.45484789,"canPickup":true,"canDropoff":true,"openingstijden":{"ma":"gesloten","di":"gesloten","wo":"17:00 - 20:00","do":"gesloten","vr":"17:00 - 20:00","za":"gesloten","zo":"gesloten"}}},{"type":"Feature","geometry":{"type":"Point","coordinates":[5.47535238,52.52410645]},"properties":{"type":"pakketpunt","locatieNaam":"ViaTim en Luchtscouts Lelystad","straatNaam":"Kofschip","straatNr":"4","vervoerder":"ViaTim","puntType":"servicepunt","bezettingsgraad":50,"latitude":52.52410645,"longitude":5.47535238,"canPickup":true,"canDropoff":true,"openingstijden":{"ma":"gesloten","di":"gesloten","wo":"10:00 - 14:00","do":"gesloten","vr":"gesloten","za":"10:00 - 15:00","zo":"gesloten"}}},{"type":"Feature","geometry":{"type":"Point","coordinates":[5.48211045,52.52537548]},"properties":{"type":"pakketpunt","locatieNaam":"ViaTim en Wendyscrap","straatNaam":"Eem","straatNr":"47","vervoerder":"ViaTim","puntType":"servicepunt","bezettingsgraad":50,"latitude":52.52537548,"longitude":5.48211045,"canPickup":true,"canDropoff":true,"openingstijden":{"ma":"12:00 - 17:00","di":"gesloten","wo":"12:00 - 17:00","do":"12:00 - 17:00","vr":"gesloten","za":"gesloten","zo":"gesloten"}}},{"type":"Feature","geometry":{"type":"Point","coordinates":[5.42161465,52.49777348]},"properties":{"type":"pakketpunt","locatieNaam":"ViaTim en Michael","straatNaam":"Ringdijk","straatNr":"275","vervoerder":"ViaTim","puntType":"servicepunt","bezettingsgraad":50,"latitude":52.49777348,"longitude":5.42161465,"canPickup":true,"canDropoff":true,"openingstijden":{"ma":"10:00 - 15:00","di":"10:00 - 15:00","wo":"10:00 - 15:00","do":"10:00 - 15:00","vr":"10:00 - 15:00","za":"10:00 - 15:00","zo":"10:00 - 15:00"}}},{"type":"Feature","geometry":{"type":"Point","coordinates":[5.4212941,52.4997885]},"properties":{"type":"pakketpunt","locatieNaam":"ViaTim en Nandani","straatNaam":"Binnendijk","straatNr":"88","vervoerder":"ViaTim","puntType":"servicepunt","bezettingsgraad":50,"latitude":52.4997885,"longitude":5.4212941,"canPickup":true,"canDropoff":true,"openingstijden":{"ma":"08:30 - 18:00","di":"08:30 - 16:00","wo":"08:30 - 18:00","do":"08:30 - 18:00","vr":"08:30 - 18:00","za":"gesloten","zo":"09:00 - 13:00"}}},{"type":"Feature","geometry":{"type":"Point","coordinates":[5.49580808,52.50180333]},"properties":{"type":"pakketpunt","locatieNaam":"ViaTim en Jessica","straatNaam":"Horst 20","straatNr":"26","vervoerder":"ViaTim","puntType":"servicepunt","bezettingsgraad":50,"latitude":52.50180333,"longitude":5.49580808,"canPickup":true,"canDropoff":true,"openingstijden":{"ma":"09:30 - 13:00","di":"09:30 - 13:00","wo":"09:30 - 13:00","do":"09:30 - 13:00","vr":"09:30 - 13:00","za":"gesloten","zo":"gesloten"}}},{"type":"Feature","geometry":{"type":"Point","coordinates":[5.48992263,52.50304955]},"properties":{"type":"pakketpunt","locatieNaam":"ViaTim en Ashmar","straatNaam":"Wold 23","straatNr":"69","vervoerder":"ViaTim","puntType":"servicepunt","bezettingsgraad":50,"latitude":52.50304955,"longitude":5.48992263,"canPickup":true,"canDropoff":true,"openingstijden":{"ma":"gesloten","di":"12:00 - 15:00","wo":"gesloten","do":"12:00 - 15:00","vr":"gesloten","za":"gesloten","zo":"gesloten"}}},{"type":"Feature","geometry":{"type":"Point","coordinates":[5.52783542154413,52.5141315543503]},"properties":{"type":"pakketpunt","locatieNaam":"ViaTim en Brenda","straatNaam":"Haverlij","straatNr":"8","vervoerder":"ViaTim","puntType":"servicepunt","bezettingsgraad":50,"latitude":52.5141315543503,"longitude":5.52783542154413,"canPickup":true,"canDropoff":true,"openingstijden":{"ma":"15:30 - 20:00","di":"15:30 - 20:00","wo":"15:30 - 20:00","do":"15:30 - 20:00","vr":"15:30 - 20:00","za":"gesloten","zo":"gesloten"}}},{"type":"Feature","geometry":{"type":"Point","coordinates":[5.46649677368956,52.5108422067544]},"properties":{"type":"pakketpunt","locatieNaam":"ViaTim & Henry","straatNaam":"Schouw 16","straatNr":"3","vervoerder":"ViaTim","puntType":"servicepunt","bezettingsgraad":50,"latitude":52.5108422067544,"longitude":5.46649677368956,"canPickup":true,"canDropoff":true,"openingstijden":{"ma":"15:30 - 21:00","di":"15:30 - 21:00","wo":"15:30 - 21:00","do":"15:30 - 21:00","vr":"15:30 - 21:00","za":"gesloten","zo":"gesloten"}}},{"type":"Feature","geometry":{"type":"Point","coordinates":[5.4187084397359575,52.49987666178238]},"properties":{"type":"pakketpunt","locatieNaam":"FedEx Ship&Get","straatNaam":"Ringdijk 66 PBA","straatNr":"","vervoerder":"FedEx","puntType":"servicepunt","bezettingsgraad":50,"latitude":52.49987666178238,"longitude":5.4187084397359575,"canPickup":true,"canDropoff":true,"openingstijden":{"ma":"00:00 - 23:59","di":"00:00 - 23:59","wo":"00:00 - 23:59","do":"00:00 - 23:59","vr":"00:00 - 23:59","za":"00:00 - 23:59","zo":"00:00 - 23:59"}}},{"type":"Feature","geometry":{"type":"Point","coordinates":[5.4480639700564915,52.49988453187608]},"properties":{"type":"pakketpunt","locatieNaam":"FedEx Ship&Get","straatNaam":"Zuiveringweg 15 PBA","straatNr":"","vervoerder":"FedEx","puntType":"servicepunt","bezettingsgraad":50,"latitude":52.49988453187608,"longitude":5.4480639700564915,"canPickup":true,"canDropoff":true,"openingstijden":{"ma":"00:00 - 23:59","di":"00:00 - 23:59","wo":"00:00 - 23:59","do":"00:00 - 23:59","vr":"00:00 - 23:59","za":"00:00 - 23:59","zo":"00:00 - 23:59"}}},{"type":"Feature","geometry":{"type":"Point","coordinates":[5.481514739269464,52.49185566748907]},"properties":{"type":"pakketpunt","locatieNaam":"FedEx Ship&Get","straatNaam":"Zuiderpoort 3 PBA","straatNr":"","vervoerder":"FedEx","puntType":"servicepunt","bezettingsgraad":50,"latitude":52.49185566748907,"longitude":5.481514739269464,"canPickup":true,"canDropoff":true,"openingstijden":{"ma":"00:00 - 23:59","di":"00:00 - 23:59","wo":"00:00 - 23:59","do":"00:00 - 23:59","vr":"00:00 - 23:59","za":"00:00 - 23:59","zo":"00:00 - 23:59"}}},{"type":"Feature","geometry":{"type":"Point","coordinates":[5.462318072450989,52.503007283394346]},"properties":{"type":"pakketpunt","locatieNaam":"FedEx Ship&Get","straatNaam":"Botter 44 27 PBA","straatNr":"","vervoerder":"FedEx","puntType":"servicepunt","bezettingsgraad":50,"latitude":52.503007283394346,"longitude":5.462318072450989,"canPickup":true,"canDropoff":true,"openingstijden":{"ma":"00:00 - 23:59","di":"00:00 - 23:59","wo":"00:00 - 23:59","do":"00:00 - 23:59","vr":"00:00 - 23:59","za":"00:00 - 23:59","zo":"00:00 - 23:59"}}},{"type":"Feature","geometry":{"type":"Point","coordinates":[5.448541586242253,52.50995056904087]},"properties":{"type":"pakketpunt","locatieNaam":"FedEx Ship&Get","straatNaam":"Jol 34 21 PBA","straatNr":"","vervoerder":"FedEx","puntType":"servicepunt","bezettingsgraad":50,"latitude":52.50995056904087,"longitude":5.448541586242253,"canPickup":true,"canDropoff":true,"openingstijden":{"ma":"00:00 - 23:59","di":"00:00 - 23:59","wo":"00:00 - 23:59","do":"00:00 - 23:59","vr":"00:00 - 23:59","za":"00:00 - 23:59","zo":"00:00 - 23:59"}}},{"type":"Feature","geometry":{"type":"Point","coordinates":[5.490854351320844,52.49422275482058]},"properties":{"type":"pakketpunt","locatieNaam":"FedEx Ship&Get","straatNaam":"Voorstraat 305 PBA","straatNr":"","vervoerder":"FedEx","puntType":"servicepunt","bezettingsgraad":50,"latitude":52.49422275482058,"longitude":5.490854351320844,"canPickup":true,"canDropoff":true,"openingstijden":{"ma":"00:00 - 23:59","di":"00:00 - 23:59","wo":"00:00 - 23:59","do":"00:00 - 23:59","vr":"00:00 - 23:59","za":"00:00 - 23:59","zo":"00:00 - 23:59"}}},{"type":"Feature","geometry":{"type":"Point","coordinates":[5.488398388946614,52.501868726500824]},"properties":{"type":"pakketpunt","locatieNaam":"FedEx Ship&Get","straatNaam":"Kamp 40 23 PBA","straatNr":"","vervoerder":"FedEx","puntType":"servicepunt","bezettingsgraad":50,"latitude":52.501868726500824,"longitude":5.488398388946614,"canPickup":true,"canDropoff":true,"openingstijden":{"ma":"00:00 - 23:59","di":"00:00 - 23:59","wo":"00:00 - 23:59","do":"00:00 - 23:59","vr":"00:00 - 23:59","za":"00:00 - 23:59","zo":"00:00 - 23:59"}}},{"type":"Feature","geometry":{"type":"Point","coordinates":[5.474918,52.507687]},"properties":{"type":"pakketpunt","locatieNaam":"FedEx OnSite","straatNaam":"KROONPASSAGE 26","straatNr":"","vervoerder":"FedEx","puntType":"servicepunt","bezettingsgraad":50,"latitude":52.507687,"longitude":5.474918,"canPickup":true,"canDropoff":true,"openingstijden":{"ma":"12:00 - 17:00","di":"10:00 - 18:00","wo":"10:00 - 18:00","do":"10:00 - 18:00","vr":"10:00 - 18:00","za":"10:00 - 17:00","zo":"gesloten"}}},{"type":"Feature","geometry":{"type":"Point","coordinates":[5.477563971121155,52.5087691649919]},"properties":{"type":"pakketpunt","locatieNaam":"FedEx Ship&Get","straatNaam":"Neringpassage 127 PBA","straatNr":"","vervoerder":"FedEx","puntType":"servicepunt","bezettingsgraad":50,"latitude":52.5087691649919,"longitude":5.477563971121155,"canPickup":true,"canDropoff":true,"openingstijden":{"ma":"00:00 - 23:59","di":"00:00 - 23:59","wo":"00:00 - 23:59","do":"00:00 - 23:59","vr":"00:00 - 23:59","za":"00:00 - 23:59","zo":"00:00 - 23:59"}}},{"type":"Feature","geometry":{"type":"Point","coordinates":[5.474401911844375,52.50996890746679]},"properties":{"type":"pakketpunt","locatieNaam":"FedEx Ship&Get","straatNaam":"Waagpassage 76 PBA","straatNr":"","vervoerder":"FedEx","puntType":"servicepunt","bezettingsgraad":50,"latitude":52.50996890746679,"longitude":5.474401911844375,"canPickup":true,"canDropoff":true,"openingstijden":{"ma":"08:00 - 20:00","di":"08:00 - 20:00","wo":"08:00 - 20:00","do":"08:00 - 21:00","vr":"08:00 - 21:00","za":"08:00 - 20:00","zo":"10:00 - 18:00"}}},{"type":"Feature","geometry":{"type":"Point","coordinates":[5.477155,52.513688]},"properties":{"type":"pakketpunt","locatieNaam":"FedEx Ship&Get","straatNaam":"De Meent 14 PBA","straatNr":"","vervoerder":"FedEx","puntType":"servicepunt","bezettingsgraad":50,"latitude":52.513688,"longitude":5.477155,"canPickup":true,"canDropoff":true,"openingstijden":{"ma":"09:00 - 18:00","di":"09:00 - 18:00","wo":"09:00 - 18:00","do":"09:00 - 18:00","vr":"09:00 - 18:00","za":"09:00 - 17:00","zo":"12:00 - 17:00"}}},{"type":"Feature","geometry":{"type":"Point","coordinates":[5.483776096329871,52.52006606128204]},"properties":{"type":"pakketpunt","locatieNaam":"FedEx Ship&Get","straatNaam":"Grutterswal 2 PBA","straatNr":"","vervoerder":"FedEx","puntType":"servicepunt","bezettingsgraad":50,"latitude":52.52006606128204,"longitude":5.483776096329871,"canPickup":true,"canDropoff":true,"openingstijden":{"ma":"00:00 - 23:59","di":"00:00 - 23:59","wo":"00:00 - 23:59","do":"00:00 - 23:59","vr":"00:00 - 23:59","za":"00:00 - 23:59","zo":"00:00 - 23:59"}}},{"type":"Feature","geometry":{"type":"Point","coordinates":[5.503265073640438,52.51397416168114]},"properties":{"type":"pakketpunt","locatieNaam":"FedEx Ship&Get","straatNaam":"Voorhof 12 PBA","straatNr":"","vervoerder":"FedEx","puntType":"servicepunt","bezettingsgraad":50,"latitude":52.51397416168114,"longitude":5.503265073640438,"canPickup":true,"canDropoff":true,"openingstijden":{"ma":"00:00 - 23:59","di":"00:00 - 23:59","wo":"00:00 - 23:59","do":"00:00 - 23:59","vr":"00:00 - 23:59","za":"00:00 - 23:59","zo":"00:00 - 23:59"}}},{"type":"Feature","geometry":{"type":"Point","coordinates":[5.4625,52.50286]},"properties":{"type":"pakketpunt","locatieNaam":"TOKO LELYDORP","straatNaam":"Botter 44 - 19","straatNr":"","vervoerder":"InPost","puntType":"servicepunt","bezettingsgraad":50,"latitude":52.50286,"longitude":5.4625,"canPickup":true,"canDropoff":true,"openingstijden":null}},{"type":"Feature","geometry":{"type":"Point","coordinates":[5.47492,52.50769]},"properties":{"type":"pakketpunt","locatieNaam":"ENECAS GSM SHOP","straatNaam":"Kroonpassage 26","straatNr":"","vervoerder":"InPost","puntType":"servicepunt","bezettingsgraad":50,"latitude":52.50769,"longitude":5.47492,"canPickup":true,"canDropoff":true,"openingstijden":null}},{"type":"Feature","geometry":{"type":"Point","coordinates":[5.48141,52.48131]},"properties":{"type":"pakketpunt","locatieNaam":"V&O CARS","straatNaam":"Apolloweg 138","straatNr":"","vervoerder":"InPost","puntType":"servicepunt","bezettingsgraad":50,"latitude":52.48131,"longitude":5.48141,"canPickup":true,"canDropoff":true,"openingstijden":null}},{"type":"Feature","geometry":{"type":"Point","coordinates":[5.44552,52.50721]},"properties":{"type":"pakketpunt","locatieNaam":"ROMEO DELTA VOF","straatNaam":"Jol 11 01","straatNr":"","vervoerder":"InPost","puntType":"servicepunt","bezettingsgraad":50,"latitude":52.50721,"longitude":5.44552,"canPickup":true,"canDropoff":true,"openingstijden":null}},{"type":"Feature","geometry":{"type":"Point","coordinates":[5.44247,52.49796]},"properties":{"type":"pakketpunt","locatieNaam":"","straatNaam":"Zuidersluisweg","straatNr":"68","vervoerder":"InPost","puntType":"automaat","bezettingsgraad":50,"latitude":52.49796,"longitude":5.44247,"canPickup":true,"canDropoff":true,"openingstijden":"24/7"}},{"type":"Feature","geometry":{"type":"Point","coordinates":[5.48495,52.52002]},"properties":{"type":"pakketpunt","locatieNaam":"EVAN'S KRINGLOOPWINKEL","straatNaam":"Koopmansstraat 111","straatNr":"","vervoerder":"InPost","puntType":"servicepunt","bezettingsgraad":50,"latitude":52.52002,"longitude":5.48495,"canPickup":true,"canDropoff":true,"openingstijden":null}},{"type":"Feature","geometry":{"type":"Point","coordinates":[5.49536,52.5203]},"properties":{"type":"pakketpunt","locatieNaam":"","straatNaam":"Badweg","straatNr":"17A","vervoerder":"InPost","puntType":"automaat","bezettingsgraad":50,"latitude":52.5203,"longitude":5.49536,"canPickup":true,"canDropoff":true,"openingstijden":"24/7"}},{"type":"Feature","geometry":{"type":"Point","coordinates":[5.4839702,52.5201082]},"properties":{"type":"pakketpunt","locatieNaam":"Budbee","straatNaam":"","straatNr":"","vervoerder":"Budbee","puntType":"automaat","bezettingsgraad":50,"latitude":52.5201082,"longitude":5.4839702,"canPickup":true,"canDropoff":true,"openingstijden":null}},{"type":"Feature","geometry":{"type":"Polygon","coordinates":[[[5.074588,52.583665],[5.135306,52.603937],[5.153256,52.609919],[5.15984,52.612112],[5.163484,52.613326],[5.165735,52.614076],[5.177056,52.617844],[5.180477,52.618983],[5.19063,52.622361],[5.195039,52.623827],[5.199646,52.62536],[5.204208,52.626876],[5.20997,52.628792],[5.219133,52.631837],[5.224722,52.633693],[5.231371,52.635902],[5.232099,52.636144],[5.239477,52.638593],[5.244957,52.640413],[5.254235,52.643491],[5.257187,52.644471],[5.257257,52.64492],[5.257962,52.649414],[5.260078,52.662897],[5.26036,52.664695],[5.260784,52.667391],[5.262195,52.67638],[5.262266,52.676829],[5.264481,52.677967],[5.268962,52.680268],[5.276294,52.684033],[5.285048,52.689133],[5.28645,52.688749],[5.286474,52.688826],[5.286477,52.688834],[5.286498,52.688907],[5.286674,52.68938],[5.28681,52.689721],[5.287073,52.690346],[5.287178,52.690598],[5.287215,52.690687],[5.28745,52.691264],[5.28761,52.691641],[5.287619,52.691656],[5.295777,52.692845],[5.301635,52.692427],[5.353294,52.678637],[5.358624,52.676692],[5.361147,52.675726],[5.36372,52.67552],[5.511294,52.663556],[5.564508,52.61501],[5.568771,52.605423],[5.572695,52.596593],[5.572841,52.596265],[5.572889,52.596157],[5.572899,52.596135],[5.573237,52.595374],[5.573337,52.595149],[5.573423,52.594954],[5.573449,52.594897],[5.573513,52.594752],[5.574282,52.593016],[5.57574,52.589731],[5.577206,52.586423],[5.577306,52.586201],[5.578395,52.583747],[5.582572,52.574319],[5.582686,52.574061],[5.586083,52.566391],[5.587387,52.563456],[5.587411,52.56346],[5.58747,52.563095],[5.587586,52.562391],[5.588313,52.549185],[5.588323,52.549002],[5.588324,52.548992],[5.588348,52.548553],[5.588348,52.548543],[5.588771,52.540872],[5.588775,52.540796],[5.589228,52.532566],[5.589237,52.532402],[5.590291,52.522946],[5.590301,52.522858],[5.591281,52.514122],[5.591305,52.513905],[5.588056,52.513773],[5.588107,52.513564],[5.591269,52.500137],[5.591293,52.500036],[5.591361,52.499964],[5.598552,52.492318],[5.605871,52.48452],[5.605682,52.484451],[5.603323,52.483624],[5.599488,52.482284],[5.595656,52.480942],[5.593743,52.48027],[5.59183,52.479598],[5.587995,52.478256],[5.584165,52.476916],[5.580337,52.475576],[5.576521,52.474235],[5.572676,52.47289],[5.56885,52.471547],[5.568896,52.471499],[5.56542,52.470281],[5.565465,52.470232],[5.567876,52.46767],[5.570366,52.465021],[5.572636,52.462602],[5.57267,52.462566],[5.572685,52.462551],[5.572873,52.462349],[5.572904,52.462315],[5.574976,52.460109],[5.577105,52.457845],[5.578345,52.456526],[5.578665,52.456182],[5.578989,52.455831],[5.579064,52.45575],[5.579097,52.455717],[5.579545,52.455214],[5.58005,52.454637],[5.581396,52.453103],[5.58253,52.451811],[5.583667,52.450516],[5.585378,52.448571],[5.585521,52.448418],[5.585684,52.448265],[5.586006,52.447977],[5.586018,52.447968],[5.586036,52.447959],[5.58606,52.447952],[5.586087,52.447949],[5.586112,52.447951],[5.586131,52.447955],[5.586143,52.447959],[5.586389,52.447711],[5.585895,52.447529],[5.585192,52.447265],[5.584366,52.44695],[5.583914,52.446758],[5.583501,52.446567],[5.583078,52.44635],[5.582705,52.446142],[5.582453,52.445988],[5.582224,52.445838],[5.581975,52.445663],[5.581684,52.445445],[5.581299,52.44513],[5.580998,52.444867],[5.58056,52.444479],[5.58052,52.444443],[5.580243,52.444199],[5.5802,52.444161],[5.578766,52.442884],[5.576218,52.440615],[5.575898,52.440331],[5.575647,52.440109],[5.57539,52.439895],[5.575126,52.439687],[5.574854,52.439482],[5.574569,52.439279],[5.574326,52.439116],[5.574073,52.438957],[5.573803,52.438794],[5.573741,52.438759],[5.573179,52.438437],[5.57317,52.438431],[5.572906,52.438295],[5.572559,52.438128],[5.572204,52.437968],[5.571845,52.43781],[5.571471,52.437663],[5.571095,52.437517],[5.569682,52.436996],[5.566637,52.435863],[5.566896,52.435574],[5.567172,52.435284],[5.567404,52.435053],[5.570866,52.431582],[5.571398,52.431054],[5.571621,52.430818],[5.572202,52.430231],[5.573075,52.429353],[5.573787,52.428634],[5.579166,52.423224],[5.586395,52.415945],[5.587026,52.41531],[5.587459,52.415312],[5.587842,52.414924],[5.587998,52.414766],[5.587682,52.414649],[5.587761,52.414542],[5.588382,52.413942],[5.58851,52.413817],[5.588669,52.413654],[5.588809,52.413484],[5.588951,52.413256],[5.589057,52.413017],[5.589116,52.412808],[5.589125,52.412778],[5.589142,52.412546],[5.589126,52.412308],[5.589081,52.412093],[5.589079,52.412085],[5.588901,52.411367],[5.588905,52.411338],[5.588908,52.411308],[5.588908,52.411305],[5.588909,52.411302],[5.588909,52.411299],[5.58891,52.411296],[5.588912,52.411293],[5.588913,52.41129],[5.588915,52.411287],[5.588917,52.411284],[5.588919,52.411282],[5.588921,52.411279],[5.588924,52.411276],[5.588927,52.411274],[5.588929,52.411271],[5.588932,52.411268],[5.588936,52.411266],[5.588939,52.411264],[5.588943,52.411262],[5.58907,52.411187],[5.588284,52.411258],[5.588185,52.411252],[5.587786,52.411288],[5.586743,52.41136],[5.586314,52.411394],[5.585868,52.411422],[5.585426,52.411438],[5.58498,52.411442],[5.584543,52.411436],[5.584101,52.411423],[5.583665,52.411396],[5.583217,52.411358],[5.582788,52.41131],[5.582384,52.411256],[5.581959,52.411193],[5.581542,52.411122],[5.581252,52.411062],[5.580877,52.410975],[5.580509,52.410883],[5.58015,52.410784],[5.579798,52.410674],[5.579444,52.410553],[5.579073,52.41042],[5.578708,52.410279],[5.578355,52.41013],[5.57826,52.410085],[5.578014,52.409968],[5.577255,52.409547],[5.576321,52.409019],[5.575028,52.40826],[5.574389,52.407897],[5.573935,52.407635],[5.572704,52.40691],[5.572309,52.406684],[5.570627,52.405718],[5.570627,52.405718],[5.567321,52.403792],[5.565299,52.402617],[5.565253,52.402593],[5.565202,52.402573],[5.564429,52.402305],[5.564337,52.402243],[5.564309,52.402154],[5.564315,52.402081],[5.564296,52.402041],[5.564251,52.402006],[5.564017,52.401871],[5.560722,52.399943],[5.557846,52.398283],[5.557417,52.398022],[5.556896,52.397719],[5.555545,52.396932],[5.555051,52.396637],[5.554642,52.396389],[5.554142,52.396083],[5.553682,52.395798],[5.553252,52.395524],[5.552843,52.395255],[5.548803,52.392543],[5.547967,52.391982],[5.547082,52.391387],[5.546301,52.390868],[5.545643,52.390432],[5.544859,52.389923],[5.543109,52.388751],[5.53865,52.385762],[5.538437,52.385761],[5.538355,52.385752],[5.538293,52.385728],[5.537495,52.385194],[5.537409,52.38517],[5.537298,52.385],[5.537296,52.385001],[5.536929,52.385186],[5.536764,52.385206],[5.536581,52.385168],[5.535996,52.384988],[5.535243,52.384756],[5.535034,52.384709],[5.534824,52.384688],[5.53461,52.384713],[5.534533,52.384742],[5.534423,52.384784],[5.533982,52.385032],[5.533006,52.384377],[5.525224,52.388714],[5.525118,52.388773],[5.525106,52.38878],[5.525104,52.388781],[5.52506,52.388805],[5.525048,52.388797],[5.520607,52.39122],[5.51942,52.391869],[5.515679,52.393914],[5.513337,52.395205],[5.512406,52.395718],[5.512448,52.395746],[5.510025,52.397069],[5.5095,52.397355],[5.508992,52.397662],[5.508802,52.397778],[5.508496,52.397965],[5.50803,52.398265],[5.507623,52.398531],[5.507303,52.398744],[5.507038,52.398981],[5.506367,52.399421],[5.501669,52.402503],[5.498134,52.404825],[5.495136,52.406779],[5.49457,52.407148],[5.491667,52.409053],[5.491556,52.409116],[5.491427,52.409173],[5.490081,52.410066],[5.48989,52.410192],[5.489819,52.410269],[5.489708,52.410347],[5.486689,52.412331],[5.483146,52.414655],[5.481452,52.415778],[5.480925,52.416127],[5.479689,52.416946],[5.479623,52.41699],[5.476241,52.419203],[5.474979,52.420033],[5.474043,52.420588],[5.471811,52.421892],[5.466887,52.424777],[5.466392,52.425067],[5.460982,52.428233],[5.460718,52.428387],[5.455556,52.431402],[5.451508,52.433773],[5.450215,52.434531],[5.448894,52.435301],[5.448324,52.435634],[5.447897,52.435895],[5.447498,52.436146],[5.447121,52.436391],[5.446745,52.436643],[5.446272,52.436964],[5.446242,52.436951],[5.44623,52.436942],[5.446026,52.437095],[5.445337,52.437612],[5.44188,52.440258],[5.44012,52.441615],[5.438823,52.442616],[5.438793,52.442639],[5.438783,52.442646],[5.438706,52.442656],[5.438631,52.442646],[5.438622,52.44264],[5.437586,52.441991],[5.43667,52.441461],[5.435143,52.440588],[5.4343,52.440085],[5.431323,52.438248],[5.429871,52.437353],[5.4299,52.437328],[5.429907,52.437322],[5.426889,52.435505],[5.427177,52.434554],[5.425862,52.433785],[5.423775,52.432564],[5.421008,52.432083],[5.418256,52.430534],[5.41648,52.429549],[5.416436,52.429528],[5.416154,52.429394],[5.416011,52.429325],[5.414272,52.428381],[5.413271,52.427844],[5.411964,52.42714],[5.41088,52.426563],[5.409164,52.425668],[5.407576,52.424844],[5.407492,52.424802],[5.405804,52.423937],[5.404841,52.423445],[5.403924,52.422983],[5.402599,52.422321],[5.401905,52.421957],[5.401793,52.421898],[5.401373,52.421709],[5.400777,52.421418],[5.399748,52.420917],[5.398625,52.420369],[5.397533,52.41984],[5.396312,52.419258],[5.394966,52.418618],[5.39353,52.417943],[5.393215,52.417799],[5.3921,52.417279],[5.390925,52.416742],[5.389716,52.416189],[5.388891,52.415816],[5.388544,52.415659],[5.387998,52.415413],[5.387363,52.415127],[5.386187,52.414604],[5.384988,52.414069],[5.383799,52.413554],[5.382596,52.41303],[5.381395,52.412519],[5.380164,52.411993],[5.378988,52.411494],[5.377759,52.410982],[5.376556,52.41048],[5.37531,52.409969],[5.374104,52.409474],[5.372508,52.408822],[5.371671,52.40848],[5.370411,52.407966],[5.369212,52.407484],[5.367968,52.406982],[5.367579,52.406827],[5.366737,52.406491],[5.365504,52.405999],[5.36428,52.405511],[5.363031,52.405013],[5.361813,52.404529],[5.361802,52.404523],[5.360593,52.404046],[5.359831,52.403743],[5.359173,52.403486],[5.357719,52.402909],[5.356127,52.402286],[5.354665,52.40172],[5.35322,52.401155],[5.351942,52.400657],[5.350735,52.400194],[5.349477,52.401453],[5.348894,52.401225],[5.348454,52.401135],[5.348055,52.401067],[5.347657,52.401031],[5.347351,52.401023],[5.346988,52.401027],[5.345687,52.401133],[5.344864,52.401256],[5.344281,52.401319],[5.344157,52.401292],[5.343673,52.401227],[5.343336,52.401143],[5.34332,52.401137],[5.343285,52.401164],[5.34308,52.401319],[5.342607,52.401663],[5.342122,52.402],[5.341625,52.402331],[5.341116,52.402655],[5.340919,52.402775],[5.340916,52.402777],[5.340595,52.402972],[5.340563,52.402991],[5.340062,52.403282],[5.339887,52.403379],[5.339885,52.40338],[5.339885,52.403381],[5.339714,52.403475],[5.339519,52.403584],[5.338964,52.403879],[5.338399,52.404166],[5.337823,52.404445],[5.337237,52.404716],[5.336642,52.40498],[5.336037,52.405234],[5.335423,52.405481],[5.3348,52.405719],[5.334168,52.405949],[5.333762,52.40609],[5.333118,52.406307],[5.332469,52.406517],[5.331817,52.406724],[5.331162,52.406928],[5.329757,52.407365],[5.326477,52.408377],[5.323189,52.40938],[5.319927,52.410365],[5.319895,52.410375],[5.319294,52.410555],[5.319018,52.410637],[5.318927,52.410664],[5.31881,52.410699],[5.318771,52.410711],[5.318767,52.410712],[5.318753,52.410716],[5.318712,52.410729],[5.318699,52.410732],[5.318457,52.410805],[5.318179,52.410888],[5.317595,52.411062],[5.316594,52.411361],[5.313286,52.412339],[5.309971,52.413309],[5.306649,52.41427],[5.299247,52.416399],[5.299168,52.416422],[5.298838,52.416517],[5.282244,52.421288],[5.281617,52.421468],[5.281348,52.421545],[5.280983,52.42165],[5.279294,52.422135],[5.278996,52.422222],[5.278338,52.422421],[5.277686,52.422629],[5.277041,52.422845],[5.276404,52.423069],[5.275775,52.423302],[5.275157,52.423543],[5.274542,52.423791],[5.273939,52.424047],[5.273344,52.424311],[5.272758,52.424583],[5.272183,52.424862],[5.271616,52.425149],[5.271126,52.425408],[5.270514,52.425744],[5.269979,52.426052],[5.269454,52.426366],[5.268941,52.426688],[5.268438,52.427016],[5.267947,52.42735],[5.267468,52.427691],[5.266947,52.428079],[5.266545,52.42839],[5.266102,52.428749],[5.265671,52.429113],[5.263447,52.431036],[5.263299,52.431164],[5.261608,52.432626],[5.259074,52.434817],[5.259055,52.434833],[5.259055,52.434833],[5.258679,52.435158],[5.258436,52.435368],[5.258309,52.435478],[5.254263,52.438977],[5.245545,52.446025],[5.18856,52.492028],[5.155166,52.518929],[5.104997,52.559263],[5.074588,52.583665]]]},"properties":{"type":"boundary","gemeente":"Lelystad"}}]}