{"type":"FeatureCollection","metadata":{"gemeente":"Meppel","slug":"meppel","generated_at":"2026-09-28T08:26:30.294774Z","total_points":52,"providers":["Amazon","DeBuren","DHL","DPD","PostNL","VintedGo","FedEx","InPost"],"bounds":[6.16043758392334,52.679179,6.224991307808449,52.73409652709961]},"features":[{"type":"Feature","geometry":{"type":"Point","coordinates":[6.179042067,52.69257182]},"properties":{"type":"pakketpunt","locatieNaam":"Noordhuis+","straatNaam":"Industrieweg 9","straatNr":"","vervoerder":"Amazon","puntType":"3p","bezettingsgraad":50,"latitude":52.69257182,"longitude":6.179042067,"canPickup":true,"canDropoff":false,"openingstijden":null}},{"type":"Feature","geometry":{"type":"Point","coordinates":[6.187906049,52.70007978]},"properties":{"type":"pakketpunt","locatieNaam":"Alpha Natura","straatNaam":"Molenstraat 28","straatNr":"","vervoerder":"Amazon","puntType":"3p","bezettingsgraad":50,"latitude":52.70007978,"longitude":6.187906049,"canPickup":true,"canDropoff":false,"openingstijden":null}},{"type":"Feature","geometry":{"type":"Point","coordinates":[6.218848917,52.6966051]},"properties":{"type":"pakketpunt","locatieNaam":"DA - The Readshop Oosterboer","straatNaam":"Ruskenstuk 14 A","straatNr":"","vervoerder":"Amazon","puntType":"3p","bezettingsgraad":50,"latitude":52.6966051,"longitude":6.218848917,"canPickup":true,"canDropoff":false,"openingstijden":null}},{"type":"Feature","geometry":{"type":"Point","coordinates":[6.2248407,52.690384]},"properties":{"type":"pakketpunt","locatieNaam":"Meppel | Hoogeveenseweg | TinQ | Pakket-automaat","straatNaam":"Hoogeveenseweg","straatNr":"44","vervoerder":"DeBuren","puntType":"Buitenkluis","bezettingsgraad":50,"latitude":52.690384,"longitude":6.2248407,"canPickup":true,"canDropoff":true,"openingstijden":null}},{"type":"Feature","geometry":{"type":"Point","coordinates":[6.19752669,52.69193526]},"properties":{"type":"pakketpunt","locatieNaam":"Meppel | Stationsweg | NS Stationshuiskamer | Pakketautomaat","straatNaam":"Stationsweg","straatNr":"70","vervoerder":"DeBuren","puntType":"Afhaalpunt","bezettingsgraad":50,"latitude":52.69193526,"longitude":6.19752669,"canPickup":true,"canDropoff":true,"openingstijden":null}},{"type":"Feature","geometry":{"type":"Point","coordinates":[6.17941951751709,52.7012939453125]},"properties":{"type":"pakketpunt","locatieNaam":"Pakketautomaat CivitaS Meppel","straatNaam":"Zomerdijk","straatNr":"5","vervoerder":"DHL","puntType":"packStation","bezettingsgraad":50,"latitude":52.7012939453125,"longitude":6.17941951751709,"canPickup":true,"canDropoff":true,"openingstijden":{"ma":"08:00 - 22:00","di":"08:00 - 22:00","wo":"08:00 - 22:00","do":"08:00 - 22:00","vr":"08:00 - 21:00","za":"09:00 - 15:00","zo":"09:00 - 15:00"}}},{"type":"Feature","geometry":{"type":"Point","coordinates":[6.1846954,52.6870553]},"properties":{"type":"pakketpunt","locatieNaam":"DA Drogisterij Boezerooij Meppel","straatNaam":"Rembrandtplein","straatNr":"42","vervoerder":"DHL","puntType":"parcelShop","bezettingsgraad":50,"latitude":52.6870553,"longitude":6.1846954,"canPickup":true,"canDropoff":true,"openingstijden":{"ma":"08:30 - 18:00","di":"08:30 - 18:00","wo":"08:30 - 18:00","do":"08:30 - 18:00","vr":"08:30 - 20:00","za":"08:30 - 17:00","zo":"gesloten"}}},{"type":"Feature","geometry":{"type":"Point","coordinates":[6.1860737800598145,52.68744659423828]},"properties":{"type":"pakketpunt","locatieNaam":"Pakketautomaat terStal Meppel","straatNaam":"Rembrandtplein","straatNr":"26-Kast","vervoerder":"DHL","puntType":"packStation","bezettingsgraad":50,"latitude":52.68744659423828,"longitude":6.1860737800598145,"canPickup":true,"canDropoff":true,"openingstijden":{"ma":"13:00 - 17:30","di":"09:30 - 17:30","wo":"09:30 - 17:30","do":"09:30 - 17:30","vr":"09:30 - 17:30","za":"10:00 - 17:00","zo":"gesloten"}}},{"type":"Feature","geometry":{"type":"Point","coordinates":[6.1900038,52.699159]},"properties":{"type":"pakketpunt","locatieNaam":"Intertoys Meppel","straatNaam":"Kruisstraat","straatNr":"14","vervoerder":"DHL","puntType":"parcelShop","bezettingsgraad":50,"latitude":52.699159,"longitude":6.1900038,"canPickup":true,"canDropoff":true,"openingstijden":{"ma":"13:00 - 18:00","di":"09:30 - 18:00","wo":"09:30 - 18:00","do":"09:30 - 18:00","vr":"09:30 - 20:00","za":"09:30 - 17:00","zo":"gesloten"}}},{"type":"Feature","geometry":{"type":"Point","coordinates":[6.187866,52.704985]},"properties":{"type":"pakketpunt","locatieNaam":"Pakketautomaat Maxi Zoo Meppel","straatNaam":"Johan van Oldenbarneveltstraat","straatNr":"5","vervoerder":"DHL","puntType":"packStation","bezettingsgraad":50,"latitude":52.704985,"longitude":6.187866,"canPickup":true,"canDropoff":true,"openingstijden":{"ma":"09:00 - 18:00","di":"09:00 - 18:00","wo":"09:00 - 18:00","do":"09:00 - 18:00","vr":"09:00 - 19:00","za":"09:00 - 17:00","zo":"gesloten"}}},{"type":"Feature","geometry":{"type":"Point","coordinates":[6.193231,52.698536]},"properties":{"type":"pakketpunt","locatieNaam":"PartsNL Pobo Meppel","straatNaam":"Woldstraat","straatNr":"53","vervoerder":"DHL","puntType":"parcelShop","bezettingsgraad":50,"latitude":52.698536,"longitude":6.193231,"canPickup":true,"canDropoff":true,"openingstijden":{"ma":"13:30 - 18:00","di":"09:00 - 18:00","wo":"09:00 - 18:00","do":"09:00 - 18:00","vr":"09:00 - 18:00","za":"09:00 - 17:00","zo":"gesloten"}}},{"type":"Feature","geometry":{"type":"Point","coordinates":[6.1946330070495605,52.69554138183594]},"properties":{"type":"pakketpunt","locatieNaam":"Dierenspeciaalzaak Matavi","straatNaam":"Heerengracht","straatNr":"33","vervoerder":"DHL","puntType":"parcelShop","bezettingsgraad":50,"latitude":52.69554138183594,"longitude":6.1946330070495605,"canPickup":true,"canDropoff":true,"openingstijden":{"ma":"13:00 - 17:30","di":"09:00 - 18:00","wo":"09:00 - 18:00","do":"09:00 - 18:00","vr":"09:00 - 18:00","za":"09:00 - 17:00","zo":"gesloten"}}},{"type":"Feature","geometry":{"type":"Point","coordinates":[6.197541,52.691876]},"properties":{"type":"pakketpunt","locatieNaam":"Pakketautomaat StationsHuiskamer","straatNaam":"Stationsweg","straatNr":"70","vervoerder":"DHL","puntType":"packStation","bezettingsgraad":50,"latitude":52.691876,"longitude":6.197541,"canPickup":true,"canDropoff":true,"openingstijden":{"ma":"07:00 - 18:00","di":"07:00 - 18:00","wo":"07:00 - 18:00","do":"07:00 - 18:00","vr":"07:00 - 18:00","za":"09:00 - 16:00","zo":"09:00 - 14:00"}}},{"type":"Feature","geometry":{"type":"Point","coordinates":[6.201435341328875,52.697309313888]},"properties":{"type":"pakketpunt","locatieNaam":"Pakketautomaat Praxis Meppel","straatNaam":"Blankenstein","straatNr":"480","vervoerder":"DHL","puntType":"packStation","bezettingsgraad":50,"latitude":52.697309313888,"longitude":6.201435341328875,"canPickup":true,"canDropoff":true,"openingstijden":{"ma":"00:00 - 23:59","di":"00:00 - 23:59","wo":"00:00 - 23:59","do":"00:00 - 23:59","vr":"00:00 - 23:59","za":"00:00 - 23:59","zo":"00:00 - 23:59"}}},{"type":"Feature","geometry":{"type":"Point","coordinates":[6.191766,52.679179]},"properties":{"type":"pakketpunt","locatieNaam":"Total Werkhorst","straatNaam":"Werkhorst","straatNr":"60","vervoerder":"DHL","puntType":"parcelShop","bezettingsgraad":50,"latitude":52.679179,"longitude":6.191766,"canPickup":true,"canDropoff":true,"openingstijden":{"ma":"07:00 - 21:00","di":"07:00 - 21:00","wo":"07:00 - 21:00","do":"07:00 - 21:00","vr":"07:00 - 21:00","za":"08:00 - 21:00","zo":"09:00 - 21:00"}}},{"type":"Feature","geometry":{"type":"Point","coordinates":[6.1985597,52.7089648]},"properties":{"type":"pakketpunt","locatieNaam":"Kroon Meppel","straatNaam":"Loberingemaat","straatNr":"3","vervoerder":"DHL","puntType":"parcelShop","bezettingsgraad":50,"latitude":52.7089648,"longitude":6.1985597,"canPickup":true,"canDropoff":true,"openingstijden":{"ma":"07:30 - 17:00","di":"07:30 - 17:00","wo":"07:30 - 17:00","do":"07:30 - 17:00","vr":"07:30 - 17:00","za":"gesloten","zo":"gesloten"}}},{"type":"Feature","geometry":{"type":"Point","coordinates":[6.2054902,52.6984825]},"properties":{"type":"pakketpunt","locatieNaam":"Pakketautomaat Basic-Fit Meppel","straatNaam":"Blankenstein","straatNr":"275","vervoerder":"DHL","puntType":"packStation","bezettingsgraad":50,"latitude":52.6984825,"longitude":6.2054902,"canPickup":true,"canDropoff":true,"openingstijden":{"ma":"00:00 - 23:59","di":"00:00 - 23:59","wo":"00:00 - 23:59","do":"00:00 - 23:59","vr":"00:00 - 23:59","za":"00:00 - 23:59","zo":"00:00 - 23:59"}}},{"type":"Feature","geometry":{"type":"Point","coordinates":[6.2190865,52.6967025]},"properties":{"type":"pakketpunt","locatieNaam":"De Roo Dier","straatNaam":"Ruskenstuk","straatNr":"10","vervoerder":"DHL","puntType":"parcelShop","bezettingsgraad":50,"latitude":52.6967025,"longitude":6.2190865,"canPickup":true,"canDropoff":true,"openingstijden":{"ma":"gesloten","di":"10:00 - 17:00","wo":"10:00 - 17:00","do":"12:00 - 17:00","vr":"10:00 - 17:00","za":"10:00 - 17:00","zo":"gesloten"}}},{"type":"Feature","geometry":{"type":"Point","coordinates":[6.1672926,52.7326415]},"properties":{"type":"pakketpunt","locatieNaam":"DA Drogisterij Charlotte","straatNaam":"Dorpsstraat","straatNr":"10-B","vervoerder":"DHL","puntType":"parcelShop","bezettingsgraad":50,"latitude":52.7326415,"longitude":6.1672926,"canPickup":true,"canDropoff":true,"openingstijden":{"ma":"08:30 - 18:00","di":"08:30 - 18:00","wo":"08:30 - 18:00","do":"08:30 - 18:00","vr":"08:30 - 18:00","za":"08:30 - 17:00","zo":"gesloten"}}},{"type":"Feature","geometry":{"type":"Point","coordinates":[6.224991307808449,52.69065379394219]},"properties":{"type":"pakketpunt","locatieNaam":"DeBuren Locker 24-7 TinQ Hoogeveen","straatNaam":"Hoogeveenseweg","straatNr":"44","vervoerder":"DHL","puntType":"packStation","bezettingsgraad":50,"latitude":52.69065379394219,"longitude":6.224991307808449,"canPickup":true,"canDropoff":true,"openingstijden":{"ma":"00:00 - 23:59","di":"00:00 - 23:59","wo":"00:00 - 23:59","do":"00:00 - 23:59","vr":"00:00 - 23:59","za":"00:00 - 23:59","zo":"00:00 - 23:59"}}},{"type":"Feature","geometry":{"type":"Point","coordinates":[6.16043758392334,52.73409652709961]},"properties":{"type":"pakketpunt","locatieNaam":"Grada Bikes","straatNaam":"Nijverheidsweg","straatNr":"9","vervoerder":"DHL","puntType":"parcelShop","bezettingsgraad":50,"latitude":52.73409652709961,"longitude":6.16043758392334,"canPickup":true,"canDropoff":true,"openingstijden":{"ma":"09:00 - 17:30","di":"09:00 - 17:30","wo":"09:00 - 17:30","do":"09:00 - 17:30","vr":"09:00 - 17:30","za":"gesloten","zo":"gesloten"}}},{"type":"Feature","geometry":{"type":"Point","coordinates":[6.18992,52.69705]},"properties":{"type":"pakketpunt","locatieNaam":"Mobiele Expert","straatNaam":"KERKPLEIN","straatNr":"4","vervoerder":"DPD","puntType":"pickup_point","bezettingsgraad":50,"latitude":52.69705,"longitude":6.18992,"canPickup":true,"canDropoff":true,"openingstijden":{"ma":"12:00 - 18:00","di":"10:00 - 18:00","wo":"10:00 - 18:00","do":"10:00 - 18:00","vr":"10:00 - 21:00","za":"10:00 - 17:00","zo":"gesloten"}}},{"type":"Feature","geometry":{"type":"Point","coordinates":[6.199983,52.715342]},"properties":{"type":"pakketpunt","locatieNaam":"Business Point - DPD Depot -Meppel","straatNaam":"MANDEVELD","straatNr":"2","vervoerder":"DPD","puntType":"pickup_point","bezettingsgraad":50,"latitude":52.715342,"longitude":6.199983,"canPickup":true,"canDropoff":true,"openingstijden":{"ma":"09:00 - 17:30","di":"09:00 - 17:30","wo":"09:00 - 17:30","do":"09:00 - 17:30","vr":"09:00 - 17:30","za":"gesloten","zo":"gesloten"}}},{"type":"Feature","geometry":{"type":"Point","coordinates":[6.187137,52.696467]},"properties":{"type":"pakketpunt","locatieNaam":"PC Servicepunt Meppel","straatNaam":"SLUISGRACHT","straatNr":"1","vervoerder":"DPD","puntType":"pickup_point","bezettingsgraad":50,"latitude":52.696467,"longitude":6.187137,"canPickup":true,"canDropoff":true,"openingstijden":{"ma":"09:30 - 17:00","di":"09:30 - 17:00","wo":"09:30 - 17:00","do":"09:30 - 17:00","vr":"09:30 - 17:00","za":"gesloten","zo":"gesloten"}}},{"type":"Feature","geometry":{"type":"Point","coordinates":[6.19752669,52.69193526]},"properties":{"type":"pakketpunt","locatieNaam":"Pakketautomaat NS Station Meppel","straatNaam":"STATIONSWEG","straatNr":"70","vervoerder":"DPD","puntType":"dpd_box","bezettingsgraad":50,"latitude":52.69193526,"longitude":6.19752669,"canPickup":true,"canDropoff":true,"openingstijden":{"ma":"07:00 - 18:00","di":"07:00 - 18:00","wo":"07:00 - 18:00","do":"07:00 - 18:00","vr":"07:00 - 18:00","za":"09:00 - 16:00","zo":"09:00 - 14:00"}}},{"type":"Feature","geometry":{"type":"Point","coordinates":[6.2248407,52.690384]},"properties":{"type":"pakketpunt","locatieNaam":"Pakketautomaat TinQ Hoogeveenseweg","straatNaam":"HOOGEVEENSEWEG","straatNr":"44","vervoerder":"DPD","puntType":"dpd_box","bezettingsgraad":50,"latitude":52.690384,"longitude":6.2248407,"canPickup":true,"canDropoff":true,"openingstijden":{"ma":"00:00 - 23:59","di":"00:00 - 23:59","wo":"00:00 - 23:59","do":"00:00 - 23:59","vr":"00:00 - 23:59","za":"00:00 - 23:59","zo":"00:00 - 23:59"}}},{"type":"Feature","geometry":{"type":"Point","coordinates":[6.1793016,52.7005448]},"properties":{"type":"pakketpunt","locatieNaam":"CivitaS Meppel","straatNaam":"ZOMERDIJK","straatNr":"5 C","vervoerder":"DPD","puntType":"pickup_point","bezettingsgraad":50,"latitude":52.7005448,"longitude":6.1793016,"canPickup":true,"canDropoff":true,"openingstijden":{"ma":"08:00 - 21:30","di":"08:00 - 21:30","wo":"08:00 - 21:30","do":"08:00 - 21:30","vr":"08:00 - 20:30","za":"09:00 - 14:00","zo":"09:00 - 14:00"}}},{"type":"Feature","geometry":{"type":"Point","coordinates":[6.17719,52.6920191]},"properties":{"type":"pakketpunt","locatieNaam":"Pakketautomaat Werkplan & Car & Bik","straatNaam":"INDUSTRIEWEG","straatNr":"13","vervoerder":"DPD","puntType":"dpd_box","bezettingsgraad":50,"latitude":52.6920191,"longitude":6.17719,"canPickup":true,"canDropoff":true,"openingstijden":{"ma":"08:30 - 17:30","di":"08:30 - 17:30","wo":"08:30 - 17:30","do":"08:30 - 17:30","vr":"08:30 - 17:30","za":"09:00 - 16:00","zo":"gesloten"}}},{"type":"Feature","geometry":{"type":"Point","coordinates":[6.2025380578648,52.6985154711026]},"properties":{"type":"pakketpunt","locatieNaam":"Sharon B Design","straatNaam":"Blankenstein","straatNr":"640","vervoerder":"PostNL","puntType":"servicepunt","bezettingsgraad":50,"latitude":52.6985154711026,"longitude":6.2025380578648,"canPickup":true,"canDropoff":true,"openingstijden":"08:30 - 17:00"}},{"type":"Feature","geometry":{"type":"Point","coordinates":[6.187906049,52.70007978]},"properties":{"type":"pakketpunt","locatieNaam":"Alpha Natura","straatNaam":"Molenstraat","straatNr":"28","vervoerder":"PostNL","puntType":"servicepunt","bezettingsgraad":50,"latitude":52.70007978,"longitude":6.187906049,"canPickup":true,"canDropoff":true,"openingstijden":null}},{"type":"Feature","geometry":{"type":"Point","coordinates":[6.181948151,52.70194415]},"properties":{"type":"pakketpunt","locatieNaam":"Pakket- en briefautomaat","straatNaam":"Zomerdijk","straatNr":"3PBA","vervoerder":"PostNL","puntType":"automaat","bezettingsgraad":50,"latitude":52.70194415,"longitude":6.181948151,"canPickup":true,"canDropoff":true,"openingstijden":"00:00 - 23:59"}},{"type":"Feature","geometry":{"type":"Point","coordinates":[6.181948151,52.70194415]},"properties":{"type":"pakketpunt","locatieNaam":"GAMMA Meppel","straatNaam":"Zomerdijk","straatNr":"3","vervoerder":"PostNL","puntType":"servicepunt","bezettingsgraad":50,"latitude":52.70194415,"longitude":6.181948151,"canPickup":true,"canDropoff":true,"openingstijden":"09:00 - 21:00"}},{"type":"Feature","geometry":{"type":"Point","coordinates":[6.16679405419776,52.7325290737378]},"properties":{"type":"pakketpunt","locatieNaam":"Pakket- en briefautomaat","straatNaam":"Dorpsstraat","straatNr":"10PBA","vervoerder":"PostNL","puntType":"automaat","bezettingsgraad":50,"latitude":52.7325290737378,"longitude":6.16679405419776,"canPickup":true,"canDropoff":true,"openingstijden":"00:00 - 23:59"}},{"type":"Feature","geometry":{"type":"Point","coordinates":[6.166794054,52.73252907]},"properties":{"type":"pakketpunt","locatieNaam":"Plus Buist","straatNaam":"Dorpsstraat","straatNr":"10","vervoerder":"PostNL","puntType":"servicepunt","bezettingsgraad":50,"latitude":52.73252907,"longitude":6.166794054,"canPickup":true,"canDropoff":true,"openingstijden":"08:00 - 20:00 (Na 18:00 open; Zaterdag open; Zondag open)"}},{"type":"Feature","geometry":{"type":"Point","coordinates":[6.190634714,52.69639457]},"properties":{"type":"pakketpunt","locatieNaam":"Bruna","straatNaam":"Hoofdstraat","straatNr":"83","vervoerder":"PostNL","puntType":"servicepunt","bezettingsgraad":50,"latitude":52.69639457,"longitude":6.190634714,"canPickup":true,"canDropoff":true,"openingstijden":"09:00 - 18:00 (Na 18:00 open; Zaterdag open)"}},{"type":"Feature","geometry":{"type":"Point","coordinates":[6.218848917,52.6966051]},"properties":{"type":"pakketpunt","locatieNaam":"DA - The Readshop Oosterboer","straatNaam":"Ruskenstuk","straatNr":"14A","vervoerder":"PostNL","puntType":"servicepunt","bezettingsgraad":50,"latitude":52.6966051,"longitude":6.218848917,"canPickup":true,"canDropoff":true,"openingstijden":"08:30 - 18:00"}},{"type":"Feature","geometry":{"type":"Point","coordinates":[6.218848917,52.6966051]},"properties":{"type":"pakketpunt","locatieNaam":"Pakket- en briefautomaat","straatNaam":"Ruskenstuk","straatNr":"14PBA","vervoerder":"PostNL","puntType":"automaat","bezettingsgraad":50,"latitude":52.6966051,"longitude":6.218848917,"canPickup":true,"canDropoff":true,"openingstijden":"00:00 - 23:59"}},{"type":"Feature","geometry":{"type":"Point","coordinates":[6.179042067,52.69257182]},"properties":{"type":"pakketpunt","locatieNaam":"Noordhuis","straatNaam":"Industrieweg","straatNr":"9","vervoerder":"PostNL","puntType":"servicepunt","bezettingsgraad":50,"latitude":52.69257182,"longitude":6.179042067,"canPickup":true,"canDropoff":true,"openingstijden":"08:30 - 17:00"}},{"type":"Feature","geometry":{"type":"Point","coordinates":[6.1851550205569,52.6870936525073]},"properties":{"type":"pakketpunt","locatieNaam":"Pakketautomaat","straatNaam":"Rembrandtplein","straatNr":"34PBA","vervoerder":"PostNL","puntType":"automaat","bezettingsgraad":50,"latitude":52.6870936525073,"longitude":6.1851550205569,"canPickup":true,"canDropoff":true,"openingstijden":"00:00 - 23:59"}},{"type":"Feature","geometry":{"type":"Point","coordinates":[6.184411053,52.686847]},"properties":{"type":"pakketpunt","locatieNaam":"Primera Kruijer","straatNaam":"Rembrandtplein","straatNr":"30","vervoerder":"PostNL","puntType":"servicepunt","bezettingsgraad":50,"latitude":52.686847,"longitude":6.184411053,"canPickup":true,"canDropoff":true,"openingstijden":"08:00 - 18:00 (Na 18:00 open; Zaterdag open)"}},{"type":"Feature","geometry":{"type":"Point","coordinates":[6.19455,52.69545]},"properties":{"type":"pakketpunt","locatieNaam":"Dierenspeciaalzaak Matavi","straatNaam":"Heerengracht 33","straatNr":"","vervoerder":"VintedGo","puntType":"parcel_shop","bezettingsgraad":50,"latitude":52.69545,"longitude":6.19455,"canPickup":true,"canDropoff":true,"openingstijden":null}},{"type":"Feature","geometry":{"type":"Point","coordinates":[6.1793,52.70055]},"properties":{"type":"pakketpunt","locatieNaam":"CivitaS Meppel ","straatNaam":"Zomerdijk 5C","straatNr":"","vervoerder":"VintedGo","puntType":"parcel_shop","bezettingsgraad":50,"latitude":52.70055,"longitude":6.1793,"canPickup":true,"canDropoff":true,"openingstijden":null}},{"type":"Feature","geometry":{"type":"Point","coordinates":[6.18706,52.69637]},"properties":{"type":"pakketpunt","locatieNaam":"PC Servicepunt Meppel","straatNaam":"Sluisgracht 1","straatNr":"","vervoerder":"VintedGo","puntType":"parcel_shop","bezettingsgraad":50,"latitude":52.69637,"longitude":6.18706,"canPickup":true,"canDropoff":true,"openingstijden":null}},{"type":"Feature","geometry":{"type":"Point","coordinates":[6.18929,52.6989]},"properties":{"type":"pakketpunt","locatieNaam":"Henry’s Blend","straatNaam":"Grote Akkerstraat 32","straatNr":"","vervoerder":"VintedGo","puntType":"parcel_shop","bezettingsgraad":50,"latitude":52.6989,"longitude":6.18929,"canPickup":true,"canDropoff":true,"openingstijden":null}},{"type":"Feature","geometry":{"type":"Point","coordinates":[6.1772482,52.692037]},"properties":{"type":"pakketpunt","locatieNaam":"Werkplan","straatNaam":"Industrieweg 13","straatNr":"","vervoerder":"VintedGo","puntType":"locker","bezettingsgraad":50,"latitude":52.692037,"longitude":6.1772482,"canPickup":true,"canDropoff":true,"openingstijden":null}},{"type":"Feature","geometry":{"type":"Point","coordinates":[6.218833042982004,52.69656790193294]},"properties":{"type":"pakketpunt","locatieNaam":"FedEx Ship&Get","straatNaam":"Ruskenstuk 14 PBA","straatNr":"","vervoerder":"FedEx","puntType":"servicepunt","bezettingsgraad":50,"latitude":52.69656790193294,"longitude":6.218833042982004,"canPickup":true,"canDropoff":true,"openingstijden":{"ma":"00:00 - 23:59","di":"00:00 - 23:59","wo":"00:00 - 23:59","do":"00:00 - 23:59","vr":"00:00 - 23:59","za":"00:00 - 23:59","zo":"00:00 - 23:59"}}},{"type":"Feature","geometry":{"type":"Point","coordinates":[6.179488868402672,52.70047991209832]},"properties":{"type":"pakketpunt","locatieNaam":"FedEx OnSite","straatNaam":"ZOMERDIJK 5C","straatNr":"","vervoerder":"FedEx","puntType":"servicepunt","bezettingsgraad":50,"latitude":52.70047991209832,"longitude":6.179488868402672,"canPickup":true,"canDropoff":true,"openingstijden":{"ma":"08:00 - 21:30","di":"08:00 - 21:30","wo":"08:00 - 21:30","do":"08:00 - 21:30","vr":"08:00 - 20:30","za":"09:00 - 14:00","zo":"09:00 - 14:00"}}},{"type":"Feature","geometry":{"type":"Point","coordinates":[6.181948858598338,52.70194305448229]},"properties":{"type":"pakketpunt","locatieNaam":"FedEx Ship&Get","straatNaam":"Zomerdijk 3 PBA","straatNr":"","vervoerder":"FedEx","puntType":"servicepunt","bezettingsgraad":50,"latitude":52.70194305448229,"longitude":6.181948858598338,"canPickup":true,"canDropoff":true,"openingstijden":{"ma":"00:00 - 23:59","di":"00:00 - 23:59","wo":"00:00 - 23:59","do":"00:00 - 23:59","vr":"00:00 - 23:59","za":"00:00 - 23:59","zo":"00:00 - 23:59"}}},{"type":"Feature","geometry":{"type":"Point","coordinates":[6.166846620866759,52.732504325265836]},"properties":{"type":"pakketpunt","locatieNaam":"FedEx Ship&Get","straatNaam":"Dorpsstraat 10 PBA","straatNr":"","vervoerder":"FedEx","puntType":"servicepunt","bezettingsgraad":50,"latitude":52.732504325265836,"longitude":6.166846620866759,"canPickup":true,"canDropoff":true,"openingstijden":{"ma":"00:00 - 23:59","di":"00:00 - 23:59","wo":"00:00 - 23:59","do":"00:00 - 23:59","vr":"00:00 - 23:59","za":"00:00 - 23:59","zo":"00:00 - 23:59"}}},{"type":"Feature","geometry":{"type":"Point","coordinates":[6.1795,52.70054]},"properties":{"type":"pakketpunt","locatieNaam":"CIVITAS","straatNaam":"Zomerdijk 5c","straatNr":"","vervoerder":"InPost","puntType":"servicepunt","bezettingsgraad":50,"latitude":52.70054,"longitude":6.1795,"canPickup":true,"canDropoff":true,"openingstijden":null}},{"type":"Feature","geometry":{"type":"Point","coordinates":[6.19087,52.69718]},"properties":{"type":"pakketpunt","locatieNaam":"PUNT & PLEK","straatNaam":"Grote Kerkstraat 4","straatNr":"","vervoerder":"InPost","puntType":"servicepunt","bezettingsgraad":50,"latitude":52.69718,"longitude":6.19087,"canPickup":true,"canDropoff":true,"openingstijden":null}},{"type":"Feature","geometry":{"type":"Point","coordinates":[6.1781,52.69279]},"properties":{"type":"pakketpunt","locatieNaam":"","straatNaam":"Industrieweg","straatNr":"12A","vervoerder":"InPost","puntType":"automaat","bezettingsgraad":50,"latitude":52.69279,"longitude":6.1781,"canPickup":true,"canDropoff":true,"openingstijden":"24/7"}},{"type":"Feature","geometry":{"type":"Polygon","coordinates":[[[6.120376,52.750242],[6.120394,52.750191],[6.120365,52.750162],[6.120332,52.750149],[6.120365,52.750105],[6.120538,52.749857],[6.122376,52.747214],[6.122478,52.747056],[6.123772,52.745195],[6.123904,52.745006],[6.125238,52.743094],[6.12547,52.742761],[6.126157,52.741713],[6.126779,52.740762],[6.127229,52.740049],[6.127292,52.73999],[6.12788,52.739352],[6.127965,52.739384],[6.128167,52.73923],[6.128476,52.738788],[6.128901,52.738261],[6.129148,52.738028],[6.129104,52.738003],[6.129053,52.737977],[6.128946,52.737978],[6.128852,52.737903],[6.130781,52.734861],[6.134632,52.728784],[6.135435,52.727522],[6.136683,52.72555],[6.137542,52.724189],[6.138552,52.722595],[6.138518,52.722569],[6.139787,52.720592],[6.139952,52.720337],[6.14018,52.719949],[6.140546,52.719432],[6.140724,52.719126],[6.140848,52.718943],[6.140894,52.718877],[6.141017,52.718906],[6.141046,52.718859],[6.14172,52.717676],[6.141776,52.717623],[6.141864,52.717451],[6.142102,52.71714],[6.142296,52.716854],[6.142858,52.716009],[6.143359,52.715186],[6.143936,52.714236],[6.144172,52.713849],[6.144428,52.713442],[6.14472,52.713005],[6.144858,52.712769],[6.14501,52.71252],[6.145297,52.712032],[6.145719,52.711265],[6.145762,52.711265],[6.145817,52.711278],[6.145883,52.711295],[6.146052,52.711349],[6.146096,52.711363],[6.146131,52.71137],[6.146153,52.711338],[6.146171,52.71131],[6.146261,52.711172],[6.146375,52.71101],[6.146615,52.710625],[6.148498,52.707631],[6.148563,52.707498],[6.151423,52.702883],[6.151206,52.702829],[6.151698,52.702055],[6.151727,52.702014],[6.151985,52.701597],[6.15142,52.70137],[6.15196,52.700454],[6.152326,52.699852],[6.152308,52.699605],[6.152306,52.699536],[6.15231,52.699487],[6.152318,52.699425],[6.152334,52.699363],[6.152354,52.699311],[6.152382,52.69926],[6.152424,52.699204],[6.152463,52.699157],[6.152499,52.699112],[6.152547,52.699068],[6.152614,52.699011],[6.152646,52.698995],[6.152689,52.698969],[6.152946,52.698831],[6.153257,52.698319],[6.153734,52.697544],[6.15506,52.694391],[6.155158,52.694181],[6.155245,52.694039],[6.155615,52.693486],[6.156352,52.692351],[6.156479,52.692155],[6.156495,52.69213],[6.156561,52.692029],[6.156607,52.691957],[6.158803,52.69248],[6.158844,52.692403],[6.158976,52.692154],[6.159027,52.69216],[6.159095,52.692172],[6.159206,52.692177],[6.159309,52.692181],[6.159441,52.692183],[6.159515,52.692178],[6.159616,52.692161],[6.159835,52.692111],[6.159912,52.692083],[6.160672,52.691794],[6.161227,52.691586],[6.162185,52.691279],[6.162822,52.690928],[6.162893,52.690895],[6.164925,52.68889],[6.165151,52.688927],[6.165534,52.688928],[6.166198,52.688951],[6.166254,52.68895],[6.166296,52.68895],[6.166352,52.688945],[6.166391,52.688937],[6.166473,52.688907],[6.166861,52.688733],[6.167114,52.68862],[6.168196,52.688136],[6.168225,52.688096],[6.168921,52.687132],[6.169651,52.686121],[6.169637,52.686109],[6.169586,52.68607],[6.169555,52.686038],[6.169425,52.685946],[6.168975,52.685535],[6.168729,52.685361],[6.168275,52.685009],[6.16779,52.684542],[6.16747,52.684262],[6.16735,52.684151],[6.167343,52.684145],[6.166652,52.683508],[6.165396,52.682351],[6.164121,52.681171],[6.163929,52.68098],[6.163665,52.680747],[6.163301,52.680398],[6.162996,52.680062],[6.163432,52.679938],[6.16348,52.67992],[6.163591,52.679874],[6.163635,52.679851],[6.163671,52.679827],[6.163698,52.679794],[6.163831,52.679553],[6.163847,52.679534],[6.163863,52.67952],[6.163885,52.679506],[6.163921,52.679489],[6.163955,52.679475],[6.168621,52.678387],[6.168824,52.678244],[6.170852,52.677766],[6.171797,52.67754],[6.178532,52.675925],[6.178773,52.675871],[6.179903,52.675606],[6.180396,52.675501],[6.180848,52.675412],[6.181303,52.675329],[6.181767,52.675246],[6.182215,52.675179],[6.182685,52.67512],[6.183147,52.675063],[6.18305,52.675211],[6.183077,52.675212],[6.182638,52.675858],[6.182045,52.676732],[6.181933,52.676868],[6.184208,52.677208],[6.182619,52.679517],[6.182018,52.67945],[6.181323,52.680461],[6.180548,52.681588],[6.181065,52.681709],[6.18129,52.68175],[6.18145,52.681775],[6.181937,52.681861],[6.182303,52.68192],[6.18296,52.682028],[6.183442,52.682106],[6.183506,52.682117],[6.18445,52.682271],[6.18503,52.682366],[6.185705,52.682478],[6.185871,52.682504],[6.186068,52.682217],[6.186619,52.681417],[6.1872,52.680568],[6.187862,52.679614],[6.188107,52.679651],[6.188149,52.679548],[6.189225,52.679705],[6.18931,52.67943],[6.189383,52.679234],[6.191445,52.67932],[6.191497,52.679088],[6.191674,52.678322],[6.191926,52.676934],[6.192055,52.676426],[6.19423,52.67663],[6.194184,52.676836],[6.194169,52.676941],[6.194131,52.67722],[6.194127,52.677443],[6.19415,52.677707],[6.194194,52.677973],[6.194271,52.678244],[6.194347,52.678458],[6.194297,52.678466],[6.194342,52.678567],[6.194386,52.678657],[6.194427,52.678732],[6.194475,52.678825],[6.194539,52.678927],[6.194708,52.679185],[6.194829,52.679338],[6.194941,52.679471],[6.195036,52.679573],[6.195113,52.679648],[6.195202,52.679738],[6.195317,52.679847],[6.195409,52.679929],[6.19549,52.679998],[6.195676,52.680149],[6.195777,52.680229],[6.195861,52.680291],[6.196364,52.680239],[6.196221,52.680621],[6.196351,52.680722],[6.19636,52.680724],[6.196352,52.680746],[6.196371,52.680772],[6.196406,52.680786],[6.196401,52.680794],[6.196406,52.680813],[6.196493,52.680877],[6.19653,52.680888],[6.196551,52.680885],[6.19657,52.68087],[6.196625,52.680909],[6.196686,52.680909],[6.19866,52.682381],[6.199228,52.682809],[6.200793,52.68397],[6.201442,52.684446],[6.201682,52.68462],[6.201883,52.684561],[6.202069,52.684528],[6.202152,52.684513],[6.202299,52.68452],[6.202338,52.684542],[6.202621,52.684592],[6.202727,52.68461],[6.20283,52.684624],[6.202906,52.684635],[6.202988,52.684643],[6.203071,52.684649],[6.2036,52.684688],[6.203666,52.684696],[6.203702,52.6847],[6.203747,52.684701],[6.203797,52.684696],[6.203843,52.684687],[6.203882,52.684679],[6.203925,52.684665],[6.203964,52.684651],[6.204003,52.68463],[6.204062,52.684602],[6.204117,52.684568],[6.204173,52.684538],[6.20421,52.684514],[6.204262,52.684486],[6.204358,52.684415],[6.204523,52.684284],[6.204622,52.684222],[6.204722,52.68418],[6.204863,52.684154],[6.204985,52.684161],[6.205138,52.684249],[6.205229,52.684315],[6.205266,52.684345],[6.205295,52.684377],[6.205327,52.68441],[6.20535,52.68444],[6.205369,52.684472],[6.205381,52.684561],[6.205387,52.68458],[6.205401,52.684598],[6.205418,52.684612],[6.205446,52.684626],[6.205692,52.684697],[6.20582,52.684724],[6.206138,52.684786],[6.206353,52.684845],[6.206406,52.684853],[6.206463,52.684858],[6.206507,52.684863],[6.20655,52.684862],[6.20682,52.684855],[6.207264,52.684799],[6.207315,52.684801],[6.207349,52.684799],[6.207507,52.684779],[6.207651,52.684768],[6.207897,52.684742],[6.208041,52.684745],[6.20832,52.684756],[6.208603,52.684772],[6.209093,52.684829],[6.209407,52.684903],[6.210035,52.685153],[6.210077,52.685195],[6.210093,52.685211],[6.210108,52.68522],[6.21013,52.685225],[6.210153,52.685225],[6.210178,52.685225],[6.210454,52.685168],[6.211012,52.684961],[6.211225,52.68489],[6.211775,52.684793],[6.211928,52.68477],[6.212295,52.684657],[6.212375,52.684643],[6.212442,52.684635],[6.2125,52.684633],[6.212536,52.684634],[6.212574,52.684644],[6.212605,52.684658],[6.212637,52.684675],[6.212659,52.6847],[6.212671,52.684736],[6.212671,52.684775],[6.212661,52.68479],[6.21265,52.684814],[6.212634,52.684847],[6.2126,52.684874],[6.212567,52.684906],[6.21253,52.684929],[6.212499,52.684948],[6.212463,52.684974],[6.212407,52.685],[6.212359,52.685026],[6.212307,52.685057],[6.21226,52.685082],[6.212204,52.685115],[6.212086,52.685193],[6.212067,52.685222],[6.212056,52.685235],[6.212063,52.685257],[6.212086,52.685287],[6.212114,52.685308],[6.212172,52.685347],[6.212539,52.685528],[6.212632,52.685585],[6.212666,52.685607],[6.212688,52.685617],[6.212719,52.685619],[6.212834,52.685589],[6.212974,52.685521],[6.213013,52.685504],[6.213065,52.685488],[6.213112,52.685477],[6.213152,52.685481],[6.213606,52.685608],[6.213715,52.685636],[6.213744,52.685653],[6.213769,52.685671],[6.21379,52.685692],[6.213812,52.685715],[6.213832,52.685744],[6.213847,52.685771],[6.213956,52.68601],[6.213968,52.686073],[6.213985,52.686128],[6.21402,52.686202],[6.214053,52.686273],[6.214067,52.686295],[6.214096,52.686316],[6.214332,52.686404],[6.214345,52.686406],[6.214617,52.686451],[6.214724,52.686464],[6.214937,52.686487],[6.214979,52.686486],[6.215021,52.686482],[6.215049,52.686471],[6.215415,52.686345],[6.215488,52.686282],[6.215509,52.686241],[6.215498,52.686177],[6.215494,52.686151],[6.215502,52.686129],[6.215517,52.686112],[6.215554,52.6861],[6.215801,52.68609],[6.216356,52.686188],[6.216402,52.686206],[6.216442,52.686215],[6.21647,52.686235],[6.21649,52.686256],[6.21654,52.686336],[6.216563,52.68637],[6.216584,52.686393],[6.216608,52.686403],[6.21665,52.686406],[6.216729,52.686393],[6.216846,52.686362],[6.216982,52.686311],[6.217117,52.686228],[6.217188,52.686158],[6.217248,52.686114],[6.217336,52.686057],[6.217449,52.685936],[6.217479,52.685785],[6.217472,52.685748],[6.217459,52.685717],[6.217415,52.685606],[6.217402,52.685567],[6.2174,52.685546],[6.217409,52.685533],[6.217426,52.685516],[6.217453,52.685499],[6.217497,52.68549],[6.217826,52.685594],[6.218159,52.685787],[6.218316,52.685924],[6.218339,52.685943],[6.218367,52.685949],[6.218608,52.685951],[6.218667,52.685946],[6.218719,52.685934],[6.21889,52.685883],[6.218959,52.685872],[6.21922,52.685819],[6.219528,52.685775],[6.219711,52.685725],[6.219807,52.685704],[6.21984,52.685677],[6.219843,52.685605],[6.219805,52.685532],[6.219749,52.685483],[6.219585,52.685282],[6.219437,52.685074],[6.219366,52.685027],[6.219207,52.684996],[6.21916,52.684996],[6.219119,52.685003],[6.219096,52.684997],[6.219068,52.68497],[6.21905,52.684932],[6.219035,52.684845],[6.219026,52.684781],[6.219032,52.684711],[6.219042,52.684666],[6.219064,52.684627],[6.219069,52.684537],[6.219022,52.684495],[6.218989,52.684482],[6.218917,52.684458],[6.218769,52.684432],[6.218744,52.684427],[6.218727,52.684414],[6.218717,52.684389],[6.218711,52.684354],[6.218708,52.684327],[6.218737,52.684311],[6.218758,52.684302],[6.218979,52.684241],[6.219119,52.684218],[6.219162,52.68421],[6.219204,52.684208],[6.219436,52.684191],[6.219477,52.68419],[6.219536,52.684179],[6.219672,52.68414],[6.219888,52.684065],[6.219957,52.684023],[6.220016,52.683977],[6.220082,52.683917],[6.220239,52.68376],[6.220536,52.683641],[6.220584,52.683621],[6.220626,52.68361],[6.220683,52.6836],[6.221139,52.683539],[6.221165,52.683536],[6.22118,52.683526],[6.221183,52.683511],[6.221178,52.68349],[6.22117,52.683476],[6.221089,52.683413],[6.221045,52.683347],[6.220973,52.683269],[6.220951,52.683244],[6.220941,52.683221],[6.220939,52.683186],[6.220994,52.682828],[6.221026,52.682804],[6.221091,52.682779],[6.221145,52.68277],[6.221329,52.682742],[6.221389,52.682731],[6.221413,52.682729],[6.221442,52.682731],[6.22146,52.682735],[6.221473,52.682742],[6.221487,52.682753],[6.221493,52.68277],[6.221499,52.682849],[6.221532,52.682963],[6.221546,52.682994],[6.22156,52.683014],[6.221582,52.683036],[6.221617,52.683057],[6.221652,52.683061],[6.222128,52.682989],[6.222174,52.682975],[6.222222,52.682951],[6.222286,52.682927],[6.222335,52.682908],[6.222431,52.682887],[6.222495,52.682862],[6.222548,52.682823],[6.222592,52.682786],[6.222662,52.682738],[6.222721,52.682683],[6.222759,52.682646],[6.222809,52.6826],[6.222838,52.682588],[6.222886,52.682585],[6.223007,52.682605],[6.223104,52.682639],[6.223206,52.682674],[6.223324,52.68272],[6.22338,52.682744],[6.223436,52.68276],[6.223488,52.682768],[6.223553,52.682765],[6.223657,52.682744],[6.22374,52.682721],[6.223743,52.68272],[6.224038,52.682609],[6.224043,52.682607],[6.224163,52.682572],[6.224192,52.682563],[6.224361,52.682509],[6.224466,52.682485],[6.224493,52.682479],[6.224521,52.682472],[6.224523,52.682472],[6.224841,52.682435],[6.224905,52.682431],[6.224944,52.682413],[6.224945,52.682411],[6.224971,52.68236],[6.225035,52.68213],[6.225033,52.682],[6.225033,52.681995],[6.225049,52.681985],[6.225075,52.681975],[6.225105,52.681973],[6.225142,52.681975],[6.225196,52.68199],[6.225225,52.682001],[6.225277,52.682022],[6.225435,52.682107],[6.22546,52.682124],[6.225475,52.682136],[6.225483,52.682144],[6.225521,52.682184],[6.225541,52.682202],[6.225563,52.682218],[6.225587,52.682223],[6.225615,52.682223],[6.225657,52.682215],[6.225723,52.68219],[6.226158,52.681989],[6.226506,52.681872],[6.226544,52.681869],[6.226609,52.681868],[6.22664,52.681865],[6.226671,52.681851],[6.226848,52.681684],[6.226851,52.681654],[6.226836,52.681622],[6.226797,52.681594],[6.226776,52.68158],[6.22674,52.681561],[6.226707,52.681538],[6.226686,52.681515],[6.226684,52.681511],[6.226677,52.6815],[6.22668,52.681484],[6.226688,52.681461],[6.226704,52.681432],[6.226729,52.681401],[6.226772,52.681358],[6.226854,52.681312],[6.226897,52.681294],[6.226933,52.681282],[6.226952,52.681276],[6.226989,52.681267],[6.227144,52.681242],[6.227182,52.681253],[6.227403,52.681317],[6.227459,52.681378],[6.227484,52.68142],[6.227535,52.681478],[6.227558,52.681509],[6.227585,52.681579],[6.227636,52.681645],[6.227668,52.681698],[6.227671,52.681703],[6.227698,52.681726],[6.227722,52.681728],[6.22775,52.681722],[6.22781,52.681687],[6.227892,52.68163],[6.227978,52.681559],[6.228047,52.681491],[6.228094,52.681435],[6.228148,52.681355],[6.228172,52.68132],[6.228189,52.681302],[6.228231,52.681286],[6.228279,52.681277],[6.228338,52.681283],[6.228397,52.681299],[6.22847,52.681354],[6.228486,52.681366],[6.228543,52.681413],[6.228571,52.681452],[6.228613,52.681512],[6.22867,52.681631],[6.228692,52.681649],[6.228725,52.681662],[6.22877,52.681662],[6.228941,52.681604],[6.22903,52.681572],[6.229036,52.681568],[6.229102,52.681524],[6.229155,52.681494],[6.229196,52.681482],[6.229237,52.681481],[6.229305,52.681505],[6.229378,52.68153],[6.22949,52.68159],[6.229551,52.681621],[6.22961,52.681634],[6.229637,52.681633],[6.229698,52.681615],[6.229771,52.681573],[6.229871,52.681516],[6.229981,52.68148],[6.230094,52.681437],[6.230101,52.681434],[6.23021,52.681397],[6.230264,52.681377],[6.230325,52.681351],[6.230377,52.681328],[6.230385,52.681325],[6.230421,52.681306],[6.230453,52.681291],[6.230486,52.681279],[6.230511,52.681271],[6.230543,52.681259],[6.23057,52.681242],[6.230582,52.681223],[6.230604,52.681203],[6.230615,52.681197],[6.230623,52.681193],[6.230663,52.681185],[6.230718,52.681176],[6.230763,52.681175],[6.230825,52.681174],[6.23094,52.681172],[6.231062,52.681171],[6.23114,52.681172],[6.231148,52.681172],[6.231184,52.681174],[6.231186,52.681174],[6.231405,52.681179],[6.231466,52.681182],[6.23151,52.681183],[6.231537,52.681182],[6.231583,52.681183],[6.23159,52.681184],[6.231619,52.681186],[6.231652,52.681187],[6.23169,52.68119],[6.231747,52.6812],[6.231798,52.681213],[6.231841,52.681233],[6.231891,52.681257],[6.231927,52.681291],[6.231981,52.681339],[6.232025,52.681373],[6.232045,52.681391],[6.232054,52.681396],[6.232081,52.681411],[6.232115,52.681435],[6.232131,52.681442],[6.232179,52.681453],[6.23221,52.681458],[6.232248,52.681463],[6.232279,52.681467],[6.232346,52.68147],[6.232486,52.681484],[6.232523,52.68149],[6.232568,52.681496],[6.232598,52.681495],[6.232621,52.681491],[6.232651,52.681486],[6.232676,52.681478],[6.232741,52.681455],[6.232778,52.681437],[6.232807,52.68142],[6.232842,52.681401],[6.232868,52.68138],[6.232899,52.681355],[6.232926,52.681329],[6.232964,52.681297],[6.23301,52.681253],[6.233032,52.681226],[6.233046,52.681209],[6.233071,52.681177],[6.233085,52.681162],[6.233099,52.681119],[6.233115,52.681076],[6.233117,52.681068],[6.233121,52.681059],[6.233137,52.681018],[6.233142,52.68092],[6.233147,52.680892],[6.233152,52.680858],[6.233166,52.680763],[6.233177,52.680728],[6.233183,52.6807],[6.233175,52.680666],[6.233167,52.68063],[6.233168,52.6806],[6.233168,52.680559],[6.233196,52.68052],[6.233238,52.68047],[6.233257,52.680456],[6.233268,52.680452],[6.233286,52.680444],[6.233384,52.680416],[6.233473,52.680394],[6.233512,52.680405],[6.233571,52.680413],[6.233639,52.680421],[6.233689,52.680424],[6.233733,52.680422],[6.23379,52.680411],[6.233842,52.680393],[6.233859,52.680385],[6.23391,52.680371],[6.233932,52.680366],[6.233965,52.680334],[6.23399,52.680314],[6.234008,52.680298],[6.234046,52.680266],[6.234061,52.680238],[6.234065,52.680222],[6.234048,52.680196],[6.234052,52.680175],[6.234053,52.680162],[6.23404,52.680142],[6.234025,52.68013],[6.234011,52.680126],[6.233978,52.680116],[6.233895,52.680087],[6.233725,52.68003],[6.233683,52.680017],[6.233634,52.680003],[6.233513,52.679971],[6.233438,52.679958],[6.233312,52.679932],[6.233242,52.679918],[6.233222,52.679916],[6.233185,52.679919],[6.233141,52.679921],[6.233108,52.679923],[6.233088,52.679923],[6.233078,52.679923],[6.233017,52.679906],[6.232982,52.679894],[6.232952,52.679881],[6.232925,52.67987],[6.232926,52.679844],[6.232921,52.679828],[6.232917,52.679818],[6.232901,52.679778],[6.232887,52.679747],[6.232883,52.679721],[6.232877,52.679689],[6.232868,52.679629],[6.232864,52.679612],[6.232855,52.679594],[6.232856,52.679526],[6.232846,52.679504],[6.232826,52.679431],[6.232822,52.679415],[6.232821,52.679396],[6.232787,52.679357],[6.232787,52.679313],[6.23278,52.679295],[6.232782,52.679275],[6.232787,52.679199],[6.232794,52.67918],[6.232843,52.679109],[6.233019,52.679083],[6.233069,52.67909],[6.233119,52.679091],[6.233163,52.679097],[6.233203,52.679104],[6.233274,52.679127],[6.233358,52.679151],[6.233384,52.679156],[6.233438,52.679164],[6.23346,52.679119],[6.233472,52.679079],[6.23348,52.679041],[6.23348,52.679],[6.233473,52.678971],[6.233469,52.678939],[6.233467,52.67893],[6.23346,52.678914],[6.233434,52.678903],[6.233395,52.678874],[6.233373,52.678849],[6.233368,52.678833],[6.233397,52.678806],[6.233484,52.678766],[6.233551,52.678733],[6.23357,52.678729],[6.233637,52.678729],[6.233697,52.678762],[6.233865,52.678824],[6.233876,52.678828],[6.233941,52.678852],[6.233963,52.678867],[6.233987,52.678882],[6.234007,52.678893],[6.234028,52.678897],[6.234052,52.6789],[6.234082,52.678903],[6.23411,52.678899],[6.234128,52.678892],[6.234164,52.678876],[6.234218,52.678848],[6.234251,52.678827],[6.234279,52.678807],[6.234347,52.678754],[6.234385,52.678723],[6.23442,52.678691],[6.234435,52.678675],[6.234455,52.678655],[6.234494,52.678619],[6.234499,52.678615],[6.234517,52.6786],[6.234549,52.678578],[6.234626,52.678532],[6.23469,52.678494],[6.23477,52.678448],[6.234833,52.678416],[6.234881,52.678388],[6.234957,52.678354],[6.235026,52.678326],[6.235099,52.6783],[6.235168,52.678282],[6.235255,52.678261],[6.235324,52.678245],[6.235388,52.678221],[6.235451,52.678198],[6.235501,52.678183],[6.235534,52.678174],[6.235616,52.678155],[6.235693,52.678141],[6.235879,52.678121],[6.23602,52.678111],[6.236144,52.678107],[6.236282,52.67811],[6.236352,52.67811],[6.236417,52.678108],[6.236516,52.678097],[6.236571,52.678091],[6.236588,52.678089],[6.236627,52.678083],[6.236685,52.678073],[6.236726,52.678061],[6.236778,52.678045],[6.236808,52.678029],[6.23683,52.67801],[6.23684,52.677985],[6.236844,52.677963],[6.236846,52.677954],[6.236858,52.677862],[6.236864,52.677812],[6.236866,52.677793],[6.236857,52.677768],[6.236836,52.677726],[6.23683,52.677701],[6.236823,52.677664],[6.236874,52.67763],[6.236915,52.677603],[6.236956,52.677583],[6.236985,52.677574],[6.237041,52.67756],[6.237075,52.677548],[6.237134,52.67754],[6.237197,52.677534],[6.237242,52.677529],[6.237307,52.677519],[6.237354,52.677513],[6.237376,52.677507],[6.237463,52.67749],[6.237556,52.677471],[6.237637,52.67745],[6.237732,52.677427],[6.237779,52.677416],[6.237879,52.677404],[6.237938,52.677397],[6.23799,52.67739],[6.238039,52.67739],[6.238098,52.677395],[6.238185,52.677412],[6.238237,52.677428],[6.238328,52.677455],[6.238429,52.677484],[6.238509,52.677512],[6.238573,52.677543],[6.238639,52.677578],[6.2387,52.677615],[6.238719,52.677628],[6.23873,52.677635],[6.238754,52.677651],[6.238793,52.677666],[6.238838,52.677687],[6.238873,52.677701],[6.238908,52.677711],[6.238943,52.677718],[6.238984,52.677724],[6.239024,52.677729],[6.239101,52.677725],[6.239235,52.677723],[6.23928,52.677722],[6.239729,52.677702],[6.239891,52.677696],[6.239939,52.677695],[6.239979,52.677694],[6.24004,52.677699],[6.240089,52.677702],[6.240123,52.677709],[6.240149,52.677713],[6.240196,52.677716],[6.240284,52.677722],[6.240369,52.677726],[6.240401,52.677726],[6.240504,52.677729],[6.240564,52.67774],[6.240606,52.677753],[6.24067,52.67778],[6.240692,52.677795],[6.24072,52.677815],[6.240907,52.677946],[6.241015,52.678023],[6.2411,52.678086],[6.241149,52.678131],[6.241173,52.678154],[6.241202,52.67818],[6.241232,52.678201],[6.241264,52.678218],[6.241286,52.67823],[6.241302,52.678242],[6.241322,52.678247],[6.241363,52.678262],[6.241399,52.67828],[6.241443,52.678301],[6.241469,52.678317],[6.241495,52.678332],[6.241528,52.678342],[6.241616,52.678361],[6.241645,52.678366],[6.241688,52.678371],[6.241738,52.678369],[6.241774,52.678361],[6.241812,52.678354],[6.241885,52.678336],[6.241943,52.67832],[6.242016,52.678296],[6.242059,52.678277],[6.242062,52.678276],[6.24212,52.678249],[6.242217,52.678203],[6.242258,52.678187],[6.242295,52.67818],[6.24234,52.678177],[6.24237,52.678175],[6.242402,52.67817],[6.242423,52.678171],[6.242445,52.678189],[6.242469,52.678212],[6.242522,52.678259],[6.242565,52.678307],[6.242592,52.67834],[6.242618,52.67838],[6.242664,52.678454],[6.242682,52.678479],[6.242698,52.678498],[6.242702,52.678504],[6.242734,52.678552],[6.242748,52.678571],[6.242782,52.678596],[6.242818,52.678617],[6.242857,52.678635],[6.242903,52.678649],[6.242949,52.678658],[6.243049,52.678675],[6.243101,52.678682],[6.243217,52.678698],[6.243249,52.678708],[6.243292,52.678723],[6.243337,52.678744],[6.243365,52.678756],[6.243369,52.678758],[6.243402,52.678768],[6.243424,52.678773],[6.243499,52.678785],[6.243576,52.678769],[6.24364,52.678759],[6.243674,52.678752],[6.243709,52.678737],[6.243761,52.678718],[6.243795,52.678703],[6.243815,52.678689],[6.243862,52.678657],[6.243948,52.678593],[6.243954,52.678588],[6.244098,52.678501],[6.244238,52.678418],[6.244363,52.678349],[6.24441,52.678327],[6.24449,52.67829],[6.244545,52.678237],[6.244605,52.67822],[6.244647,52.67821],[6.24467,52.678197],[6.244699,52.678169],[6.244759,52.678114],[6.244797,52.678064],[6.244821,52.67803],[6.244842,52.677989],[6.244862,52.677947],[6.244872,52.677917],[6.244878,52.677888],[6.244883,52.677861],[6.244884,52.67782],[6.244889,52.677804],[6.244931,52.677771],[6.244958,52.677754],[6.245006,52.677733],[6.245087,52.677689],[6.245105,52.677681],[6.245137,52.677673],[6.245234,52.677655],[6.245235,52.677655],[6.245266,52.677646],[6.245287,52.677633],[6.245329,52.677604],[6.24535,52.67758],[6.245365,52.677563],[6.245362,52.677545],[6.245334,52.677474],[6.24533,52.677426],[6.245321,52.677353],[6.245319,52.677311],[6.245306,52.677251],[6.245294,52.677222],[6.245311,52.677192],[6.245353,52.677169],[6.245379,52.677166],[6.245409,52.677168],[6.245519,52.677206],[6.245562,52.677225],[6.245648,52.677265],[6.245691,52.677286],[6.245733,52.677305],[6.245754,52.677318],[6.245768,52.677326],[6.245808,52.677342],[6.24588,52.677354],[6.245906,52.677348],[6.245928,52.677336],[6.245959,52.677318],[6.246008,52.677275],[6.24604,52.677243],[6.24608,52.677196],[6.246111,52.67715],[6.246144,52.677094],[6.246165,52.677049],[6.246171,52.677037],[6.246182,52.676988],[6.246183,52.676931],[6.246179,52.676871],[6.246145,52.676841],[6.246133,52.67682],[6.246127,52.676796],[6.246127,52.676771],[6.246136,52.676738],[6.246145,52.676712],[6.246158,52.676696],[6.246178,52.676681],[6.246212,52.67666],[6.246248,52.676648],[6.246286,52.676641],[6.246333,52.676632],[6.246372,52.67663],[6.246419,52.676635],[6.24656,52.676651],[6.246599,52.676659],[6.24664,52.676667],[6.246694,52.67669],[6.246708,52.676696],[6.246721,52.676702],[6.246746,52.67671],[6.246793,52.676723],[6.246824,52.676724],[6.246856,52.676721],[6.246894,52.676717],[6.246927,52.676706],[6.246963,52.676682],[6.246986,52.676665],[6.247007,52.676645],[6.247061,52.676586],[6.247082,52.67656],[6.247091,52.676528],[6.2471,52.676492],[6.247111,52.676469],[6.247128,52.676446],[6.247161,52.676408],[6.247193,52.67638],[6.247194,52.67638],[6.247223,52.676358],[6.247256,52.676339],[6.247256,52.676339],[6.247289,52.676324],[6.247326,52.676308],[6.247364,52.676296],[6.247411,52.676288],[6.247443,52.676284],[6.247472,52.676282],[6.247519,52.67625],[6.247552,52.676223],[6.247636,52.676165],[6.247669,52.676133],[6.247708,52.676094],[6.247728,52.676067],[6.24775,52.676026],[6.247769,52.676005],[6.247777,52.675996],[6.247782,52.675978],[6.247781,52.675961],[6.247782,52.675896],[6.247791,52.675881],[6.247809,52.675862],[6.24783,52.675843],[6.247897,52.675813],[6.247965,52.675792],[6.248059,52.675755],[6.248094,52.675745],[6.248151,52.675728],[6.248232,52.675694],[6.248272,52.675678],[6.248288,52.675671],[6.248331,52.675646],[6.248354,52.675633],[6.248365,52.675617],[6.248373,52.675603],[6.248388,52.675572],[6.248385,52.67556],[6.248384,52.675556],[6.248378,52.675529],[6.248363,52.675492],[6.248349,52.675459],[6.248336,52.67542],[6.248318,52.675388],[6.248307,52.675361],[6.248287,52.675331],[6.248276,52.675305],[6.248271,52.675271],[6.248279,52.675234],[6.248289,52.6752],[6.248303,52.675164],[6.248322,52.675117],[6.248342,52.675076],[6.248347,52.675052],[6.248352,52.675008],[6.248353,52.675001],[6.248358,52.674975],[6.24836,52.674944],[6.248361,52.674932],[6.248363,52.674889],[6.248359,52.674801],[6.248371,52.674784],[6.248396,52.674746],[6.248436,52.674691],[6.248493,52.67461],[6.248543,52.674541],[6.248561,52.674519],[6.248588,52.674491],[6.24862,52.674464],[6.248653,52.674436],[6.248698,52.674397],[6.248728,52.674365],[6.248769,52.674315],[6.248833,52.674238],[6.248863,52.674196],[6.248865,52.674193],[6.248875,52.674163],[6.248878,52.674155],[6.248881,52.67415],[6.248894,52.674119],[6.248911,52.674058],[6.248912,52.674054],[6.248922,52.674023],[6.248929,52.674006],[6.248932,52.673997],[6.248954,52.673966],[6.248967,52.673944],[6.248966,52.673901],[6.248957,52.673862],[6.248946,52.673844],[6.248905,52.673816],[6.248873,52.673796],[6.248851,52.673786],[6.248818,52.673781],[6.248787,52.673778],[6.248771,52.673775],[6.248765,52.673775],[6.248692,52.673774],[6.248609,52.673771],[6.248578,52.673755],[6.248543,52.673734],[6.248509,52.673696],[6.248495,52.67367],[6.248495,52.673654],[6.248491,52.673628],[6.248474,52.673599],[6.248441,52.673569],[6.248424,52.673533],[6.248422,52.673525],[6.248411,52.673491],[6.248397,52.67345],[6.248379,52.673422],[6.248363,52.673396],[6.248337,52.673358],[6.248307,52.67333],[6.248304,52.673327],[6.248283,52.673304],[6.248245,52.673281],[6.2482,52.673255],[6.248153,52.67323],[6.248104,52.673208],[6.24803,52.67318],[6.247975,52.673163],[6.247939,52.673155],[6.24791,52.673151],[6.247867,52.673141],[6.247863,52.673141],[6.247826,52.673134],[6.247787,52.673136],[6.247751,52.673139],[6.247713,52.673142],[6.247679,52.673144],[6.247649,52.673137],[6.247617,52.67312],[6.247576,52.673094],[6.247543,52.673073],[6.247514,52.673042],[6.247482,52.673013],[6.247446,52.672981],[6.247419,52.672958],[6.247383,52.672938],[6.247351,52.672918],[6.247316,52.672895],[6.247293,52.672877],[6.247287,52.67286],[6.247284,52.672843],[6.247286,52.672811],[6.247338,52.672776],[6.247406,52.672736],[6.247489,52.672724],[6.247601,52.672719],[6.247699,52.6727],[6.247891,52.672669],[6.247992,52.672656],[6.248033,52.672643],[6.248057,52.672629],[6.248082,52.672618],[6.248128,52.672597],[6.248206,52.672568],[6.248227,52.672553],[6.248247,52.672531],[6.248261,52.67251],[6.248258,52.672481],[6.248248,52.672428],[6.248243,52.672382],[6.24823,52.67233],[6.248223,52.672292],[6.248225,52.672244],[6.248232,52.672174],[6.24823,52.672143],[6.248228,52.672117],[6.248227,52.672103],[6.248211,52.672071],[6.248206,52.672035],[6.248204,52.671998],[6.248214,52.671974],[6.248227,52.671956],[6.248253,52.671936],[6.248304,52.671906],[6.248352,52.671882],[6.2484,52.671862],[6.248507,52.671827],[6.248531,52.671816],[6.248574,52.671802],[6.248637,52.671792],[6.248674,52.671787],[6.248734,52.671778],[6.248838,52.671768],[6.248942,52.671757],[6.248971,52.671751],[6.249028,52.671742],[6.249069,52.671755],[6.24911,52.671756],[6.249135,52.671753],[6.249166,52.671738],[6.249184,52.671725],[6.249191,52.671705],[6.249193,52.671676],[6.249202,52.671625],[6.249201,52.671604],[6.249208,52.67158],[6.249197,52.671545],[6.249177,52.671489],[6.249168,52.671467],[6.249179,52.671438],[6.249185,52.671419],[6.249201,52.671397],[6.249238,52.671371],[6.249303,52.671358],[6.24937,52.671363],[6.249555,52.671385],[6.249713,52.671399],[6.249765,52.671412],[6.249813,52.671432],[6.249874,52.671513],[6.24987,52.671541],[6.249856,52.671561],[6.249842,52.671588],[6.249856,52.671613],[6.24986,52.671616],[6.249878,52.671636],[6.249939,52.671645],[6.249948,52.671646],[6.249977,52.671648],[6.250029,52.671639],[6.250106,52.671623],[6.250178,52.671611],[6.250237,52.671605],[6.250302,52.671601],[6.25036,52.671603],[6.250386,52.671607],[6.250418,52.671633],[6.250444,52.671661],[6.250425,52.671706],[6.250398,52.671763],[6.250416,52.671802],[6.250443,52.671856],[6.25048,52.671871],[6.250524,52.671878],[6.250566,52.671878],[6.250612,52.671867],[6.250651,52.671852],[6.250694,52.671828],[6.250771,52.671782],[6.250862,52.67173],[6.250894,52.671698],[6.250927,52.671674],[6.250965,52.671642],[6.250976,52.671618],[6.250988,52.671589],[6.250993,52.671564],[6.250981,52.671527],[6.250969,52.671494],[6.250948,52.671458],[6.250925,52.671421],[6.250897,52.671384],[6.250875,52.671362],[6.250837,52.671332],[6.2508,52.671308],[6.250768,52.671286],[6.250713,52.671262],[6.250648,52.67124],[6.25058,52.671215],[6.2505,52.671185],[6.250451,52.671171],[6.250384,52.671152],[6.250339,52.671141],[6.250297,52.671123],[6.250276,52.671109],[6.250274,52.671108],[6.25027,52.671096],[6.250276,52.671074],[6.250298,52.671028],[6.250355,52.670958],[6.250422,52.670897],[6.250488,52.670832],[6.250532,52.670781],[6.25058,52.670721],[6.250605,52.670683],[6.250656,52.670648],[6.250712,52.670604],[6.250755,52.670583],[6.250792,52.670562],[6.250852,52.670539],[6.25091,52.670524],[6.250974,52.670511],[6.251034,52.670497],[6.251085,52.670479],[6.251127,52.670455],[6.251188,52.670417],[6.251242,52.670374],[6.251327,52.670303],[6.25145,52.670246],[6.251546,52.670189],[6.251626,52.670145],[6.251707,52.6701],[6.251766,52.670066],[6.251813,52.670022],[6.251842,52.669993],[6.251855,52.66998],[6.251899,52.669944],[6.251949,52.669911],[6.252002,52.669881],[6.252029,52.669887],[6.252116,52.669949],[6.252141,52.669967],[6.25231,52.670029],[6.252337,52.670037],[6.252425,52.670046],[6.252499,52.670043],[6.252578,52.670038],[6.252688,52.670025],[6.252784,52.670026],[6.252898,52.670026],[6.252956,52.670034],[6.253119,52.670062],[6.253149,52.670067],[6.253196,52.670101],[6.253308,52.670069],[6.253317,52.670066],[6.253424,52.670029],[6.253521,52.670006],[6.253677,52.669998],[6.25376,52.670021],[6.253791,52.670035],[6.253864,52.670089],[6.253955,52.670151],[6.253961,52.670156],[6.253995,52.670182],[6.254046,52.670205],[6.254096,52.670222],[6.254121,52.670224],[6.254173,52.670221],[6.254221,52.670208],[6.254256,52.670198],[6.254336,52.670141],[6.254359,52.670116],[6.254466,52.669927],[6.254481,52.6699],[6.254482,52.669867],[6.25448,52.669841],[6.25448,52.669814],[6.254494,52.669778],[6.254511,52.669736],[6.254533,52.669704],[6.254561,52.669668],[6.254591,52.669641],[6.254622,52.669618],[6.254736,52.669579],[6.254818,52.669623],[6.254836,52.669702],[6.254843,52.669733],[6.254849,52.669761],[6.25486,52.6698],[6.254861,52.669856],[6.254872,52.669913],[6.254895,52.669973],[6.254888,52.67002],[6.254907,52.670053],[6.254925,52.670066],[6.254945,52.670079],[6.254972,52.670092],[6.255011,52.670094],[6.255042,52.670088],[6.255079,52.670072],[6.255088,52.670055],[6.255057,52.66998],[6.255096,52.66986],[6.255144,52.66977],[6.255239,52.669736],[6.255329,52.669762],[6.255382,52.669795],[6.255463,52.669855],[6.255489,52.669875],[6.255584,52.669935],[6.255597,52.669944],[6.255695,52.669924],[6.255778,52.66984],[6.255802,52.669768],[6.255817,52.669716],[6.255816,52.669671],[6.255825,52.66965],[6.255838,52.669622],[6.255845,52.66962],[6.255912,52.669602],[6.256003,52.669634],[6.25601,52.669654],[6.256011,52.669655],[6.256065,52.669812],[6.256192,52.669914],[6.256266,52.669949],[6.256355,52.669972],[6.256415,52.669981],[6.256467,52.669985],[6.256628,52.669984],[6.256812,52.669984],[6.256878,52.669967],[6.257116,52.669958],[6.257142,52.669981],[6.257191,52.670017],[6.257231,52.670072],[6.257232,52.670075],[6.257263,52.670135],[6.257309,52.670191],[6.257324,52.670225],[6.257332,52.670346],[6.25742,52.670408],[6.257607,52.670398],[6.257775,52.670295],[6.257828,52.670248],[6.257883,52.670208],[6.257975,52.67011],[6.258004,52.670071],[6.258028,52.670032],[6.258042,52.669995],[6.25803,52.669932],[6.258026,52.66991],[6.258042,52.669845],[6.258116,52.669817],[6.258176,52.669818],[6.258354,52.669854],[6.258464,52.669874],[6.258707,52.669911],[6.258889,52.66992],[6.258949,52.669921],[6.259181,52.669914],[6.259255,52.669896],[6.259427,52.669864],[6.25944,52.669869],[6.259532,52.6699],[6.259592,52.669967],[6.259681,52.670102],[6.259751,52.670259],[6.259796,52.670359],[6.259895,52.670402],[6.259944,52.670397],[6.260044,52.670429],[6.260148,52.670443],[6.260308,52.670451],[6.260535,52.670478],[6.260621,52.670453],[6.260672,52.670424],[6.26076,52.670367],[6.260838,52.670301],[6.260881,52.670273],[6.26091,52.670254],[6.261037,52.670199],[6.261111,52.670187],[6.26121,52.670158],[6.261324,52.670128],[6.261501,52.670122],[6.261625,52.670138],[6.261703,52.670138],[6.261779,52.67011],[6.261792,52.670102],[6.261795,52.670101],[6.261854,52.670068],[6.261873,52.670057],[6.26192,52.67001],[6.261961,52.669973],[6.262028,52.669895],[6.262179,52.669731],[6.262313,52.669681],[6.262389,52.66968],[6.262534,52.669686],[6.262586,52.66969],[6.262706,52.669739],[6.262887,52.66979],[6.262989,52.669806],[6.263012,52.669809],[6.263078,52.669815],[6.263165,52.669798],[6.263222,52.669778],[6.263262,52.669741],[6.26328,52.669724],[6.263289,52.669696],[6.263299,52.66964],[6.263351,52.669553],[6.263353,52.669552],[6.263452,52.66947],[6.263503,52.669448],[6.26378,52.669402],[6.26403,52.669379],[6.264081,52.669353],[6.264567,52.66928],[6.264765,52.669278],[6.264902,52.669298],[6.264913,52.669299],[6.265401,52.669179],[6.26545,52.669165],[6.265489,52.669139],[6.265487,52.66905],[6.265336,52.668855],[6.265287,52.668763],[6.265281,52.668736],[6.265231,52.668579],[6.265214,52.668433],[6.265237,52.668335],[6.265368,52.668165],[6.26549,52.668037],[6.265489,52.668032],[6.265489,52.668013],[6.265501,52.667988],[6.265551,52.667997],[6.265568,52.668034],[6.266162,52.668196],[6.266259,52.668221],[6.266325,52.668258],[6.266333,52.668332],[6.266307,52.668619],[6.26629,52.668711],[6.266234,52.668916],[6.266166,52.669172],[6.266093,52.669449],[6.266035,52.66969],[6.266029,52.669713],[6.266032,52.669871],[6.266048,52.669939],[6.266081,52.670001],[6.266188,52.670175],[6.266292,52.670494],[6.266307,52.670542],[6.266326,52.670599],[6.266457,52.670996],[6.266504,52.671048],[6.266542,52.671071],[6.266636,52.671124],[6.26674,52.67116],[6.267627,52.671355],[6.268089,52.671464],[6.268318,52.671539],[6.268489,52.671618],[6.268576,52.671715],[6.268634,52.671818],[6.268695,52.672071],[6.269046,52.673576],[6.269201,52.673558],[6.269773,52.673493],[6.270866,52.673375],[6.272489,52.673198],[6.27255,52.673405],[6.272555,52.673421],[6.272608,52.673615],[6.272668,52.673742],[6.272682,52.673795],[6.272668,52.673846],[6.272587,52.673972],[6.272527,52.674168],[6.272439,52.674162],[6.272424,52.6742],[6.2724,52.67428],[6.272339,52.674473],[6.272215,52.67472],[6.272076,52.674995],[6.271895,52.675354],[6.271842,52.67546],[6.271738,52.675668],[6.271729,52.675691],[6.271721,52.675712],[6.271648,52.675888],[6.2716,52.676024],[6.27154,52.676226],[6.271471,52.676517],[6.27126,52.677467],[6.271148,52.678],[6.27084,52.679363],[6.270751,52.679777],[6.27073,52.679866],[6.270636,52.680268],[6.270541,52.680723],[6.270526,52.68077],[6.270423,52.681083],[6.270295,52.681417],[6.270147,52.681703],[6.269888,52.682113],[6.269829,52.682206],[6.269815,52.682228],[6.269928,52.682252],[6.270303,52.682331],[6.270363,52.682344],[6.270349,52.682362],[6.270335,52.682394],[6.270344,52.682435],[6.270364,52.682467],[6.270409,52.682519],[6.27041,52.682519],[6.271196,52.682691],[6.271305,52.682715],[6.271717,52.682807],[6.271873,52.682734],[6.271914,52.682745],[6.272349,52.682862],[6.272692,52.682973],[6.272717,52.682981],[6.272836,52.683026],[6.272963,52.683074],[6.27323,52.683163],[6.273537,52.683247],[6.273874,52.683324],[6.274219,52.683387],[6.274416,52.683413],[6.27457,52.683427],[6.275161,52.683447],[6.275849,52.683351],[6.276254,52.683294],[6.276407,52.683272],[6.276477,52.683332],[6.276909,52.683264],[6.278046,52.683092],[6.279136,52.682916],[6.279478,52.682862],[6.279549,52.68285],[6.279639,52.682836],[6.280745,52.682658],[6.281665,52.682511],[6.282031,52.68245],[6.28282,52.682337],[6.283478,52.682248],[6.283519,52.68246],[6.283524,52.682492],[6.283618,52.683016],[6.28368,52.683366],[6.28374,52.683642],[6.283774,52.6838],[6.283783,52.683842],[6.283788,52.683866],[6.283801,52.683923],[6.283842,52.684114],[6.283843,52.684119],[6.283846,52.684131],[6.28383,52.684134],[6.283843,52.6842],[6.282946,52.684281],[6.28296,52.684337],[6.282919,52.684342],[6.282802,52.684354],[6.28274,52.68436],[6.282381,52.684396],[6.282158,52.684417],[6.281741,52.684474],[6.281701,52.684489],[6.281606,52.684525],[6.281516,52.684567],[6.281509,52.68457],[6.28142,52.684606],[6.281142,52.684734],[6.28114,52.684735],[6.280799,52.684901],[6.279905,52.685353],[6.279803,52.685405],[6.279258,52.68568],[6.279225,52.685697],[6.278894,52.685864],[6.277984,52.686324],[6.277077,52.686783],[6.277023,52.68681],[6.276971,52.686844],[6.276867,52.686911],[6.276359,52.687242],[6.276163,52.687366],[6.275852,52.687542],[6.27562,52.687652],[6.275423,52.687743],[6.275465,52.687964],[6.275497,52.688125],[6.275518,52.688219],[6.275837,52.690005],[6.275854,52.6901],[6.275861,52.690135],[6.275867,52.690173],[6.275869,52.69019],[6.275874,52.690216],[6.275886,52.690278],[6.275892,52.690301],[6.275892,52.690303],[6.275894,52.69031],[6.276097,52.690294],[6.276916,52.690238],[6.276975,52.690234],[6.277539,52.690192],[6.277626,52.690165],[6.277676,52.69015],[6.277779,52.690117],[6.277794,52.690115],[6.278144,52.690091],[6.278747,52.690055],[6.279021,52.690036],[6.279095,52.690017],[6.279171,52.689989],[6.279261,52.689978],[6.279477,52.689965],[6.279971,52.689936],[6.279982,52.689936],[6.280008,52.689934],[6.280121,52.689928],[6.280458,52.689905],[6.281106,52.689866],[6.28181,52.689822],[6.282126,52.689806],[6.28217,52.689825],[6.282216,52.689851],[6.282274,52.689857],[6.282493,52.689843],[6.2829,52.689815],[6.283779,52.689756],[6.284162,52.689725],[6.28465,52.689693],[6.284889,52.689676],[6.284912,52.689678],[6.284964,52.689682],[6.285012,52.689705],[6.285028,52.689731],[6.285041,52.689816],[6.285073,52.689982],[6.285095,52.690089],[6.285129,52.690262],[6.285172,52.69051],[6.285208,52.69068],[6.285215,52.690728],[6.285217,52.690738],[6.285242,52.690893],[6.285269,52.691029],[6.285287,52.691118],[6.285334,52.691363],[6.285381,52.691611],[6.285424,52.691839],[6.285449,52.691956],[6.285502,52.692261],[6.285537,52.692428],[6.285547,52.692479],[6.28556,52.692596],[6.285558,52.692623],[6.285534,52.692653],[6.285496,52.692687],[6.285459,52.692712],[6.285427,52.69275],[6.285406,52.692792],[6.285407,52.692839],[6.285412,52.692896],[6.285431,52.692981],[6.285466,52.693157],[6.285497,52.693328],[6.285533,52.693522],[6.285545,52.69358],[6.285567,52.693689],[6.285624,52.693975],[6.285649,52.694111],[6.285685,52.694278],[6.285718,52.694446],[6.285717,52.694481],[6.285698,52.694524],[6.285674,52.694563],[6.285674,52.694594],[6.285674,52.694597],[6.285679,52.694642],[6.285695,52.694723],[6.285714,52.69482],[6.285741,52.694943],[6.285755,52.695027],[6.285761,52.695067],[6.285783,52.695157],[6.285814,52.695321],[6.285849,52.695504],[6.285904,52.695696],[6.285898,52.69574],[6.2859,52.695749],[6.285929,52.695896],[6.285935,52.695931],[6.285937,52.695939],[6.286029,52.696415],[6.286067,52.696608],[6.286151,52.697047],[6.286155,52.697066],[6.286157,52.697073],[6.28616,52.697092],[6.286165,52.697118],[6.286369,52.69817],[6.286481,52.69821],[6.28652,52.698255],[6.286539,52.698295],[6.286549,52.698329],[6.286567,52.698407],[6.286606,52.698577],[6.286627,52.698679],[6.286629,52.69869],[6.286639,52.698738],[6.286679,52.698945],[6.286688,52.698992],[6.2867,52.699069],[6.286683,52.699126],[6.286657,52.69915],[6.286618,52.699177],[6.286478,52.699128],[6.286278,52.699057],[6.286269,52.699054],[6.285785,52.698884],[6.2856,52.698819],[6.28495,52.69859],[6.284309,52.698359],[6.283937,52.69823],[6.283758,52.698168],[6.283689,52.698144],[6.28363,52.698123],[6.28353,52.698087],[6.283403,52.698041],[6.283401,52.69804],[6.28307,52.697921],[6.282326,52.697667],[6.282254,52.697642],[6.281712,52.697446],[6.281186,52.697267],[6.280747,52.69711],[6.28015,52.696903],[6.28011,52.696889],[6.280085,52.69688],[6.280076,52.696877],[6.279919,52.696823],[6.279412,52.696632],[6.279295,52.696599],[6.279286,52.696596],[6.27927,52.696592],[6.279037,52.696508],[6.278931,52.696469],[6.278754,52.696402],[6.278558,52.696335],[6.27833,52.696258],[6.278221,52.696219],[6.277977,52.696139],[6.277767,52.696066],[6.277712,52.696046],[6.277355,52.695913],[6.277053,52.695812],[6.27685,52.695741],[6.276361,52.695572],[6.276151,52.695494],[6.276056,52.695465],[6.276,52.695456],[6.275938,52.695458],[6.275889,52.69546],[6.275808,52.695463],[6.275819,52.695526],[6.275841,52.69569],[6.275858,52.69581],[6.275872,52.695889],[6.275899,52.696031],[6.275934,52.696215],[6.275946,52.696297],[6.27597,52.696437],[6.276002,52.696612],[6.276032,52.696771],[6.276052,52.696859],[6.276075,52.69694],[6.276114,52.697044],[6.276128,52.697084],[6.276141,52.697147],[6.276158,52.697233],[6.276178,52.697333],[6.276206,52.697512],[6.27623,52.697652],[6.276245,52.697727],[6.276267,52.697837],[6.276281,52.697899],[6.276294,52.69794],[6.276314,52.697981],[6.276326,52.698004],[6.276361,52.698034],[6.276391,52.698056],[6.276424,52.698079],[6.27646,52.698096],[6.276499,52.698114],[6.27656,52.698139],[6.276657,52.698176],[6.276934,52.698273],[6.27716,52.698354],[6.277318,52.698405],[6.27746,52.698457],[6.277651,52.698523],[6.27795,52.698631],[6.278185,52.698715],[6.278266,52.698741],[6.278545,52.698837],[6.278792,52.698924],[6.279083,52.699026],[6.279132,52.699044],[6.279612,52.699215],[6.27964,52.699225],[6.279595,52.699264],[6.279584,52.699273],[6.279517,52.69934],[6.279493,52.699371],[6.2795,52.699407],[6.279519,52.699435],[6.27954,52.699465],[6.279602,52.699529],[6.279623,52.699568],[6.279635,52.699612],[6.279623,52.699664],[6.279602,52.699697],[6.27958,52.699724],[6.279535,52.699768],[6.279491,52.699815],[6.27946,52.699857],[6.279429,52.699904],[6.279394,52.699958],[6.279368,52.700004],[6.279343,52.700053],[6.27934,52.700061],[6.279322,52.700104],[6.279305,52.700145],[6.279285,52.700169],[6.279284,52.700171],[6.279251,52.700203],[6.279245,52.700204],[6.27924,52.700205],[6.279235,52.700207],[6.279229,52.700208],[6.279224,52.70021],[6.279219,52.700211],[6.279214,52.700213],[6.27921,52.700215],[6.279205,52.700217],[6.2792,52.700219],[6.279196,52.700222],[6.279192,52.700224],[6.279088,52.700286],[6.278473,52.700697],[6.277952,52.701051],[6.277825,52.700998],[6.277202,52.700761],[6.276758,52.700602],[6.2767,52.700586],[6.276789,52.701136],[6.276806,52.701243],[6.276883,52.701676],[6.276884,52.701682],[6.276886,52.701693],[6.276975,52.702211],[6.276987,52.702282],[6.276987,52.702284],[6.276991,52.702328],[6.277029,52.702508],[6.277066,52.702684],[6.277133,52.703015],[6.277141,52.703053],[6.277158,52.703139],[6.277161,52.703154],[6.277163,52.703164],[6.277164,52.703168],[6.277186,52.703254],[6.277201,52.703312],[6.277205,52.703329],[6.277214,52.70336],[6.276479,52.703344],[6.275418,52.703322],[6.27538,52.703321],[6.275337,52.703319],[6.27385,52.703283],[6.273809,52.703282],[6.273803,52.703282],[6.273826,52.70344],[6.273854,52.703595],[6.273873,52.703739],[6.273911,52.7039],[6.273934,52.704023],[6.273974,52.704201],[6.273955,52.704213],[6.273994,52.704479],[6.274036,52.704756],[6.27406,52.704886],[6.274099,52.705093],[6.274155,52.705427],[6.274202,52.705704],[6.274228,52.705826],[6.274251,52.705935],[6.274275,52.706052],[6.274303,52.706185],[6.274286,52.706183],[6.274276,52.706182],[6.274225,52.706184],[6.274181,52.706157],[6.274166,52.706159],[6.274118,52.706152],[6.273855,52.706115],[6.273532,52.706067],[6.272807,52.705965],[6.272568,52.705933],[6.272158,52.70588],[6.271839,52.705842],[6.271501,52.705802],[6.271121,52.705762],[6.271093,52.705761],[6.270792,52.70573],[6.270566,52.705705],[6.270476,52.705695],[6.270444,52.705681],[6.270436,52.705677],[6.270222,52.705662],[6.269938,52.705633],[6.269636,52.705612],[6.269438,52.705597],[6.269304,52.705588],[6.268937,52.705559],[6.268628,52.705544],[6.268249,52.705528],[6.268239,52.705565],[6.268239,52.705566],[6.268238,52.705567],[6.268238,52.705568],[6.268237,52.705569],[6.268235,52.70557],[6.268234,52.70557],[6.268233,52.705571],[6.268231,52.705571],[6.268229,52.705572],[6.268228,52.705572],[6.268226,52.705572],[6.268224,52.705572],[6.268222,52.705572],[6.268221,52.705571],[6.268219,52.705571],[6.268218,52.70557],[6.268216,52.70557],[6.268215,52.705569],[6.268214,52.705568],[6.268213,52.705567],[6.268213,52.705566],[6.268213,52.705565],[6.268212,52.705564],[6.268213,52.705563],[6.268216,52.705533],[6.267819,52.705519],[6.267447,52.705505],[6.267303,52.705496],[6.267267,52.705494],[6.267249,52.705493],[6.266672,52.705468],[6.265902,52.705439],[6.265189,52.705418],[6.264966,52.705414],[6.264782,52.705413],[6.263926,52.705399],[6.263509,52.705372],[6.262885,52.705336],[6.262884,52.705335],[6.262814,52.705333],[6.2622,52.705304],[6.261884,52.705296],[6.261861,52.705297],[6.261846,52.705297],[6.261381,52.705283],[6.259201,52.705209],[6.258681,52.705193],[6.258624,52.705192],[6.258368,52.70518],[6.258387,52.70517],[6.25842,52.705151],[6.258074,52.705141],[6.257829,52.705153],[6.256977,52.705129],[6.256705,52.70512],[6.25635,52.705111],[6.256301,52.705122],[6.256254,52.705132],[6.256197,52.705141],[6.256076,52.705162],[6.255918,52.705181],[6.255769,52.705198],[6.255605,52.705213],[6.254975,52.705231],[6.253755,52.705272],[6.25312,52.705282],[6.253,52.705295],[6.252982,52.705302],[6.252964,52.705305],[6.25294,52.705306],[6.252916,52.705308],[6.252885,52.705329],[6.252774,52.705403],[6.252774,52.705404],[6.252671,52.705475],[6.252632,52.705497],[6.252486,52.705583],[6.252418,52.705647],[6.252384,52.705663],[6.252333,52.705672],[6.252264,52.705697],[6.25122,52.706334],[6.250855,52.706558],[6.250196,52.706961],[6.250081,52.707032],[6.250002,52.707084],[6.24994,52.707132],[6.249889,52.707183],[6.249825,52.70726],[6.249742,52.707388],[6.249695,52.707469],[6.249425,52.707942],[6.249381,52.708013],[6.249335,52.708063],[6.249288,52.708101],[6.249231,52.708135],[6.249164,52.708166],[6.249033,52.708211],[6.249017,52.708215],[6.249001,52.708219],[6.248984,52.708221],[6.248967,52.708221],[6.24895,52.708221],[6.248933,52.708219],[6.248916,52.708216],[6.248491,52.708129],[6.248482,52.708125],[6.248431,52.708105],[6.248392,52.708197],[6.248319,52.708182],[6.24832,52.70818],[6.248258,52.708167],[6.248242,52.708164],[6.24799,52.708113],[6.247594,52.708019],[6.242958,52.706912],[6.242556,52.706813],[6.242476,52.706794],[6.241595,52.706582],[6.241026,52.706447],[6.240577,52.706335],[6.240048,52.706214],[6.239195,52.706012],[6.238727,52.7059],[6.238298,52.705817],[6.237928,52.705771],[6.237485,52.705758],[6.237163,52.705772],[6.236814,52.705805],[6.23656,52.705853],[6.236276,52.70593],[6.235938,52.706031],[6.235388,52.706213],[6.234629,52.706457],[6.234343,52.706541],[6.234062,52.706604],[6.233605,52.706657],[6.233224,52.70666],[6.232901,52.706648],[6.232524,52.706608],[6.232194,52.706539],[6.23194,52.706458],[6.231726,52.706364],[6.231222,52.706071],[6.230326,52.705571],[6.229299,52.705011],[6.228706,52.70468],[6.228136,52.70436],[6.22772,52.704135],[6.227365,52.703966],[6.226909,52.703769],[6.226602,52.703661],[6.226294,52.70356],[6.225858,52.703438],[6.225368,52.70332],[6.224961,52.70323],[6.224561,52.703176],[6.224161,52.703129],[6.223784,52.703103],[6.22332,52.703074],[6.222768,52.703074],[6.220304,52.703167],[6.219711,52.703185],[6.219406,52.70318],[6.219053,52.703158],[6.218588,52.703097],[6.218282,52.703042],[6.217981,52.702969],[6.21781,52.702924],[6.217565,52.702981],[6.216904,52.703158],[6.216874,52.70362],[6.216867,52.70388],[6.21686,52.704076],[6.216859,52.704242],[6.216842,52.704549],[6.216829,52.704735],[6.216819,52.704986],[6.216803,52.705214],[6.216807,52.705251],[6.21679,52.705734],[6.216778,52.706083],[6.216757,52.706492],[6.216747,52.706837],[6.216731,52.707232],[6.216718,52.707585],[6.216713,52.707671],[6.216675,52.708588],[6.216649,52.709336],[6.216605,52.710104],[6.216593,52.710479],[6.216591,52.710605],[6.216586,52.710699],[6.216568,52.711003],[6.216559,52.711521],[6.216546,52.712165],[6.216522,52.712731],[6.216521,52.713031],[6.216507,52.713296],[6.216491,52.713769],[6.216469,52.714268],[6.216457,52.71458],[6.216426,52.715573],[6.216404,52.716189],[6.216384,52.716825],[6.216348,52.717639],[6.216327,52.718283],[6.21632,52.718604],[6.216413,52.718651],[6.21648,52.7187],[6.216524,52.718759],[6.216575,52.718885],[6.21674,52.719248],[6.216828,52.719484],[6.216905,52.719795],[6.216942,52.71994],[6.217004,52.720072],[6.217246,52.720427],[6.217744,52.721159],[6.217699,52.721212],[6.217624,52.7213],[6.217703,52.721415],[6.217818,52.721572],[6.217918,52.721733],[6.218235,52.72221],[6.218435,52.722499],[6.218581,52.722688],[6.21874,52.722901],[6.218848,52.723039],[6.219028,52.723264],[6.219062,52.723314],[6.21916,52.72349],[6.219249,52.723645],[6.2193,52.723716],[6.219329,52.723761],[6.219386,52.723836],[6.219434,52.723897],[6.219557,52.724046],[6.219673,52.724172],[6.219795,52.724314],[6.22017,52.724756],[6.220244,52.724826],[6.22034,52.724915],[6.220419,52.725],[6.22074,52.725366],[6.2211,52.72577],[6.221405,52.726041],[6.221518,52.726165],[6.221727,52.726443],[6.221968,52.726704],[6.222049,52.726775],[6.222179,52.726922],[6.222394,52.727173],[6.222592,52.727361],[6.222666,52.727434],[6.222882,52.727703],[6.223064,52.727931],[6.223285,52.728192],[6.223421,52.728343],[6.223648,52.72855],[6.22401,52.728922],[6.22405,52.728959],[6.224107,52.729022],[6.224305,52.729264],[6.22447,52.729452],[6.224612,52.729602],[6.22493,52.729957],[6.225174,52.730232],[6.22535,52.73044],[6.225616,52.730708],[6.225995,52.731079],[6.226216,52.731314],[6.226336,52.731448],[6.226483,52.731615],[6.226659,52.73181],[6.226784,52.731947],[6.226869,52.732038],[6.227243,52.732436],[6.227527,52.732748],[6.227663,52.732912],[6.227783,52.733066],[6.22801,52.733324],[6.228192,52.733545],[6.228249,52.733599],[6.228372,52.733669],[6.228508,52.733816],[6.228662,52.733997],[6.228792,52.734138],[6.228917,52.734276],[6.229065,52.734446],[6.229094,52.734493],[6.229162,52.734591],[6.229321,52.734765],[6.229417,52.734862],[6.229508,52.734946],[6.229607,52.735053],[6.229761,52.735234],[6.229949,52.735465],[6.230057,52.735593],[6.230403,52.735954],[6.230533,52.736098],[6.230573,52.736159],[6.230636,52.736236],[6.230726,52.736326],[6.23084,52.73645],[6.23093,52.73654],[6.231226,52.736882],[6.231515,52.737197],[6.231805,52.737522],[6.232066,52.737817],[6.232145,52.737891],[6.232201,52.737927],[6.232241,52.737964],[6.232286,52.738021],[6.232316,52.738085],[6.232339,52.738129],[6.232463,52.738242],[6.232531,52.738306],[6.232611,52.738413],[6.232712,52.7385],[6.232763,52.738537],[6.232792,52.738571],[6.232865,52.738651],[6.232951,52.738748],[6.233099,52.738956],[6.233281,52.739167],[6.233394,52.739278],[6.233613,52.739526],[6.233789,52.73972],[6.233937,52.739891],[6.234107,52.740072],[6.234479,52.740465],[6.234517,52.740521],[6.234576,52.740601],[6.234039,52.740775],[6.233973,52.740798],[6.233803,52.740854],[6.233582,52.740924],[6.232831,52.741173],[6.232562,52.741277],[6.232491,52.741303],[6.232383,52.741345],[6.232138,52.741444],[6.231674,52.741659],[6.231584,52.74163],[6.231439,52.741709],[6.231292,52.741789],[6.231335,52.741798],[6.230387,52.742314],[6.229357,52.742874],[6.228104,52.743557],[6.22747,52.743902],[6.226546,52.744404],[6.225803,52.744809],[6.225695,52.744872],[6.224461,52.745542],[6.223534,52.746046],[6.222248,52.746745],[6.221122,52.747352],[6.220946,52.747497],[6.220884,52.747535],[6.220833,52.747578],[6.220792,52.747625],[6.220763,52.747675],[6.220659,52.747911],[6.220316,52.747757],[6.219974,52.747862],[6.219935,52.747874],[6.219882,52.74789],[6.219041,52.74815],[6.218556,52.7483],[6.217613,52.747224],[6.21698,52.746504],[6.215631,52.744986],[6.214722,52.743933],[6.213626,52.742696],[6.212385,52.741279],[6.212381,52.741274],[6.211797,52.740613],[6.210923,52.739625],[6.209957,52.738524],[6.20817,52.736508],[6.20757,52.735822],[6.207293,52.735511],[6.206631,52.734768],[6.205268,52.733234],[6.204951,52.732873],[6.203714,52.731467],[6.203389,52.731099],[6.202908,52.730557],[6.202796,52.730431],[6.202859,52.73043],[6.202858,52.730381],[6.202744,52.73037],[6.202301,52.729847],[6.201843,52.729307],[6.201781,52.729368],[6.201727,52.729426],[6.201687,52.72947],[6.201649,52.729511],[6.201625,52.729539],[6.201595,52.729575],[6.201572,52.729607],[6.20155,52.729639],[6.201512,52.729693],[6.201453,52.729786],[6.200039,52.732018],[6.199315,52.733176],[6.19924,52.733304],[6.199001,52.733713],[6.198877,52.733907],[6.198714,52.734136],[6.198583,52.734346],[6.19842,52.734631],[6.198354,52.734742],[6.198353,52.734742],[6.194589,52.740763],[6.193712,52.742179],[6.1935,52.742606],[6.192375,52.744451],[6.19011,52.748113],[6.189826,52.748574],[6.186093,52.754647],[6.186043,52.754728],[6.184002,52.758041],[6.18375,52.758448],[6.182448,52.76051],[6.180809,52.763151],[6.180003,52.764449],[6.178781,52.766395],[6.177592,52.768302],[6.176926,52.768214],[6.176858,52.768313],[6.175989,52.76948],[6.175819,52.7697],[6.175474,52.770149],[6.175157,52.770587],[6.174862,52.771069],[6.174737,52.77124],[6.174404,52.772036],[6.174428,52.772039],[6.174446,52.77206],[6.174011,52.77239],[6.17355,52.772834],[6.172906,52.773054],[6.172658,52.772717],[6.172021,52.771851],[6.171932,52.771731],[6.171776,52.771517],[6.171479,52.771107],[6.171109,52.770605],[6.169215,52.768036],[6.169008,52.767755],[6.168618,52.767219],[6.168525,52.767094],[6.165066,52.766624],[6.164209,52.766508],[6.164118,52.766493],[6.16394,52.766449],[6.163755,52.76637],[6.163066,52.766032],[6.162432,52.765715],[6.161735,52.765383],[6.161374,52.765224],[6.160886,52.765022],[6.160683,52.764931],[6.160491,52.764838],[6.160154,52.764659],[6.15995,52.76455],[6.159656,52.76438],[6.159333,52.764174],[6.159227,52.764087],[6.159103,52.764009],[6.15882,52.763806],[6.15861,52.763667],[6.158489,52.763604],[6.158357,52.763525],[6.15819,52.76343],[6.158075,52.763365],[6.158021,52.763335],[6.157273,52.762933],[6.15704,52.762822],[6.156917,52.762765],[6.156893,52.762754],[6.156868,52.762745],[6.156842,52.762738],[6.15682,52.76273],[6.156789,52.762721],[6.156703,52.762698],[6.156496,52.76265],[6.156408,52.762633],[6.156327,52.762629],[6.155323,52.762439],[6.155208,52.762417],[6.15501,52.762376],[6.154929,52.762354],[6.154623,52.762307],[6.154306,52.762248],[6.153635,52.762097],[6.153238,52.76202],[6.15302,52.761972],[6.152971,52.761963],[6.152778,52.76193],[6.152632,52.761911],[6.152372,52.761876],[6.151954,52.761805],[6.151756,52.76178],[6.151407,52.761722],[6.151338,52.761704],[6.151269,52.761656],[6.151145,52.761622],[6.150964,52.761573],[6.150904,52.761569],[6.150834,52.761578],[6.150745,52.761584],[6.150564,52.761558],[6.149845,52.761388],[6.149634,52.761343],[6.149279,52.761278],[6.149095,52.761239],[6.148936,52.761215],[6.148547,52.761097],[6.14842,52.761058],[6.148293,52.761026],[6.148187,52.761015],[6.147961,52.760999],[6.147446,52.760906],[6.146944,52.760799],[6.146614,52.760735],[6.145822,52.760567],[6.145543,52.760534],[6.144708,52.760355],[6.144575,52.760338],[6.14437,52.760303],[6.144202,52.760269],[6.144125,52.760252],[6.143368,52.760134],[6.142804,52.760017],[6.142385,52.759928],[6.142166,52.759873],[6.141882,52.759808],[6.140859,52.759602],[6.140385,52.75949],[6.14003,52.759398],[6.138885,52.759135],[6.138655,52.759094],[6.138506,52.75907],[6.138012,52.759025],[6.137849,52.759006],[6.137709,52.759004],[6.137632,52.759009],[6.137579,52.759014],[6.137434,52.759023],[6.137258,52.75901],[6.136222,52.758982],[6.135942,52.758964],[6.135769,52.758951],[6.13558,52.758933],[6.135064,52.758845],[6.134695,52.758815],[6.134449,52.758801],[6.133857,52.758775],[6.132888,52.758734],[6.13277,52.758721],[6.132468,52.758668],[6.132109,52.758573],[6.1311,52.758272],[6.13089,52.758218],[6.130603,52.758117],[6.129996,52.757928],[6.1297,52.75785],[6.128321,52.757436],[6.127969,52.757326],[6.127033,52.757048],[6.126933,52.757019],[6.126617,52.756935],[6.12633,52.756834],[6.126201,52.756773],[6.125791,52.756537],[6.125588,52.756435],[6.125332,52.756293],[6.12498,52.756118],[6.124813,52.756018],[6.124217,52.755712],[6.124074,52.755628],[6.123844,52.755488],[6.123827,52.75548],[6.123743,52.755426],[6.123475,52.755311],[6.123286,52.755214],[6.123086,52.755099],[6.122915,52.754997],[6.121768,52.754351],[6.121743,52.754337],[6.121666,52.754284],[6.121597,52.75421],[6.121435,52.753978],[6.120834,52.752924],[6.120662,52.752647],[6.120557,52.752468],[6.120451,52.752116],[6.120304,52.75164],[6.120103,52.751037],[6.120064,52.750882],[6.120094,52.750787],[6.120348,52.750321],[6.120376,52.750242]]]},"properties":{"type":"boundary","gemeente":"Meppel"}}]}