{"type":"FeatureCollection","metadata":{"gemeente":"Molenlanden","slug":"molenlanden","generated_at":"2026-09-28T08:27:02.804671Z","total_points":63,"providers":["Amazon","DHL","DPD","PostNL","VintedGo","ViaTim","FedEx","InPost"],"bounds":[4.66894988401682,51.84231,4.99745,51.9319496]},"features":[{"type":"Feature","geometry":{"type":"Point","coordinates":[4.918333084046211,51.844613958920476]},"properties":{"type":"pakketpunt","locatieNaam":"DHL - DeBuren Locker 24-7 Lukoil Prvncwg","straatNaam":"Provincialeweg 1","straatNr":"","vervoerder":"Amazon","puntType":"3p","bezettingsgraad":50,"latitude":51.844613958920476,"longitude":4.918333084046211,"canPickup":true,"canDropoff":false,"openingstijden":null}},{"type":"Feature","geometry":{"type":"Point","coordinates":[4.947817135,51.87888079]},"properties":{"type":"pakketpunt","locatieNaam":"Plus Korteland Hoornaar","straatNaam":"Dirk IV-plein 8","straatNr":"","vervoerder":"Amazon","puntType":"3p","bezettingsgraad":50,"latitude":51.87888079,"longitude":4.947817135,"canPickup":true,"canDropoff":false,"openingstijden":null}},{"type":"Feature","geometry":{"type":"Point","coordinates":[4.991063801,51.87422577]},"properties":{"type":"pakketpunt","locatieNaam":"De Bloklandse Paal","straatNaam":"Bazeldijk 2","straatNr":"","vervoerder":"Amazon","puntType":"3p","bezettingsgraad":50,"latitude":51.87422577,"longitude":4.991063801,"canPickup":true,"canDropoff":false,"openingstijden":null}},{"type":"Feature","geometry":{"type":"Point","coordinates":[4.8963727951049805,51.84431076049805]},"properties":{"type":"pakketpunt","locatieNaam":"DHL Buurtpunt ViaTim & vd Heuvel","straatNaam":"Nijverheidsweg","straatNr":"10","vervoerder":"DHL","puntType":"parcelShop","bezettingsgraad":50,"latitude":51.84431076049805,"longitude":4.8963727951049805,"canPickup":true,"canDropoff":true,"openingstijden":{"ma":"09:00 - 21:00","di":"09:00 - 20:00","wo":"09:00 - 21:00","do":"09:00 - 20:00","vr":"09:00 - 20:30","za":"12:00 - 18:00","zo":"gesloten"}}},{"type":"Feature","geometry":{"type":"Point","coordinates":[4.888917,51.853247]},"properties":{"type":"pakketpunt","locatieNaam":"Welkoop Giessenburg","straatNaam":"Peursumseweg","straatNr":"25-A","vervoerder":"DHL","puntType":"parcelShop","bezettingsgraad":50,"latitude":51.853247,"longitude":4.888917,"canPickup":true,"canDropoff":true,"openingstijden":{"ma":"09:00 - 18:00","di":"09:00 - 18:00","wo":"09:00 - 18:00","do":"09:00 - 18:00","vr":"09:00 - 20:00","za":"09:00 - 17:00","zo":"gesloten"}}},{"type":"Feature","geometry":{"type":"Point","coordinates":[4.918333084046211,51.844613958920476]},"properties":{"type":"pakketpunt","locatieNaam":"DeBuren Locker 24-7 Lukoil Prvncwg","straatNaam":"Provincialeweg","straatNr":"1","vervoerder":"DHL","puntType":"packStation","bezettingsgraad":50,"latitude":51.844613958920476,"longitude":4.918333084046211,"canPickup":true,"canDropoff":true,"openingstijden":{"ma":"00:00 - 23:59","di":"00:00 - 23:59","wo":"00:00 - 23:59","do":"00:00 - 23:59","vr":"00:00 - 23:59","za":"00:00 - 23:59","zo":"00:00 - 23:59"}}},{"type":"Feature","geometry":{"type":"Point","coordinates":[4.947946135129575,51.878696902452454]},"properties":{"type":"pakketpunt","locatieNaam":"Pakketautomaat PLUS Hoornaar","straatNaam":"Dirk IV-Plein","straatNr":"8","vervoerder":"DHL","puntType":"packStation","bezettingsgraad":50,"latitude":51.878696902452454,"longitude":4.947946135129575,"canPickup":true,"canDropoff":true,"openingstijden":{"ma":"08:00 - 19:00","di":"08:00 - 19:00","wo":"08:00 - 19:00","do":"08:00 - 20:00","vr":"08:00 - 20:00","za":"08:00 - 20:00","zo":"gesloten"}}},{"type":"Feature","geometry":{"type":"Point","coordinates":[4.779447,51.867676]},"properties":{"type":"pakketpunt","locatieNaam":"Hubo Mouthaan","straatNaam":"Melkweg","straatNr":"6","vervoerder":"DHL","puntType":"parcelShop","bezettingsgraad":50,"latitude":51.867676,"longitude":4.779447,"canPickup":true,"canDropoff":true,"openingstijden":{"ma":"08:30 - 17:30","di":"08:30 - 17:30","wo":"08:30 - 17:30","do":"08:30 - 17:30","vr":"08:30 - 17:30","za":"09:00 - 17:00","zo":"gesloten"}}},{"type":"Feature","geometry":{"type":"Point","coordinates":[4.9894916,51.8681272]},"properties":{"type":"pakketpunt","locatieNaam":"Pakketautomaat terStal Arkel","straatNaam":"Vlietskade","straatNr":"7003-Kast","vervoerder":"DHL","puntType":"packStation","bezettingsgraad":50,"latitude":51.8681272,"longitude":4.9894916,"canPickup":true,"canDropoff":true,"openingstijden":{"ma":"09:00 - 17:30","di":"09:00 - 17:30","wo":"09:00 - 17:30","do":"09:00 - 17:30","vr":"09:30 - 17:30","za":"09:00 - 17:00","zo":"gesloten"}}},{"type":"Feature","geometry":{"type":"Point","coordinates":[4.993608,51.864237]},"properties":{"type":"pakketpunt","locatieNaam":"To Cato Concept Store","straatNaam":"Dokter H. de Vriesplein","straatNr":"2","vervoerder":"DHL","puntType":"parcelShop","bezettingsgraad":50,"latitude":51.864237,"longitude":4.993608,"canPickup":true,"canDropoff":true,"openingstijden":{"ma":"gesloten","di":"09:00 - 17:30","wo":"09:00 - 17:30","do":"09:00 - 17:30","vr":"09:00 - 17:30","za":"09:00 - 17:00","zo":"gesloten"}}},{"type":"Feature","geometry":{"type":"Point","coordinates":[4.779458534657361,51.87120560850557]},"properties":{"type":"pakketpunt","locatieNaam":"Pakketautomaat SPAR Bleskensgraaf","straatNaam":"Lindestraat","straatNr":"4","vervoerder":"DHL","puntType":"packStation","bezettingsgraad":50,"latitude":51.87120560850557,"longitude":4.779458534657361,"canPickup":true,"canDropoff":true,"openingstijden":{"ma":"08:00 - 20:00","di":"08:00 - 20:00","wo":"08:00 - 20:00","do":"08:00 - 20:00","vr":"08:00 - 20:00","za":"08:00 - 20:00","zo":"gesloten"}}},{"type":"Feature","geometry":{"type":"Point","coordinates":[4.9821289,51.8985726]},"properties":{"type":"pakketpunt","locatieNaam":"Pakketautomaat Lukoil Meerkerk","straatNaam":"Beemdweg","straatNr":"4","vervoerder":"DHL","puntType":"packStation","bezettingsgraad":50,"latitude":51.8985726,"longitude":4.9821289,"canPickup":true,"canDropoff":true,"openingstijden":{"ma":"00:00 - 23:59","di":"00:00 - 23:59","wo":"00:00 - 23:59","do":"00:00 - 23:59","vr":"00:00 - 23:59","za":"00:00 - 23:59","zo":"00:00 - 23:59"}}},{"type":"Feature","geometry":{"type":"Point","coordinates":[4.687907,51.889567]},"properties":{"type":"pakketpunt","locatieNaam":"DA Drogisterij de Zwart","straatNaam":"Kleyburgplein","straatNr":"10-A","vervoerder":"DHL","puntType":"parcelShop","bezettingsgraad":50,"latitude":51.889567,"longitude":4.687907,"canPickup":true,"canDropoff":true,"openingstijden":{"ma":"08:30 - 17:30","di":"08:30 - 17:30","wo":"08:30 - 17:30","do":"08:30 - 17:30","vr":"08:30 - 17:30","za":"08:30 - 16:00","zo":"gesloten"}}},{"type":"Feature","geometry":{"type":"Point","coordinates":[4.688049,51.885804]},"properties":{"type":"pakketpunt","locatieNaam":"DHL Buurtpunt ViaTim & Meerkerk","straatNaam":"Bovenkruier","straatNr":"90","vervoerder":"DHL","puntType":"parcelShop","bezettingsgraad":50,"latitude":51.885804,"longitude":4.688049,"canPickup":true,"canDropoff":true,"openingstijden":{"ma":"15:00 - 21:00","di":"15:00 - 21:00","wo":"15:00 - 21:00","do":"15:00 - 21:00","vr":"15:00 - 21:00","za":"gesloten","zo":"gesloten"}}},{"type":"Feature","geometry":{"type":"Point","coordinates":[4.815855,51.923227]},"properties":{"type":"pakketpunt","locatieNaam":"Esso Servicestation Mons","straatNaam":"Sluis","straatNr":"18","vervoerder":"DHL","puntType":"parcelShop","bezettingsgraad":50,"latitude":51.923227,"longitude":4.815855,"canPickup":true,"canDropoff":true,"openingstijden":{"ma":"07:00 - 19:00","di":"07:00 - 19:00","wo":"07:00 - 19:00","do":"07:00 - 19:00","vr":"07:00 - 19:00","za":"08:00 - 17:00","zo":"gesloten"}}},{"type":"Feature","geometry":{"type":"Point","coordinates":[4.8770375,51.9319496]},"properties":{"type":"pakketpunt","locatieNaam":"Promo Computers","straatNaam":"Wilhelminastraat","straatNr":"71","vervoerder":"DHL","puntType":"parcelShop","bezettingsgraad":50,"latitude":51.9319496,"longitude":4.8770375,"canPickup":true,"canDropoff":true,"openingstijden":{"ma":"12:30 - 17:30","di":"10:00 - 12:00, 12:30 - 17:30","wo":"10:00 - 12:00, 12:30 - 17:30","do":"10:00 - 12:00, 12:30 - 17:30","vr":"10:00 - 12:00, 12:30 - 17:30","za":"09:00 - 13:00","zo":"gesloten"}}},{"type":"Feature","geometry":{"type":"Point","coordinates":[4.99745,51.86392]},"properties":{"type":"pakketpunt","locatieNaam":"Jolanda's Knutsel En Handwerkhoek","straatNaam":"RAADHUISPLEIN","straatNr":"6","vervoerder":"DPD","puntType":"pickup_point","bezettingsgraad":50,"latitude":51.86392,"longitude":4.99745,"canPickup":true,"canDropoff":true,"openingstijden":{"ma":"10:00 - 17:00","di":"10:00 - 13:00","wo":"10:00 - 17:00","do":"10:00 - 17:00","vr":"10:00 - 17:00","za":"10:00 - 17:00","zo":"gesloten"}}},{"type":"Feature","geometry":{"type":"Point","coordinates":[4.6883403,51.8892153]},"properties":{"type":"pakketpunt","locatieNaam":"Schoenmode Anneke","straatNaam":"KLEIJBURGPLEIN","straatNr":"27a","vervoerder":"DPD","puntType":"pickup_point","bezettingsgraad":50,"latitude":51.8892153,"longitude":4.6883403,"canPickup":true,"canDropoff":true,"openingstijden":{"ma":"13:30 - 17:00","di":"10:00 - 12:30, 13:30 - 17:00","wo":"10:00 - 12:30, 13:30 - 17:00","do":"10:00 - 12:30, 13:30 - 17:00","vr":"10:00 - 12:30, 13:30 - 17:00","za":"10:00 - 16:00","zo":"gesloten"}}},{"type":"Feature","geometry":{"type":"Point","coordinates":[4.815913,51.923119]},"properties":{"type":"pakketpunt","locatieNaam":"Tankstation Mons","straatNaam":"SLUIS","straatNr":"18","vervoerder":"DPD","puntType":"pickup_point","bezettingsgraad":50,"latitude":51.923119,"longitude":4.815913,"canPickup":true,"canDropoff":true,"openingstijden":{"ma":"07:00 - 19:00","di":"07:00 - 19:00","wo":"07:00 - 19:00","do":"07:00 - 19:00","vr":"07:00 - 19:00","za":"08:00 - 17:00","zo":"gesloten"}}},{"type":"Feature","geometry":{"type":"Point","coordinates":[4.9938746,51.8640678]},"properties":{"type":"pakketpunt","locatieNaam":"To Cato Concept Store","straatNaam":"DOKTER H. DE VRIESPLEIN","straatNr":"2","vervoerder":"DPD","puntType":"pickup_point","bezettingsgraad":50,"latitude":51.8640678,"longitude":4.9938746,"canPickup":true,"canDropoff":true,"openingstijden":{"ma":"gesloten","di":"09:00 - 17:30","wo":"09:00 - 17:30","do":"09:00 - 17:30","vr":"09:00 - 17:30","za":"09:00 - 17:00","zo":"gesloten"}}},{"type":"Feature","geometry":{"type":"Point","coordinates":[4.89635,51.84385]},"properties":{"type":"pakketpunt","locatieNaam":"Business Point - Buurtpunt Van den","straatNaam":"NIJVERHEIDSWEG","straatNr":"10","vervoerder":"DPD","puntType":"pickup_point","bezettingsgraad":50,"latitude":51.84385,"longitude":4.89635,"canPickup":true,"canDropoff":true,"openingstijden":{"ma":"09:00 - 21:00","di":"09:00 - 20:00","wo":"09:00 - 21:00","do":"09:00 - 20:00","vr":"09:00 - 20:30","za":"12:00 - 17:00","zo":"gesloten"}}},{"type":"Feature","geometry":{"type":"Point","coordinates":[4.9818713,51.8983919]},"properties":{"type":"pakketpunt","locatieNaam":"Pakketautomaat Lukoil Meerkerk","straatNaam":"BEEMDWEG","straatNr":"4 C","vervoerder":"DPD","puntType":"dpd_box","bezettingsgraad":50,"latitude":51.8983919,"longitude":4.9818713,"canPickup":true,"canDropoff":true,"openingstijden":{"ma":"00:01 - 23:59","di":"00:01 - 23:59","wo":"00:01 - 23:59","do":"00:01 - 23:59","vr":"00:01 - 23:59","za":"00:01 - 23:59","zo":"00:01 - 23:59"}}},{"type":"Feature","geometry":{"type":"Point","coordinates":[4.8741317,51.9301977]},"properties":{"type":"pakketpunt","locatieNaam":"Pakketautomaat SPAR Nieuwpoort","straatNaam":"WATERLINIE","straatNr":"62","vervoerder":"DPD","puntType":"dpd_box","bezettingsgraad":50,"latitude":51.9301977,"longitude":4.8741317,"canPickup":true,"canDropoff":true,"openingstijden":{"ma":"08:00 - 20:00","di":"08:00 - 20:00","wo":"08:00 - 20:00","do":"08:00 - 20:00","vr":"08:00 - 20:00","za":"08:00 - 20:00","zo":"gesloten"}}},{"type":"Feature","geometry":{"type":"Point","coordinates":[4.7806,51.87128]},"properties":{"type":"pakketpunt","locatieNaam":"Pakketautomaat SPAR de Deugd","straatNaam":"LINDENSTRAAT","straatNr":"4","vervoerder":"DPD","puntType":"dpd_box","bezettingsgraad":50,"latitude":51.87128,"longitude":4.7806,"canPickup":true,"canDropoff":true,"openingstijden":{"ma":"08:00 - 20:00","di":"08:00 - 20:00","wo":"08:00 - 20:00","do":"08:00 - 20:00","vr":"08:00 - 20:00","za":"08:00 - 20:00","zo":"gesloten"}}},{"type":"Feature","geometry":{"type":"Point","coordinates":[4.74283,51.90149]},"properties":{"type":"pakketpunt","locatieNaam":"Pakketautomaat Spar Willemstein","straatNaam":"KERKSTRAAT","straatNr":"8","vervoerder":"DPD","puntType":"dpd_box","bezettingsgraad":50,"latitude":51.90149,"longitude":4.74283,"canPickup":true,"canDropoff":true,"openingstijden":{"ma":"00:01 - 23:59","di":"00:01 - 23:59","wo":"00:01 - 23:59","do":"00:01 - 23:59","vr":"00:01 - 23:59","za":"00:01 - 23:59","zo":"00:01 - 23:59"}}},{"type":"Feature","geometry":{"type":"Point","coordinates":[4.91754,51.84231]},"properties":{"type":"pakketpunt","locatieNaam":"Pakketautomaat Lukoil Provincialewe","straatNaam":"PROVINCIALEWEG","straatNr":"1","vervoerder":"DPD","puntType":"dpd_box","bezettingsgraad":50,"latitude":51.84231,"longitude":4.91754,"canPickup":true,"canDropoff":true,"openingstijden":{"ma":"00:01 - 23:59","di":"00:01 - 23:59","wo":"00:01 - 23:59","do":"00:01 - 23:59","vr":"00:01 - 23:59","za":"00:01 - 23:59","zo":"00:01 - 23:59"}}},{"type":"Feature","geometry":{"type":"Point","coordinates":[4.820025675,51.87570873]},"properties":{"type":"pakketpunt","locatieNaam":"Jumbo Slingerland Molenaarsgraaf","straatNaam":"Dorpsstraat","straatNr":"5A","vervoerder":"PostNL","puntType":"servicepunt","bezettingsgraad":50,"latitude":51.87570873,"longitude":4.820025675,"canPickup":true,"canDropoff":true,"openingstijden":"08:00 - 21:00 (Na 18:00 open; Zaterdag open)"}},{"type":"Feature","geometry":{"type":"Point","coordinates":[4.77938462809802,51.8709482958417]},"properties":{"type":"pakketpunt","locatieNaam":"Pakketautomaat","straatNaam":"Lindenstraat","straatNr":"4PBA","vervoerder":"PostNL","puntType":"automaat","bezettingsgraad":50,"latitude":51.8709482958417,"longitude":4.77938462809802,"canPickup":true,"canDropoff":true,"openingstijden":"08:00 - 19:00"}},{"type":"Feature","geometry":{"type":"Point","coordinates":[4.779384628,51.8709483]},"properties":{"type":"pakketpunt","locatieNaam":"Spar","straatNaam":"Lindenstraat","straatNr":"4","vervoerder":"PostNL","puntType":"servicepunt","bezettingsgraad":50,"latitude":51.8709483,"longitude":4.779384628,"canPickup":true,"canDropoff":true,"openingstijden":"08:00 - 19:00 (Na 18:00 open; Zaterdag open)"}},{"type":"Feature","geometry":{"type":"Point","coordinates":[4.874152342,51.93020273]},"properties":{"type":"pakketpunt","locatieNaam":"Spar","straatNaam":"Waterlinie","straatNr":"62","vervoerder":"PostNL","puntType":"servicepunt","bezettingsgraad":50,"latitude":51.93020273,"longitude":4.874152342,"canPickup":true,"canDropoff":true,"openingstijden":"08:00 - 20:00 (Na 18:00 open; Zaterdag open)"}},{"type":"Feature","geometry":{"type":"Point","coordinates":[4.742834753,51.90148528]},"properties":{"type":"pakketpunt","locatieNaam":"Spar Willemstein","straatNaam":"Kerkstraat","straatNr":"8-10","vervoerder":"PostNL","puntType":"servicepunt","bezettingsgraad":50,"latitude":51.90148528,"longitude":4.742834753,"canPickup":true,"canDropoff":true,"openingstijden":"08:00 - 20:00 (Na 18:00 open; Zaterdag open)"}},{"type":"Feature","geometry":{"type":"Point","coordinates":[4.886664072,51.85247976]},"properties":{"type":"pakketpunt","locatieNaam":"Miek-Kado Boek-Kadoshop","straatNaam":"Dorpsstraat","straatNr":"76","vervoerder":"PostNL","puntType":"servicepunt","bezettingsgraad":50,"latitude":51.85247976,"longitude":4.886664072,"canPickup":true,"canDropoff":true,"openingstijden":"13:00 - 17:00 (Zaterdag open)"}},{"type":"Feature","geometry":{"type":"Point","coordinates":[4.88666407239671,51.8524797561077]},"properties":{"type":"pakketpunt","locatieNaam":"Pakketautomaat","straatNaam":"Dorpsstraat","straatNr":"76PBA","vervoerder":"PostNL","puntType":"automaat","bezettingsgraad":50,"latitude":51.8524797561077,"longitude":4.88666407239671,"canPickup":true,"canDropoff":true,"openingstijden":"00:05 - 23:55"}},{"type":"Feature","geometry":{"type":"Point","coordinates":[4.936613094,51.89987123]},"properties":{"type":"pakketpunt","locatieNaam":"Dick voor Mekaar Shop","straatNaam":"Grotewaard","straatNr":"9","vervoerder":"PostNL","puntType":"servicepunt","bezettingsgraad":50,"latitude":51.89987123,"longitude":4.936613094,"canPickup":true,"canDropoff":true,"openingstijden":"08:30 - 12:00, 13:00 - 17:30 (Zaterdag open)"}},{"type":"Feature","geometry":{"type":"Point","coordinates":[4.947817135,51.87888079]},"properties":{"type":"pakketpunt","locatieNaam":"Plus Korteland Hoornaar","straatNaam":"Dirk IV-plein","straatNr":"8","vervoerder":"PostNL","puntType":"servicepunt","bezettingsgraad":50,"latitude":51.87888079,"longitude":4.947817135,"canPickup":true,"canDropoff":true,"openingstijden":"08:00 - 19:00 (Na 18:00 open; Zaterdag open)"}},{"type":"Feature","geometry":{"type":"Point","coordinates":[4.94781713454491,51.8788807949325]},"properties":{"type":"pakketpunt","locatieNaam":"Pakketautomaat","straatNaam":"Dirk IV-plein","straatNr":"8PBA","vervoerder":"PostNL","puntType":"automaat","bezettingsgraad":50,"latitude":51.8788807949325,"longitude":4.94781713454491,"canPickup":true,"canDropoff":true,"openingstijden":"08:00 - 19:00"}},{"type":"Feature","geometry":{"type":"Point","coordinates":[4.68866055930265,51.8896164472994]},"properties":{"type":"pakketpunt","locatieNaam":"Pakketautomaat","straatNaam":"Kleijburgplein","straatNr":"11PBA","vervoerder":"PostNL","puntType":"automaat","bezettingsgraad":50,"latitude":51.8896164472994,"longitude":4.68866055930265,"canPickup":true,"canDropoff":true,"openingstijden":"00:05 - 23:55"}},{"type":"Feature","geometry":{"type":"Point","coordinates":[4.688612517,51.8899038]},"properties":{"type":"pakketpunt","locatieNaam":"PLUS van Holten Nieuw Lekkerland","straatNaam":"Kleyburgplein","straatNr":"9","vervoerder":"PostNL","puntType":"servicepunt","bezettingsgraad":50,"latitude":51.8899038,"longitude":4.688612517,"canPickup":true,"canDropoff":true,"openingstijden":"08:00 - 20:00 (Na 18:00 open; Zaterdag open)"}},{"type":"Feature","geometry":{"type":"Point","coordinates":[4.66894988401682,51.8858482370838]},"properties":{"type":"pakketpunt","locatieNaam":"Pakket- en briefautomaat","straatNaam":"Planetenlaan","straatNr":"35PBA","vervoerder":"PostNL","puntType":"automaat","bezettingsgraad":50,"latitude":51.8858482370838,"longitude":4.66894988401682,"canPickup":true,"canDropoff":true,"openingstijden":"00:00 - 23:59"}},{"type":"Feature","geometry":{"type":"Point","coordinates":[4.991063801,51.87422577]},"properties":{"type":"pakketpunt","locatieNaam":"De Bloklandse Paal","straatNaam":"Bazeldijk","straatNr":"2","vervoerder":"PostNL","puntType":"servicepunt","bezettingsgraad":50,"latitude":51.87422577,"longitude":4.991063801,"canPickup":true,"canDropoff":true,"openingstijden":"08:30 - 18:00 (Na 18:00 open; Zaterdag open)"}},{"type":"Feature","geometry":{"type":"Point","coordinates":[4.99273535310048,51.8641014670557]},"properties":{"type":"pakketpunt","locatieNaam":"Pakketautomaat","straatNaam":"Dokter H. de Vriesplein","straatNr":"14PBA","vervoerder":"PostNL","puntType":"automaat","bezettingsgraad":50,"latitude":51.8641014670557,"longitude":4.99273535310048,"canPickup":true,"canDropoff":true,"openingstijden":"00:00 - 23:59"}},{"type":"Feature","geometry":{"type":"Point","coordinates":[4.993883587,51.86395251]},"properties":{"type":"pakketpunt","locatieNaam":"Bloemkado Art of Flowers","straatNaam":"Dokter H. de Vriesplein","straatNr":"1","vervoerder":"PostNL","puntType":"servicepunt","bezettingsgraad":50,"latitude":51.86395251,"longitude":4.993883587,"canPickup":true,"canDropoff":true,"openingstijden":null}},{"type":"Feature","geometry":{"type":"Point","coordinates":[4.6873819,51.8866212]},"properties":{"type":"pakketpunt","locatieNaam":"W. Schiereck","straatNaam":"Tjasker 8","straatNr":"","vervoerder":"VintedGo","puntType":"social","bezettingsgraad":50,"latitude":51.8866212,"longitude":4.6873819,"canPickup":true,"canDropoff":true,"openingstijden":null}},{"type":"Feature","geometry":{"type":"Point","coordinates":[4.9938747,51.8640679]},"properties":{"type":"pakketpunt","locatieNaam":"To Cato Concept Store","straatNaam":"Dokter H. de Vriesplein 2","straatNr":"","vervoerder":"VintedGo","puntType":"parcel_shop","bezettingsgraad":50,"latitude":51.8640679,"longitude":4.9938747,"canPickup":true,"canDropoff":true,"openingstijden":null}},{"type":"Feature","geometry":{"type":"Point","coordinates":[4.9974269,51.8639157]},"properties":{"type":"pakketpunt","locatieNaam":"Jolanda's Knutsel en Handwerkhoek ","straatNaam":"Raadhuisplein 6","straatNr":"","vervoerder":"VintedGo","puntType":"parcel_shop","bezettingsgraad":50,"latitude":51.8639157,"longitude":4.9974269,"canPickup":true,"canDropoff":true,"openingstijden":null}},{"type":"Feature","geometry":{"type":"Point","coordinates":[4.8960914,51.8435424]},"properties":{"type":"pakketpunt","locatieNaam":"M. V. D. Heuvel","straatNaam":"Nijverheidsweg 10","straatNr":"","vervoerder":"VintedGo","puntType":"social","bezettingsgraad":50,"latitude":51.8435424,"longitude":4.8960914,"canPickup":true,"canDropoff":true,"openingstijden":null}},{"type":"Feature","geometry":{"type":"Point","coordinates":[4.82319,51.87582]},"properties":{"type":"pakketpunt","locatieNaam":"D. Ouderkerk","straatNaam":"Van Arkelstraat 2","straatNr":"","vervoerder":"VintedGo","puntType":"social","bezettingsgraad":50,"latitude":51.87582,"longitude":4.82319,"canPickup":true,"canDropoff":true,"openingstijden":null}},{"type":"Feature","geometry":{"type":"Point","coordinates":[4.8169339,51.9235326]},"properties":{"type":"pakketpunt","locatieNaam":"Sportcentrum Olympia","straatNaam":"Voorstraat 5","straatNr":"","vervoerder":"VintedGo","puntType":"locker","bezettingsgraad":50,"latitude":51.9235326,"longitude":4.8169339,"canPickup":true,"canDropoff":true,"openingstijden":null}},{"type":"Feature","geometry":{"type":"Point","coordinates":[4.6918617,51.8916785]},"properties":{"type":"pakketpunt","locatieNaam":"Dto-motoren","straatNaam":"Lekdijk 109","straatNr":"","vervoerder":"VintedGo","puntType":"locker","bezettingsgraad":50,"latitude":51.8916785,"longitude":4.6918617,"canPickup":true,"canDropoff":true,"openingstijden":null}},{"type":"Feature","geometry":{"type":"Point","coordinates":[4.7794645,51.8711914]},"properties":{"type":"pakketpunt","locatieNaam":"Spar De Deugd","straatNaam":"Lindenstraat 4","straatNr":"","vervoerder":"VintedGo","puntType":"locker","bezettingsgraad":50,"latitude":51.8711914,"longitude":4.7794645,"canPickup":true,"canDropoff":true,"openingstijden":null}},{"type":"Feature","geometry":{"type":"Point","coordinates":[4.8737643,51.930197]},"properties":{"type":"pakketpunt","locatieNaam":"Spar Nieuwpoort","straatNaam":"Waterlinie 62","straatNr":"","vervoerder":"VintedGo","puntType":"locker","bezettingsgraad":50,"latitude":51.930197,"longitude":4.8737643,"canPickup":true,"canDropoff":true,"openingstijden":null}},{"type":"Feature","geometry":{"type":"Point","coordinates":[4.9480388,51.8786955]},"properties":{"type":"pakketpunt","locatieNaam":"Plus Korteland Hoornaar","straatNaam":"Dirk Iv-plein 8","straatNr":"","vervoerder":"VintedGo","puntType":"locker","bezettingsgraad":50,"latitude":51.8786955,"longitude":4.9480388,"canPickup":true,"canDropoff":true,"openingstijden":null}},{"type":"Feature","geometry":{"type":"Point","coordinates":[4.6883414,51.8894742]},"properties":{"type":"pakketpunt","locatieNaam":"Plus Nieuw Lekkerland (Van Holten)","straatNaam":"kleijburgplein 9-15","straatNr":"","vervoerder":"VintedGo","puntType":"locker","bezettingsgraad":50,"latitude":51.8894742,"longitude":4.6883414,"canPickup":true,"canDropoff":true,"openingstijden":null}},{"type":"Feature","geometry":{"type":"Point","coordinates":[4.74406812,51.89933269]},"properties":{"type":"pakketpunt","locatieNaam":"ViaTim en Buurtpunt Streefkerk","straatNaam":"Bosstraat","straatNr":"17","vervoerder":"ViaTim","puntType":"servicepunt","bezettingsgraad":50,"latitude":51.89933269,"longitude":4.74406812,"canPickup":true,"canDropoff":true,"openingstijden":{"ma":"16:00 - 21:00","di":"16:00 - 21:00","wo":"16:00 - 21:00","do":"16:00 - 21:00","vr":"16:00 - 21:00","za":"gesloten","zo":"gesloten"}}},{"type":"Feature","geometry":{"type":"Point","coordinates":[4.89147495579089,51.8509665088839]},"properties":{"type":"pakketpunt","locatieNaam":"ViaTim en van den Heuvel","straatNaam":"Nijverheidsweg","straatNr":"10","vervoerder":"ViaTim","puntType":"servicepunt","bezettingsgraad":50,"latitude":51.8509665088839,"longitude":4.89147495579089,"canPickup":true,"canDropoff":true,"openingstijden":{"ma":"09:00 - 21:00","di":"09:00 - 20:00","wo":"09:00 - 21:00","do":"09:00 - 20:00","vr":"09:00 - 20:30","za":"12:00 - 18:00","zo":"gesloten"}}},{"type":"Feature","geometry":{"type":"Point","coordinates":[4.68809453705608,51.8858244858256]},"properties":{"type":"pakketpunt","locatieNaam":"ViaTim & Meerkerk","straatNaam":"Bovenkruier","straatNr":"90","vervoerder":"ViaTim","puntType":"servicepunt","bezettingsgraad":50,"latitude":51.8858244858256,"longitude":4.68809453705608,"canPickup":true,"canDropoff":true,"openingstijden":{"ma":"15:00 - 21:00","di":"15:00 - 21:00","wo":"15:00 - 21:00","do":"15:00 - 21:00","vr":"15:00 - 21:00","za":"gesloten","zo":"gesloten"}}},{"type":"Feature","geometry":{"type":"Point","coordinates":[4.687481,51.889174]},"properties":{"type":"pakketpunt","locatieNaam":"FedEx OnSite","straatNaam":"HELLEMANSTRAAT 2","straatNr":"","vervoerder":"FedEx","puntType":"servicepunt","bezettingsgraad":50,"latitude":51.889174,"longitude":4.687481,"canPickup":true,"canDropoff":true,"openingstijden":{"ma":"09:00 - 12:30, 13:00 - 17:30","di":"09:00 - 12:30, 13:00 - 17:30","wo":"09:00 - 12:30, 13:00 - 17:30","do":"09:00 - 12:30, 13:00 - 17:30","vr":"09:00 - 12:30, 13:00 - 17:30","za":"09:30 - 12:30","zo":"gesloten"}}},{"type":"Feature","geometry":{"type":"Point","coordinates":[4.89615,51.84365]},"properties":{"type":"pakketpunt","locatieNaam":"FedEx OnSite","straatNaam":"NIJVERHEIDSWEG 10","straatNr":"","vervoerder":"FedEx","puntType":"servicepunt","bezettingsgraad":50,"latitude":51.84365,"longitude":4.89615,"canPickup":true,"canDropoff":true,"openingstijden":{"ma":"09:00 - 21:00","di":"09:00 - 20:00","wo":"09:00 - 21:00","do":"09:00 - 20:00","vr":"09:00 - 20:30","za":"12:00 - 18:00","zo":"gesloten"}}},{"type":"Feature","geometry":{"type":"Point","coordinates":[4.947884525820463,51.878857742181175]},"properties":{"type":"pakketpunt","locatieNaam":"FedEx Ship&Get","straatNaam":"Dirk IV-plein 8 PBA","straatNr":"","vervoerder":"FedEx","puntType":"servicepunt","bezettingsgraad":50,"latitude":51.878857742181175,"longitude":4.947884525820463,"canPickup":true,"canDropoff":true,"openingstijden":{"ma":"08:00 - 19:00","di":"08:00 - 19:00","wo":"08:00 - 19:00","do":"08:00 - 20:00","vr":"08:00 - 20:00","za":"08:00 - 20:00","zo":"gesloten"}}},{"type":"Feature","geometry":{"type":"Point","coordinates":[4.993883,51.864059]},"properties":{"type":"pakketpunt","locatieNaam":"FedEx OnSite","straatNaam":"DOKTER H. DE VRIESPLEIN 2","straatNr":"","vervoerder":"FedEx","puntType":"servicepunt","bezettingsgraad":50,"latitude":51.864059,"longitude":4.993883,"canPickup":true,"canDropoff":true,"openingstijden":{"ma":"gesloten","di":"09:00 - 17:30","wo":"09:00 - 17:30","do":"09:00 - 17:30","vr":"09:00 - 17:30","za":"09:00 - 17:00","zo":"gesloten"}}},{"type":"Feature","geometry":{"type":"Point","coordinates":[4.68748,51.88917]},"properties":{"type":"pakketpunt","locatieNaam":"STACOM SYSTEM","straatNaam":"Hellemanstraat 2","straatNr":"","vervoerder":"InPost","puntType":"servicepunt","bezettingsgraad":50,"latitude":51.88917,"longitude":4.68748,"canPickup":true,"canDropoff":true,"openingstijden":null}},{"type":"Feature","geometry":{"type":"Point","coordinates":[4.99388,51.86406]},"properties":{"type":"pakketpunt","locatieNaam":"TO CATO CONCEPTSTORE","straatNaam":"Dokter H. de Vriesplein 2","straatNr":"","vervoerder":"InPost","puntType":"servicepunt","bezettingsgraad":50,"latitude":51.86406,"longitude":4.99388,"canPickup":true,"canDropoff":true,"openingstijden":null}},{"type":"Feature","geometry":{"type":"Point","coordinates":[4.89615,51.84365]},"properties":{"type":"pakketpunt","locatieNaam":"PUNT VD HEUVEL","straatNaam":"nijverheidsweg 10","straatNr":"","vervoerder":"InPost","puntType":"servicepunt","bezettingsgraad":50,"latitude":51.84365,"longitude":4.89615,"canPickup":true,"canDropoff":true,"openingstijden":null}},{"type":"Feature","geometry":{"type":"Polygon","coordinates":[[[4.619572,51.889523],[4.619702,51.889509],[4.620497,51.889439],[4.621044,51.889402],[4.62256,51.889355],[4.624092,51.889357],[4.625397,51.889382],[4.626468,51.889445],[4.626829,51.889466],[4.628284,51.889643],[4.631074,51.890145],[4.632173,51.89032],[4.632781,51.890414],[4.633909,51.890593],[4.634239,51.890625],[4.635136,51.890721],[4.636772,51.890911],[4.637394,51.89091],[4.63786,51.890909],[4.638592,51.890837],[4.639301,51.890733],[4.640148,51.890656],[4.642912,51.890406],[4.644128,51.890262],[4.644603,51.890215],[4.646237,51.890036],[4.648199,51.889818],[4.648333,51.889812],[4.649907,51.889734],[4.650117,51.889726],[4.651767,51.889607],[4.652859,51.889635],[4.654651,51.889682],[4.654652,51.889682],[4.655073,51.889705],[4.65535,51.88972],[4.655775,51.889764],[4.657103,51.889895],[4.658224,51.889813],[4.659601,51.889711],[4.660027,51.88968],[4.661017,51.889604],[4.662104,51.889519],[4.662601,51.88948],[4.663055,51.889471],[4.663547,51.889462],[4.664385,51.889446],[4.664961,51.889478],[4.666204,51.889547],[4.668167,51.889585],[4.668608,51.889635],[4.669369,51.889721],[4.669854,51.889777],[4.671646,51.890046],[4.673367,51.890228],[4.674166,51.890414],[4.678332,51.892073],[4.680878,51.893107],[4.683024,51.893442],[4.683026,51.893442],[4.685734,51.893942],[4.687748,51.894287],[4.69241,51.895087],[4.692861,51.895165],[4.694082,51.895407],[4.694084,51.895407],[4.696552,51.895903],[4.697912,51.896176],[4.698559,51.896306],[4.69997,51.896589],[4.70435,51.897079],[4.705601,51.897218],[4.708761,51.897239],[4.712227,51.897029],[4.714013,51.896882],[4.714778,51.896852],[4.715359,51.89681],[4.715879,51.896802],[4.717162,51.89686],[4.718041,51.896943],[4.718965,51.896933],[4.719837,51.896982],[4.720992,51.897057],[4.721936,51.897261],[4.723412,51.897871],[4.723972,51.898091],[4.725208,51.8986],[4.726701,51.899178],[4.728152,51.899726],[4.731223,51.900943],[4.732799,51.901512],[4.734483,51.901999],[4.736259,51.902275],[4.737985,51.902712],[4.739129,51.903387],[4.739303,51.903489],[4.7394,51.903537],[4.740771,51.904168],[4.742174,51.904682],[4.74388,51.905242],[4.743993,51.905292],[4.745569,51.905927],[4.746915,51.90668],[4.748367,51.907553],[4.749362,51.90817],[4.750951,51.909084],[4.75236,51.90987],[4.75314,51.910291],[4.753514,51.91048],[4.757511,51.912427],[4.759858,51.913502],[4.761762,51.914217],[4.763947,51.914981],[4.76557,51.915457],[4.766879,51.915827],[4.767194,51.915903],[4.770714,51.916456],[4.772288,51.916632],[4.77279,51.916678],[4.773623,51.91675],[4.7778,51.91708],[4.779689,51.917263],[4.781426,51.917506],[4.783357,51.917904],[4.785203,51.918323],[4.785313,51.918351],[4.785382,51.918367],[4.788339,51.91908],[4.791223,51.919786],[4.79331,51.920315],[4.794908,51.920638],[4.795678,51.920762],[4.796844,51.920954],[4.798523,51.921205],[4.80021,51.921433],[4.800376,51.921459],[4.801164,51.921618],[4.801233,51.921632],[4.801233,51.921632],[4.801994,51.921785],[4.802138,51.921817],[4.803759,51.922231],[4.805171,51.922645],[4.806088,51.922892],[4.808555,51.923592],[4.808749,51.923651],[4.810319,51.92417],[4.811284,51.924555],[4.811729,51.92473],[4.813071,51.9255],[4.814205,51.926238],[4.814297,51.926297],[4.815478,51.927148],[4.816688,51.928026],[4.817884,51.928881],[4.818894,51.929571],[4.819075,51.929698],[4.820275,51.930553],[4.820327,51.93059],[4.821164,51.931197],[4.821439,51.931399],[4.821526,51.931454],[4.825193,51.933765],[4.826574,51.934618],[4.827785,51.935439],[4.828786,51.93627],[4.830048,51.93726],[4.831266,51.938064],[4.832305,51.938639],[4.832513,51.938755],[4.834055,51.939465],[4.835539,51.940067],[4.837196,51.940421],[4.83898,51.94061],[4.84098,51.940813],[4.842534,51.940957],[4.843265,51.940994],[4.844314,51.94105],[4.84432,51.94105],[4.846142,51.941294],[4.846173,51.941298],[4.847882,51.941553],[4.849059,51.941519],[4.849751,51.941503],[4.849902,51.941502],[4.851255,51.94149],[4.852938,51.941442],[4.854942,51.941309],[4.85646,51.94118],[4.857198,51.941104],[4.858162,51.940974],[4.859085,51.940849],[4.859939,51.940712],[4.861442,51.940455],[4.86278,51.940193],[4.863242,51.940099],[4.863281,51.940026],[4.863881,51.939912],[4.865666,51.939605],[4.869135,51.938938],[4.870862,51.938595],[4.872279,51.938354],[4.872627,51.938293],[4.874412,51.938076],[4.875318,51.937992],[4.877793,51.938031],[4.877806,51.938031],[4.879788,51.938119],[4.880523,51.938179],[4.881803,51.938285],[4.88511,51.938587],[4.888702,51.939027],[4.892282,51.939499],[4.892275,51.939509],[4.892759,51.939584],[4.894073,51.939786],[4.897918,51.940244],[4.900713,51.940632],[4.904434,51.941123],[4.906423,51.941409],[4.906919,51.941465],[4.906938,51.941467],[4.906991,51.941473],[4.907281,51.941506],[4.908206,51.941609],[4.908499,51.941646],[4.913526,51.942358],[4.914011,51.942436],[4.914583,51.942597],[4.915515,51.942878],[4.91589,51.943008],[4.91638,51.943179],[4.916637,51.943315],[4.918003,51.943987],[4.919188,51.944729],[4.920218,51.945442],[4.92035,51.945538],[4.920515,51.945661],[4.920685,51.945787],[4.921329,51.946266],[4.921771,51.946625],[4.922358,51.9471],[4.922565,51.947279],[4.922594,51.947304],[4.922716,51.94741],[4.922856,51.94753],[4.924494,51.948946],[4.92518,51.949615],[4.925209,51.949643],[4.92529,51.949721],[4.925466,51.949931],[4.926301,51.950928],[4.929475,51.950191],[4.929554,51.949879],[4.929587,51.949814],[4.929581,51.949746],[4.929641,51.949509],[4.929708,51.949411],[4.92995,51.948854],[4.929964,51.948822],[4.930034,51.948746],[4.930131,51.948645],[4.93068,51.948975],[4.930732,51.949006],[4.930814,51.948972],[4.931021,51.948885],[4.931043,51.948863],[4.931165,51.948738],[4.931296,51.948667],[4.931366,51.94861],[4.931518,51.948399],[4.931983,51.947751],[4.932126,51.947552],[4.932236,51.94734],[4.932387,51.947089],[4.932615,51.946663],[4.932861,51.946055],[4.933259,51.944918],[4.933241,51.944917],[4.933402,51.944428],[4.93401,51.942783],[4.933978,51.942776],[4.934006,51.942719],[4.934094,51.942544],[4.934186,51.942316],[4.934248,51.942206],[4.934286,51.942132],[4.934408,51.941788],[4.934547,51.941388],[4.935819,51.938063],[4.936354,51.936632],[4.936376,51.936557],[4.936424,51.936392],[4.937195,51.934344],[4.937215,51.934299],[4.937277,51.934155],[4.937564,51.933365],[4.937982,51.932313],[4.938097,51.93193],[4.938099,51.931922],[4.938577,51.93073],[4.939087,51.92936],[4.939176,51.929152],[4.939202,51.929057],[4.939228,51.928956],[4.939235,51.928938],[4.939332,51.92895],[4.939365,51.928957],[4.939368,51.928958],[4.93945,51.928975],[4.939456,51.928976],[4.939461,51.928977],[4.939621,51.929004],[4.940005,51.929079],[4.940163,51.929122],[4.940365,51.929198],[4.940519,51.929263],[4.940714,51.929362],[4.940798,51.929412],[4.941009,51.929571],[4.941249,51.929767],[4.941317,51.929799],[4.941494,51.929869],[4.941791,51.929971],[4.942078,51.930061],[4.942183,51.930102],[4.942293,51.930167],[4.942384,51.930238],[4.942526,51.93038],[4.942689,51.93055],[4.942773,51.930622],[4.942872,51.930702],[4.943013,51.930823],[4.943198,51.931004],[4.943289,51.931057],[4.943578,51.931207],[4.943757,51.931309],[4.94391,51.931403],[4.94404,51.931495],[4.944285,51.931665],[4.944508,51.931826],[4.944869,51.932116],[4.945107,51.932335],[4.945168,51.932404],[4.945212,51.932471],[4.945251,51.932532],[4.945387,51.932702],[4.945552,51.932908],[4.945651,51.933049],[4.945844,51.933228],[4.945944,51.93329],[4.946048,51.933337],[4.946119,51.933362],[4.946257,51.9334],[4.94673,51.933504],[4.947237,51.933619],[4.947623,51.933707],[4.94764,51.93371],[4.947696,51.933725],[4.947726,51.93363],[4.947864,51.933212],[4.948002,51.932828],[4.948242,51.932121],[4.948455,51.931475],[4.948545,51.931231],[4.9486,51.931255],[4.948601,51.931256],[4.949494,51.931653],[4.949516,51.931634],[4.949519,51.931632],[4.949596,51.931566],[4.949654,51.931414],[4.949746,51.931179],[4.950288,51.929887],[4.950566,51.929227],[4.950771,51.92872],[4.950947,51.928305],[4.951076,51.927986],[4.951201,51.927703],[4.951378,51.927294],[4.951473,51.927096],[4.951602,51.926816],[4.951669,51.926615],[4.951758,51.92637],[4.951845,51.926168],[4.95198,51.925843],[4.952021,51.925745],[4.952061,51.925634],[4.952176,51.925316],[4.952364,51.924845],[4.952611,51.924257],[4.952833,51.923722],[4.953086,51.923072],[4.953368,51.922382],[4.953665,51.921643],[4.954002,51.920799],[4.954325,51.920038],[4.954684,51.919182],[4.955063,51.918252],[4.955412,51.917407],[4.955685,51.916765],[4.956073,51.915794],[4.956157,51.915591],[4.956218,51.915601],[4.956228,51.915602],[4.956318,51.915616],[4.95645,51.915551],[4.956506,51.915527],[4.956587,51.915499],[4.956685,51.915468],[4.956809,51.915437],[4.957723,51.915353],[4.958294,51.915313],[4.958444,51.915302],[4.958558,51.915285],[4.958734,51.915142],[4.958918,51.914953],[4.959113,51.914736],[4.959367,51.914441],[4.959531,51.914251],[4.959657,51.914092],[4.959693,51.914046],[4.960247,51.914679],[4.960312,51.914755],[4.96038,51.914827],[4.960491,51.914758],[4.960641,51.914664],[4.961417,51.914448],[4.962133,51.914261],[4.96271,51.914107],[4.963148,51.913987],[4.964377,51.913692],[4.964679,51.913564],[4.964785,51.913519],[4.964675,51.913475],[4.964673,51.913474],[4.964308,51.913287],[4.964066,51.91316],[4.963868,51.913063],[4.963658,51.912967],[4.963485,51.912893],[4.963326,51.91283],[4.963262,51.912804],[4.963293,51.912785],[4.963359,51.912744],[4.963562,51.912617],[4.964115,51.912294],[4.964135,51.912282],[4.96416,51.912267],[4.964193,51.912014],[4.964189,51.911969],[4.964164,51.911833],[4.964163,51.911729],[4.964164,51.911557],[4.964173,51.911429],[4.964157,51.911281],[4.964143,51.911157],[4.964138,51.911031],[4.964133,51.910919],[4.964133,51.910806],[4.964129,51.910686],[4.964128,51.910638],[4.964152,51.910633],[4.964269,51.91062],[4.964485,51.910594],[4.964656,51.910567],[4.964955,51.910511],[4.965262,51.910452],[4.965616,51.910393],[4.966008,51.910333],[4.966158,51.910313],[4.966432,51.910269],[4.966658,51.910255],[4.966717,51.910252],[4.966719,51.910252],[4.967112,51.910206],[4.967607,51.910139],[4.967792,51.910094],[4.968097,51.909997],[4.968325,51.9099],[4.968554,51.909804],[4.968673,51.909753],[4.969021,51.909603],[4.969886,51.909249],[4.9705,51.908996],[4.971188,51.908717],[4.971445,51.908602],[4.972063,51.908347],[4.972192,51.908296],[4.97237,51.908233],[4.972722,51.90811],[4.972967,51.908017],[4.973269,51.907901],[4.973407,51.907834],[4.973694,51.9077],[4.973741,51.907667],[4.973763,51.907633],[4.97377,51.907581],[4.973778,51.907524],[4.973778,51.907521],[4.973773,51.907463],[4.97377,51.907291],[4.973765,51.906974],[4.973766,51.906616],[4.973766,51.906544],[4.973751,51.906283],[4.97375,51.906133],[4.973748,51.905974],[4.97373,51.905624],[4.973726,51.905555],[4.97372,51.905459],[4.973723,51.905252],[4.973705,51.904715],[4.973683,51.904249],[4.973668,51.90393],[4.97363,51.90319],[4.973623,51.903015],[4.973586,51.902276],[4.973562,51.901826],[4.973554,51.90156],[4.973534,51.901201],[4.973527,51.90105],[4.973529,51.900768],[4.973512,51.900301],[4.973498,51.899929],[4.973491,51.899917],[4.973481,51.899157],[4.973434,51.898228],[4.973413,51.897675],[4.973416,51.897435],[4.973407,51.897392],[4.973411,51.89725],[4.97343,51.897256],[4.973461,51.897263],[4.973492,51.897268],[4.973523,51.89727],[4.97355,51.897269],[4.973587,51.897264],[4.973749,51.897237],[4.973782,51.897232],[4.973837,51.897224],[4.973904,51.897214],[4.974355,51.897093],[4.974531,51.897167],[4.974667,51.897217],[4.974799,51.897253],[4.975757,51.897497],[4.977477,51.897945],[4.978217,51.898137],[4.979631,51.89852],[4.979646,51.898524],[4.979677,51.898533],[4.979679,51.898533],[4.980305,51.898702],[4.98182,51.899113],[4.983532,51.899574],[4.983538,51.899576],[4.984591,51.899832],[4.984815,51.899903],[4.98504,51.899965],[4.985114,51.899986],[4.985855,51.900179],[4.986359,51.900317],[4.987704,51.90066],[4.988078,51.900755],[4.988282,51.900807],[4.988291,51.90081],[4.988569,51.900897],[4.989972,51.90127],[4.991455,51.901661],[4.991449,51.901673],[4.99197,51.901814],[4.992251,51.90189],[4.992457,51.901945],[4.992666,51.901953],[4.992728,51.901975],[4.992911,51.902017],[4.993322,51.902135],[4.993755,51.902226],[4.994014,51.902278],[4.994239,51.902325],[4.994244,51.902326],[4.994341,51.902345],[4.994349,51.902347],[4.99436,51.902238],[4.994377,51.902239],[4.994483,51.902244],[4.99448,51.902261],[4.994697,51.902275],[4.994836,51.902284],[4.994968,51.902292],[4.994994,51.902089],[4.995058,51.901713],[4.995122,51.901389],[4.995183,51.901041],[4.995237,51.900693],[4.995254,51.90066],[4.995319,51.900529],[4.995395,51.90052],[4.995418,51.900424],[4.995485,51.9002],[4.995568,51.899881],[4.995637,51.899605],[4.995655,51.899547],[4.995706,51.899377],[4.995776,51.899134],[4.995855,51.898885],[4.995913,51.898644],[4.995965,51.89839],[4.996031,51.898089],[4.996088,51.897814],[4.996131,51.897583],[4.996186,51.897366],[4.996229,51.897146],[4.996271,51.896925],[4.996302,51.896689],[4.996322,51.896472],[4.996336,51.896191],[4.996345,51.895944],[4.996338,51.895696],[4.996327,51.895454],[4.996281,51.89524],[4.996217,51.895006],[4.996149,51.89478],[4.99608,51.894591],[4.995986,51.894357],[4.995925,51.894193],[4.995878,51.894038],[4.995826,51.893813],[4.995806,51.893654],[4.995769,51.893478],[4.995759,51.89328],[4.995775,51.892984],[4.995809,51.892772],[4.995841,51.892535],[4.995859,51.892415],[4.99586,51.892413],[4.995915,51.892187],[4.995962,51.891963],[4.996041,51.891676],[4.996162,51.891332],[4.996243,51.891077],[4.996268,51.890995],[4.996325,51.890758],[4.996444,51.890515],[4.996558,51.890304],[4.996673,51.890106],[4.996785,51.889946],[4.996912,51.889768],[4.997037,51.889564],[4.997146,51.889376],[4.997205,51.889211],[4.997257,51.889012],[4.997295,51.888843],[4.997334,51.888717],[4.997347,51.888689],[4.997382,51.888614],[4.997422,51.888523],[4.997448,51.888481],[4.997482,51.888445],[4.997574,51.888261],[4.997798,51.887834],[4.998074,51.887292],[4.998661,51.886142],[4.998831,51.885833],[4.998876,51.885748],[4.999028,51.885437],[4.999122,51.88524],[4.999201,51.885073],[4.999257,51.884934],[4.999284,51.884858],[4.999316,51.88477],[4.999376,51.884612],[4.999435,51.884418],[4.999452,51.884284],[4.999448,51.884253],[4.999441,51.884092],[4.999427,51.883946],[4.9994,51.883763],[4.99938,51.883584],[4.999352,51.883437],[4.999319,51.883301],[4.999276,51.883173],[4.999245,51.88307],[4.999211,51.882976],[4.999181,51.882915],[4.999179,51.882909],[4.999154,51.882856],[4.99914,51.882809],[4.999114,51.882761],[4.999044,51.882622],[4.998929,51.882426],[4.998836,51.882279],[4.998717,51.882101],[4.998715,51.882098],[4.998561,51.8819],[4.998442,51.881774],[4.9983,51.881625],[4.998036,51.881388],[4.997754,51.881153],[4.997348,51.880862],[4.996974,51.880559],[4.996776,51.880389],[4.996673,51.880289],[4.996528,51.880146],[4.996526,51.880144],[4.996428,51.880031],[4.996347,51.879941],[4.996259,51.879841],[4.996174,51.879746],[4.996165,51.879723],[4.996052,51.879589],[4.995944,51.879447],[4.995852,51.879334],[4.995772,51.879213],[4.995681,51.879066],[4.995588,51.878922],[4.995511,51.878787],[4.995407,51.878572],[4.995329,51.878404],[4.995269,51.878256],[4.995198,51.878084],[4.995147,51.877949],[4.995092,51.877753],[4.995047,51.877616],[4.995041,51.877547],[4.995006,51.877362],[4.99498,51.877145],[4.994953,51.876956],[4.994952,51.876954],[4.994941,51.87676],[4.994952,51.876539],[4.994974,51.876254],[4.995014,51.876016],[4.995077,51.875745],[4.995134,51.875546],[4.995176,51.875379],[4.995241,51.875207],[4.995317,51.875003],[4.995408,51.874795],[4.995416,51.874778],[4.995805,51.87398],[4.995953,51.87372],[4.996123,51.873361],[4.996238,51.873119],[4.996549,51.873207],[4.996536,51.873226],[4.996615,51.873249],[4.996653,51.87326],[4.996646,51.873273],[4.996708,51.873291],[4.996692,51.873315],[4.996634,51.873405],[4.996717,51.87348],[4.996793,51.873548],[4.996797,51.873552],[4.996806,51.873555],[4.996818,51.873558],[4.997328,51.873706],[4.997662,51.873803],[4.99797,51.873893],[4.998242,51.874],[4.999293,51.874344],[5.00043,51.874716],[5.001212,51.874974],[5.001267,51.874992],[5.001243,51.874726],[5.002362,51.875046],[5.003519,51.875375],[5.004338,51.875606],[5.004663,51.87569],[5.005375,51.875893],[5.005473,51.875921],[5.00577,51.876003],[5.005988,51.876063],[5.006011,51.876069],[5.006125,51.8761],[5.006274,51.876142],[5.006588,51.876229],[5.006635,51.876242],[5.006639,51.876243],[5.006775,51.87628],[5.006942,51.876325],[5.007189,51.876393],[5.00746,51.876469],[5.007621,51.876522],[5.007865,51.87659],[5.007964,51.876617],[5.008444,51.876752],[5.009151,51.876951],[5.009323,51.876999],[5.010004,51.877191],[5.010186,51.877243],[5.010256,51.877264],[5.011033,51.877485],[5.011134,51.877513],[5.011836,51.87771],[5.011867,51.877719],[5.012522,51.877905],[5.012688,51.877952],[5.01304,51.878052],[5.013281,51.878121],[5.013465,51.878172],[5.01363,51.878219],[5.013646,51.878223],[5.013958,51.878311],[5.014138,51.878363],[5.014119,51.878338],[5.014151,51.878347],[5.014519,51.878448],[5.01514,51.878621],[5.0159,51.878833],[5.016504,51.879003],[5.017231,51.879207],[5.018484,51.879559],[5.019253,51.879775],[5.019459,51.879833],[5.020536,51.880135],[5.020677,51.880175],[5.021838,51.880503],[5.022131,51.880596],[5.022862,51.880804],[5.023462,51.88098],[5.023515,51.880996],[5.023562,51.88101],[5.023853,51.881083],[5.023942,51.881108],[5.025108,51.881431],[5.025224,51.881461],[5.025571,51.881555],[5.025972,51.881666],[5.026039,51.881683],[5.026108,51.881701],[5.02665,51.88184],[5.026704,51.881854],[5.026928,51.881911],[5.026956,51.881918],[5.027002,51.881858],[5.027134,51.881685],[5.027161,51.88165],[5.027254,51.881528],[5.027195,51.88151],[5.027057,51.881499],[5.02701,51.88149],[5.026935,51.881461],[5.026847,51.881433],[5.026751,51.881428],[5.026691,51.881415],[5.02663,51.881398],[5.026461,51.881349],[5.026403,51.881334],[5.026345,51.881322],[5.026249,51.881295],[5.026203,51.881279],[5.026174,51.88127],[5.02613,51.881249],[5.026078,51.881216],[5.026049,51.881197],[5.026012,51.881167],[5.02597,51.881133],[5.025935,51.881101],[5.025906,51.881065],[5.025871,51.881038],[5.025825,51.881002],[5.025795,51.880981],[5.025773,51.880959],[5.025737,51.880931],[5.025698,51.880915],[5.02567,51.880902],[5.025647,51.880877],[5.025568,51.880767],[5.025467,51.880631],[5.025454,51.880592],[5.025403,51.880459],[5.025356,51.880341],[5.025331,51.880259],[5.025299,51.880152],[5.025263,51.880054],[5.025203,51.879882],[5.025154,51.879715],[5.025141,51.879675],[5.025125,51.879582],[5.025113,51.879544],[5.025049,51.879404],[5.02502,51.879343],[5.024936,51.879191],[5.024887,51.87912],[5.024864,51.879075],[5.024838,51.879015],[5.024803,51.878914],[5.024795,51.878885],[5.024785,51.87886],[5.024778,51.87884],[5.024767,51.878827],[5.024757,51.878815],[5.024747,51.8788],[5.024734,51.878773],[5.024737,51.878758],[5.024747,51.878742],[5.024753,51.878725],[5.024755,51.878706],[5.024753,51.878685],[5.024743,51.878643],[5.024728,51.878584],[5.02471,51.878535],[5.024636,51.878386],[5.024621,51.878364],[5.024603,51.878314],[5.024583,51.878262],[5.024568,51.878213],[5.024545,51.878171],[5.024491,51.8781],[5.024478,51.878074],[5.024468,51.878049],[5.024432,51.877962],[5.024402,51.877919],[5.024319,51.87783],[5.024299,51.877798],[5.024274,51.877732],[5.024238,51.877676],[5.024189,51.877623],[5.024156,51.877584],[5.024133,51.877559],[5.024114,51.877541],[5.024097,51.877514],[5.024061,51.877464],[5.024033,51.877422],[5.024017,51.877385],[5.023984,51.877323],[5.023958,51.87729],[5.023943,51.877263],[5.023923,51.877231],[5.023874,51.87713],[5.023831,51.877046],[5.023811,51.876995],[5.023814,51.87694],[5.023809,51.876913],[5.023791,51.876883],[5.02376,51.87682],[5.023719,51.876769],[5.023714,51.87674],[5.023725,51.876692],[5.02372,51.876634],[5.023708,51.876568],[5.023695,51.876515],[5.023685,51.876491],[5.02367,51.876467],[5.023649,51.876435],[5.023606,51.876382],[5.02359,51.876362],[5.02358,51.876342],[5.023573,51.876319],[5.023565,51.876301],[5.023555,51.876284],[5.023537,51.876261],[5.023506,51.876218],[5.023475,51.876186],[5.023452,51.876154],[5.02338,51.876064],[5.023342,51.875998],[5.023278,51.875866],[5.02325,51.875802],[5.023227,51.875741],[5.023223,51.875696],[5.023218,51.875624],[5.023206,51.875582],[5.02319,51.875543],[5.023175,51.875479],[5.023158,51.875399],[5.023148,51.875343],[5.023143,51.875288],[5.023133,51.875258],[5.023105,51.875181],[5.023035,51.875026],[5.023014,51.874978],[5.023013,51.874978],[5.022998,51.874947],[5.022971,51.874871],[5.022967,51.87486],[5.022961,51.874842],[5.022917,51.874688],[5.022876,51.874511],[5.022867,51.874455],[5.022858,51.874427],[5.022839,51.874365],[5.022836,51.874265],[5.022877,51.873982],[5.022907,51.873836],[5.022928,51.873742],[5.022951,51.873643],[5.022955,51.873599],[5.022991,51.873531],[5.023033,51.873441],[5.023047,51.873354],[5.023051,51.87328],[5.02309,51.87321],[5.023139,51.873122],[5.023141,51.872837],[5.023146,51.872697],[5.023143,51.872637],[5.023141,51.872482],[5.023142,51.872382],[5.023154,51.872104],[5.023164,51.872055],[5.023167,51.872027],[5.023148,51.871951],[5.023051,51.871689],[5.022971,51.871511],[5.022943,51.871465],[5.022853,51.871417],[5.022761,51.871201],[5.022729,51.871171],[5.022713,51.871131],[5.022717,51.871087],[5.022695,51.871019],[5.022679,51.870963],[5.022657,51.87091],[5.022571,51.870773],[5.022504,51.870682],[5.022447,51.870606],[5.022393,51.870534],[5.022361,51.870489],[5.022339,51.87043],[5.022324,51.870328],[5.022311,51.870275],[5.022261,51.870109],[5.022237,51.869968],[5.022229,51.869865],[5.022213,51.869803],[5.02216,51.869666],[5.022094,51.869526],[5.021898,51.869254],[5.021816,51.869115],[5.02176,51.868981],[5.021749,51.86882],[5.021782,51.868698],[5.021827,51.868607],[5.022058,51.868355],[5.022392,51.868096],[5.022712,51.867872],[5.022981,51.867684],[5.023109,51.867586],[5.023424,51.867279],[5.023565,51.867122],[5.023642,51.867012],[5.023688,51.866913],[5.023727,51.866728],[5.023766,51.86663],[5.023792,51.866559],[5.023857,51.866472],[5.023979,51.866346],[5.024267,51.86615],[5.024581,51.865923],[5.024837,51.865781],[5.025022,51.865679],[5.025163,51.865585],[5.025343,51.865452],[5.025535,51.865303],[5.025733,51.865177],[5.026021,51.865028],[5.026111,51.864981],[5.02629,51.864796],[5.02647,51.864643],[5.026758,51.864431],[5.026957,51.864274],[5.027027,51.864219],[5.027111,51.864105],[5.027195,51.864003],[5.027278,51.863908],[5.027388,51.863739],[5.02744,51.863597],[5.027447,51.86353],[5.027454,51.863388],[5.027417,51.863246],[5.027413,51.862994],[5.027404,51.862493],[5.027407,51.86215],[5.027401,51.862105],[5.0274,51.862104],[5.027383,51.861978],[5.027382,51.861972],[5.027365,51.861846],[5.027336,51.861484],[5.027302,51.86092],[5.027297,51.860741],[5.027334,51.860741],[5.027414,51.860741],[5.027408,51.860309],[5.027361,51.860285],[5.02731,51.860276],[5.027283,51.860276],[5.02713,51.860276],[5.027092,51.860218],[5.027111,51.860218],[5.027139,51.860218],[5.027171,51.860218],[5.027194,51.860218],[5.027277,51.860218],[5.027283,51.860218],[5.027312,51.860216],[5.027349,51.860213],[5.027387,51.860208],[5.027422,51.860203],[5.027404,51.860175],[5.027382,51.860143],[5.027274,51.85998],[5.027386,51.859947],[5.027446,51.859927],[5.027496,51.859903],[5.027508,51.859884],[5.027512,51.859854],[5.027496,51.859824],[5.027453,51.85974],[5.02741,51.859643],[5.027346,51.859542],[5.027292,51.859436],[5.027248,51.859352],[5.027196,51.859249],[5.027143,51.859144],[5.02708,51.859012],[5.027026,51.858891],[5.026981,51.858771],[5.026908,51.858608],[5.026516,51.858598],[5.026143,51.858586],[5.025787,51.858577],[5.025442,51.858552],[5.025082,51.858559],[5.024598,51.858567],[5.022225,51.858668],[5.021868,51.858705],[5.021349,51.858756],[5.020928,51.858792],[5.020419,51.858895],[5.019759,51.858982],[5.01836,51.859136],[5.018065,51.859158],[5.017439,51.859188],[5.016528,51.85919],[5.015628,51.859178],[5.015187,51.859161],[5.014634,51.859126],[5.014027,51.85907],[5.013341,51.858969],[5.01275,51.858857],[5.012308,51.858745],[5.011997,51.858651],[5.011419,51.858483],[5.010841,51.858329],[5.010669,51.858283],[5.00972,51.858079],[5.00952,51.858046],[5.00947,51.858043],[5.009147,51.858006],[5.008735,51.857981],[5.008186,51.857957],[5.008012,51.85795],[5.007746,51.857946],[5.00752,51.85789],[5.007271,51.857873],[5.006975,51.85786],[5.00675,51.857881],[5.006547,51.857895],[5.00594,51.857892],[5.005522,51.857913],[5.005248,51.857933],[5.004906,51.857965],[5.004435,51.858026],[5.00394,51.85812],[5.00391,51.858127],[5.003553,51.858215],[5.002988,51.858385],[5.002244,51.858685],[5.001704,51.858903],[5.00125,51.859059],[5.000781,51.85926],[5.000456,51.859433],[5.000104,51.859629],[4.99863,51.860476],[4.998237,51.860695],[4.997897,51.860889],[4.997336,51.8612],[4.996886,51.861443],[4.996639,51.861562],[4.996428,51.861665],[4.996236,51.861755],[4.996017,51.86183],[4.995965,51.861849],[4.995955,51.86185],[4.995841,51.861866],[4.995735,51.861872],[4.995581,51.861875],[4.995399,51.861874],[4.995397,51.861874],[4.995236,51.861854],[4.99506,51.861817],[4.994895,51.861772],[4.994729,51.861721],[4.994579,51.861661],[4.994509,51.861625],[4.994439,51.86159],[4.994356,51.861544],[4.994299,51.861511],[4.994239,51.861473],[4.994184,51.861436],[4.994095,51.861364],[4.994039,51.861302],[4.993968,51.861223],[4.993931,51.861151],[4.993908,51.861076],[4.993885,51.860993],[4.993865,51.860917],[4.993858,51.860834],[4.993855,51.860749],[4.993855,51.860708],[4.993864,51.860667],[4.993872,51.860649],[4.993904,51.860594],[4.993946,51.860534],[4.994002,51.860455],[4.994148,51.860256],[4.994231,51.860171],[4.994739,51.859692],[4.994999,51.859432],[4.995094,51.85933],[4.99536,51.859046],[4.995516,51.858872],[4.995695,51.858653],[4.995863,51.858429],[4.996099,51.858099],[4.996308,51.857798],[4.996575,51.85742],[4.997023,51.856809],[4.997178,51.856595],[4.99738,51.856297],[4.997515,51.856092],[4.99762,51.855917],[4.997696,51.855786],[4.997741,51.855709],[4.997776,51.855646],[4.997802,51.855601],[4.997911,51.855451],[4.99805,51.855271],[4.998153,51.855121],[4.998234,51.85499],[4.998305,51.854861],[4.998369,51.854734],[4.998433,51.854588],[4.998483,51.854453],[4.998526,51.854304],[4.998552,51.854192],[4.998567,51.8541],[4.998578,51.853938],[4.998595,51.853586],[4.998616,51.853348],[4.998672,51.852745],[4.998685,51.852277],[4.998669,51.852052],[4.998645,51.851937],[4.9986,51.851758],[4.998554,51.851613],[4.998507,51.851481],[4.998447,51.851352],[4.998326,51.851135],[4.998282,51.851064],[4.998234,51.850999],[4.997985,51.850704],[4.99787,51.850561],[4.997718,51.850364],[4.997215,51.84992],[4.997203,51.849857],[4.996342,51.849229],[4.996006,51.849302],[4.995757,51.849356],[4.994941,51.849533],[4.992205,51.850131],[4.992008,51.850167],[4.991828,51.8502],[4.991715,51.850221],[4.990675,51.850409],[4.990573,51.850428],[4.990449,51.850453],[4.989799,51.850578],[4.988463,51.850848],[4.987621,51.851022],[4.986857,51.851181],[4.98376,51.85175],[4.983506,51.851662],[4.983442,51.85164],[4.983432,51.851637],[4.983233,51.851576],[4.983134,51.851542],[4.983037,51.8515],[4.982979,51.851484],[4.982959,51.851521],[4.982989,51.851591],[4.982221,51.851692],[4.982146,51.851731],[4.982011,51.851752],[4.981753,51.851793],[4.981655,51.851808],[4.981604,51.851816],[4.981563,51.851823],[4.98126,51.85187],[4.982134,51.854102],[4.982858,51.855911],[4.982873,51.855952],[4.982875,51.855983],[4.983319,51.857108],[4.983084,51.857162],[4.982758,51.857236],[4.982659,51.857258],[4.982646,51.857261],[4.982455,51.857304],[4.9824,51.857317],[4.982335,51.857331],[4.98226,51.857348],[4.978945,51.858101],[4.978535,51.858203],[4.978533,51.858204],[4.978436,51.858228],[4.978148,51.8583],[4.978309,51.858518],[4.978325,51.858539],[4.975627,51.859212],[4.972729,51.859932],[4.97111,51.860267],[4.970278,51.860447],[4.967056,51.861131],[4.965125,51.861533],[4.965057,51.861548],[4.965043,51.861572],[4.964977,51.861592],[4.964944,51.861544],[4.964938,51.861535],[4.964872,51.861437],[4.964825,51.861379],[4.964829,51.861404],[4.96483,51.861424],[4.964838,51.861452],[4.964831,51.861465],[4.964814,51.861479],[4.964788,51.861493],[4.964669,51.861536],[4.964483,51.861602],[4.963919,51.861814],[4.963473,51.86197],[4.963426,51.861984],[4.96341,51.861989],[4.963376,51.861986],[4.963351,51.861974],[4.963296,51.861931],[4.963288,51.861924],[4.962796,51.862049],[4.962414,51.862146],[4.96237,51.862157],[4.961909,51.862271],[4.961558,51.862358],[4.961466,51.862381],[4.960986,51.8625],[4.96061,51.862594],[4.960495,51.862624],[4.960149,51.862713],[4.960038,51.862738],[4.959777,51.8628],[4.959764,51.862803],[4.959395,51.86287],[4.95931,51.862885],[4.958356,51.861257],[4.957833,51.860363],[4.957448,51.859706],[4.957342,51.859519],[4.957329,51.859497],[4.956505,51.859673],[4.955375,51.859914],[4.955129,51.859963],[4.954924,51.860004],[4.954847,51.860018],[4.954744,51.860048],[4.954655,51.860071],[4.954331,51.86014],[4.95412,51.860188],[4.953998,51.860215],[4.953909,51.860232],[4.953687,51.86027],[4.95348,51.860305],[4.953376,51.860325],[4.953279,51.860346],[4.953077,51.860391],[4.952528,51.860519],[4.952322,51.860565],[4.952084,51.86061],[4.951908,51.860642],[4.951854,51.860655],[4.951758,51.86068],[4.951658,51.860698],[4.951477,51.860732],[4.95132,51.860762],[4.95122,51.860784],[4.951121,51.860809],[4.950976,51.860842],[4.950782,51.860889],[4.950703,51.860911],[4.950605,51.860928],[4.950445,51.860961],[4.950282,51.860991],[4.950151,51.861019],[4.949882,51.861079],[4.948931,51.86129],[4.948655,51.861345],[4.948481,51.861381],[4.948267,51.861426],[4.948079,51.861471],[4.947889,51.861514],[4.94771,51.861557],[4.947421,51.861624],[4.9472,51.861676],[4.947171,51.861682],[4.947131,51.861687],[4.947061,51.861695],[4.94698,51.861715],[4.94639,51.86184],[4.946113,51.861899],[4.945995,51.861924],[4.945916,51.861941],[4.945638,51.862009],[4.945523,51.862038],[4.945456,51.862053],[4.945178,51.862113],[4.944806,51.86219],[4.944697,51.862218],[4.944613,51.862242],[4.944546,51.862258],[4.944253,51.862321],[4.944024,51.862368],[4.943815,51.86242],[4.943607,51.862461],[4.94344,51.862499],[4.943268,51.862544],[4.943132,51.862573],[4.943013,51.862592],[4.942891,51.862613],[4.9428,51.862632],[4.942709,51.862649],[4.94257,51.862685],[4.942399,51.862727],[4.942244,51.862765],[4.94212,51.862794],[4.94205,51.862811],[4.94194,51.862833],[4.941807,51.862854],[4.941739,51.862868],[4.941678,51.862885],[4.941649,51.862894],[4.941622,51.862901],[4.941514,51.862926],[4.941092,51.863014],[4.940684,51.863106],[4.940301,51.863194],[4.939978,51.863258],[4.939863,51.863288],[4.939669,51.863337],[4.939439,51.863395],[4.939303,51.863425],[4.938895,51.863518],[4.938399,51.863629],[4.938418,51.863591],[4.938423,51.863579],[4.938599,51.863151],[4.938984,51.862203],[4.939016,51.862124],[4.93918,51.861756],[4.939342,51.861396],[4.939356,51.861357],[4.93939,51.861265],[4.9394,51.861239],[4.939412,51.861219],[4.939436,51.861202],[4.939462,51.861193],[4.939487,51.861181],[4.939585,51.860902],[4.939684,51.860603],[4.939696,51.860542],[4.939765,51.86027],[4.939847,51.85988],[4.939862,51.859799],[4.939875,51.85973],[4.939878,51.859713],[4.939898,51.859637],[4.939956,51.859456],[4.939991,51.859338],[4.940075,51.859115],[4.94031,51.858562],[4.940346,51.858429],[4.940385,51.858211],[4.940436,51.857986],[4.940458,51.857867],[4.940467,51.857815],[4.940485,51.857744],[4.940492,51.857715],[4.94054,51.857523],[4.940565,51.857423],[4.94061,51.857245],[4.940624,51.857191],[4.940633,51.857121],[4.94074,51.856579],[4.940804,51.85626],[4.940907,51.855713],[4.941029,51.855103],[4.941071,51.854938],[4.941111,51.854787],[4.941151,51.854584],[4.941241,51.854163],[4.941372,51.853557],[4.941433,51.853224],[4.941536,51.85267],[4.941553,51.852566],[4.941855,51.850724],[4.941775,51.850715],[4.941844,51.85008],[4.941858,51.849944],[4.941889,51.849753],[4.941948,51.849415],[4.941965,51.849339],[4.94197,51.849311],[4.942036,51.849007],[4.942068,51.848814],[4.942071,51.848794],[4.942069,51.848784],[4.942067,51.848778],[4.942068,51.848764],[4.942073,51.848732],[4.942225,51.847805],[4.942254,51.847623],[4.942444,51.847613],[4.94247,51.847613],[4.942501,51.847608],[4.942513,51.847599],[4.942521,51.847589],[4.942524,51.847575],[4.942526,51.847566],[4.942527,51.847485],[4.94254,51.84738],[4.94254,51.847376],[4.942562,51.847195],[4.942575,51.847093],[4.94258,51.847014],[4.942592,51.846818],[4.94261,51.846645],[4.942619,51.846522],[4.942629,51.846373],[4.942677,51.84549],[4.9427,51.845379],[4.942695,51.845313],[4.942693,51.845298],[4.94272,51.844786],[4.942574,51.844728],[4.942391,51.84466],[4.942205,51.844603],[4.942012,51.844542],[4.942,51.844538],[4.941534,51.844446],[4.941214,51.844434],[4.940927,51.844423],[4.940279,51.84447],[4.940215,51.844483],[4.939555,51.844614],[4.939484,51.844628],[4.938923,51.844736],[4.938905,51.844736],[4.938387,51.844748],[4.937771,51.844679],[4.937769,51.844678],[4.937339,51.844529],[4.937255,51.8445],[4.937201,51.844467],[4.937047,51.844373],[4.93694,51.844378],[4.936923,51.844298],[4.936783,51.844218],[4.936726,51.844185],[4.936595,51.843916],[4.93652,51.843508],[4.936711,51.843085],[4.936618,51.842934],[4.936352,51.842814],[4.936238,51.842759],[4.935102,51.842217],[4.935091,51.842212],[4.934917,51.842126],[4.934862,51.842099],[4.934814,51.842073],[4.934673,51.841996],[4.934292,51.841808],[4.933923,51.841634],[4.933455,51.841414],[4.932717,51.841066],[4.932296,51.840948],[4.932257,51.840865],[4.932218,51.840781],[4.932175,51.840688],[4.932156,51.840649],[4.93177,51.840527],[4.931765,51.840525],[4.931733,51.840515],[4.930931,51.840279],[4.930886,51.840266],[4.930201,51.840123],[4.930141,51.84011],[4.92945,51.840012],[4.929407,51.840006],[4.928839,51.839959],[4.928138,51.839954],[4.92811,51.839954],[4.927277,51.839964],[4.927276,51.839954],[4.926451,51.840054],[4.926435,51.840057],[4.925658,51.840206],[4.925656,51.840207],[4.92476,51.840344],[4.924522,51.84037],[4.924349,51.840383],[4.924269,51.840394],[4.924215,51.840394],[4.924076,51.840396],[4.923807,51.840409],[4.923477,51.840457],[4.923302,51.840484],[4.923138,51.84051],[4.922881,51.840552],[4.922868,51.840554],[4.922625,51.840605],[4.921823,51.840789],[4.921688,51.840549],[4.921888,51.840502],[4.922058,51.840463],[4.92215,51.840442],[4.922482,51.840379],[4.92287,51.840308],[4.923224,51.840243],[4.923561,51.840187],[4.92369,51.840169],[4.923849,51.840149],[4.923919,51.840139],[4.924193,51.84008],[4.924394,51.840029],[4.924536,51.839991],[4.924588,51.839969],[4.924661,51.839936],[4.924684,51.839906],[4.924703,51.839876],[4.924711,51.839832],[4.924845,51.839833],[4.924847,51.839821],[4.924854,51.839778],[4.924863,51.839725],[4.924864,51.839718],[4.924428,51.83972],[4.924158,51.839718],[4.922759,51.839712],[4.921352,51.839705],[4.920302,51.839674],[4.919366,51.839651],[4.919271,51.839602],[4.918561,51.839573],[4.918065,51.839556],[4.917981,51.839589],[4.917658,51.83957],[4.917195,51.839543],[4.915942,51.839468],[4.915463,51.839435],[4.913914,51.839316],[4.912384,51.839177],[4.911816,51.839122],[4.91052,51.838979],[4.91045,51.838925],[4.909862,51.838848],[4.909862,51.838848],[4.909752,51.838835],[4.909673,51.838825],[4.909278,51.838777],[4.909159,51.838804],[4.908834,51.838761],[4.908485,51.838716],[4.908128,51.838665],[4.907624,51.838593],[4.907511,51.838577],[4.907295,51.838547],[4.906938,51.838493],[4.906628,51.838444],[4.906248,51.838381],[4.905714,51.838297],[4.905347,51.838236],[4.904989,51.838175],[4.904554,51.8381],[4.903659,51.837943],[4.903136,51.837849],[4.902889,51.837799],[4.902642,51.837749],[4.902151,51.837654],[4.901581,51.837531],[4.901117,51.837431],[4.900577,51.837316],[4.900093,51.837215],[4.899704,51.837127],[4.898772,51.836914],[4.89826,51.836786],[4.897583,51.836619],[4.896996,51.836476],[4.896664,51.836395],[4.896167,51.836259],[4.895913,51.836192],[4.895359,51.836047],[4.894673,51.835867],[4.894199,51.835742],[4.893561,51.835578],[4.892976,51.835424],[4.892596,51.835326],[4.892598,51.835359],[4.891813,51.835154],[4.891427,51.835048],[4.891361,51.834963],[4.891075,51.834891],[4.890779,51.834817],[4.890375,51.834785],[4.889999,51.834759],[4.889686,51.834713],[4.88958,51.834697],[4.889415,51.834664],[4.889249,51.834634],[4.889212,51.834622],[4.88897,51.83454],[4.88861,51.834415],[4.888567,51.8344],[4.888528,51.834381],[4.888275,51.834236],[4.887977,51.834161],[4.887797,51.834116],[4.887346,51.834003],[4.887135,51.833951],[4.887113,51.833946],[4.886733,51.833858],[4.886364,51.833774],[4.886282,51.833756],[4.885881,51.833667],[4.885791,51.833648],[4.885527,51.833593],[4.885495,51.833587],[4.884681,51.833423],[4.884462,51.833381],[4.884241,51.833343],[4.883738,51.833255],[4.883169,51.833157],[4.882824,51.833097],[4.882774,51.833094],[4.882771,51.833094],[4.882519,51.833079],[4.882509,51.833077],[4.881696,51.832959],[4.880942,51.83285],[4.879648,51.832682],[4.879312,51.832645],[4.877899,51.832514],[4.876862,51.832427],[4.876611,51.832408],[4.876108,51.832378],[4.875937,51.832368],[4.875311,51.832331],[4.873748,51.832241],[4.87345,51.832223],[4.873026,51.832204],[4.873001,51.832203],[4.872649,51.832188],[4.871728,51.832148],[4.871443,51.832136],[4.870258,51.832088],[4.869396,51.832053],[4.868656,51.832023],[4.867928,51.831994],[4.86792,51.832445],[4.867915,51.832749],[4.867915,51.832753],[4.867906,51.833261],[4.867905,51.833264],[4.867902,51.833307],[4.867902,51.833307],[4.867592,51.833979],[4.867592,51.833981],[4.867504,51.834057],[4.867501,51.834059],[4.867452,51.834098],[4.867331,51.834192],[4.86718,51.834311],[4.86706,51.834406],[4.866876,51.83455],[4.866784,51.834622],[4.866778,51.834627],[4.866736,51.834654],[4.866451,51.834837],[4.865775,51.834457],[4.864942,51.833959],[4.864037,51.833394],[4.863855,51.833279],[4.863731,51.833211],[4.863592,51.833143],[4.863315,51.833018],[4.863164,51.832969],[4.863007,51.832941],[4.862892,51.832929],[4.86275,51.832933],[4.86239,51.832946],[4.861937,51.832965],[4.861557,51.832977],[4.861154,51.833],[4.860723,51.833018],[4.860478,51.833022],[4.860062,51.832992],[4.859627,51.832955],[4.859161,51.832923],[4.858653,51.832876],[4.858221,51.832815],[4.8574,51.832699],[4.856937,51.832634],[4.856681,51.832588],[4.856115,51.832461],[4.855905,51.832415],[4.855395,51.832281],[4.854981,51.832185],[4.854664,51.832144],[4.854368,51.832133],[4.854037,51.832131],[4.853781,51.832142],[4.853577,51.83218],[4.853308,51.832253],[4.853174,51.832302],[4.852961,51.832402],[4.852703,51.83253],[4.852493,51.832645],[4.852313,51.832744],[4.851981,51.832923],[4.851775,51.833015],[4.851599,51.833074],[4.85135,51.833141],[4.851102,51.833178],[4.850835,51.833195],[4.850567,51.8332],[4.850342,51.833187],[4.850166,51.833174],[4.84986,51.833134],[4.84946,51.833069],[4.849155,51.833024],[4.848889,51.832957],[4.848588,51.832876],[4.84795,51.832617],[4.847852,51.832818],[4.847674,51.832975],[4.847671,51.832979],[4.847664,51.833051],[4.8476,51.833198],[4.847533,51.8334],[4.847514,51.833457],[4.847515,51.833465],[4.847483,51.833556],[4.847429,51.833625],[4.847298,51.833944],[4.847156,51.834232],[4.847073,51.834402],[4.847062,51.834461],[4.847029,51.834519],[4.847027,51.834528],[4.847008,51.834608],[4.846923,51.834809],[4.846723,51.835281],[4.846549,51.835697],[4.846535,51.835728],[4.846423,51.83599],[4.846289,51.836292],[4.846125,51.836687],[4.845933,51.837156],[4.845824,51.837419],[4.84561,51.837924],[4.845521,51.838131],[4.845512,51.83815],[4.845445,51.838308],[4.845397,51.838418],[4.845328,51.838575],[4.845319,51.838596],[4.845178,51.838919],[4.844946,51.839454],[4.844745,51.839929],[4.844526,51.840441],[4.844348,51.840859],[4.844165,51.841293],[4.844055,51.841555],[4.844005,51.841662],[4.843995,51.841685],[4.843959,51.841741],[4.843956,51.841746],[4.843928,51.841794],[4.843927,51.841795],[4.843925,51.841803],[4.843905,51.841876],[4.843879,51.841955],[4.843863,51.842],[4.843844,51.842048],[4.843804,51.842142],[4.843698,51.842405],[4.843668,51.842483],[4.843621,51.842621],[4.843575,51.842765],[4.843525,51.842932],[4.843479,51.843095],[4.843426,51.84328],[4.843389,51.843403],[4.843357,51.843516],[4.843324,51.843633],[4.843282,51.843765],[4.843228,51.843946],[4.843183,51.844078],[4.84315,51.844183],[4.843127,51.844247],[4.843104,51.84432],[4.842999,51.844641],[4.842951,51.844781],[4.842916,51.844893],[4.842905,51.844927],[4.842891,51.844995],[4.842873,51.845075],[4.842863,51.845113],[4.84281,51.845293],[4.842763,51.845435],[4.84268,51.845682],[4.84263,51.845827],[4.84262,51.845862],[4.842601,51.845948],[4.84257,51.846096],[4.84255,51.846187],[4.842539,51.846226],[4.842524,51.846274],[4.84251,51.846326],[4.842489,51.846378],[4.84244,51.846513],[4.842431,51.846533],[4.842425,51.846556],[4.842406,51.84662],[4.842351,51.846812],[4.842259,51.847119],[4.842186,51.847373],[4.842106,51.847643],[4.842104,51.847648],[4.842103,51.847654],[4.842077,51.847749],[4.842069,51.847774],[4.842023,51.847928],[4.842018,51.847943],[4.841967,51.848126],[4.841899,51.848339],[4.841861,51.84845],[4.841768,51.848748],[4.841736,51.848845],[4.841656,51.849099],[4.841608,51.849255],[4.841579,51.849363],[4.841533,51.849506],[4.841471,51.849716],[4.841399,51.849955],[4.841352,51.85011],[4.841305,51.850262],[4.841196,51.850614],[4.84118,51.850673],[4.841155,51.850742],[4.841128,51.850829],[4.841104,51.850914],[4.841088,51.85098],[4.841009,51.851226],[4.84081,51.851864],[4.840592,51.852587],[4.840372,51.853325],[4.840121,51.854147],[4.840046,51.854373],[4.839745,51.855353],[4.839315,51.856725],[4.839068,51.857556],[4.838655,51.858909],[4.838283,51.860095],[4.838097,51.860686],[4.838082,51.860735],[4.837851,51.860638],[4.837692,51.860563],[4.837481,51.860468],[4.837352,51.860409],[4.837211,51.860349],[4.836391,51.860015],[4.836283,51.859972],[4.836206,51.859938],[4.834645,51.859245],[4.834491,51.859178],[4.834394,51.859137],[4.834142,51.859036],[4.833989,51.858973],[4.833401,51.858735],[4.833311,51.858699],[4.833186,51.858649],[4.833055,51.858597],[4.832865,51.858527],[4.832746,51.858482],[4.832648,51.85844],[4.832348,51.858309],[4.832109,51.858195],[4.832056,51.858167],[4.832024,51.858151],[4.831881,51.858096],[4.83183,51.858077],[4.831667,51.858],[4.831602,51.857971],[4.831553,51.857947],[4.83118,51.857787],[4.830881,51.857654],[4.830815,51.857624],[4.830768,51.857603],[4.830465,51.85748],[4.83041,51.857455],[4.83036,51.857433],[4.830102,51.857307],[4.830029,51.857269],[4.829978,51.857245],[4.829778,51.857157],[4.829717,51.857131],[4.829679,51.857112],[4.829597,51.857073],[4.829561,51.857054],[4.829534,51.857043],[4.829488,51.857025],[4.829452,51.857011],[4.82941,51.856993],[4.829364,51.856971],[4.829085,51.856831],[4.829009,51.856792],[4.828967,51.856774],[4.828699,51.856673],[4.828586,51.856631],[4.828473,51.856589],[4.828245,51.856513],[4.828179,51.856492],[4.828139,51.856475],[4.828084,51.856452],[4.827808,51.856326],[4.827751,51.8563],[4.827704,51.856281],[4.827446,51.856184],[4.827357,51.856152],[4.827354,51.856151],[4.827305,51.856132],[4.82661,51.855847],[4.826541,51.85582],[4.826481,51.855793],[4.826184,51.855655],[4.826134,51.855634],[4.826083,51.855617],[4.825892,51.855554],[4.825814,51.855529],[4.82574,51.855503],[4.825687,51.855482],[4.825522,51.855415],[4.825439,51.855381],[4.825382,51.855355],[4.825215,51.855277],[4.825148,51.855242],[4.825077,51.855211],[4.824691,51.855041],[4.82442,51.854923],[4.824338,51.854888],[4.824274,51.854858],[4.824212,51.854835],[4.824142,51.854808],[4.824094,51.854791],[4.823903,51.854714],[4.823631,51.854606],[4.823562,51.854578],[4.823521,51.854558],[4.823242,51.854427],[4.823122,51.854369],[4.823036,51.854329],[4.822855,51.854252],[4.822756,51.854206],[4.82266,51.854167],[4.822484,51.8541],[4.82246,51.854098],[4.822271,51.854015],[4.821943,51.853876],[4.821846,51.853837],[4.821604,51.853741],[4.821513,51.853703],[4.821436,51.853674],[4.821244,51.853586],[4.821152,51.853544],[4.820711,51.853342],[4.820611,51.853295],[4.820311,51.853148],[4.820259,51.853124],[4.820086,51.85305],[4.820008,51.853018],[4.819964,51.852998],[4.819604,51.852829],[4.819486,51.852777],[4.81942,51.852749],[4.819263,51.852689],[4.819077,51.852617],[4.818905,51.852546],[4.818675,51.852452],[4.818172,51.852239],[4.818097,51.852209],[4.818038,51.852181],[4.817462,51.851938],[4.817388,51.851906],[4.817314,51.851872],[4.816978,51.851712],[4.816905,51.851674],[4.81686,51.851657],[4.816661,51.851583],[4.816572,51.851551],[4.816492,51.851523],[4.816327,51.85147],[4.816271,51.851453],[4.816223,51.851436],[4.816098,51.851388],[4.816025,51.851359],[4.815956,51.851327],[4.815797,51.851249],[4.815658,51.851178],[4.815581,51.851141],[4.815567,51.851133],[4.815541,51.851119],[4.815411,51.851047],[4.815318,51.850996],[4.815228,51.850955],[4.815166,51.850926],[4.81512,51.850909],[4.814961,51.850858],[4.814904,51.850837],[4.814862,51.850819],[4.814701,51.850744],[4.8145,51.850653],[4.814343,51.850581],[4.81425,51.850542],[4.813912,51.850392],[4.813836,51.850359],[4.813783,51.850339],[4.813667,51.850298],[4.813584,51.850268],[4.81352,51.850243],[4.813242,51.850128],[4.812827,51.849961],[4.812766,51.849938],[4.81265,51.849892],[4.812382,51.849795],[4.812273,51.849756],[4.812209,51.849731],[4.812114,51.849693],[4.812074,51.849678],[4.812028,51.849664],[4.811984,51.849663],[4.81193,51.849668],[4.811,51.849901],[4.810884,51.849857],[4.810876,51.849854],[4.810856,51.849847],[4.810849,51.849844],[4.810846,51.849843],[4.810834,51.849838],[4.810831,51.849837],[4.81082,51.849833],[4.81046,51.849695],[4.810628,51.849391],[4.810683,51.849292],[4.810705,51.849252],[4.810503,51.849177],[4.810397,51.849138],[4.810171,51.849047],[4.81009,51.849022],[4.809936,51.848974],[4.809792,51.848921],[4.809769,51.848913],[4.809465,51.8488],[4.809112,51.848669],[4.808609,51.848462],[4.808454,51.848406],[4.80822,51.848331],[4.807396,51.84801],[4.807294,51.847981],[4.807245,51.847961],[4.806877,51.847816],[4.806701,51.84773],[4.806641,51.847698],[4.806379,51.847591],[4.80628,51.847547],[4.80625,51.847533],[4.805846,51.847382],[4.805782,51.847358],[4.805381,51.847209],[4.805247,51.84715],[4.805152,51.847083],[4.80402,51.846583],[4.803786,51.84648],[4.803469,51.846375],[4.803379,51.846353],[4.803313,51.846344],[4.803202,51.846335],[4.803139,51.84636],[4.803041,51.846358],[4.803033,51.846362],[4.802737,51.846323],[4.802387,51.846271],[4.802177,51.846241],[4.801937,51.846188],[4.801588,51.84611],[4.801585,51.846109],[4.801393,51.846075],[4.801391,51.846075],[4.801223,51.846037],[4.800931,51.845969],[4.800871,51.845957],[4.800718,51.845927],[4.800657,51.845917],[4.800302,51.845862],[4.800122,51.845824],[4.799515,51.845698],[4.799305,51.845661],[4.799067,51.845625],[4.798822,51.845589],[4.798458,51.845505],[4.798317,51.845468],[4.797914,51.845364],[4.797449,51.84528],[4.797166,51.845228],[4.796933,51.845199],[4.796869,51.845191],[4.796809,51.845181],[4.796631,51.84516],[4.796511,51.845139],[4.796306,51.845104],[4.796036,51.845052],[4.795601,51.844976],[4.795423,51.84498],[4.795005,51.844995],[4.794688,51.845005],[4.794319,51.845011],[4.794237,51.845007],[4.794119,51.844999],[4.793988,51.844988],[4.793759,51.844975],[4.793662,51.844969],[4.793531,51.844968],[4.793436,51.844972],[4.793339,51.844973],[4.793259,51.844977],[4.793207,51.844974],[4.793054,51.84497],[4.79296,51.844964],[4.792831,51.844958],[4.792728,51.84495],[4.792571,51.844949],[4.792455,51.844948],[4.792305,51.844952],[4.792213,51.844955],[4.792151,51.844957],[4.791998,51.844963],[4.791893,51.844966],[4.791799,51.844969],[4.791369,51.84496],[4.791095,51.844955],[4.79057,51.84494],[4.7904,51.844937],[4.789802,51.84493],[4.789683,51.84493],[4.78946,51.84494],[4.789395,51.844943],[4.789204,51.844943],[4.789074,51.844952],[4.78899,51.84495],[4.788935,51.844949],[4.788627,51.844944],[4.788477,51.844941],[4.788462,51.84494],[4.788445,51.844939],[4.788439,51.844939],[4.788295,51.844949],[4.788243,51.844942],[4.788147,51.844937],[4.788078,51.84494],[4.787598,51.844958],[4.787105,51.844984],[4.786962,51.844993],[4.786901,51.845005],[4.786823,51.845025],[4.786753,51.845039],[4.786668,51.845064],[4.786594,51.845088],[4.786514,51.84512],[4.786454,51.84515],[4.78639,51.845186],[4.78635,51.84521],[4.786247,51.845282],[4.786124,51.845375],[4.786074,51.845405],[4.786043,51.84542],[4.785882,51.845477],[4.78584,51.84549],[4.785743,51.84551],[4.78566,51.845527],[4.785574,51.845538],[4.785496,51.845533],[4.78531,51.845562],[4.785139,51.845596],[4.785067,51.845612],[4.784926,51.845647],[4.784829,51.845671],[4.784668,51.84571],[4.784633,51.845723],[4.784548,51.845749],[4.783997,51.845885],[4.78379,51.845938],[4.78351,51.846019],[4.783273,51.846071],[4.783185,51.84609],[4.783047,51.846122],[4.782928,51.846157],[4.782923,51.846159],[4.78291,51.846162],[4.782776,51.846192],[4.782607,51.84623],[4.782474,51.84626],[4.782394,51.846289],[4.782246,51.84633],[4.78221,51.84634],[4.782075,51.846367],[4.781917,51.846396],[4.78169,51.846434],[4.781399,51.846485],[4.780885,51.846589],[4.780874,51.846592],[4.780822,51.846602],[4.7807,51.846623],[4.780589,51.846639],[4.780536,51.846642],[4.780491,51.846643],[4.780433,51.846642],[4.78038,51.84664],[4.780378,51.84664],[4.780331,51.846636],[4.780279,51.846626],[4.780151,51.84661],[4.780022,51.846593],[4.779723,51.846556],[4.779712,51.846554],[4.779245,51.846491],[4.779143,51.846475],[4.779019,51.846459],[4.778623,51.846394],[4.778512,51.846369],[4.778359,51.846339],[4.777758,51.846213],[4.777685,51.846196],[4.777172,51.846075],[4.777085,51.846049],[4.776929,51.846021],[4.776748,51.845992],[4.776605,51.845977],[4.776334,51.845934],[4.776273,51.845924],[4.776201,51.845916],[4.77614,51.845909],[4.776026,51.845876],[4.775848,51.845844],[4.775802,51.845837],[4.775773,51.845834],[4.775757,51.845832],[4.77572,51.845829],[4.77568,51.845817],[4.775246,51.845707],[4.775198,51.845699],[4.775155,51.845687],[4.775149,51.845686],[4.775083,51.845674],[4.775023,51.845655],[4.775014,51.845654],[4.774966,51.845647],[4.774909,51.84563],[4.774853,51.845621],[4.774807,51.845613],[4.774768,51.845602],[4.77475,51.845599],[4.7747,51.845592],[4.774652,51.845579],[4.774589,51.84556],[4.774546,51.845543],[4.77449,51.845519],[4.774436,51.845492],[4.774399,51.845476],[4.774343,51.845436],[4.774308,51.845413],[4.774107,51.845299],[4.774097,51.845294],[4.774061,51.84525],[4.774005,51.845207],[4.773893,51.845142],[4.77376,51.84506],[4.773588,51.844955],[4.773398,51.844837],[4.773351,51.844807],[4.773347,51.844804],[4.773142,51.84471],[4.773095,51.844706],[4.77297,51.844695],[4.772845,51.8447],[4.772755,51.844699],[4.772751,51.844699],[4.772527,51.844705],[4.772424,51.844704],[4.772271,51.844716],[4.772157,51.844713],[4.771945,51.844706],[4.771942,51.844703],[4.77187,51.844697],[4.771672,51.844662],[4.771093,51.844532],[4.770981,51.844499],[4.770597,51.844357],[4.770594,51.844356],[4.770557,51.844346],[4.770456,51.844323],[4.770323,51.844297],[4.770105,51.844259],[4.769872,51.844219],[4.769811,51.844205],[4.769784,51.844197],[4.769741,51.844187],[4.769737,51.844187],[4.769656,51.844174],[4.769453,51.844139],[4.769398,51.84413],[4.769375,51.844124],[4.769374,51.844123],[4.76929,51.844104],[4.769171,51.844076],[4.769015,51.844046],[4.76887,51.844018],[4.768663,51.84398],[4.768273,51.843908],[4.768237,51.8439],[4.768208,51.843895],[4.768164,51.843878],[4.768121,51.843872],[4.768071,51.843868],[4.768035,51.843864],[4.768014,51.843863],[4.767975,51.843864],[4.767933,51.843862],[4.767881,51.843861],[4.767769,51.843865],[4.767428,51.843875],[4.76737,51.843873],[4.767293,51.843876],[4.767061,51.843886],[4.767028,51.843888],[4.767003,51.843885],[4.766978,51.843887],[4.766947,51.843886],[4.76694,51.843884],[4.766933,51.84388],[4.766878,51.843878],[4.766832,51.843875],[4.766742,51.843878],[4.766664,51.843882],[4.766663,51.843882],[4.766591,51.84389],[4.766524,51.843899],[4.766501,51.843905],[4.766491,51.843906],[4.766476,51.843907],[4.766466,51.84391],[4.766453,51.843914],[4.766438,51.843915],[4.766424,51.843918],[4.766415,51.843921],[4.766402,51.843925],[4.766389,51.843927],[4.766378,51.843931],[4.766342,51.843938],[4.76622,51.843963],[4.766207,51.843967],[4.76609,51.844005],[4.766054,51.84402],[4.766019,51.844034],[4.765994,51.844045],[4.765927,51.844074],[4.765893,51.84409],[4.765867,51.844098],[4.765829,51.844109],[4.765797,51.844117],[4.765777,51.844123],[4.765726,51.844139],[4.76567,51.844164],[4.765668,51.844165],[4.765648,51.844175],[4.765598,51.844191],[4.765561,51.844203],[4.765514,51.844216],[4.765475,51.844223],[4.76545,51.844228],[4.765426,51.844233],[4.765402,51.844236],[4.765369,51.84424],[4.765345,51.844246],[4.765331,51.844247],[4.76532,51.844249],[4.76529,51.844251],[4.765254,51.844255],[4.765226,51.844257],[4.765168,51.844252],[4.765147,51.84425],[4.765107,51.844246],[4.765073,51.844243],[4.765043,51.84424],[4.765021,51.844238],[4.764993,51.844233],[4.764972,51.844228],[4.764957,51.844221],[4.764933,51.844214],[4.764905,51.844207],[4.764882,51.844202],[4.764852,51.844198],[4.764829,51.844194],[4.764813,51.844192],[4.764782,51.844187],[4.764748,51.844184],[4.764707,51.844181],[4.764693,51.844179],[4.764668,51.844177],[4.764619,51.844173],[4.764597,51.84417],[4.764581,51.844167],[4.76457,51.844164],[4.764537,51.844158],[4.764507,51.84415],[4.764479,51.844143],[4.764452,51.844137],[4.764422,51.844133],[4.764416,51.844132],[4.764041,51.844062],[4.763989,51.844022],[4.763982,51.844016],[4.763869,51.843989],[4.763801,51.843972],[4.763768,51.843974],[4.763646,51.843952],[4.763573,51.843946],[4.763204,51.843876],[4.763188,51.843872],[4.762986,51.84384],[4.762935,51.843832],[4.762596,51.843779],[4.762581,51.843777],[4.762553,51.843776],[4.762531,51.843774],[4.762491,51.843771],[4.762446,51.843768],[4.762166,51.843762],[4.762133,51.843766],[4.762104,51.843763],[4.762074,51.843764],[4.762055,51.843763],[4.762026,51.843758],[4.761808,51.843735],[4.761461,51.843734],[4.761441,51.843733],[4.761419,51.843734],[4.761384,51.843735],[4.761365,51.843736],[4.761348,51.843735],[4.761332,51.843736],[4.76125,51.843743],[4.761243,51.843744],[4.761217,51.843747],[4.761156,51.843753],[4.760717,51.843796],[4.760541,51.843812],[4.760471,51.843821],[4.760336,51.84384],[4.76026,51.843851],[4.760059,51.843892],[4.760043,51.843896],[4.760019,51.8439],[4.760012,51.843907],[4.760004,51.843913],[4.759999,51.843919],[4.759994,51.843925],[4.759979,51.843933],[4.759968,51.843938],[4.759963,51.84394],[4.759949,51.843945],[4.759932,51.843953],[4.759917,51.843958],[4.759742,51.844027],[4.759647,51.844068],[4.759616,51.844081],[4.759568,51.844107],[4.759564,51.844109],[4.759485,51.844137],[4.759407,51.844168],[4.759318,51.844202],[4.759231,51.844231],[4.759158,51.844253],[4.759085,51.84428],[4.759026,51.844304],[4.758951,51.844331],[4.758704,51.844396],[4.758676,51.844407],[4.758613,51.844434],[4.758611,51.844434],[4.758563,51.844451],[4.758501,51.844475],[4.758504,51.84448],[4.758228,51.844558],[4.758084,51.844603],[4.758081,51.844623],[4.75794,51.844661],[4.757859,51.844682],[4.757758,51.844704],[4.757686,51.844718],[4.757624,51.844729],[4.757549,51.844741],[4.757497,51.844751],[4.75718,51.844782],[4.757148,51.844787],[4.757105,51.844793],[4.757085,51.844792],[4.757042,51.844801],[4.75672,51.844859],[4.756464,51.844917],[4.756431,51.844926],[4.756417,51.844929],[4.756383,51.844935],[4.756341,51.844943],[4.756303,51.844945],[4.756276,51.84495],[4.756247,51.844954],[4.756216,51.844957],[4.756193,51.844958],[4.756176,51.84496],[4.756152,51.844959],[4.756129,51.844958],[4.756084,51.844952],[4.756063,51.84495],[4.756039,51.844948],[4.756016,51.844942],[4.755992,51.84494],[4.755957,51.844933],[4.75593,51.844929],[4.755905,51.844926],[4.755883,51.844923],[4.755872,51.844919],[4.755833,51.844913],[4.755173,51.844782],[4.754858,51.84472],[4.754506,51.84465],[4.753793,51.844508],[4.753712,51.844496],[4.753647,51.844479],[4.753576,51.844465],[4.753536,51.844455],[4.753511,51.84445],[4.753499,51.844447],[4.753445,51.844429],[4.753273,51.844382],[4.753251,51.844373],[4.753228,51.844368],[4.753203,51.844361],[4.752983,51.844308],[4.75275,51.844252],[4.752536,51.844194],[4.752322,51.844126],[4.752062,51.844033],[4.751984,51.844005],[4.751872,51.843968],[4.751743,51.843932],[4.751726,51.843927],[4.751047,51.843748],[4.7508,51.843685],[4.75056,51.843633],[4.750332,51.843589],[4.749775,51.843471],[4.749767,51.84347],[4.749351,51.843349],[4.749285,51.84333],[4.749054,51.843271],[4.748963,51.843248],[4.748875,51.843224],[4.748871,51.843223],[4.748793,51.843201],[4.748702,51.843173],[4.748274,51.84304],[4.748224,51.843028],[4.747306,51.842705],[4.747279,51.842691],[4.747246,51.842681],[4.74669,51.842369],[4.746279,51.842139],[4.746212,51.842073],[4.745505,51.841808],[4.745498,51.841805],[4.745305,51.841734],[4.744874,51.841591],[4.744768,51.841555],[4.744533,51.841488],[4.743853,51.841294],[4.74366,51.84124],[4.743507,51.841197],[4.743126,51.841101],[4.742986,51.841066],[4.742984,51.841065],[4.742915,51.841045],[4.742764,51.841003],[4.743419,51.842013],[4.743494,51.842216],[4.743514,51.842358],[4.743402,51.842639],[4.743395,51.84272],[4.743045,51.84282],[4.742884,51.842851],[4.742648,51.842866],[4.741849,51.842998],[4.741626,51.843008],[4.741488,51.843017],[4.741331,51.843044],[4.741161,51.84312],[4.740786,51.843169],[4.740151,51.843293],[4.739571,51.843359],[4.738896,51.843457],[4.738764,51.843514],[4.738654,51.843573],[4.738552,51.84366],[4.738525,51.843732],[4.738477,51.843779],[4.738442,51.84382],[4.738278,51.844002],[4.737857,51.844395],[4.737814,51.844457],[4.737752,51.844586],[4.73773,51.844663],[4.737642,51.845081],[4.737596,51.845261],[4.737532,51.845469],[4.737518,51.84553],[4.73747,51.845667],[4.737354,51.846112],[4.737264,51.846464],[4.73714,51.846453],[4.737079,51.846448],[4.736987,51.846441],[4.736937,51.846435],[4.736855,51.846422],[4.736722,51.846402],[4.736642,51.846383],[4.736564,51.846363],[4.736461,51.846342],[4.736333,51.846322],[4.736156,51.8463],[4.735992,51.846274],[4.735481,51.846162],[4.734743,51.845993],[4.734587,51.845955],[4.734482,51.84593],[4.734229,51.845873],[4.733997,51.84582],[4.733911,51.845802],[4.733676,51.845758],[4.733424,51.845705],[4.733338,51.84568],[4.733193,51.845637],[4.733116,51.845619],[4.733033,51.84561],[4.733032,51.845609],[4.733022,51.845608],[4.732962,51.845597],[4.732849,51.845577],[4.732369,51.84549],[4.732223,51.845465],[4.731998,51.845414],[4.731788,51.845357],[4.731647,51.845314],[4.731502,51.845276],[4.731294,51.845222],[4.730965,51.845146],[4.730791,51.845104],[4.727479,51.844333],[4.725923,51.843975],[4.724395,51.843625],[4.722758,51.843244],[4.722416,51.843153],[4.722123,51.843081],[4.721929,51.843046],[4.721639,51.842986],[4.721105,51.84284],[4.720543,51.842693],[4.720356,51.842651],[4.720215,51.842623],[4.719181,51.84236],[4.718816,51.842267],[4.718579,51.842219],[4.718191,51.842111],[4.717795,51.841984],[4.717663,51.841944],[4.71731,51.841852],[4.716936,51.841744],[4.71679,51.841714],[4.715783,51.84146],[4.715688,51.841434],[4.715498,51.841382],[4.714774,51.841284],[4.713278,51.841147],[4.713153,51.841135],[4.713139,51.841133],[4.712771,51.841083],[4.712141,51.841026],[4.711919,51.840991],[4.711335,51.840937],[4.711352,51.840981],[4.711353,51.840984],[4.711358,51.840997],[4.71137,51.841026],[4.711444,51.841213],[4.711464,51.841264],[4.711491,51.841332],[4.70929,51.841124],[4.708996,51.841105],[4.708736,51.841087],[4.708097,51.841038],[4.707996,51.841032],[4.707777,51.841018],[4.706719,51.84107],[4.706697,51.841071],[4.70628,51.841137],[4.706274,51.841137],[4.706185,51.841152],[4.705826,51.841209],[4.70543,51.841271],[4.705394,51.841279],[4.705377,51.841284],[4.705087,51.841352],[4.704889,51.841399],[4.704426,51.841507],[4.704193,51.841562],[4.703691,51.841679],[4.70306,51.841829],[4.702031,51.842117],[4.702018,51.84212],[4.701982,51.842127],[4.70186,51.842155],[4.7012,51.842378],[4.700438,51.842639],[4.699689,51.842976],[4.699077,51.843133],[4.698392,51.843308],[4.697852,51.843443],[4.696605,51.843755],[4.696585,51.843764],[4.696325,51.843838],[4.695569,51.844054],[4.695568,51.844054],[4.694657,51.844169],[4.694521,51.844194],[4.694178,51.844297],[4.693692,51.844448],[4.693353,51.844554],[4.693117,51.844626],[4.6926,51.844802],[4.692079,51.844968],[4.691937,51.845012],[4.691527,51.845144],[4.690992,51.845316],[4.690569,51.845453],[4.690111,51.8456],[4.690006,51.845633],[4.689506,51.845829],[4.689174,51.845959],[4.688941,51.84605],[4.688652,51.84616],[4.688473,51.84623],[4.687669,51.846576],[4.68723,51.846764],[4.68675,51.846971],[4.68616,51.847224],[4.685695,51.847424],[4.685236,51.847623],[4.684519,51.847927],[4.683191,51.848492],[4.683132,51.848811],[4.683131,51.848816],[4.683123,51.84886],[4.683109,51.84892],[4.683054,51.849162],[4.682964,51.849713],[4.68296,51.849741],[4.682944,51.849789],[4.682806,51.850578],[4.682643,51.851351],[4.682502,51.852225],[4.682428,51.852644],[4.682089,51.854501],[4.68205,51.854713],[4.681965,51.855178],[4.681644,51.857111],[4.681519,51.857659],[4.681515,51.857707],[4.681512,51.857742],[4.681511,51.857758],[4.681509,51.857778],[4.681418,51.858179],[4.681377,51.85836],[4.681373,51.858413],[4.681346,51.858568],[4.681345,51.85857],[4.681307,51.858786],[4.681268,51.858879],[4.681267,51.858882],[4.681249,51.858951],[4.681103,51.859145],[4.681085,51.859147],[4.680965,51.859312],[4.680709,51.859639],[4.680999,51.859749],[4.681362,51.859908],[4.681552,51.859997],[4.68172,51.860086],[4.681825,51.860146],[4.681935,51.860223],[4.682064,51.860324],[4.682201,51.860448],[4.682368,51.860632],[4.682529,51.860826],[4.683254,51.86182],[4.683446,51.862112],[4.683591,51.862364],[4.683783,51.862665],[4.683929,51.862923],[4.683998,51.863071],[4.684075,51.863226],[4.684175,51.863409],[4.684592,51.864133],[4.684656,51.864233],[4.68478,51.864424],[4.685247,51.865077],[4.685387,51.865266],[4.685507,51.865407],[4.685624,51.86556],[4.685783,51.865751],[4.685988,51.865932],[4.686249,51.866133],[4.68645,51.86629],[4.686515,51.866332],[4.68671,51.866445],[4.686905,51.866525],[4.687067,51.866585],[4.687282,51.866658],[4.687539,51.866728],[4.687674,51.866761],[4.687772,51.86678],[4.688078,51.866833],[4.688177,51.866852],[4.688495,51.866925],[4.688612,51.86694],[4.688688,51.866944],[4.688801,51.866949],[4.689056,51.866955],[4.689537,51.866947],[4.689945,51.866914],[4.690277,51.866878],[4.690439,51.866847],[4.690557,51.866997],[4.690727,51.867208],[4.690773,51.867263],[4.690869,51.867357],[4.692041,51.868885],[4.692436,51.869399],[4.693571,51.87088],[4.6939,51.871309],[4.694558,51.872168],[4.69538,51.873285],[4.695793,51.873832],[4.695824,51.873873],[4.695859,51.873918],[4.697641,51.876257],[4.697742,51.876401],[4.698648,51.877596],[4.699265,51.878401],[4.699723,51.879007],[4.699882,51.879192],[4.699948,51.879296],[4.699981,51.879346],[4.700054,51.879457],[4.700055,51.879458],[4.700165,51.879597],[4.70024,51.87971],[4.699954,51.87977],[4.699811,51.879809],[4.69955,51.879881],[4.699431,51.879906],[4.699316,51.879924],[4.699214,51.879936],[4.699118,51.87994],[4.697569,51.879873],[4.697268,51.879857],[4.697073,51.879839],[4.69681,51.879808],[4.696064,51.879714],[4.695077,51.879601],[4.694577,51.879536],[4.694019,51.879464],[4.693827,51.879445],[4.693538,51.879416],[4.693043,51.879367],[4.692608,51.879326],[4.692201,51.879288],[4.691806,51.879258],[4.691716,51.879258],[4.691345,51.879205],[4.690973,51.87915],[4.690496,51.879097],[4.689907,51.879024],[4.689412,51.878955],[4.689011,51.878899],[4.688564,51.878828],[4.688142,51.878771],[4.687815,51.878718],[4.687524,51.878657],[4.687157,51.878561],[4.686866,51.878473],[4.686701,51.878409],[4.6864,51.878245],[4.686042,51.878039],[4.685739,51.877858],[4.685502,51.877728],[4.685301,51.877668],[4.684934,51.877587],[4.684521,51.877501],[4.684141,51.877418],[4.683882,51.877348],[4.683519,51.877252],[4.683104,51.87715],[4.682695,51.877042],[4.682209,51.876926],[4.681786,51.876828],[4.681393,51.87674],[4.681101,51.876665],[4.680907,51.876595],[4.680722,51.876489],[4.680457,51.876343],[4.680152,51.876164],[4.679911,51.87605],[4.679311,51.875811],[4.67906,51.875716],[4.678796,51.875606],[4.678484,51.875483],[4.678192,51.875389],[4.677885,51.8753],[4.677688,51.875251],[4.677436,51.875195],[4.677199,51.875139],[4.677017,51.875089],[4.676864,51.875049],[4.676727,51.875016],[4.676419,51.874949],[4.676285,51.874924],[4.676153,51.874901],[4.67602,51.874886],[4.675907,51.874878],[4.675792,51.874878],[4.675643,51.874883],[4.675546,51.874888],[4.675417,51.874897],[4.675186,51.874916],[4.673361,51.875056],[4.673136,51.874855],[4.673066,51.874793],[4.672914,51.874792],[4.672598,51.874813],[4.672568,51.874802],[4.672406,51.874831],[4.672325,51.874844],[4.672308,51.874846],[4.672248,51.874853],[4.67189,51.874902],[4.671671,51.874937],[4.671469,51.874966],[4.671246,51.874995],[4.671052,51.87502],[4.670916,51.875036],[4.67073,51.875055],[4.670621,51.875064],[4.670482,51.875072],[4.670306,51.875079],[4.670055,51.875083],[4.66967,51.875083],[4.66957,51.875082],[4.669341,51.875081],[4.669098,51.87508],[4.668865,51.875077],[4.668653,51.875075],[4.668561,51.875073],[4.66856,51.875073],[4.668432,51.87506],[4.668383,51.875082],[4.66817,51.875079],[4.668057,51.875078],[4.667945,51.875079],[4.667805,51.87509],[4.667745,51.875094],[4.667592,51.875086],[4.667512,51.875079],[4.667394,51.875061],[4.667322,51.875064],[4.667299,51.875073],[4.667187,51.87507],[4.667171,51.875046],[4.66713,51.875043],[4.667039,51.875049],[4.667001,51.875071],[4.666471,51.875063],[4.666301,51.875034],[4.666267,51.875036],[4.666156,51.875036],[4.665419,51.87501],[4.665361,51.875007],[4.665045,51.874977],[4.664741,51.874955],[4.664516,51.874955],[4.664439,51.874948],[4.664188,51.874962],[4.664074,51.874973],[4.663985,51.874981],[4.663825,51.875027],[4.663526,51.87509],[4.663493,51.875099],[4.663437,51.875099],[4.663385,51.875102],[4.663331,51.875107],[4.66277,51.87526],[4.662523,51.875319],[4.662519,51.875327],[4.66252,51.875334],[4.662526,51.875345],[4.662529,51.875357],[4.662529,51.875363],[4.662523,51.875369],[4.662512,51.875374],[4.662496,51.875375],[4.662474,51.875377],[4.662459,51.875379],[4.662442,51.875385],[4.662423,51.875393],[4.662408,51.875404],[4.662392,51.875416],[4.662373,51.875427],[4.66235,51.87543],[4.662018,51.875505],[4.661214,51.875732],[4.661158,51.875745],[4.661104,51.87576],[4.660693,51.875868],[4.66013,51.876008],[4.659539,51.87615],[4.659472,51.876163],[4.659265,51.876191],[4.659152,51.876213],[4.659072,51.876228],[4.658993,51.87625],[4.658918,51.876284],[4.658848,51.876314],[4.658777,51.876306],[4.65877,51.876313],[4.658752,51.876322],[4.658725,51.876337],[4.658692,51.876353],[4.658639,51.876373],[4.65856,51.876396],[4.658187,51.876472],[4.658007,51.876507],[4.657658,51.876572],[4.657371,51.876627],[4.657087,51.876696],[4.656795,51.876752],[4.656691,51.876784],[4.656596,51.876804],[4.656512,51.876827],[4.656428,51.876842],[4.65633,51.876859],[4.6559,51.876942],[4.655762,51.876962],[4.655706,51.876972],[4.655607,51.876999],[4.655419,51.877047],[4.655349,51.877055],[4.655253,51.877066],[4.655177,51.877078],[4.655038,51.877108],[4.654954,51.877123],[4.654865,51.877154],[4.654776,51.877171],[4.654338,51.877241],[4.654158,51.877267],[4.654093,51.877284],[4.653833,51.877359],[4.653761,51.877365],[4.653682,51.877375],[4.653567,51.877399],[4.653354,51.877456],[4.6532,51.877519],[4.653164,51.877532],[4.653117,51.877541],[4.653037,51.877553],[4.653008,51.877564],[4.652964,51.877578],[4.652839,51.877601],[4.652694,51.877623],[4.652584,51.877633],[4.652476,51.877645],[4.652418,51.87766],[4.652347,51.877684],[4.652285,51.877703],[4.652252,51.87771],[4.652207,51.877719],[4.652159,51.877721],[4.652113,51.877732],[4.652081,51.877744],[4.652062,51.877756],[4.651967,51.877787],[4.651884,51.877811],[4.651669,51.877854],[4.651594,51.877868],[4.6515,51.877881],[4.651417,51.877897],[4.651322,51.877927],[4.651269,51.877943],[4.651221,51.877957],[4.65117,51.877967],[4.650945,51.877992],[4.650882,51.878013],[4.650757,51.878049],[4.650685,51.878054],[4.650632,51.87807],[4.650531,51.878093],[4.649655,51.878278],[4.64958,51.878288],[4.649434,51.878303],[4.649287,51.878318],[4.649208,51.878332],[4.649036,51.878372],[4.648956,51.878383],[4.648874,51.878388],[4.648815,51.878401],[4.64876,51.878418],[4.648659,51.878447],[4.648543,51.878477],[4.648393,51.878511],[4.648268,51.878537],[4.648215,51.878549],[4.64817,51.878563],[4.648128,51.878572],[4.648088,51.878575],[4.648029,51.878581],[4.647981,51.878591],[4.647807,51.878629],[4.647648,51.878647],[4.647335,51.878712],[4.647083,51.878768],[4.646988,51.878796],[4.64696,51.878802],[4.646924,51.878808],[4.646895,51.878806],[4.646858,51.878805],[4.646648,51.878867],[4.646453,51.878908],[4.646273,51.878951],[4.645963,51.879033],[4.645673,51.879091],[4.645348,51.879182],[4.645276,51.879205],[4.645217,51.87923],[4.645166,51.879259],[4.645125,51.879286],[4.64507,51.879328],[4.645019,51.879377],[4.644879,51.879534],[4.644686,51.879744],[4.64307,51.879995],[4.643003,51.880013],[4.642276,51.88018],[4.642231,51.880191],[4.642174,51.880198],[4.642138,51.8802],[4.642102,51.880197],[4.642071,51.880195],[4.642038,51.880187],[4.642014,51.880178],[4.641977,51.880165],[4.641945,51.880155],[4.641892,51.880122],[4.638981,51.877808],[4.638978,51.877806],[4.637076,51.876294],[4.635753,51.877067],[4.635625,51.877145],[4.635044,51.877487],[4.634843,51.877608],[4.633796,51.878227],[4.633721,51.878271],[4.63199,51.879296],[4.631983,51.8793],[4.631537,51.879564],[4.630635,51.88009],[4.629324,51.880881],[4.629076,51.881031],[4.629067,51.881036],[4.628967,51.881098],[4.628863,51.881159],[4.628859,51.881161],[4.628859,51.881161],[4.628775,51.881212],[4.628585,51.88107],[4.6285,51.881006],[4.628236,51.8808],[4.62813,51.880823],[4.628062,51.880972],[4.627952,51.880951],[4.626391,51.880658],[4.626054,51.88118],[4.625514,51.882013],[4.624933,51.882845],[4.624344,51.883666],[4.623697,51.884456],[4.623578,51.884585],[4.622965,51.885248],[4.622127,51.886033],[4.62132,51.886765],[4.620422,51.887536],[4.620192,51.887721],[4.619935,51.887921],[4.61973,51.888083],[4.619617,51.888172],[4.619613,51.888174],[4.619453,51.888294],[4.619249,51.888442],[4.619572,51.889523]]]},"properties":{"type":"boundary","gemeente":"Molenlanden"}}]}