{"type":"FeatureCollection","metadata":{"gemeente":"Ooststellingwerf","slug":"ooststellingwerf","generated_at":"2026-10-05T09:01:28.336487Z","total_points":60,"providers":["Amazon","DHL","DPD","PostNL","VintedGo","GLS","ViaTim","FedEx","InPost"],"bounds":[6.23584797798704,52.938385,6.353897531,53.06862016]},"features":[{"type":"Feature","geometry":{"type":"Point","coordinates":[6.29507,52.97997]},"properties":{"type":"pakketpunt","locatieNaam":"DHL - Pakketautomaat GAMMA Oosterwolde","straatNaam":"Veengang 8","straatNr":"","vervoerder":"Amazon","puntType":"3p","bezettingsgraad":50,"latitude":52.97997,"longitude":6.29507,"canPickup":true,"canDropoff":false,"openingstijden":null}},{"type":"Feature","geometry":{"type":"Point","coordinates":[6.23584797798704,53.0177955593783]},"properties":{"type":"pakketpunt","locatieNaam":"Poiesz Donkerbroek","straatNaam":"Herenweg 13","straatNr":"","vervoerder":"Amazon","puntType":"3p","bezettingsgraad":50,"latitude":53.0177955593783,"longitude":6.23584797798704,"canPickup":true,"canDropoff":false,"openingstijden":null}},{"type":"Feature","geometry":{"type":"Point","coordinates":[6.331044,53.06862]},"properties":{"type":"pakketpunt","locatieNaam":"DHL - Pakketautomaat Poiesz Haulerwijk","straatNaam":"Leeksterweg 43","straatNr":"","vervoerder":"Amazon","puntType":"3p","bezettingsgraad":50,"latitude":53.06862,"longitude":6.331044,"canPickup":true,"canDropoff":false,"openingstijden":null}},{"type":"Feature","geometry":{"type":"Point","coordinates":[6.2392689,52.9398626]},"properties":{"type":"pakketpunt","locatieNaam":"Hulzinga Tweewielers","straatNaam":"Hoofdweg","straatNr":"38","vervoerder":"DHL","puntType":"parcelShop","bezettingsgraad":50,"latitude":52.9398626,"longitude":6.2392689,"canPickup":true,"canDropoff":true,"openingstijden":{"ma":"gesloten","di":"09:00 - 17:00","wo":"gesloten","do":"09:00 - 17:00","vr":"09:00 - 17:00","za":"09:00 - 16:00","zo":"gesloten"}}},{"type":"Feature","geometry":{"type":"Point","coordinates":[6.3382342,52.9649212]},"properties":{"type":"pakketpunt","locatieNaam":"Kramer Online","straatNaam":"Verlaat","straatNr":"3","vervoerder":"DHL","puntType":"parcelShop","bezettingsgraad":50,"latitude":52.9649212,"longitude":6.3382342,"canPickup":true,"canDropoff":true,"openingstijden":{"ma":"gesloten","di":"13:00 - 17:30","wo":"13:00 - 17:30","do":"13:00 - 17:30","vr":"10:00 - 17:30","za":"09:00 - 17:00","zo":"gesloten"}}},{"type":"Feature","geometry":{"type":"Point","coordinates":[6.29507,52.97997]},"properties":{"type":"pakketpunt","locatieNaam":"Pakketautomaat GAMMA Oosterwolde","straatNaam":"Veengang","straatNr":"8","vervoerder":"DHL","puntType":"packStation","bezettingsgraad":50,"latitude":52.97997,"longitude":6.29507,"canPickup":true,"canDropoff":true,"openingstijden":{"ma":"00:00 - 23:59","di":"00:00 - 23:59","wo":"00:00 - 23:59","do":"00:00 - 23:59","vr":"00:00 - 23:59","za":"00:00 - 23:59","zo":"00:00 - 23:59"}}},{"type":"Feature","geometry":{"type":"Point","coordinates":[6.2880595,52.9856882]},"properties":{"type":"pakketpunt","locatieNaam":"DHL Buurtpunt ViaTim & Fam Bijlsma","straatNaam":"Dorprichterstraat","straatNr":"73","vervoerder":"DHL","puntType":"parcelShop","bezettingsgraad":50,"latitude":52.9856882,"longitude":6.2880595,"canPickup":true,"canDropoff":true,"openingstijden":{"ma":"15:00 - 21:00","di":"15:00 - 21:00","wo":"15:00 - 21:00","do":"15:00 - 21:00","vr":"15:00 - 21:00","za":"gesloten","zo":"15:00 - 21:00"}}},{"type":"Feature","geometry":{"type":"Point","coordinates":[6.29097318649292,52.98958206176758]},"properties":{"type":"pakketpunt","locatieNaam":"Pakketautomaat terStal Oosterwolde","straatNaam":"Stationstraat","straatNr":"21-Kast","vervoerder":"DHL","puntType":"packStation","bezettingsgraad":50,"latitude":52.98958206176758,"longitude":6.29097318649292,"canPickup":true,"canDropoff":true,"openingstijden":{"ma":"13:00 - 17:30","di":"09:30 - 17:30","wo":"09:30 - 17:30","do":"09:30 - 17:30","vr":"09:30 - 17:30","za":"10:00 - 17:00","zo":"gesloten"}}},{"type":"Feature","geometry":{"type":"Point","coordinates":[6.2902142,52.9902727]},"properties":{"type":"pakketpunt","locatieNaam":"Budget Food Oosterwolde","straatNaam":"Stipeplein","straatNr":"6","vervoerder":"DHL","puntType":"parcelShop","bezettingsgraad":50,"latitude":52.9902727,"longitude":6.2902142,"canPickup":true,"canDropoff":true,"openingstijden":{"ma":"09:00 - 18:00","di":"09:00 - 18:00","wo":"09:00 - 18:00","do":"09:00 - 20:00","vr":"09:00 - 18:00","za":"09:00 - 18:00","zo":"12:00 - 17:00"}}},{"type":"Feature","geometry":{"type":"Point","coordinates":[6.237146,53.0162843]},"properties":{"type":"pakketpunt","locatieNaam":"DHL Buurtpunt ViaTim & Leoni","straatNaam":"Wilpkamp","straatNr":"21","vervoerder":"DHL","puntType":"parcelShop","bezettingsgraad":50,"latitude":53.0162843,"longitude":6.237146,"canPickup":true,"canDropoff":true,"openingstijden":{"ma":"16:00 - 21:00","di":"16:00 - 21:00","wo":"16:00 - 21:00","do":"16:00 - 21:00","vr":"16:00 - 21:00","za":"gesloten","zo":"gesloten"}}},{"type":"Feature","geometry":{"type":"Point","coordinates":[6.277495,53.031127]},"properties":{"type":"pakketpunt","locatieNaam":"Groen Goed Menken","straatNaam":"Kruisweg","straatNr":"36","vervoerder":"DHL","puntType":"parcelShop","bezettingsgraad":50,"latitude":53.031127,"longitude":6.277495,"canPickup":true,"canDropoff":true,"openingstijden":{"ma":"09:00 - 17:00","di":"09:00 - 17:00","wo":"09:00 - 17:00","do":"09:00 - 17:00","vr":"09:00 - 17:00","za":"09:00 - 17:00","zo":"gesloten"}}},{"type":"Feature","geometry":{"type":"Point","coordinates":[6.2964759,52.9952306]},"properties":{"type":"pakketpunt","locatieNaam":"Pakketautomaat Poiesz Oosterwolde","straatNaam":"Oostenburg","straatNr":"1","vervoerder":"DHL","puntType":"packStation","bezettingsgraad":50,"latitude":52.9952306,"longitude":6.2964759,"canPickup":true,"canDropoff":true,"openingstijden":{"ma":"08:00 - 21:00","di":"08:00 - 21:00","wo":"08:00 - 21:00","do":"08:00 - 21:00","vr":"08:00 - 20:00","za":"08:00 - 21:00","zo":"09:00 - 18:00"}}},{"type":"Feature","geometry":{"type":"Point","coordinates":[6.2977306,52.9952855]},"properties":{"type":"pakketpunt","locatieNaam":"Handelscentrum Nederland","straatNaam":"‘T Oost","straatNr":"46","vervoerder":"DHL","puntType":"parcelShop","bezettingsgraad":50,"latitude":52.9952855,"longitude":6.2977306,"canPickup":true,"canDropoff":true,"openingstijden":{"ma":"08:00 - 18:00","di":"08:00 - 18:00","wo":"08:00 - 18:00","do":"08:00 - 18:00","vr":"08:00 - 18:00","za":"08:00 - 18:00","zo":"gesloten"}}},{"type":"Feature","geometry":{"type":"Point","coordinates":[6.325474739074707,53.06570053100586]},"properties":{"type":"pakketpunt","locatieNaam":"Ritsema Dier & Tuin","straatNaam":"Hoofdweg-boven","straatNr":"30","vervoerder":"DHL","puntType":"parcelShop","bezettingsgraad":50,"latitude":53.06570053100586,"longitude":6.325474739074707,"canPickup":true,"canDropoff":true,"openingstijden":{"ma":"08:30 - 18:00","di":"08:30 - 18:00","wo":"08:30 - 18:00","do":"08:30 - 18:00","vr":"08:30 - 18:00","za":"08:30 - 17:00","zo":"gesloten"}}},{"type":"Feature","geometry":{"type":"Point","coordinates":[6.331044,53.06862]},"properties":{"type":"pakketpunt","locatieNaam":"Pakketautomaat Poiesz Haulerwijk","straatNaam":"Leeksterweg","straatNr":"43","vervoerder":"DHL","puntType":"packStation","bezettingsgraad":50,"latitude":53.06862,"longitude":6.331044,"canPickup":true,"canDropoff":true,"openingstijden":{"ma":"00:00 - 23:59","di":"00:00 - 23:59","wo":"00:00 - 23:59","do":"00:00 - 23:59","vr":"00:00 - 23:00","za":"00:00 - 23:59","zo":"00:00 - 23:59"}}},{"type":"Feature","geometry":{"type":"Point","coordinates":[6.325013,53.065825]},"properties":{"type":"pakketpunt","locatieNaam":"Ritsema Dier & Tuin","straatNaam":"HOOFDWEG BOVEN","straatNr":"30","vervoerder":"DPD","puntType":"pickup_point","bezettingsgraad":50,"latitude":53.065825,"longitude":6.325013,"canPickup":true,"canDropoff":true,"openingstijden":{"ma":"08:30 - 18:00","di":"08:30 - 18:00","wo":"08:30 - 18:00","do":"08:30 - 18:00","vr":"08:30 - 18:00","za":"08:30 - 17:00","zo":"gesloten"}}},{"type":"Feature","geometry":{"type":"Point","coordinates":[6.3413336,52.9530586]},"properties":{"type":"pakketpunt","locatieNaam":"Het Fytshûs","straatNaam":"BOERESTREEK","straatNr":"12","vervoerder":"DPD","puntType":"pickup_point","bezettingsgraad":50,"latitude":52.9530586,"longitude":6.3413336,"canPickup":true,"canDropoff":true,"openingstijden":{"ma":"gesloten","di":"09:00 - 17:30","wo":"09:00 - 17:30","do":"09:00 - 20:00","vr":"09:00 - 17:30","za":"09:00 - 17:30","zo":"gesloten"}}},{"type":"Feature","geometry":{"type":"Point","coordinates":[6.2394,52.938385]},"properties":{"type":"pakketpunt","locatieNaam":"Hulzinga Tweewielers","straatNaam":"HOOFDWEG","straatNr":"38","vervoerder":"DPD","puntType":"pickup_point","bezettingsgraad":50,"latitude":52.938385,"longitude":6.2394,"canPickup":true,"canDropoff":true,"openingstijden":{"ma":"gesloten","di":"09:00 - 17:00","wo":"gesloten","do":"09:00 - 17:00","vr":"09:00 - 17:00","za":"09:00 - 17:00","zo":"gesloten"}}},{"type":"Feature","geometry":{"type":"Point","coordinates":[6.23714,53.01629]},"properties":{"type":"pakketpunt","locatieNaam":"ViaTim & Leoni","straatNaam":"WILPKAMP","straatNr":"21","vervoerder":"DPD","puntType":"pickup_point","bezettingsgraad":50,"latitude":53.01629,"longitude":6.23714,"canPickup":true,"canDropoff":true,"openingstijden":{"ma":"16:00 - 21:00","di":"16:00 - 21:00","wo":"16:00 - 21:00","do":"16:00 - 21:00","vr":"16:00 - 21:00","za":"gesloten","zo":"gesloten"}}},{"type":"Feature","geometry":{"type":"Point","coordinates":[6.3382342,52.9649212]},"properties":{"type":"pakketpunt","locatieNaam":"Onze Winkel","straatNaam":"VERLAAT","straatNr":"3","vervoerder":"DPD","puntType":"pickup_point","bezettingsgraad":50,"latitude":52.9649212,"longitude":6.3382342,"canPickup":true,"canDropoff":true,"openingstijden":{"ma":"gesloten","di":"13:00 - 17:30","wo":"13:00 - 17:30","do":"13:00 - 17:30","vr":"10:00 - 17:30","za":"09:00 - 17:00","zo":"gesloten"}}},{"type":"Feature","geometry":{"type":"Point","coordinates":[6.2977306,52.9952855]},"properties":{"type":"pakketpunt","locatieNaam":"Handelscentrum Nederland","straatNaam":"'T OOST","straatNr":"46","vervoerder":"DPD","puntType":"pickup_point","bezettingsgraad":50,"latitude":52.9952855,"longitude":6.2977306,"canPickup":true,"canDropoff":true,"openingstijden":{"ma":"08:00 - 18:00","di":"08:00 - 18:00","wo":"08:00 - 18:00","do":"08:00 - 18:00","vr":"08:00 - 18:00","za":"09:00 - 18:00","zo":"gesloten"}}},{"type":"Feature","geometry":{"type":"Point","coordinates":[6.2776866,53.0315613]},"properties":{"type":"pakketpunt","locatieNaam":"Groengoed Menken","straatNaam":"KRUISWEG","straatNr":"36","vervoerder":"DPD","puntType":"pickup_point","bezettingsgraad":50,"latitude":53.0315613,"longitude":6.2776866,"canPickup":true,"canDropoff":true,"openingstijden":{"ma":"09:00 - 18:00","di":"09:00 - 18:00","wo":"09:00 - 18:00","do":"09:00 - 18:00","vr":"09:00 - 18:00","za":"09:00 - 18:00","zo":"gesloten"}}},{"type":"Feature","geometry":{"type":"Point","coordinates":[6.2951281,52.9939725]},"properties":{"type":"pakketpunt","locatieNaam":"Pand 4 Bloemen & Sfeer","straatNaam":"'T OOST","straatNr":"16","vervoerder":"DPD","puntType":"pickup_point","bezettingsgraad":50,"latitude":52.9939725,"longitude":6.2951281,"canPickup":true,"canDropoff":true,"openingstijden":{"ma":"gesloten","di":"09:00 - 18:00","wo":"09:00 - 18:00","do":"09:00 - 18:00","vr":"09:00 - 18:00","za":"09:00 - 17:00","zo":"gesloten"}}},{"type":"Feature","geometry":{"type":"Point","coordinates":[6.29685,52.98758]},"properties":{"type":"pakketpunt","locatieNaam":"Kringloop Oosterwolde","straatNaam":"DRIE STELLINGENWEG","straatNr":"47","vervoerder":"DPD","puntType":"pickup_point","bezettingsgraad":50,"latitude":52.98758,"longitude":6.29685,"canPickup":true,"canDropoff":true,"openingstijden":{"ma":"10:00 - 15:30","di":"10:00 - 15:30","wo":"10:00 - 15:30","do":"10:00 - 15:30","vr":"10:00 - 15:30","za":"10:00 - 15:30","zo":"gesloten"}}},{"type":"Feature","geometry":{"type":"Point","coordinates":[6.29030202,52.99041743]},"properties":{"type":"pakketpunt","locatieNaam":"Pakketautomaat","straatNaam":"Stipeplein","straatNr":"6PBA","vervoerder":"PostNL","puntType":"automaat","bezettingsgraad":50,"latitude":52.99041743,"longitude":6.29030202,"canPickup":true,"canDropoff":true,"openingstijden":"09:00 - 18:00"}},{"type":"Feature","geometry":{"type":"Point","coordinates":[6.29102956,52.98903838]},"properties":{"type":"pakketpunt","locatieNaam":"Primera","straatNaam":"Trambaan","straatNr":"1A","vervoerder":"PostNL","puntType":"servicepunt","bezettingsgraad":50,"latitude":52.98903838,"longitude":6.29102956,"canPickup":true,"canDropoff":true,"openingstijden":"08:30 - 18:00 (Na 18:00 open; Zaterdag open; Zondag open)"}},{"type":"Feature","geometry":{"type":"Point","coordinates":[6.29645995848059,52.9951980036783]},"properties":{"type":"pakketpunt","locatieNaam":"Pakketautomaat","straatNaam":"Oostenburg","straatNr":"1PBA","vervoerder":"PostNL","puntType":"automaat","bezettingsgraad":50,"latitude":52.9951980036783,"longitude":6.29645995848059,"canPickup":true,"canDropoff":true,"openingstijden":"08:00 - 21:00"}},{"type":"Feature","geometry":{"type":"Point","coordinates":[6.296475038,52.99520688]},"properties":{"type":"pakketpunt","locatieNaam":"Poiesz","straatNaam":"Oostenburg","straatNr":"1","vervoerder":"PostNL","puntType":"servicepunt","bezettingsgraad":50,"latitude":52.99520688,"longitude":6.296475038,"canPickup":true,"canDropoff":true,"openingstijden":"08:00 - 21:00"}},{"type":"Feature","geometry":{"type":"Point","coordinates":[6.295069259,52.97994019]},"properties":{"type":"pakketpunt","locatieNaam":"GAMMA Oosterwolde","straatNaam":"Veengang","straatNr":"8","vervoerder":"PostNL","puntType":"servicepunt","bezettingsgraad":50,"latitude":52.97994019,"longitude":6.295069259,"canPickup":true,"canDropoff":true,"openingstijden":"09:00 - 21:00"}},{"type":"Feature","geometry":{"type":"Point","coordinates":[6.294981,52.979693]},"properties":{"type":"pakketpunt","locatieNaam":"Praxis","straatNaam":"Veengang","straatNr":"14","vervoerder":"PostNL","puntType":"servicepunt","bezettingsgraad":50,"latitude":52.979693,"longitude":6.294981,"canPickup":true,"canDropoff":true,"openingstijden":"08:30 - 20:30 (Na 18:00 open; Zaterdag open; Zondag open)"}},{"type":"Feature","geometry":{"type":"Point","coordinates":[6.23584797798704,53.0177955593783]},"properties":{"type":"pakketpunt","locatieNaam":"Poiesz Donkerbroek","straatNaam":"Herenweg","straatNr":"13","vervoerder":"PostNL","puntType":"servicepunt","bezettingsgraad":50,"latitude":53.0177955593783,"longitude":6.23584797798704,"canPickup":true,"canDropoff":true,"openingstijden":"08:00 - 20:00 (Na 18:00 open; Zaterdag open)"}},{"type":"Feature","geometry":{"type":"Point","coordinates":[6.353897531,52.95513357]},"properties":{"type":"pakketpunt","locatieNaam":"Pakket- en briefautomaat","straatNaam":"Vaart Zz","straatNr":"47PBA","vervoerder":"PostNL","puntType":"automaat","bezettingsgraad":50,"latitude":52.95513357,"longitude":6.353897531,"canPickup":true,"canDropoff":true,"openingstijden":"00:00 - 23:59"}},{"type":"Feature","geometry":{"type":"Point","coordinates":[6.353897531,52.95513357]},"properties":{"type":"pakketpunt","locatieNaam":"Poiesz Supermarkt (131)","straatNaam":"Vaart Zz","straatNr":"47","vervoerder":"PostNL","puntType":"servicepunt","bezettingsgraad":50,"latitude":52.95513357,"longitude":6.353897531,"canPickup":true,"canDropoff":true,"openingstijden":"08:00 - 20:00 (Na 18:00 open; Zaterdag open; Zondag open)"}},{"type":"Feature","geometry":{"type":"Point","coordinates":[6.331044364,53.06862016]},"properties":{"type":"pakketpunt","locatieNaam":"Poiesz Supermarkt (110)","straatNaam":"Leeksterweg","straatNr":"43","vervoerder":"PostNL","puntType":"servicepunt","bezettingsgraad":50,"latitude":53.06862016,"longitude":6.331044364,"canPickup":true,"canDropoff":true,"openingstijden":"08:00 - 20:00 (Na 18:00 open; Zaterdag open; Zondag open)"}},{"type":"Feature","geometry":{"type":"Point","coordinates":[6.331044364,53.06862016]},"properties":{"type":"pakketpunt","locatieNaam":"Pakket- en briefautomaat","straatNaam":"Leeksterweg","straatNr":"43PBA","vervoerder":"PostNL","puntType":"automaat","bezettingsgraad":50,"latitude":53.06862016,"longitude":6.331044364,"canPickup":true,"canDropoff":true,"openingstijden":"00:00 - 23:59"}},{"type":"Feature","geometry":{"type":"Point","coordinates":[6.237146,53.0162843]},"properties":{"type":"pakketpunt","locatieNaam":"L. Otter","straatNaam":"Wilpkamp 21","straatNr":"","vervoerder":"VintedGo","puntType":"social","bezettingsgraad":50,"latitude":53.0162843,"longitude":6.237146,"canPickup":true,"canDropoff":true,"openingstijden":null}},{"type":"Feature","geometry":{"type":"Point","coordinates":[6.28806,52.98569]},"properties":{"type":"pakketpunt","locatieNaam":"S. Bijlsma","straatNaam":"Dorprichterstraat 73","straatNr":"","vervoerder":"VintedGo","puntType":"social","bezettingsgraad":50,"latitude":52.98569,"longitude":6.28806,"canPickup":true,"canDropoff":true,"openingstijden":null}},{"type":"Feature","geometry":{"type":"Point","coordinates":[6.33824,52.96492]},"properties":{"type":"pakketpunt","locatieNaam":"Onze Winkel Appelscha/Oosterwolde","straatNaam":"Verlaat 3","straatNr":"","vervoerder":"VintedGo","puntType":"parcel_shop","bezettingsgraad":50,"latitude":52.96492,"longitude":6.33824,"canPickup":true,"canDropoff":true,"openingstijden":null}},{"type":"Feature","geometry":{"type":"Point","coordinates":[6.33129,53.06608]},"properties":{"type":"pakketpunt","locatieNaam":"Ritsema Dier & Tuin","straatNaam":"Hoofdweg Boven 30","straatNr":"","vervoerder":"VintedGo","puntType":"parcel_shop","bezettingsgraad":50,"latitude":53.06608,"longitude":6.33129,"canPickup":true,"canDropoff":true,"openingstijden":null}},{"type":"Feature","geometry":{"type":"Point","coordinates":[6.2904,52.98935]},"properties":{"type":"pakketpunt","locatieNaam":"Calipage Oosterwolde","straatNaam":"Stationsstraat 60","straatNr":"","vervoerder":"VintedGo","puntType":"parcel_shop","bezettingsgraad":50,"latitude":52.98935,"longitude":6.2904,"canPickup":true,"canDropoff":true,"openingstijden":null}},{"type":"Feature","geometry":{"type":"Point","coordinates":[6.2977511,52.9953373]},"properties":{"type":"pakketpunt","locatieNaam":"Handelscentrum Nederland","straatNaam":"t oost46","straatNr":"","vervoerder":"VintedGo","puntType":"parcel_shop","bezettingsgraad":50,"latitude":52.9953373,"longitude":6.2977511,"canPickup":true,"canDropoff":true,"openingstijden":null}},{"type":"Feature","geometry":{"type":"Point","coordinates":[6.2904209,52.9908284]},"properties":{"type":"pakketpunt","locatieNaam":"Budget Food - Oosterwolde","straatNaam":"Stipeplein 6","straatNr":"","vervoerder":"VintedGo","puntType":"locker","bezettingsgraad":50,"latitude":52.9908284,"longitude":6.2904209,"canPickup":true,"canDropoff":true,"openingstijden":null}},{"type":"Feature","geometry":{"type":"Point","coordinates":[6.2967251,52.9877734]},"properties":{"type":"pakketpunt","locatieNaam":"Kringloop Oosterwokde","straatNaam":"Drie Stellingenweg 47","straatNr":"","vervoerder":"VintedGo","puntType":"parcel_shop","bezettingsgraad":50,"latitude":52.9877734,"longitude":6.2967251,"canPickup":true,"canDropoff":true,"openingstijden":null}},{"type":"Feature","geometry":{"type":"Point","coordinates":[6.35389753,52.9551335]},"properties":{"type":"pakketpunt","locatieNaam":"Pakketautomaat","straatNaam":"Vaart Zz","straatNr":"47","vervoerder":"GLS","puntType":"locker","bezettingsgraad":50,"latitude":52.9551335,"longitude":6.35389753,"canPickup":true,"canDropoff":true,"openingstijden":{"ma":"00:00 - 23:59","di":"00:00 - 23:59","wo":"00:00 - 23:59","do":"00:00 - 23:59","vr":"00:00 - 23:59","za":"00:00 - 23:59","zo":"00:00 - 23:59"}}},{"type":"Feature","geometry":{"type":"Point","coordinates":[6.3382743,52.9649458]},"properties":{"type":"pakketpunt","locatieNaam":"Kramer online","straatNaam":"Verlaat","straatNr":"3","vervoerder":"GLS","puntType":"parcel_shop","bezettingsgraad":50,"latitude":52.9649458,"longitude":6.3382743,"canPickup":true,"canDropoff":true,"openingstijden":{"ma":"00:00 - 00:00","di":"13:00 - 17:30","wo":"13:00 - 17:30","do":"13:00 - 17:30","vr":"10:00 - 17:30","za":"09:00 - 17:00","zo":"00:00 - 00:00"}}},{"type":"Feature","geometry":{"type":"Point","coordinates":[6.29645995,52.995198]},"properties":{"type":"pakketpunt","locatieNaam":"Pakketautomaat","straatNaam":"Oostenburg","straatNr":"1","vervoerder":"GLS","puntType":"locker","bezettingsgraad":50,"latitude":52.995198,"longitude":6.29645995,"canPickup":true,"canDropoff":true,"openingstijden":{"ma":"08:00 - 21:00","di":"08:00 - 21:00","wo":"08:00 - 21:00","do":"08:00 - 21:00","vr":"08:00 - 21:00","za":"08:00 - 20:00","zo":"09:00 - 18:00"}}},{"type":"Feature","geometry":{"type":"Point","coordinates":[6.33104436,53.0686201]},"properties":{"type":"pakketpunt","locatieNaam":"Pakketautomaat","straatNaam":"Leeksterweg","straatNr":"43","vervoerder":"GLS","puntType":"locker","bezettingsgraad":50,"latitude":53.0686201,"longitude":6.33104436,"canPickup":true,"canDropoff":true,"openingstijden":{"ma":"00:00 - 23:59","di":"00:00 - 23:59","wo":"00:00 - 23:59","do":"00:00 - 23:59","vr":"00:00 - 23:59","za":"00:00 - 23:59","zo":"00:00 - 23:59"}}},{"type":"Feature","geometry":{"type":"Point","coordinates":[6.2906002,52.9892865]},"properties":{"type":"pakketpunt","locatieNaam":"Calipage ELS Office","straatNaam":"Stationsstraat","straatNr":"60","vervoerder":"GLS","puntType":"parcel_shop","bezettingsgraad":50,"latitude":52.9892865,"longitude":6.2906002,"canPickup":true,"canDropoff":true,"openingstijden":{"ma":"09:00 - 17:00","di":"09:00 - 17:00","wo":"09:00 - 17:00","do":"09:00 - 17:00","vr":"09:00 - 17:00","za":"00:00 - 00:00","zo":"00:00 - 00:00"}}},{"type":"Feature","geometry":{"type":"Point","coordinates":[6.29030202,52.9904174]},"properties":{"type":"pakketpunt","locatieNaam":"Pakketautomaat","straatNaam":"Stipeplein","straatNr":"6","vervoerder":"GLS","puntType":"locker","bezettingsgraad":50,"latitude":52.9904174,"longitude":6.29030202,"canPickup":true,"canDropoff":true,"openingstijden":{"ma":"09:00 - 18:00","di":"09:00 - 18:00","wo":"09:00 - 18:00","do":"09:00 - 18:00","vr":"09:00 - 18:00","za":"09:00 - 18:00","zo":"12:00 - 17:00"}}},{"type":"Feature","geometry":{"type":"Point","coordinates":[6.2880598,52.9856887]},"properties":{"type":"pakketpunt","locatieNaam":"ViaTIm en Fam. Bijlsma","straatNaam":"Dorprichterstraat","straatNr":"73","vervoerder":"GLS","puntType":"parcel_shop","bezettingsgraad":50,"latitude":52.9856887,"longitude":6.2880598,"canPickup":true,"canDropoff":true,"openingstijden":{"ma":"15:00 - 21:00","di":"15:00 - 21:00","wo":"15:00 - 21:00","do":"15:00 - 21:00","vr":"15:00 - 21:00","za":"00:00 - 00:00","zo":"00:00 - 00:00"}}},{"type":"Feature","geometry":{"type":"Point","coordinates":[6.23988357,53.01699714]},"properties":{"type":"pakketpunt","locatieNaam":"ViaTim en Dominick","straatNaam":"Vicariestraat","straatNr":"53","vervoerder":"ViaTim","puntType":"servicepunt","bezettingsgraad":50,"latitude":53.01699714,"longitude":6.23988357,"canPickup":true,"canDropoff":true,"openingstijden":{"ma":"16:00 - 20:00","di":"16:00 - 20:00","wo":"16:00 - 20:00","do":"18:00 - 22:00","vr":"16:00 - 20:00","za":"gesloten","zo":"gesloten"}}},{"type":"Feature","geometry":{"type":"Point","coordinates":[6.2880595389346,52.9856882559916]},"properties":{"type":"pakketpunt","locatieNaam":"ViaTim en Fam. Bijlsma","straatNaam":"Dorprichterstraat","straatNr":"73","vervoerder":"ViaTim","puntType":"servicepunt","bezettingsgraad":50,"latitude":52.9856882559916,"longitude":6.2880595389346,"canPickup":true,"canDropoff":true,"openingstijden":{"ma":"15:00 - 21:00","di":"15:00 - 21:00","wo":"15:00 - 21:00","do":"15:00 - 21:00","vr":"15:00 - 21:00","za":"gesloten","zo":"15:00 - 21:00"}}},{"type":"Feature","geometry":{"type":"Point","coordinates":[6.2371460544151,53.0162843599926]},"properties":{"type":"pakketpunt","locatieNaam":"ViaTim & Leoni","straatNaam":"Wilpkamp","straatNr":"21","vervoerder":"ViaTim","puntType":"servicepunt","bezettingsgraad":50,"latitude":53.0162843599926,"longitude":6.2371460544151,"canPickup":true,"canDropoff":true,"openingstijden":{"ma":"16:00 - 21:00","di":"16:00 - 21:00","wo":"16:00 - 21:00","do":"16:00 - 21:00","vr":"16:00 - 21:00","za":"gesloten","zo":"gesloten"}}},{"type":"Feature","geometry":{"type":"Point","coordinates":[6.297751,52.995337]},"properties":{"type":"pakketpunt","locatieNaam":"FedEx OnSite","straatNaam":"''T OOST 46","straatNr":"","vervoerder":"FedEx","puntType":"servicepunt","bezettingsgraad":50,"latitude":52.995337,"longitude":6.297751,"canPickup":true,"canDropoff":true,"openingstijden":{"ma":"09:00 - 18:00","di":"09:00 - 18:00","wo":"09:00 - 18:00","do":"09:00 - 18:00","vr":"09:00 - 18:00","za":"09:00 - 18:00","zo":"gesloten"}}},{"type":"Feature","geometry":{"type":"Point","coordinates":[6.338274,52.964946]},"properties":{"type":"pakketpunt","locatieNaam":"FedEx OnSite","straatNaam":"VERLAAT 3","straatNr":"","vervoerder":"FedEx","puntType":"servicepunt","bezettingsgraad":50,"latitude":52.964946,"longitude":6.338274,"canPickup":true,"canDropoff":true,"openingstijden":{"ma":"gesloten","di":"13:00 - 17:30","wo":"13:00 - 17:30","do":"13:00 - 17:30","vr":"10:00 - 17:30","za":"09:00 - 17:00","zo":"gesloten"}}},{"type":"Feature","geometry":{"type":"Point","coordinates":[6.353766014559117,52.95492884493031]},"properties":{"type":"pakketpunt","locatieNaam":"FedEx Ship&Get","straatNaam":"Vaart Zz 47 PBA","straatNr":"","vervoerder":"FedEx","puntType":"servicepunt","bezettingsgraad":50,"latitude":52.95492884493031,"longitude":6.353766014559117,"canPickup":true,"canDropoff":true,"openingstijden":{"ma":"00:00 - 23:59","di":"00:00 - 23:59","wo":"00:00 - 23:59","do":"00:00 - 23:59","vr":"00:00 - 23:59","za":"00:00 - 23:59","zo":"00:00 - 23:59"}}},{"type":"Feature","geometry":{"type":"Point","coordinates":[6.33103224059798,53.068581339722186]},"properties":{"type":"pakketpunt","locatieNaam":"FedEx Ship&Get","straatNaam":"Leeksterweg 43 PBA","straatNr":"","vervoerder":"FedEx","puntType":"servicepunt","bezettingsgraad":50,"latitude":53.068581339722186,"longitude":6.33103224059798,"canPickup":true,"canDropoff":true,"openingstijden":{"ma":"00:00 - 23:59","di":"00:00 - 23:59","wo":"00:00 - 23:59","do":"00:00 - 23:59","vr":"00:00 - 23:59","za":"00:00 - 23:59","zo":"00:00 - 23:59"}}},{"type":"Feature","geometry":{"type":"Point","coordinates":[6.33827,52.96495]},"properties":{"type":"pakketpunt","locatieNaam":"ONZE WINKEL","straatNaam":"Verlaat 3","straatNr":"","vervoerder":"InPost","puntType":"servicepunt","bezettingsgraad":50,"latitude":52.96495,"longitude":6.33827,"canPickup":true,"canDropoff":true,"openingstijden":null}},{"type":"Feature","geometry":{"type":"Point","coordinates":[6.29775,52.99534]},"properties":{"type":"pakketpunt","locatieNaam":"HANDELSCENTRUM NEDERLAND","straatNaam":"'t Oost 46","straatNr":"","vervoerder":"InPost","puntType":"servicepunt","bezettingsgraad":50,"latitude":52.99534,"longitude":6.29775,"canPickup":true,"canDropoff":true,"openingstijden":null}},{"type":"Feature","geometry":{"type":"Point","coordinates":[6.29048,52.98929]},"properties":{"type":"pakketpunt","locatieNaam":"E.L.S. KANTOOREFFICIENCY B.V.","straatNaam":"Stationsstraat 60","straatNr":"","vervoerder":"InPost","puntType":"servicepunt","bezettingsgraad":50,"latitude":52.98929,"longitude":6.29048,"canPickup":true,"canDropoff":true,"openingstijden":null}},{"type":"Feature","geometry":{"type":"Polygon","coordinates":[[[6.084848,52.936275],[6.084852,52.936277],[6.085045,52.936425],[6.085084,52.936448],[6.085111,52.936461],[6.085169,52.936456],[6.08519,52.936468],[6.085196,52.936465],[6.085214,52.936457],[6.085204,52.936447],[6.0852,52.936444],[6.085242,52.936404],[6.085379,52.93636],[6.085505,52.936357],[6.085565,52.936362],[6.085646,52.936374],[6.08573,52.936399],[6.085803,52.936442],[6.085912,52.936526],[6.086054,52.936642],[6.086283,52.936843],[6.086335,52.936888],[6.086349,52.936889],[6.086355,52.936931],[6.086339,52.936933],[6.08632,52.936941],[6.086315,52.936947],[6.086301,52.936959],[6.086286,52.936983],[6.086286,52.936983],[6.086274,52.936996],[6.086259,52.937009],[6.08622,52.93703],[6.086144,52.937067],[6.08614,52.937064],[6.086129,52.937056],[6.086012,52.937102],[6.085978,52.937121],[6.086003,52.93717],[6.086004,52.937171],[6.086253,52.93737],[6.086292,52.937402],[6.086612,52.937658],[6.087388,52.938281],[6.088491,52.939178],[6.088797,52.939416],[6.088885,52.939489],[6.089088,52.93966],[6.089482,52.939976],[6.089827,52.940254],[6.090653,52.940907],[6.090667,52.940918],[6.09081,52.941024],[6.091062,52.941212],[6.091272,52.941364],[6.091514,52.941526],[6.091831,52.941716],[6.091986,52.941807],[6.092276,52.941963],[6.092531,52.942093],[6.092812,52.942228],[6.092973,52.942303],[6.09331,52.94244],[6.093826,52.94265],[6.094114,52.942768],[6.094717,52.943014],[6.095417,52.943294],[6.096481,52.943708],[6.097049,52.943934],[6.097758,52.944218],[6.097999,52.944312],[6.09851,52.944514],[6.099061,52.94473],[6.099786,52.945013],[6.100331,52.94523],[6.100917,52.945457],[6.101301,52.945605],[6.101337,52.945619],[6.101572,52.945714],[6.102367,52.946028],[6.103329,52.946408],[6.104251,52.946773],[6.105262,52.947173],[6.106366,52.947609],[6.106745,52.94776],[6.107998,52.948254],[6.108261,52.948361],[6.108604,52.948499],[6.109192,52.948729],[6.109776,52.948961],[6.110206,52.949134],[6.110487,52.949242],[6.11068,52.949322],[6.110913,52.949415],[6.111362,52.949592],[6.111805,52.949769],[6.112266,52.949947],[6.11243,52.950016],[6.11255,52.950063],[6.11266,52.950117],[6.112724,52.950149],[6.112794,52.950177],[6.112751,52.950219],[6.112831,52.950248],[6.112843,52.950253],[6.112877,52.950227],[6.112936,52.950204],[6.112961,52.950183],[6.113063,52.950227],[6.113046,52.950241],[6.113048,52.950254],[6.113058,52.95027],[6.113071,52.95028],[6.113101,52.950296],[6.113169,52.950324],[6.113259,52.95036],[6.113297,52.95037],[6.1133,52.950371],[6.113583,52.950486],[6.113852,52.950594],[6.114145,52.95071],[6.114445,52.95083],[6.114651,52.950912],[6.114899,52.951012],[6.115003,52.951046],[6.115112,52.951085],[6.115287,52.951141],[6.115406,52.951182],[6.115573,52.951229],[6.11568,52.95126],[6.115859,52.951303],[6.11593,52.951319],[6.11602,52.95134],[6.116146,52.951363],[6.11625,52.951381],[6.116341,52.951393],[6.11653,52.951422],[6.116823,52.95146],[6.117032,52.951485],[6.117182,52.951501],[6.117414,52.95153],[6.117703,52.951564],[6.118161,52.951614],[6.118717,52.951673],[6.119787,52.951794],[6.12076,52.951901],[6.121518,52.951982],[6.12237,52.952076],[6.123303,52.952181],[6.124068,52.95226],[6.124562,52.952313],[6.124726,52.95233],[6.124779,52.952338],[6.125039,52.952377],[6.125578,52.952484],[6.12604,52.952605],[6.12629,52.952683],[6.126478,52.952744],[6.126889,52.952898],[6.127255,52.953068],[6.12751,52.953197],[6.127517,52.953199],[6.127555,52.953222],[6.127652,52.953278],[6.127727,52.953318],[6.127871,52.953398],[6.128052,52.953522],[6.128189,52.953627],[6.128278,52.953694],[6.128341,52.953744],[6.128466,52.953851],[6.128556,52.953927],[6.128589,52.953954],[6.128738,52.954098],[6.128961,52.954306],[6.129221,52.954561],[6.129432,52.95476],[6.129746,52.955045],[6.130034,52.955318],[6.130417,52.955674],[6.130848,52.956082],[6.13165,52.956835],[6.132037,52.957201],[6.132378,52.957522],[6.132775,52.957899],[6.133361,52.958457],[6.133832,52.95891],[6.134249,52.959311],[6.134502,52.959547],[6.134944,52.959964],[6.135617,52.960595],[6.137054,52.961947],[6.138611,52.963413],[6.139408,52.964162],[6.139803,52.964533],[6.1402,52.964904],[6.140675,52.965348],[6.141084,52.965734],[6.141522,52.966143],[6.141895,52.966496],[6.142204,52.966783],[6.142502,52.967063],[6.142744,52.967288],[6.142998,52.967529],[6.143199,52.967715],[6.143239,52.967747],[6.143418,52.967908],[6.143554,52.968028],[6.143702,52.968147],[6.143866,52.968268],[6.144012,52.968377],[6.144171,52.968482],[6.144302,52.968564],[6.144488,52.968676],[6.144901,52.968905],[6.145076,52.969],[6.145397,52.969167],[6.145693,52.969322],[6.145732,52.969342],[6.146665,52.969822],[6.147157,52.970077],[6.147578,52.970295],[6.148226,52.970632],[6.148631,52.970844],[6.149369,52.971227],[6.149927,52.971515],[6.150427,52.971775],[6.150804,52.971974],[6.150818,52.971968],[6.150818,52.971968],[6.150818,52.971968],[6.151212,52.972176],[6.151261,52.972209],[6.151258,52.972214],[6.151241,52.972234],[6.151242,52.972247],[6.151242,52.972247],[6.151281,52.972267],[6.151312,52.972245],[6.15132,52.97224],[6.151322,52.97224],[6.151427,52.972259],[6.151668,52.972389],[6.151798,52.972459],[6.151807,52.972465],[6.151845,52.972493],[6.151964,52.972572],[6.152074,52.972626],[6.152307,52.97275],[6.152516,52.972859],[6.152674,52.972941],[6.153037,52.973137],[6.154036,52.973658],[6.154996,52.974155],[6.155883,52.974618],[6.156573,52.974972],[6.156976,52.975177],[6.157302,52.975332],[6.157544,52.975439],[6.157661,52.97549],[6.157825,52.975557],[6.158036,52.975636],[6.158446,52.975781],[6.158628,52.975845],[6.158912,52.97593],[6.15903,52.975965],[6.159651,52.976137],[6.160468,52.976364],[6.163375,52.977178],[6.164486,52.977495],[6.165437,52.977757],[6.167323,52.978281],[6.169251,52.978822],[6.170942,52.979294],[6.1725,52.979732],[6.174094,52.980174],[6.175155,52.980472],[6.175457,52.980556],[6.176374,52.980811],[6.177899,52.981234],[6.179189,52.981594],[6.180502,52.981956],[6.181123,52.982133],[6.181523,52.982248],[6.18148,52.982303],[6.18157,52.982329],[6.181613,52.982274],[6.182406,52.982492],[6.183505,52.982804],[6.184353,52.98304],[6.192248,52.985247],[6.194613,52.9859],[6.195162,52.986052],[6.195448,52.986134],[6.195703,52.986209],[6.195803,52.986242],[6.195942,52.986288],[6.196119,52.986347],[6.196272,52.9864],[6.196376,52.986439],[6.196601,52.986523],[6.196871,52.986627],[6.197042,52.986695],[6.197229,52.98677],[6.197664,52.986961],[6.197801,52.987022],[6.197955,52.987091],[6.198284,52.987248],[6.200652,52.988388],[6.20087,52.988493],[6.20087,52.988494],[6.200894,52.989019],[6.200917,52.989366],[6.200943,52.989694],[6.201573,52.99],[6.202206,52.99031],[6.202221,52.990514],[6.202232,52.990719],[6.202239,52.990815],[6.202243,52.990903],[6.202254,52.991054],[6.202276,52.991331],[6.202292,52.991643],[6.202317,52.991988],[6.202335,52.992255],[6.202361,52.992703],[6.202385,52.993075],[6.202408,52.993489],[6.20244,52.993946],[6.202474,52.994438],[6.2025,52.994868],[6.202542,52.995576],[6.20266,52.99718],[6.202673,52.997438],[6.2027,52.997821],[6.202734,52.998383],[6.202761,52.998786],[6.202783,52.999115],[6.2028,52.999284],[6.202813,52.999508],[6.202834,52.999853],[6.202863,53.000202],[6.202865,53.000262],[6.20287,53.000329],[6.202871,53.000352],[6.2029,53.000807],[6.202919,53.001147],[6.202933,53.001453],[6.202943,53.001541],[6.202962,53.001799],[6.203018,53.002752],[6.203048,53.003186],[6.203069,53.00353],[6.203102,53.004016],[6.203127,53.004367],[6.203151,53.00475],[6.203166,53.005023],[6.203177,53.005229],[6.203206,53.005648],[6.203219,53.005907],[6.203234,53.006163],[6.20325,53.006416],[6.203266,53.006673],[6.20328,53.006912],[6.203296,53.007175],[6.203314,53.007437],[6.20333,53.007696],[6.203347,53.007947],[6.203363,53.008207],[6.203383,53.008467],[6.2034,53.008725],[6.203417,53.00899],[6.203435,53.009254],[6.203463,53.009576],[6.203478,53.009756],[6.203486,53.009949],[6.203486,53.009955],[6.203485,53.009991],[6.203485,53.010019],[6.203487,53.010086],[6.203501,53.010282],[6.203517,53.010567],[6.203526,53.01064],[6.203542,53.010896],[6.203562,53.011204],[6.20357,53.011302],[6.203584,53.011449],[6.203592,53.011574],[6.203611,53.011863],[6.203595,53.011907],[6.203593,53.011916],[6.203587,53.011933],[6.203684,53.013207],[6.203694,53.013344],[6.203695,53.013369],[6.203704,53.013595],[6.203744,53.014272],[6.203771,53.014698],[6.203774,53.014752],[6.203791,53.015015],[6.203802,53.015146],[6.203822,53.015427],[6.20383,53.015565],[6.203833,53.015697],[6.203854,53.01577],[6.203861,53.016104],[6.203856,53.016107],[6.203869,53.016308],[6.2039,53.016898],[6.20393,53.01743],[6.203935,53.017686],[6.203941,53.01784],[6.20395,53.018002],[6.203954,53.018084],[6.203964,53.018244],[6.203983,53.018474],[6.204,53.018707],[6.204027,53.018984],[6.204045,53.019172],[6.204051,53.019322],[6.204053,53.01938],[6.204058,53.01944],[6.204086,53.01986],[6.20414,53.020685],[6.204184,53.021334],[6.20419,53.021508],[6.204201,53.02167],[6.204214,53.021909],[6.204229,53.022187],[6.204252,53.022553],[6.204278,53.022922],[6.204303,53.023293],[6.20432,53.023559],[6.204354,53.023947],[6.204374,53.024213],[6.204422,53.025011],[6.204443,53.025397],[6.204458,53.025585],[6.204476,53.025855],[6.204532,53.026634],[6.204556,53.02693],[6.204581,53.027233],[6.204611,53.027732],[6.204655,53.028303],[6.204711,53.029087],[6.204716,53.029184],[6.204734,53.029471],[6.20475,53.029708],[6.204778,53.030088],[6.204798,53.030375],[6.204807,53.030502],[6.204837,53.030922],[6.204873,53.031382],[6.204908,53.03185],[6.20493,53.032081],[6.204948,53.032233],[6.204951,53.032296],[6.204973,53.032637],[6.204989,53.032865],[6.204992,53.032893],[6.205022,53.03319],[6.20505,53.033539],[6.205066,53.033717],[6.205086,53.033999],[6.205116,53.034387],[6.205125,53.034498],[6.205133,53.034607],[6.205158,53.034904],[6.205184,53.035254],[6.205212,53.035587],[6.205237,53.035952],[6.205263,53.036239],[6.205286,53.036517],[6.20533,53.037031],[6.205352,53.03729],[6.205378,53.037612],[6.2054,53.037806],[6.205415,53.037887],[6.205423,53.037927],[6.205424,53.037931],[6.20581,53.037986],[6.205817,53.037975],[6.206231,53.037874],[6.206373,53.037838],[6.206734,53.037747],[6.207232,53.037625],[6.207902,53.037454],[6.207906,53.037452],[6.208006,53.037429],[6.208126,53.037399],[6.208539,53.037299],[6.208843,53.037225],[6.208861,53.03722],[6.209274,53.037123],[6.210014,53.036941],[6.210537,53.03681],[6.210731,53.036763],[6.210865,53.03673],[6.211003,53.036696],[6.211338,53.036613],[6.211448,53.036586],[6.211451,53.036585],[6.211916,53.036468],[6.212442,53.036337],[6.212852,53.036236],[6.212869,53.03658],[6.212887,53.036838],[6.212901,53.037145],[6.213377,53.037328],[6.214473,53.037733],[6.214556,53.037769],[6.214649,53.037804],[6.21481,53.037864],[6.214836,53.037874],[6.215026,53.037946],[6.215078,53.037968],[6.215083,53.037963],[6.215204,53.037997],[6.215049,53.038163],[6.215055,53.03819],[6.215085,53.038235],[6.215118,53.038257],[6.215146,53.038269],[6.216663,53.038608],[6.216721,53.038621],[6.216726,53.03861],[6.216911,53.038652],[6.217223,53.03872],[6.217694,53.038815],[6.217989,53.038863],[6.218312,53.038916],[6.218592,53.03895],[6.21909,53.039001],[6.219373,53.039028],[6.219683,53.039062],[6.219757,53.039071],[6.220268,53.039119],[6.220293,53.03912],[6.220426,53.039133],[6.220744,53.03916],[6.220954,53.039167],[6.221197,53.03916],[6.221312,53.039161],[6.221329,53.039161],[6.221706,53.039149],[6.222022,53.039136],[6.222284,53.039128],[6.222461,53.039134],[6.222567,53.039142],[6.222618,53.039144],[6.222648,53.039151],[6.222674,53.039155],[6.22272,53.03916],[6.222837,53.039187],[6.223114,53.039269],[6.223437,53.03937],[6.22347,53.039381],[6.223534,53.039403],[6.223752,53.039473],[6.223993,53.03955],[6.224103,53.039582],[6.224133,53.039589],[6.224538,53.03972],[6.224654,53.039754],[6.224931,53.039837],[6.22602,53.04018],[6.226073,53.040196],[6.227231,53.040558],[6.227431,53.040621],[6.227547,53.040658],[6.228868,53.041073],[6.229041,53.041133],[6.229695,53.041334],[6.229787,53.041367],[6.23025,53.041513],[6.230461,53.041579],[6.23061,53.041621],[6.231216,53.041821],[6.231325,53.041849],[6.232629,53.042261],[6.233254,53.042458],[6.233346,53.042488],[6.234596,53.042881],[6.234682,53.042909],[6.235021,53.043009],[6.235122,53.043044],[6.23531,53.043102],[6.235661,53.043212],[6.235717,53.04323],[6.236093,53.043354],[6.236458,53.043471],[6.236658,53.043523],[6.236972,53.043621],[6.237366,53.043747],[6.237967,53.043935],[6.238066,53.043966],[6.23823,53.044017],[6.238271,53.044031],[6.238779,53.044188],[6.238856,53.044215],[6.239119,53.044294],[6.239195,53.04432],[6.239668,53.044464],[6.240308,53.044654],[6.240912,53.044839],[6.241407,53.044989],[6.241834,53.045117],[6.242106,53.045203],[6.242194,53.045233],[6.242853,53.045424],[6.243021,53.045474],[6.243521,53.04562],[6.243667,53.045669],[6.244295,53.045853],[6.244452,53.045901],[6.244752,53.045994],[6.245703,53.046286],[6.245782,53.046313],[6.246079,53.046404],[6.246531,53.046536],[6.246546,53.046694],[6.246992,53.046834],[6.247025,53.046844],[6.24706,53.046853],[6.247899,53.047119],[6.248461,53.047297],[6.24912,53.047506],[6.249538,53.047631],[6.249961,53.047767],[6.250611,53.047975],[6.251169,53.048152],[6.251564,53.048273],[6.25164,53.048296],[6.251771,53.048341],[6.252118,53.048459],[6.252159,53.048473],[6.252713,53.048637],[6.253226,53.048798],[6.253313,53.048826],[6.253822,53.04899],[6.254413,53.04918],[6.254469,53.049199],[6.254973,53.04937],[6.255215,53.049448],[6.255579,53.049564],[6.255757,53.049621],[6.256991,53.050016],[6.258661,53.05055],[6.259193,53.050722],[6.260151,53.051033],[6.261557,53.051488],[6.263614,53.052219],[6.265765,53.052983],[6.266121,53.053126],[6.266681,53.053477],[6.266779,53.053526],[6.266871,53.053571],[6.267724,53.053864],[6.267802,53.053891],[6.268233,53.054049],[6.268926,53.054305],[6.269171,53.054394],[6.269902,53.054666],[6.269982,53.054697],[6.2702,53.054781],[6.270309,53.054822],[6.270967,53.055077],[6.271047,53.055108],[6.272184,53.055553],[6.273063,53.05591],[6.273264,53.055985],[6.27346,53.056042],[6.273525,53.056061],[6.273726,53.056106],[6.2739,53.056129],[6.273979,53.05614],[6.274304,53.056154],[6.274611,53.056148],[6.274634,53.056296],[6.275309,53.056527],[6.275321,53.056556],[6.27762,53.057319],[6.278109,53.057463],[6.278501,53.05758],[6.278632,53.057618],[6.278873,53.057689],[6.278887,53.057693],[6.27906,53.057746],[6.279079,53.057752],[6.279178,53.05778],[6.279314,53.057821],[6.279395,53.057845],[6.279487,53.057879],[6.279492,53.057879],[6.279507,53.057882],[6.279617,53.057917],[6.279657,53.05793],[6.279759,53.057963],[6.27981,53.057983],[6.279811,53.057983],[6.280531,53.058211],[6.280534,53.05823],[6.280562,53.058403],[6.280584,53.05856],[6.280598,53.058665],[6.280662,53.059086],[6.280705,53.059406],[6.280719,53.059509],[6.28075,53.059668],[6.280753,53.05968],[6.280766,53.059764],[6.280774,53.059803],[6.280835,53.060191],[6.280837,53.060204],[6.28084,53.060241],[6.280841,53.06025],[6.280927,53.060786],[6.280974,53.061094],[6.280985,53.061168],[6.281031,53.061473],[6.281136,53.062193],[6.281195,53.062602],[6.281229,53.06278],[6.281271,53.063043],[6.281301,53.063188],[6.281303,53.063207],[6.281321,53.063372],[6.281323,53.063384],[6.281416,53.064088],[6.28143,53.064187],[6.281442,53.064189],[6.282501,53.064431],[6.28251,53.064437],[6.282664,53.064471],[6.282878,53.064518],[6.28342,53.064638],[6.283518,53.064659],[6.284614,53.064903],[6.285185,53.065033],[6.285422,53.065087],[6.285808,53.065169],[6.285892,53.065187],[6.286697,53.065364],[6.286724,53.06537],[6.286822,53.06539],[6.287759,53.065596],[6.287884,53.065622],[6.288023,53.065653],[6.289153,53.065907],[6.2903,53.066155],[6.290352,53.066165],[6.290511,53.066199],[6.290762,53.066252],[6.291075,53.066316],[6.291509,53.066407],[6.291782,53.066468],[6.292228,53.06656],[6.292254,53.066566],[6.29277,53.066675],[6.293272,53.066787],[6.293857,53.066909],[6.294221,53.066989],[6.294436,53.067036],[6.294539,53.067058],[6.294896,53.067131],[6.295264,53.067207],[6.295725,53.067304],[6.296122,53.067386],[6.296439,53.067453],[6.296762,53.067523],[6.296934,53.067559],[6.297023,53.067577],[6.297277,53.067631],[6.297579,53.067695],[6.297949,53.067772],[6.298359,53.067861],[6.298743,53.067944],[6.298908,53.067978],[6.299187,53.068037],[6.29963,53.068131],[6.30005,53.068224],[6.300364,53.068291],[6.300877,53.068401],[6.301387,53.068513],[6.30175,53.068591],[6.302378,53.068724],[6.302714,53.068798],[6.303023,53.068858],[6.303189,53.068886],[6.304425,53.069165],[6.304576,53.069207],[6.30464,53.069224],[6.30468,53.069235],[6.305235,53.069368],[6.305729,53.069486],[6.305993,53.069542],[6.306148,53.069573],[6.306871,53.069732],[6.307597,53.069892],[6.308275,53.070048],[6.309484,53.070307],[6.30968,53.070349],[6.310257,53.070473],[6.310638,53.070557],[6.310816,53.070596],[6.311142,53.070668],[6.311908,53.07084],[6.312519,53.070977],[6.313469,53.071186],[6.314044,53.071315],[6.314171,53.071357],[6.31431,53.07139],[6.314441,53.07142],[6.314844,53.071516],[6.315171,53.071588],[6.315283,53.071612],[6.315814,53.071721],[6.315958,53.071752],[6.317238,53.072031],[6.317357,53.07206],[6.319316,53.072492],[6.32004,53.072645],[6.320128,53.072669],[6.320912,53.072839],[6.321403,53.07295],[6.322601,53.073215],[6.323496,53.073414],[6.324397,53.073605],[6.325004,53.073737],[6.325614,53.073873],[6.325654,53.073879],[6.326954,53.074164],[6.327601,53.074304],[6.327703,53.074328],[6.327725,53.074343],[6.329392,53.074698],[6.329429,53.074708],[6.33199,53.075265],[6.332055,53.075279],[6.332872,53.075099],[6.337964,53.073972],[6.34762,53.071835],[6.348157,53.071721],[6.34945,53.071432],[6.351171,53.071052],[6.351376,53.071009],[6.351766,53.070922],[6.352187,53.070829],[6.35661,53.069841],[6.367762,53.067383],[6.367787,53.067378],[6.367794,53.067367],[6.367808,53.067346],[6.367782,53.067199],[6.367718,53.066811],[6.367581,53.066006],[6.367565,53.065908],[6.367548,53.065816],[6.367061,53.063253],[6.366569,53.060662],[6.366268,53.059077],[6.365792,53.056762],[6.365611,53.055642],[6.364898,53.051821],[6.364895,53.051799],[6.364168,53.046454],[6.363378,53.04046],[6.363364,53.040357],[6.363325,53.040049],[6.363219,53.039262],[6.363219,53.03926],[6.362947,53.037139],[6.362649,53.034918],[6.362521,53.033969],[6.362624,53.033869],[6.362947,53.033553],[6.363245,53.033261],[6.363412,53.033103],[6.363614,53.03291],[6.36862,53.028143],[6.369443,53.027355],[6.370527,53.026325],[6.37405,53.022977],[6.374661,53.022389],[6.377545,53.019643],[6.378016,53.019192],[6.380358,53.01695],[6.380943,53.01639],[6.383938,53.013545],[6.384725,53.012693],[6.389381,53.008243],[6.391259,53.00645],[6.392464,53.005368],[6.393824,53.004117],[6.394941,53.003053],[6.396422,53.001652],[6.397248,53.000864],[6.399567,52.998643],[6.400404,52.997842],[6.400701,52.997558],[6.401904,52.996413],[6.402686,52.995653],[6.403995,52.994397],[6.406525,52.99197],[6.408789,52.989805],[6.411932,52.986804],[6.41263,52.986137],[6.41328,52.985523],[6.414218,52.984628],[6.415637,52.983277],[6.416433,52.982516],[6.422623,52.976593],[6.424418,52.974876],[6.42443,52.974864],[6.425167,52.974144],[6.427489,52.971936],[6.427558,52.971871],[6.427615,52.971815],[6.427147,52.971283],[6.426282,52.970297],[6.426181,52.970182],[6.42445,52.96821],[6.410616,52.952443],[6.410454,52.952198],[6.409093,52.950659],[6.404812,52.945818],[6.40443,52.945386],[6.404426,52.945381],[6.404363,52.94531],[6.404174,52.945096],[6.398611,52.93875],[6.39833,52.938429],[6.398305,52.9384],[6.39559,52.935302],[6.395529,52.935233],[6.393436,52.932843],[6.380939,52.927279],[6.36943,52.922156],[6.369105,52.922011],[6.369026,52.921976],[6.365661,52.920473],[6.361667,52.91869],[6.360339,52.918098],[6.357687,52.916915],[6.355298,52.91585],[6.353241,52.914936],[6.353173,52.914906],[6.350123,52.91355],[6.347541,52.912401],[6.34354,52.910616],[6.34279,52.910283],[6.33446,52.90657],[6.33415,52.906514],[6.333862,52.906461],[6.333438,52.906385],[6.333281,52.906356],[6.331361,52.907536],[6.331345,52.907547],[6.331239,52.907612],[6.329146,52.908898],[6.327035,52.910196],[6.326936,52.910257],[6.326821,52.910328],[6.325316,52.911253],[6.325223,52.91131],[6.317239,52.916217],[6.308408,52.921642],[6.302985,52.924972],[6.302623,52.924994],[6.283155,52.926148],[6.282343,52.926182],[6.277514,52.926462],[6.276739,52.926504],[6.275723,52.926564],[6.273103,52.926712],[6.268747,52.926957],[6.267524,52.927025],[6.267512,52.927026],[6.266711,52.92707],[6.265863,52.927116],[6.26258,52.927294],[6.259459,52.927471],[6.25924,52.927483],[6.258791,52.927507],[6.256593,52.927641],[6.255615,52.927213],[6.25491,52.926909],[6.254072,52.926542],[6.252425,52.925827],[6.247553,52.923692],[6.247259,52.923347],[6.246157,52.923429],[6.24604,52.923438],[6.245338,52.923484],[6.245219,52.923492],[6.24475,52.923526],[6.244654,52.923533],[6.243678,52.923601],[6.243591,52.923608],[6.243447,52.923622],[6.24333,52.923633],[6.242497,52.923698],[6.241603,52.923763],[6.240151,52.923875],[6.239344,52.923933],[6.238486,52.923999],[6.23769,52.924057],[6.236533,52.924137],[6.236044,52.924167],[6.235965,52.924179],[6.235576,52.924208],[6.233956,52.924329],[6.232899,52.924408],[6.232747,52.924419],[6.23248,52.924437],[6.231639,52.924493],[6.230644,52.924551],[6.230229,52.924581],[6.229888,52.924606],[6.229621,52.924626],[6.229315,52.924647],[6.229261,52.924651],[6.229189,52.924654],[6.229179,52.924655],[6.228229,52.924706],[6.227566,52.92479],[6.226748,52.924854],[6.225826,52.924909],[6.225378,52.924949],[6.224949,52.924984],[6.22449,52.92502],[6.224342,52.925032],[6.22414,52.925046],[6.223439,52.925095],[6.222742,52.925145],[6.222667,52.925151],[6.222238,52.925184],[6.217136,52.925545],[6.214049,52.925765],[6.213645,52.925793],[6.21363,52.925795],[6.213575,52.925946],[6.213494,52.926139],[6.213444,52.926269],[6.213378,52.926429],[6.213316,52.926588],[6.213266,52.926716],[6.213267,52.926718],[6.213246,52.926766],[6.213131,52.92702],[6.213059,52.927198],[6.212967,52.927374],[6.212852,52.927636],[6.212673,52.928086],[6.212645,52.928152],[6.212615,52.928226],[6.212589,52.928288],[6.212572,52.92833],[6.212538,52.928402],[6.212527,52.928426],[6.212511,52.928462],[6.212504,52.92848],[6.212502,52.928483],[6.212481,52.928524],[6.212439,52.928618],[6.212407,52.928692],[6.212375,52.928759],[6.212339,52.92884],[6.212284,52.928944],[6.212252,52.929009],[6.212246,52.92902],[6.212206,52.929093],[6.212126,52.929253],[6.212068,52.929373],[6.212031,52.929463],[6.21201,52.929516],[6.211985,52.929573],[6.211941,52.929662],[6.211898,52.929746],[6.211839,52.92986],[6.211827,52.929885],[6.211821,52.929905],[6.211812,52.929935],[6.211756,52.930041],[6.211696,52.930163],[6.211633,52.930289],[6.21161,52.930342],[6.211599,52.930368],[6.211568,52.930422],[6.211539,52.930476],[6.211509,52.930517],[6.211497,52.930537],[6.211481,52.930568],[6.21146,52.930619],[6.211433,52.930666],[6.211418,52.930706],[6.211397,52.930743],[6.21139,52.930771],[6.211373,52.93082],[6.211338,52.930896],[6.211304,52.930966],[6.211271,52.931024],[6.211257,52.931062],[6.211222,52.931124],[6.211182,52.931172],[6.211146,52.931222],[6.211119,52.931271],[6.211062,52.931371],[6.211037,52.931423],[6.211034,52.931428],[6.211016,52.931471],[6.211,52.931496],[6.21098,52.931517],[6.210954,52.931539],[6.210907,52.931582],[6.210876,52.931611],[6.210839,52.93166],[6.210836,52.931664],[6.210834,52.931669],[6.21083,52.931681],[6.210828,52.9317],[6.21083,52.931727],[6.210825,52.931741],[6.21082,52.931755],[6.210793,52.93179],[6.210771,52.931816],[6.210764,52.931823],[6.210743,52.931845],[6.210731,52.931854],[6.210713,52.931868],[6.210691,52.931887],[6.210666,52.931912],[6.210636,52.931949],[6.210606,52.931983],[6.210597,52.932007],[6.210591,52.932018],[6.210582,52.932034],[6.210565,52.932051],[6.210551,52.932066],[6.210531,52.932089],[6.210511,52.9321],[6.210474,52.93213],[6.210457,52.932152],[6.210408,52.932224],[6.210394,52.932245],[6.210375,52.932263],[6.210353,52.93228],[6.210329,52.932297],[6.210309,52.932311],[6.210289,52.932331],[6.210275,52.932351],[6.210249,52.932388],[6.210225,52.932428],[6.210209,52.932445],[6.210198,52.932454],[6.210186,52.932462],[6.21017,52.932469],[6.21014,52.932486],[6.210119,52.932498],[6.2101,52.93252],[6.210077,52.932554],[6.210047,52.932587],[6.210039,52.932597],[6.209991,52.932652],[6.209946,52.932713],[6.209925,52.932735],[6.209898,52.932761],[6.209876,52.932789],[6.209853,52.932813],[6.209838,52.932831],[6.209815,52.932864],[6.209796,52.932878],[6.209764,52.932914],[6.209747,52.93294],[6.209733,52.932958],[6.209731,52.932962],[6.209724,52.932968],[6.209674,52.93302],[6.209633,52.93307],[6.209558,52.93315],[6.209555,52.933154],[6.20955,52.933153],[6.209538,52.933152],[6.20952,52.933185],[6.209474,52.93326],[6.209306,52.933532],[6.209249,52.93361],[6.209215,52.933658],[6.209189,52.933691],[6.209185,52.933696],[6.209152,52.933721],[6.209119,52.933734],[6.209086,52.933738],[6.209066,52.93374],[6.209052,52.933742],[6.208736,52.93376],[6.20825,52.933789],[6.208215,52.933792],[6.20809,52.933802],[6.208015,52.933814],[6.208004,52.933817],[6.207967,52.933825],[6.207921,52.933844],[6.20789,52.933859],[6.207877,52.933866],[6.207836,52.933899],[6.207798,52.933946],[6.207797,52.933947],[6.207734,52.93401],[6.207485,52.93424],[6.207154,52.934547],[6.206963,52.934726],[6.206764,52.934909],[6.206644,52.935016],[6.206519,52.935113],[6.20649,52.935135],[6.206416,52.935192],[6.206356,52.935247],[6.206344,52.935262],[6.206287,52.935333],[6.206153,52.935474],[6.206145,52.935482],[6.206106,52.935522],[6.206072,52.935556],[6.206047,52.935576],[6.205985,52.935625],[6.20597,52.935636],[6.2059,52.935684],[6.205264,52.936076],[6.205115,52.936164],[6.204938,52.936269],[6.204493,52.936549],[6.203981,52.936871],[6.203914,52.936911],[6.203813,52.936973],[6.203621,52.937101],[6.203536,52.937157],[6.203483,52.937198],[6.203475,52.937205],[6.203428,52.937241],[6.203356,52.937301],[6.20326,52.937387],[6.203096,52.937533],[6.202706,52.937896],[6.202542,52.938039],[6.202496,52.938076],[6.202488,52.93808],[6.202459,52.938095],[6.202421,52.938105],[6.202007,52.938187],[6.20188,52.938212],[6.201819,52.93823],[6.201786,52.938244],[6.201779,52.938247],[6.201766,52.938252],[6.201727,52.938279],[6.201696,52.938302],[6.201648,52.938339],[6.201477,52.938481],[6.201352,52.938582],[6.201334,52.938597],[6.201304,52.938621],[6.201138,52.938753],[6.201012,52.938858],[6.200951,52.938914],[6.200883,52.938976],[6.200836,52.939033],[6.200824,52.939055],[6.200817,52.939068],[6.20081,52.939143],[6.200836,52.939225],[6.200871,52.939323],[6.20088,52.939338],[6.200894,52.939363],[6.201076,52.939679],[6.201112,52.940224],[6.201123,52.940341],[6.20112,52.940413],[6.201116,52.940441],[6.201103,52.940466],[6.201133,52.940478],[6.201163,52.940492],[6.201222,52.940535],[6.20146,52.940705],[6.201611,52.940815],[6.201941,52.941066],[6.201968,52.941087],[6.202234,52.941293],[6.202311,52.941344],[6.202318,52.941349],[6.202432,52.941422],[6.202525,52.941499],[6.202303,52.94167],[6.201648,52.942175],[6.200588,52.942994],[6.200567,52.94301],[6.200561,52.943014],[6.200482,52.942974],[6.200459,52.942963],[6.200299,52.94288],[6.20012,52.942802],[6.200034,52.942766],[6.19859,52.942199],[6.198366,52.94213],[6.198255,52.942095],[6.197984,52.941999],[6.197738,52.941916],[6.197525,52.941841],[6.197315,52.941773],[6.197089,52.941704],[6.196925,52.941659],[6.196814,52.941628],[6.196576,52.941558],[6.196302,52.941478],[6.195994,52.941391],[6.195958,52.941381],[6.195709,52.941308],[6.19548,52.941243],[6.19522,52.941176],[6.194971,52.941107],[6.19475,52.941043],[6.194537,52.940982],[6.194419,52.94095],[6.194394,52.940943],[6.194051,52.940835],[6.193437,52.94065],[6.1931,52.940549],[6.192765,52.94045],[6.192745,52.940444],[6.192454,52.940355],[6.192285,52.940302],[6.192153,52.940261],[6.191936,52.940196],[6.191743,52.940134],[6.19162,52.940094],[6.191379,52.94002],[6.191027,52.939896],[6.190818,52.939818],[6.19049,52.939707],[6.190347,52.939656],[6.190112,52.939565],[6.189891,52.939475],[6.189445,52.93929],[6.189277,52.939222],[6.18908,52.939145],[6.189058,52.939137],[6.18882,52.939046],[6.18855,52.938947],[6.188346,52.938874],[6.188068,52.938797],[6.188021,52.938784],[6.187767,52.938716],[6.187519,52.93865],[6.18736,52.938606],[6.18734,52.938601],[6.187093,52.938538],[6.186884,52.938487],[6.186715,52.938449],[6.186447,52.938391],[6.186206,52.938339],[6.185956,52.938287],[6.18566,52.938228],[6.185418,52.938177],[6.185153,52.938122],[6.184923,52.938073],[6.184686,52.938024],[6.184425,52.937974],[6.184227,52.937934],[6.18397,52.937883],[6.183762,52.93784],[6.183639,52.937819],[6.183405,52.937762],[6.183188,52.937711],[6.182976,52.937663],[6.182763,52.937615],[6.182534,52.93756],[6.182329,52.937511],[6.18209,52.937458],[6.181873,52.937409],[6.181693,52.937371],[6.181396,52.937311],[6.181119,52.937253],[6.180939,52.937218],[6.180782,52.937185],[6.180578,52.937144],[6.180418,52.937116],[6.180297,52.937093],[6.18007,52.937056],[6.179891,52.937025],[6.179878,52.937023],[6.179726,52.937],[6.179281,52.93693],[6.178913,52.936869],[6.178676,52.936827],[6.178445,52.936788],[6.178165,52.936739],[6.177766,52.936672],[6.177449,52.936618],[6.177106,52.93656],[6.17683,52.936515],[6.176562,52.936471],[6.176344,52.936432],[6.17621,52.936407],[6.175978,52.936365],[6.175715,52.936318],[6.175404,52.936264],[6.175155,52.936217],[6.174852,52.936155],[6.174501,52.936081],[6.174481,52.936077],[6.174195,52.936014],[6.173841,52.935936],[6.173838,52.935935],[6.173805,52.935927],[6.173528,52.935862],[6.173342,52.935814],[6.173319,52.935809],[6.173229,52.935788],[6.173064,52.93575],[6.172698,52.935663],[6.172678,52.935658],[6.172562,52.935626],[6.172349,52.935564],[6.172205,52.935522],[6.172,52.935464],[6.171761,52.935398],[6.171493,52.935324],[6.171286,52.93526],[6.171033,52.935181],[6.170776,52.9351],[6.170552,52.935031],[6.170386,52.934977],[6.169956,52.934831],[6.169645,52.934721],[6.169456,52.934655],[6.16925,52.934587],[6.169007,52.934506],[6.168759,52.934425],[6.168505,52.934344],[6.168061,52.934208],[6.165455,52.93345],[6.165074,52.933343],[6.164964,52.93331],[6.164471,52.933174],[6.164017,52.933032],[6.163679,52.932937],[6.163232,52.932808],[6.162742,52.932654],[6.162507,52.932589],[6.162492,52.932585],[6.162062,52.93246],[6.161826,52.93239],[6.161494,52.932293],[6.161336,52.932234],[6.161127,52.932162],[6.160845,52.932063],[6.160568,52.931944],[6.160178,52.931773],[6.160129,52.931751],[6.160093,52.931735],[6.159955,52.931672],[6.159491,52.931466],[6.159279,52.931373],[6.159009,52.931259],[6.158959,52.931238],[6.158908,52.931215],[6.158494,52.931034],[6.158363,52.930974],[6.158208,52.930901],[6.158021,52.930822],[6.157852,52.930743],[6.157588,52.93063],[6.157368,52.930552],[6.157177,52.930496],[6.157005,52.930452],[6.156842,52.930415],[6.156493,52.93034],[6.155644,52.930142],[6.155423,52.930094],[6.155193,52.930044],[6.154977,52.929993],[6.154828,52.929958],[6.154632,52.929912],[6.154205,52.92982],[6.153798,52.92973],[6.153759,52.929721],[6.153744,52.929718],[6.15355,52.929669],[6.153421,52.929639],[6.153075,52.92956],[6.153028,52.929548],[6.152633,52.929454],[6.152425,52.929402],[6.152385,52.929392],[6.152365,52.929398],[6.152364,52.929398],[6.152349,52.929403],[6.152341,52.929403],[6.152332,52.929403],[6.152331,52.929403],[6.152318,52.929394],[6.152317,52.929392],[6.152312,52.929383],[6.152295,52.929372],[6.152251,52.929361],[6.151835,52.929267],[6.151443,52.92918],[6.15115,52.929113],[6.150892,52.929073],[6.150805,52.929072],[6.15052,52.929039],[6.150411,52.929032],[6.150014,52.929032],[6.149842,52.929029],[6.14972,52.929024],[6.149592,52.929017],[6.149502,52.929005],[6.149377,52.928991],[6.149176,52.928956],[6.148679,52.928873],[6.148417,52.928826],[6.148182,52.928787],[6.148039,52.928758],[6.14776,52.928711],[6.147364,52.928645],[6.146762,52.928545],[6.146525,52.928508],[6.146518,52.928506],[6.146505,52.928504],[6.146264,52.928459],[6.14599,52.92841],[6.145774,52.928369],[6.145627,52.928338],[6.145519,52.928323],[6.145403,52.928297],[6.145295,52.928274],[6.145224,52.928257],[6.145119,52.928229],[6.144951,52.92818],[6.144828,52.928146],[6.144772,52.928126],[6.144682,52.928096],[6.144668,52.928092],[6.144654,52.928086],[6.144569,52.928052],[6.144443,52.928004],[6.144348,52.927967],[6.144238,52.92792],[6.14412,52.92787],[6.144028,52.927829],[6.143893,52.927763],[6.143741,52.92769],[6.143604,52.927587],[6.143527,52.92753],[6.143454,52.927482],[6.143394,52.92743],[6.143273,52.927323],[6.143117,52.927189],[6.142998,52.927087],[6.142892,52.926991],[6.14281,52.92692],[6.142771,52.926885],[6.142738,52.926857],[6.142631,52.926762],[6.142527,52.926673],[6.142411,52.926571],[6.142335,52.926504],[6.142246,52.926425],[6.142168,52.926355],[6.142138,52.926331],[6.14206,52.926266],[6.141953,52.926172],[6.141946,52.926166],[6.141773,52.926016],[6.141637,52.925896],[6.141602,52.925868],[6.141567,52.92584],[6.141515,52.92579],[6.141507,52.925782],[6.141311,52.925597],[6.141248,52.925543],[6.141222,52.925524],[6.141171,52.925485],[6.141081,52.925418],[6.140938,52.925323],[6.14092,52.925299],[6.140901,52.925274],[6.140894,52.925265],[6.140871,52.92525],[6.140848,52.925185],[6.140804,52.925151],[6.14068,52.925047],[6.140419,52.924825],[6.140238,52.924671],[6.140136,52.924584],[6.140018,52.92448],[6.13998,52.924452],[6.139838,52.924349],[6.13974,52.924275],[6.139661,52.924225],[6.139601,52.92419],[6.139481,52.924127],[6.139356,52.924065],[6.139261,52.924021],[6.139138,52.923986],[6.138986,52.923942],[6.138929,52.923929],[6.138843,52.923914],[6.138785,52.923905],[6.138751,52.923895],[6.138697,52.923878],[6.138575,52.923833],[6.138395,52.923771],[6.138249,52.923717],[6.13806,52.923647],[6.137864,52.923575],[6.137635,52.923489],[6.137611,52.92348],[6.137579,52.923468],[6.137431,52.923409],[6.13721,52.923326],[6.136935,52.923225],[6.136728,52.923151],[6.136465,52.923054],[6.136266,52.922984],[6.1362,52.922961],[6.13613,52.922934],[6.135919,52.922856],[6.135633,52.922746],[6.135424,52.922668],[6.135184,52.922581],[6.134979,52.922507],[6.134894,52.922476],[6.134745,52.922421],[6.134453,52.92231],[6.134362,52.922275],[6.13417,52.922201],[6.133915,52.922109],[6.133638,52.922006],[6.133354,52.921894],[6.133129,52.921808],[6.132863,52.921706],[6.132693,52.921641],[6.132607,52.921606],[6.1326,52.921603],[6.132596,52.921602],[6.132459,52.921541],[6.132279,52.921459],[6.131864,52.921256],[6.131749,52.9212],[6.131548,52.921092],[6.131423,52.921022],[6.131294,52.920968],[6.131196,52.920924],[6.131115,52.920883],[6.131038,52.920844],[6.130999,52.920822],[6.130933,52.920785],[6.130324,52.920486],[6.130186,52.920421],[6.130056,52.920387],[6.129911,52.920351],[6.129641,52.920252],[6.129471,52.920191],[6.129304,52.92016],[6.129142,52.920131],[6.128965,52.920114],[6.128836,52.920106],[6.128604,52.920096],[6.128428,52.920087],[6.128302,52.920079],[6.12817,52.920063],[6.128007,52.920045],[6.127814,52.920018],[6.127649,52.919989],[6.127496,52.919957],[6.127359,52.919925],[6.127251,52.919892],[6.127079,52.919837],[6.126942,52.919789],[6.126838,52.919748],[6.126694,52.91969],[6.126593,52.919649],[6.126565,52.919638],[6.126544,52.919628],[6.126313,52.919521],[6.126301,52.919513],[6.126191,52.919437],[6.126025,52.91932],[6.125886,52.919216],[6.125729,52.919097],[6.125535,52.918941],[6.125267,52.918733],[6.125057,52.918569],[6.124803,52.918373],[6.124657,52.918261],[6.124556,52.918186],[6.124467,52.91813],[6.124352,52.918073],[6.124239,52.918021],[6.12414,52.917981],[6.124002,52.917929],[6.123883,52.917891],[6.123768,52.917856],[6.123583,52.917805],[6.123474,52.917777],[6.123386,52.917759],[6.123273,52.91774],[6.123157,52.917726],[6.122985,52.91771],[6.122683,52.91769],[6.122367,52.917668],[6.122241,52.917658],[6.121958,52.917638],[6.121547,52.917613],[6.121186,52.917588],[6.120924,52.917573],[6.120633,52.917546],[6.120471,52.917531],[6.120226,52.9175],[6.12002,52.917472],[6.119885,52.917453],[6.119721,52.917425],[6.119443,52.917377],[6.119218,52.917334],[6.119104,52.917307],[6.118741,52.917218],[6.118498,52.91716],[6.118284,52.917107],[6.118036,52.917031],[6.117527,52.916869],[6.117483,52.916852],[6.117481,52.916851],[6.117414,52.916813],[6.117359,52.916786],[6.117324,52.916774],[6.11728,52.916765],[6.117191,52.916747],[6.117096,52.916712],[6.11695,52.916656],[6.116812,52.916605],[6.116704,52.916558],[6.116305,52.916379],[6.11613,52.916306],[6.115967,52.916232],[6.115723,52.916115],[6.115685,52.916097],[6.115519,52.916018],[6.115286,52.915902],[6.115104,52.91581],[6.114845,52.915671],[6.114637,52.91556],[6.114485,52.915471],[6.114273,52.915345],[6.11408,52.915227],[6.114006,52.915184],[6.113944,52.915138],[6.113885,52.915092],[6.113828,52.915042],[6.113764,52.914986],[6.113718,52.91495],[6.113654,52.91491],[6.113613,52.914889],[6.113528,52.914856],[6.113445,52.914828],[6.113348,52.914761],[6.113139,52.914622],[6.112927,52.914479],[6.112759,52.914366],[6.112622,52.914273],[6.112426,52.914142],[6.112318,52.914069],[6.112127,52.913961],[6.111872,52.913823],[6.111681,52.913724],[6.111479,52.913626],[6.111376,52.913574],[6.111184,52.913484],[6.111087,52.913442],[6.110849,52.913354],[6.110657,52.913285],[6.110545,52.913244],[6.109933,52.913841],[6.109464,52.914297],[6.109198,52.914556],[6.1086,52.915129],[6.107997,52.915709],[6.107322,52.916365],[6.106646,52.917027],[6.106385,52.917285],[6.106255,52.917406],[6.105983,52.917663],[6.105688,52.917948],[6.104989,52.918623],[6.104567,52.919029],[6.1045,52.919092],[6.104408,52.919178],[6.104334,52.919248],[6.104318,52.919264],[6.10423,52.919354],[6.103748,52.919817],[6.103142,52.9204],[6.102895,52.920637],[6.102172,52.921331],[6.101682,52.921801],[6.101383,52.922087],[6.10132,52.922147],[6.10018,52.923243],[6.099624,52.923777],[6.096757,52.926528],[6.096652,52.926622],[6.09666,52.926625],[6.096219,52.927054],[6.095868,52.92739],[6.095309,52.927931],[6.094496,52.92871],[6.093843,52.929329],[6.093413,52.929738],[6.092908,52.930222],[6.092209,52.930884],[6.091915,52.931164],[6.091613,52.931451],[6.091378,52.931673],[6.091362,52.931688],[6.090717,52.932301],[6.090396,52.932601],[6.090225,52.932762],[6.09009,52.93289],[6.090084,52.932897],[6.090065,52.932921],[6.090039,52.932953],[6.089979,52.933022],[6.089413,52.933549],[6.08921,52.933743],[6.089033,52.93391],[6.088942,52.933996],[6.088881,52.934052],[6.08884,52.934091],[6.08874,52.934211],[6.088283,52.934649],[6.087843,52.935073],[6.087361,52.935545],[6.087019,52.935872],[6.086949,52.935945],[6.08653,52.936337],[6.086525,52.936341],[6.086492,52.936338],[6.08647,52.936336],[6.08646,52.936339],[6.086413,52.936354],[6.086353,52.936373],[6.086312,52.93641],[6.086305,52.936441],[6.086303,52.936447],[6.086244,52.936447],[6.086003,52.936447],[6.085963,52.93643],[6.085956,52.936427],[6.085906,52.936391],[6.085893,52.936381],[6.085872,52.936366],[6.08587,52.936365],[6.085756,52.936315],[6.085716,52.936299],[6.085616,52.93629],[6.085603,52.936289],[6.085582,52.936281],[6.085567,52.936275],[6.08536,52.936268],[6.085174,52.936261],[6.085172,52.936261],[6.085141,52.936248],[6.085037,52.936205],[6.085036,52.936205],[6.085005,52.936192],[6.084982,52.936174],[6.084972,52.936166],[6.084848,52.936275]]]},"properties":{"type":"boundary","gemeente":"Ooststellingwerf"}}]}