{"type":"FeatureCollection","metadata":{"gemeente":"Overbetuwe","slug":"overbetuwe","generated_at":"2026-10-05T09:02:10.442151Z","total_points":69,"providers":["Amazon","DHL","DPD","PostNL","VintedGo","GLS","ViaTim","FedEx","InPost"],"bounds":[5.71148,51.8853156,5.871956654,51.9616596]},"features":[{"type":"Feature","geometry":{"type":"Point","coordinates":[5.7583771,51.9445665]},"properties":{"type":"pakketpunt","locatieNaam":"DHL - Pakketautomaat Carwash Loman","straatNaam":"Muskushouwsestraat 1","straatNr":"","vervoerder":"Amazon","puntType":"3p","bezettingsgraad":50,"latitude":51.9445665,"longitude":5.7583771,"canPickup":true,"canDropoff":false,"openingstijden":null}},{"type":"Feature","geometry":{"type":"Point","coordinates":[5.712346073,51.92975699]},"properties":{"type":"pakketpunt","locatieNaam":"Primera Zetten","straatNaam":"Hoofdstraat 34","straatNr":"","vervoerder":"Amazon","puntType":"3p","bezettingsgraad":50,"latitude":51.92975699,"longitude":5.712346073,"canPickup":true,"canDropoff":false,"openingstijden":null}},{"type":"Feature","geometry":{"type":"Point","coordinates":[5.721688061,51.92103907]},"properties":{"type":"pakketpunt","locatieNaam":"Mowrobotics Specialist","straatNaam":"Sint Walburg 28","straatNr":"","vervoerder":"Amazon","puntType":"3p","bezettingsgraad":50,"latitude":51.92103907,"longitude":5.721688061,"canPickup":true,"canDropoff":false,"openingstijden":null}},{"type":"Feature","geometry":{"type":"Point","coordinates":[5.791952394,51.91078699]},"properties":{"type":"pakketpunt","locatieNaam":"Supermarkt Valburg","straatNaam":"Tielsestraat 35","straatNr":"","vervoerder":"Amazon","puntType":"3p","bezettingsgraad":50,"latitude":51.91078699,"longitude":5.791952394,"canPickup":true,"canDropoff":false,"openingstijden":null}},{"type":"Feature","geometry":{"type":"Point","coordinates":[5.7182574,51.9142504]},"properties":{"type":"pakketpunt","locatieNaam":"DHL - DeBuren Locker 24-7 De Schalm","straatNaam":"Wanraaij 4","straatNr":"","vervoerder":"Amazon","puntType":"3p","bezettingsgraad":50,"latitude":51.9142504,"longitude":5.7182574,"canPickup":true,"canDropoff":false,"openingstijden":null}},{"type":"Feature","geometry":{"type":"Point","coordinates":[5.861772109653704,51.91682353903894]},"properties":{"type":"pakketpunt","locatieNaam":"DHL - DeBuren Locker 24-7 Shell Aamsestr","straatNaam":"Nieuwe Aamsestraat 32","straatNr":"","vervoerder":"Amazon","puntType":"3p","bezettingsgraad":50,"latitude":51.91682353903894,"longitude":5.861772109653704,"canPickup":true,"canDropoff":false,"openingstijden":null}},{"type":"Feature","geometry":{"type":"Point","coordinates":[5.86317634921918,51.906340375929]},"properties":{"type":"pakketpunt","locatieNaam":"Barthen & Barthen Transport B.V.","straatNaam":"Bemmelseweg 67 A","straatNr":"","vervoerder":"Amazon","puntType":"3p","bezettingsgraad":50,"latitude":51.906340375929,"longitude":5.86317634921918,"canPickup":true,"canDropoff":false,"openingstijden":null}},{"type":"Feature","geometry":{"type":"Point","coordinates":[5.84755579,51.91922007]},"properties":{"type":"pakketpunt","locatieNaam":"Primera Elst","straatNaam":"Dorpsstraat 32","straatNr":"","vervoerder":"Amazon","puntType":"3p","bezettingsgraad":50,"latitude":51.91922007,"longitude":5.84755579,"canPickup":true,"canDropoff":false,"openingstijden":null}},{"type":"Feature","geometry":{"type":"Point","coordinates":[5.737646375027487,51.909580617680156]},"properties":{"type":"pakketpunt","locatieNaam":"DHL - Pakketautomaat PLUS Herveld","straatNaam":"Het Dorpsplein 8","straatNr":"","vervoerder":"Amazon","puntType":"3p","bezettingsgraad":50,"latitude":51.909580617680156,"longitude":5.737646375027487,"canPickup":true,"canDropoff":false,"openingstijden":null}},{"type":"Feature","geometry":{"type":"Point","coordinates":[5.843025,51.915068]},"properties":{"type":"pakketpunt","locatieNaam":"DHL - DeBuren Locker 24-7 Shell Lange Dr","straatNaam":"Lange Dreef 1-A","straatNr":"","vervoerder":"Amazon","puntType":"3p","bezettingsgraad":50,"latitude":51.915068,"longitude":5.843025,"canPickup":true,"canDropoff":false,"openingstijden":null}},{"type":"Feature","geometry":{"type":"Point","coordinates":[5.711641289379319,51.93103176208671]},"properties":{"type":"pakketpunt","locatieNaam":"Pakketautomaat terStal Zetten","straatNaam":"Hoofdstraat","straatNr":"64-Kast","vervoerder":"DHL","puntType":"packStation","bezettingsgraad":50,"latitude":51.93103176208671,"longitude":5.711641289379319,"canPickup":true,"canDropoff":true,"openingstijden":{"ma":"13:00 - 17:30","di":"09:30 - 17:30","wo":"09:30 - 17:30","do":"09:30 - 17:30","vr":"09:30 - 17:30","za":"09:30 - 17:00","zo":"gesloten"}}},{"type":"Feature","geometry":{"type":"Point","coordinates":[5.713163375854492,51.92881774902344]},"properties":{"type":"pakketpunt","locatieNaam":"Aalbers Dier & Tuin","straatNaam":"Hoofdstraat","straatNr":"5","vervoerder":"DHL","puntType":"parcelShop","bezettingsgraad":50,"latitude":51.92881774902344,"longitude":5.713163375854492,"canPickup":true,"canDropoff":true,"openingstijden":{"ma":"08:30 - 18:00","di":"08:30 - 18:00","wo":"08:30 - 18:00","do":"08:30 - 18:00","vr":"08:30 - 20:00","za":"08:30 - 17:00","zo":"gesloten"}}},{"type":"Feature","geometry":{"type":"Point","coordinates":[5.714211,51.9280311]},"properties":{"type":"pakketpunt","locatieNaam":"Meeuwsen Wonen Slapen","straatNaam":"Hoofdstraat","straatNr":"4-A","vervoerder":"DHL","puntType":"parcelShop","bezettingsgraad":50,"latitude":51.9280311,"longitude":5.714211,"canPickup":true,"canDropoff":true,"openingstijden":{"ma":"gesloten","di":"09:30 - 18:00","wo":"09:30 - 18:00","do":"09:30 - 18:00","vr":"09:30 - 20:00","za":"09:30 - 17:00","zo":"gesloten"}}},{"type":"Feature","geometry":{"type":"Point","coordinates":[5.7182574,51.9142504]},"properties":{"type":"pakketpunt","locatieNaam":"DeBuren Locker 24-7 De Schalm","straatNaam":"Wanraaij","straatNr":"4","vervoerder":"DHL","puntType":"packStation","bezettingsgraad":50,"latitude":51.9142504,"longitude":5.7182574,"canPickup":true,"canDropoff":true,"openingstijden":{"ma":"00:00 - 23:59","di":"00:00 - 23:59","wo":"00:00 - 23:59","do":"00:00 - 23:59","vr":"00:00 - 23:59","za":"00:00 - 23:59","zo":"00:00 - 23:59"}}},{"type":"Feature","geometry":{"type":"Point","coordinates":[5.7583771,51.9445665]},"properties":{"type":"pakketpunt","locatieNaam":"Pakketautomaat Carwash Loman","straatNaam":"Muskushouwsestraat","straatNr":"1","vervoerder":"DHL","puntType":"packStation","bezettingsgraad":50,"latitude":51.9445665,"longitude":5.7583771,"canPickup":true,"canDropoff":true,"openingstijden":{"ma":"06:00 - 23:00","di":"06:00 - 23:00","wo":"06:00 - 23:00","do":"06:00 - 23:00","vr":"06:00 - 23:00","za":"06:00 - 23:00","zo":"06:00 - 23:00"}}},{"type":"Feature","geometry":{"type":"Point","coordinates":[5.7545363,51.9616596]},"properties":{"type":"pakketpunt","locatieNaam":"Flessenwinkel Fischer","straatNaam":"Kastanjelaan","straatNr":"24","vervoerder":"DHL","puntType":"parcelShop","bezettingsgraad":50,"latitude":51.9616596,"longitude":5.7545363,"canPickup":true,"canDropoff":true,"openingstijden":{"ma":"gesloten","di":"09:00 - 18:00","wo":"09:00 - 18:00","do":"09:00 - 18:00","vr":"09:00 - 20:00","za":"09:00 - 17:00","zo":"gesloten"}}},{"type":"Feature","geometry":{"type":"Point","coordinates":[5.737646375027487,51.909580617680156]},"properties":{"type":"pakketpunt","locatieNaam":"Pakketautomaat PLUS Herveld","straatNaam":"Het Dorpsplein","straatNr":"8","vervoerder":"DHL","puntType":"packStation","bezettingsgraad":50,"latitude":51.909580617680156,"longitude":5.737646375027487,"canPickup":true,"canDropoff":true,"openingstijden":{"ma":"00:00 - 23:59","di":"00:00 - 23:59","wo":"00:00 - 23:59","do":"00:00 - 23:59","vr":"00:00 - 23:59","za":"00:00 - 23:59","zo":"00:00 - 23:59"}}},{"type":"Feature","geometry":{"type":"Point","coordinates":[5.813550999806462,51.96102111075418]},"properties":{"type":"pakketpunt","locatieNaam":"Pakketautomaat AH Driel","straatNaam":"Polenplein","straatNr":"24","vervoerder":"DHL","puntType":"packStation","bezettingsgraad":50,"latitude":51.96102111075418,"longitude":5.813550999806462,"canPickup":true,"canDropoff":true,"openingstijden":{"ma":"08:00 - 20:00","di":"08:00 - 20:00","wo":"08:00 - 20:00","do":"08:00 - 20:00","vr":"08:00 - 20:00","za":"08:00 - 20:00","zo":"10:00 - 19:00"}}},{"type":"Feature","geometry":{"type":"Point","coordinates":[5.8148135,51.9170267]},"properties":{"type":"pakketpunt","locatieNaam":"Autobedrijf Jos van de Kuilen","straatNaam":"Valburgseweg","straatNr":"102","vervoerder":"DHL","puntType":"parcelShop","bezettingsgraad":50,"latitude":51.9170267,"longitude":5.8148135,"canPickup":true,"canDropoff":true,"openingstijden":{"ma":"09:00 - 18:00","di":"09:00 - 18:00","wo":"09:00 - 18:00","do":"09:00 - 18:00","vr":"09:00 - 18:00","za":"09:00 - 15:00","zo":"gesloten"}}},{"type":"Feature","geometry":{"type":"Point","coordinates":[5.838903292608626,51.91950731724195]},"properties":{"type":"pakketpunt","locatieNaam":"Pakketautomaat AH Elst","straatNaam":"Valburgseweg","straatNr":"20","vervoerder":"DHL","puntType":"packStation","bezettingsgraad":50,"latitude":51.91950731724195,"longitude":5.838903292608626,"canPickup":true,"canDropoff":true,"openingstijden":{"ma":"08:00 - 21:00","di":"08:00 - 21:00","wo":"08:00 - 21:00","do":"08:00 - 21:00","vr":"08:00 - 21:00","za":"08:00 - 21:00","zo":"10:00 - 20:00"}}},{"type":"Feature","geometry":{"type":"Point","coordinates":[5.8437183,51.9193156]},"properties":{"type":"pakketpunt","locatieNaam":"Intertoys Elst","straatNaam":"Kleine Molenstraat","straatNr":"3","vervoerder":"DHL","puntType":"parcelShop","bezettingsgraad":50,"latitude":51.9193156,"longitude":5.8437183,"canPickup":true,"canDropoff":true,"openingstijden":{"ma":"13:00 - 18:00","di":"09:30 - 18:00","wo":"09:30 - 18:00","do":"09:30 - 18:00","vr":"09:30 - 18:00","za":"09:00 - 17:00","zo":"gesloten"}}},{"type":"Feature","geometry":{"type":"Point","coordinates":[5.84406042098999,51.91799545288086]},"properties":{"type":"pakketpunt","locatieNaam":"Elstar Market","straatNaam":"Halve Morgen","straatNr":"3","vervoerder":"DHL","puntType":"parcelShop","bezettingsgraad":50,"latitude":51.91799545288086,"longitude":5.84406042098999,"canPickup":true,"canDropoff":true,"openingstijden":{"ma":"10:00 - 18:00","di":"10:00 - 18:00","wo":"10:00 - 18:00","do":"10:00 - 18:00","vr":"10:00 - 18:00","za":"10:00 - 18:00","zo":"10:00 - 18:00"}}},{"type":"Feature","geometry":{"type":"Point","coordinates":[5.843025,51.915068]},"properties":{"type":"pakketpunt","locatieNaam":"DeBuren Locker 24-7 Shell Lange Dr","straatNaam":"Lange Dreef","straatNr":"1-A","vervoerder":"DHL","puntType":"packStation","bezettingsgraad":50,"latitude":51.915068,"longitude":5.843025,"canPickup":true,"canDropoff":true,"openingstijden":{"ma":"00:00 - 23:59","di":"00:00 - 23:59","wo":"00:00 - 23:59","do":"00:00 - 23:59","vr":"00:00 - 23:59","za":"00:00 - 23:59","zo":"00:00 - 23:59"}}},{"type":"Feature","geometry":{"type":"Point","coordinates":[5.8462517,51.9185471]},"properties":{"type":"pakketpunt","locatieNaam":"SNC Tel","straatNaam":"Dorpsstraat","straatNr":"57-A","vervoerder":"DHL","puntType":"parcelShop","bezettingsgraad":50,"latitude":51.9185471,"longitude":5.8462517,"canPickup":true,"canDropoff":true,"openingstijden":{"ma":"13:00 - 18:00","di":"10:00 - 18:00","wo":"10:00 - 18:00","do":"10:00 - 19:00","vr":"10:00 - 18:00","za":"10:00 - 17:00","zo":"gesloten"}}},{"type":"Feature","geometry":{"type":"Point","coordinates":[5.848503589630127,51.9190673828125]},"properties":{"type":"pakketpunt","locatieNaam":"Shoeby Elst","straatNaam":"Dorpsstraat","straatNr":"23","vervoerder":"DHL","puntType":"parcelShop","bezettingsgraad":50,"latitude":51.9190673828125,"longitude":5.848503589630127,"canPickup":true,"canDropoff":true,"openingstijden":{"ma":"12:00 - 17:00","di":"09:30 - 17:00","wo":"09:30 - 17:00","do":"09:30 - 17:00","vr":"09:30 - 17:00","za":"09:30 - 17:00","zo":"gesloten"}}},{"type":"Feature","geometry":{"type":"Point","coordinates":[5.859984572007497,51.91633033720345]},"properties":{"type":"pakketpunt","locatieNaam":"Pakketautomaat GAMMA Elst","straatNaam":"Industrieweg Oost","straatNr":"2","vervoerder":"DHL","puntType":"packStation","bezettingsgraad":50,"latitude":51.91633033720345,"longitude":5.859984572007497,"canPickup":true,"canDropoff":true,"openingstijden":{"ma":"09:00 - 21:00","di":"09:00 - 21:00","wo":"09:00 - 21:00","do":"09:00 - 21:00","vr":"09:00 - 21:00","za":"09:00 - 18:00","zo":"12:00 - 17:00"}}},{"type":"Feature","geometry":{"type":"Point","coordinates":[5.861772109653704,51.91682353903894]},"properties":{"type":"pakketpunt","locatieNaam":"DeBuren Locker 24-7 Shell Aamsestr","straatNaam":"Nieuwe Aamsestraat","straatNr":"32","vervoerder":"DHL","puntType":"packStation","bezettingsgraad":50,"latitude":51.91682353903894,"longitude":5.861772109653704,"canPickup":true,"canDropoff":true,"openingstijden":{"ma":"00:00 - 23:59","di":"00:00 - 23:59","wo":"00:00 - 23:59","do":"00:00 - 23:59","vr":"00:00 - 23:59","za":"00:00 - 23:59","zo":"00:00 - 23:59"}}},{"type":"Feature","geometry":{"type":"Point","coordinates":[5.8336039,51.8853156]},"properties":{"type":"pakketpunt","locatieNaam":"Pakketautomaat Lidl Oosterhout Gld","straatNaam":"Stationsstraat","straatNr":"19","vervoerder":"DHL","puntType":"packStation","bezettingsgraad":50,"latitude":51.8853156,"longitude":5.8336039,"canPickup":true,"canDropoff":true,"openingstijden":{"ma":"08:00 - 21:00","di":"08:00 - 21:00","wo":"08:00 - 21:00","do":"08:00 - 22:00","vr":"08:00 - 22:00","za":"07:30 - 21:00","zo":"10:00 - 21:00"}}},{"type":"Feature","geometry":{"type":"Point","coordinates":[5.863139,51.906568]},"properties":{"type":"pakketpunt","locatieNaam":"Pakketwinkel B&B Transport","straatNaam":"Bemmelseweg","straatNr":"67","vervoerder":"DHL","puntType":"parcelShop","bezettingsgraad":50,"latitude":51.906568,"longitude":5.863139,"canPickup":true,"canDropoff":true,"openingstijden":{"ma":"08:00 - 17:30","di":"08:00 - 17:30","wo":"08:00 - 17:30","do":"08:00 - 17:30","vr":"08:00 - 17:30","za":"gesloten","zo":"gesloten"}}},{"type":"Feature","geometry":{"type":"Point","coordinates":[5.7123,51.93026]},"properties":{"type":"pakketpunt","locatieNaam":"Dierenspeciaalzaak Jari","straatNaam":"BEATRIXPLEIN","straatNr":"5","vervoerder":"DPD","puntType":"pickup_point","bezettingsgraad":50,"latitude":51.93026,"longitude":5.7123,"canPickup":true,"canDropoff":true,"openingstijden":{"ma":"13:30 - 17:30","di":"09:00 - 17:30","wo":"09:00 - 17:30","do":"09:00 - 17:30","vr":"09:00 - 17:30","za":"09:00 - 17:00","zo":"gesloten"}}},{"type":"Feature","geometry":{"type":"Point","coordinates":[5.866028,51.905918]},"properties":{"type":"pakketpunt","locatieNaam":"Barthen & Barthen Transport","straatNaam":"BEMMELSEWEG","straatNr":"67","vervoerder":"DPD","puntType":"pickup_point","bezettingsgraad":50,"latitude":51.905918,"longitude":5.866028,"canPickup":true,"canDropoff":true,"openingstijden":{"ma":"08:00 - 11:30, 13:30 - 17:30","di":"08:00 - 11:30, 13:30 - 17:30","wo":"08:00 - 11:30, 13:30 - 17:30","do":"08:00 - 11:30, 13:30 - 17:30","vr":"08:00 - 11:30, 13:30 - 17:30","za":"gesloten","zo":"gesloten"}}},{"type":"Feature","geometry":{"type":"Point","coordinates":[5.8133239746,51.9162940979]},"properties":{"type":"pakketpunt","locatieNaam":"Business Point - Autobedrijf Jos va","straatNaam":"VALBURGSEWEG","straatNr":"102","vervoerder":"DPD","puntType":"pickup_point","bezettingsgraad":50,"latitude":51.9162940979,"longitude":5.8133239746,"canPickup":true,"canDropoff":true,"openingstijden":{"ma":"09:00 - 18:00","di":"09:00 - 18:00","wo":"09:00 - 19:00","do":"09:00 - 18:00","vr":"09:00 - 18:00","za":"09:00 - 15:00","zo":"gesloten"}}},{"type":"Feature","geometry":{"type":"Point","coordinates":[5.7562958,51.9602136]},"properties":{"type":"pakketpunt","locatieNaam":"Huiskamer van Heteren","straatNaam":"KWADRANT","straatNr":"2","vervoerder":"DPD","puntType":"pickup_point","bezettingsgraad":50,"latitude":51.9602136,"longitude":5.7562958,"canPickup":true,"canDropoff":true,"openingstijden":{"ma":"gesloten","di":"10:00 - 17:30","wo":"10:00 - 17:30","do":"10:00 - 17:30","vr":"10:00 - 17:30","za":"11:00 - 15:00","zo":"gesloten"}}},{"type":"Feature","geometry":{"type":"Point","coordinates":[5.84284,51.91498]},"properties":{"type":"pakketpunt","locatieNaam":"Pakketautomaat Shell Lange Dreef","straatNaam":"LANGE DREEF","straatNr":"1A","vervoerder":"DPD","puntType":"dpd_box","bezettingsgraad":50,"latitude":51.91498,"longitude":5.84284,"canPickup":true,"canDropoff":true,"openingstijden":{"ma":"00:00 - 23:59","di":"00:00 - 23:59","wo":"00:00 - 23:59","do":"00:00 - 23:59","vr":"00:00 - 23:59","za":"00:00 - 23:59","zo":"00:00 - 23:59"}}},{"type":"Feature","geometry":{"type":"Point","coordinates":[5.8618522,51.9162441]},"properties":{"type":"pakketpunt","locatieNaam":"Pakketautomaat Shell Nieuwe Aamsest","straatNaam":"NIEUWE AAMSESTRAAT","straatNr":"32 A","vervoerder":"DPD","puntType":"dpd_box","bezettingsgraad":50,"latitude":51.9162441,"longitude":5.8618522,"canPickup":true,"canDropoff":true,"openingstijden":{"ma":"00:00 - 23:59","di":"00:00 - 23:59","wo":"00:00 - 23:59","do":"00:00 - 23:59","vr":"00:00 - 23:59","za":"00:00 - 23:59","zo":"00:00 - 23:59"}}},{"type":"Feature","geometry":{"type":"Point","coordinates":[5.7181798,51.9141528]},"properties":{"type":"pakketpunt","locatieNaam":"Pakketautomaat De Schalm Wanraaij","straatNaam":"WANRAAIJ","straatNr":"4","vervoerder":"DPD","puntType":"dpd_box","bezettingsgraad":50,"latitude":51.9141528,"longitude":5.7181798,"canPickup":true,"canDropoff":true,"openingstijden":{"ma":"00:01 - 23:59","di":"00:01 - 23:59","wo":"00:01 - 23:59","do":"00:01 - 23:59","vr":"00:01 - 23:59","za":"00:01 - 23:59","zo":"00:01 - 23:59"}}},{"type":"Feature","geometry":{"type":"Point","coordinates":[5.791952394,51.91078699]},"properties":{"type":"pakketpunt","locatieNaam":"Supermarkt Valburg","straatNaam":"Tielsestraat","straatNr":"35","vervoerder":"PostNL","puntType":"servicepunt","bezettingsgraad":50,"latitude":51.91078699,"longitude":5.791952394,"canPickup":true,"canDropoff":true,"openingstijden":"08:30 - 18:00 (Na 18:00 open; Zaterdag open)"}},{"type":"Feature","geometry":{"type":"Point","coordinates":[5.73728388830518,51.9096144061904]},"properties":{"type":"pakketpunt","locatieNaam":"Pakketautomaat","straatNaam":"Het Dorpsplein","straatNr":"8PBA","vervoerder":"PostNL","puntType":"automaat","bezettingsgraad":50,"latitude":51.9096144061904,"longitude":5.73728388830518,"canPickup":true,"canDropoff":true,"openingstijden":"00:00 - 23:59"}},{"type":"Feature","geometry":{"type":"Point","coordinates":[5.721688061,51.92103907]},"properties":{"type":"pakketpunt","locatieNaam":"Mowrobotics Specialist","straatNaam":"Sint Walburg","straatNr":"28","vervoerder":"PostNL","puntType":"servicepunt","bezettingsgraad":50,"latitude":51.92103907,"longitude":5.721688061,"canPickup":true,"canDropoff":true,"openingstijden":"08:30 - 17:30"}},{"type":"Feature","geometry":{"type":"Point","coordinates":[5.7567371832391,51.9583343901682]},"properties":{"type":"pakketpunt","locatieNaam":"DA  Readshop Heteren","straatNaam":"Flessestraat","straatNr":"36","vervoerder":"PostNL","puntType":"servicepunt","bezettingsgraad":50,"latitude":51.9583343901682,"longitude":5.7567371832391,"canPickup":true,"canDropoff":true,"openingstijden":"09:00 - 17:00 (Zaterdag open)"}},{"type":"Feature","geometry":{"type":"Point","coordinates":[5.712346073,51.92975699]},"properties":{"type":"pakketpunt","locatieNaam":"Primera Zetten","straatNaam":"Hoofdstraat","straatNr":"34","vervoerder":"PostNL","puntType":"servicepunt","bezettingsgraad":50,"latitude":51.92975699,"longitude":5.712346073,"canPickup":true,"canDropoff":true,"openingstijden":"09:00 - 18:00 (Na 18:00 open; Zaterdag open)"}},{"type":"Feature","geometry":{"type":"Point","coordinates":[5.75741181501782,51.958988411989]},"properties":{"type":"pakketpunt","locatieNaam":"Pakketautomaat","straatNaam":"Beemdhof","straatNr":"38PBA","vervoerder":"PostNL","puntType":"automaat","bezettingsgraad":50,"latitude":51.958988411989,"longitude":5.75741181501782,"canPickup":true,"canDropoff":true,"openingstijden":"00:00 - 23:59"}},{"type":"Feature","geometry":{"type":"Point","coordinates":[5.838937097,51.91933442]},"properties":{"type":"pakketpunt","locatieNaam":"Pakketautomaat","straatNaam":"Valburgseweg","straatNr":"20PBA","vervoerder":"PostNL","puntType":"automaat","bezettingsgraad":50,"latitude":51.91933442,"longitude":5.838937097,"canPickup":true,"canDropoff":true,"openingstijden":"08:00 - 20:00"}},{"type":"Feature","geometry":{"type":"Point","coordinates":[5.71312796491575,51.9493403083607]},"properties":{"type":"pakketpunt","locatieNaam":"Pakketautomaat","straatNaam":"Bredeweg","straatNr":"12PBA","vervoerder":"PostNL","puntType":"automaat","bezettingsgraad":50,"latitude":51.9493403083607,"longitude":5.71312796491575,"canPickup":true,"canDropoff":true,"openingstijden":"00:00 - 23:59"}},{"type":"Feature","geometry":{"type":"Point","coordinates":[5.813370636,51.96094706]},"properties":{"type":"pakketpunt","locatieNaam":"Albert Heijn","straatNaam":"Polenplein","straatNr":"24A","vervoerder":"PostNL","puntType":"servicepunt","bezettingsgraad":50,"latitude":51.96094706,"longitude":5.813370636,"canPickup":true,"canDropoff":true,"openingstijden":"08:00 - 20:00 (Na 18:00 open; Zaterdag open; Zondag open)"}},{"type":"Feature","geometry":{"type":"Point","coordinates":[5.84755579,51.91922007]},"properties":{"type":"pakketpunt","locatieNaam":"Primera Elst","straatNaam":"Dorpsstraat","straatNr":"32","vervoerder":"PostNL","puntType":"servicepunt","bezettingsgraad":50,"latitude":51.91922007,"longitude":5.84755579,"canPickup":true,"canDropoff":true,"openingstijden":"08:00 - 18:00 (Na 18:00 open; Zaterdag open)"}},{"type":"Feature","geometry":{"type":"Point","coordinates":[5.860122018,51.91575457]},"properties":{"type":"pakketpunt","locatieNaam":"Pakket- en briefautomaat","straatNaam":"Industrieweg Oost","straatNr":"2PBA","vervoerder":"PostNL","puntType":"automaat","bezettingsgraad":50,"latitude":51.91575457,"longitude":5.860122018,"canPickup":true,"canDropoff":true,"openingstijden":"09:00 - 21:00"}},{"type":"Feature","geometry":{"type":"Point","coordinates":[5.860122018,51.91575457]},"properties":{"type":"pakketpunt","locatieNaam":"GAMMA Elst","straatNaam":"Industrieweg Oost","straatNr":"2C","vervoerder":"PostNL","puntType":"servicepunt","bezettingsgraad":50,"latitude":51.91575457,"longitude":5.860122018,"canPickup":true,"canDropoff":true,"openingstijden":"09:00 - 21:00"}},{"type":"Feature","geometry":{"type":"Point","coordinates":[5.86317634921918,51.906340375929]},"properties":{"type":"pakketpunt","locatieNaam":"Barthen & Barthen Transport B.V.","straatNaam":"Bemmelseweg","straatNr":"67A","vervoerder":"PostNL","puntType":"servicepunt","bezettingsgraad":50,"latitude":51.906340375929,"longitude":5.86317634921918,"canPickup":true,"canDropoff":true,"openingstijden":"08:00 - 11:30, 13:30 - 17:30"}},{"type":"Feature","geometry":{"type":"Point","coordinates":[5.871956654,51.91336036]},"properties":{"type":"pakketpunt","locatieNaam":"Intratuin Elst","straatNaam":"Nieuwe Aamsestraat","straatNr":"94","vervoerder":"PostNL","puntType":"servicepunt","bezettingsgraad":50,"latitude":51.91336036,"longitude":5.871956654,"canPickup":true,"canDropoff":true,"openingstijden":"09:30 - 18:00"}},{"type":"Feature","geometry":{"type":"Point","coordinates":[5.81481623,51.91702881]},"properties":{"type":"pakketpunt","locatieNaam":"VOF Autobedrijf Jos van de Kuilen","straatNaam":"Valburgseweg 102","straatNr":"","vervoerder":"VintedGo","puntType":"parcel_shop","bezettingsgraad":50,"latitude":51.91702881,"longitude":5.81481623,"canPickup":true,"canDropoff":true,"openingstijden":null}},{"type":"Feature","geometry":{"type":"Point","coordinates":[5.71297,51.9302864]},"properties":{"type":"pakketpunt","locatieNaam":"Mobielpunt","straatNaam":"Beatrixplein 19","straatNr":"","vervoerder":"VintedGo","puntType":"parcel_shop","bezettingsgraad":50,"latitude":51.9302864,"longitude":5.71297,"canPickup":true,"canDropoff":true,"openingstijden":null}},{"type":"Feature","geometry":{"type":"Point","coordinates":[5.7247095,51.9109801]},"properties":{"type":"pakketpunt","locatieNaam":"Smartwheels","straatNaam":"Expeditieweg 8F","straatNr":"","vervoerder":"VintedGo","puntType":"parcel_shop","bezettingsgraad":50,"latitude":51.9109801,"longitude":5.7247095,"canPickup":true,"canDropoff":true,"openingstijden":null}},{"type":"Feature","geometry":{"type":"Point","coordinates":[5.8448105,51.9244411]},"properties":{"type":"pakketpunt","locatieNaam":"Eindelijk Tamara Damesmode","straatNaam":"Grote Molenstraat 73","straatNr":"","vervoerder":"VintedGo","puntType":"parcel_shop","bezettingsgraad":50,"latitude":51.9244411,"longitude":5.8448105,"canPickup":true,"canDropoff":true,"openingstijden":null}},{"type":"Feature","geometry":{"type":"Point","coordinates":[5.86012201,51.9157545]},"properties":{"type":"pakketpunt","locatieNaam":"Pakketautomaat","straatNaam":"Industrieweg Oost","straatNr":"2","vervoerder":"GLS","puntType":"locker","bezettingsgraad":50,"latitude":51.9157545,"longitude":5.86012201,"canPickup":true,"canDropoff":true,"openingstijden":{"ma":"09:00 - 21:00","di":"09:00 - 21:00","wo":"09:00 - 21:00","do":"09:00 - 21:00","vr":"09:00 - 21:00","za":"09:00 - 18:00","zo":"12:00 - 17:00"}}},{"type":"Feature","geometry":{"type":"Point","coordinates":[5.83893709,51.9193344]},"properties":{"type":"pakketpunt","locatieNaam":"Pakketautomaat","straatNaam":"Valburgseweg","straatNr":"20","vervoerder":"GLS","puntType":"locker","bezettingsgraad":50,"latitude":51.9193344,"longitude":5.83893709,"canPickup":true,"canDropoff":true,"openingstijden":{"ma":"08:00 - 20:00","di":"08:00 - 20:00","wo":"08:00 - 20:00","do":"08:00 - 20:00","vr":"08:00 - 20:00","za":"08:00 - 20:00","zo":"00:00 - 00:00"}}},{"type":"Feature","geometry":{"type":"Point","coordinates":[5.8147625,51.9171006]},"properties":{"type":"pakketpunt","locatieNaam":"Autobedrijf J. van de Kuilen","straatNaam":"Valburgseweg","straatNr":"102","vervoerder":"GLS","puntType":"parcel_shop","bezettingsgraad":50,"latitude":51.9171006,"longitude":5.8147625,"canPickup":true,"canDropoff":true,"openingstijden":{"ma":"09:00 - 18:00","di":"09:00 - 18:00","wo":"09:00 - 18:00","do":"09:00 - 18:00","vr":"09:00 - 18:00","za":"09:00 - 15:00","zo":"00:00 - 00:00"}}},{"type":"Feature","geometry":{"type":"Point","coordinates":[5.75741181,51.9589884]},"properties":{"type":"pakketpunt","locatieNaam":"Pakketautomaat","straatNaam":"Beemdhof","straatNr":"38","vervoerder":"GLS","puntType":"locker","bezettingsgraad":50,"latitude":51.9589884,"longitude":5.75741181,"canPickup":true,"canDropoff":true,"openingstijden":{"ma":"00:00 - 23:59","di":"00:00 - 23:59","wo":"00:00 - 23:59","do":"00:00 - 23:59","vr":"00:00 - 23:59","za":"00:00 - 23:59","zo":"00:00 - 23:59"}}},{"type":"Feature","geometry":{"type":"Point","coordinates":[5.71884856,51.92656754]},"properties":{"type":"pakketpunt","locatieNaam":"ViaTim en Alessandro","straatNaam":"Sterappel","straatNr":"2","vervoerder":"ViaTim","puntType":"servicepunt","bezettingsgraad":50,"latitude":51.92656754,"longitude":5.71884856,"canPickup":true,"canDropoff":true,"openingstijden":{"ma":"gesloten","di":"17:00 - 21:00","wo":"17:00 - 21:00","do":"17:00 - 21:00","vr":"gesloten","za":"15:00 - 19:00","zo":"gesloten"}}},{"type":"Feature","geometry":{"type":"Point","coordinates":[5.72490939,51.91109482]},"properties":{"type":"pakketpunt","locatieNaam":"ViaTim en Smartwheels","straatNaam":"Expeditieweg","straatNr":"8f","vervoerder":"ViaTim","puntType":"servicepunt","bezettingsgraad":50,"latitude":51.91109482,"longitude":5.72490939,"canPickup":true,"canDropoff":true,"openingstijden":{"ma":"09:30 - 17:00","di":"09:30 - 17:00","wo":"09:30 - 17:00","do":"09:30 - 17:00","vr":"09:30 - 17:00","za":"11:00 - 16:00","zo":"gesloten"}}},{"type":"Feature","geometry":{"type":"Point","coordinates":[5.711482,51.931362]},"properties":{"type":"pakketpunt","locatieNaam":"FedEx OnSite","straatNaam":"HOOFDSTRAAT 70","straatNr":"","vervoerder":"FedEx","puntType":"servicepunt","bezettingsgraad":50,"latitude":51.931362,"longitude":5.711482,"canPickup":true,"canDropoff":true,"openingstijden":{"ma":"gesloten","di":"09:00 - 17:30","wo":"09:00 - 17:30","do":"09:00 - 17:30","vr":"09:00 - 17:30","za":"09:00 - 17:00","zo":"gesloten"}}},{"type":"Feature","geometry":{"type":"Point","coordinates":[5.737284,51.909614]},"properties":{"type":"pakketpunt","locatieNaam":"FedEx Ship&Get","straatNaam":"Het Dorpsplein 8 PBA","straatNr":"","vervoerder":"FedEx","puntType":"servicepunt","bezettingsgraad":50,"latitude":51.909614,"longitude":5.737284,"canPickup":true,"canDropoff":true,"openingstijden":{"ma":"00:00 - 23:59","di":"00:00 - 23:59","wo":"00:00 - 23:59","do":"00:00 - 23:59","vr":"00:00 - 23:59","za":"00:00 - 23:59","zo":"00:00 - 23:59"}}},{"type":"Feature","geometry":{"type":"Point","coordinates":[5.757414055522534,51.95894249104224]},"properties":{"type":"pakketpunt","locatieNaam":"FedEx Ship&Get","straatNaam":"Beemdhof 38 PBA","straatNr":"","vervoerder":"FedEx","puntType":"servicepunt","bezettingsgraad":50,"latitude":51.95894249104224,"longitude":5.757414055522534,"canPickup":true,"canDropoff":true,"openingstijden":{"ma":"00:00 - 23:59","di":"00:00 - 23:59","wo":"00:00 - 23:59","do":"00:00 - 23:59","vr":"00:00 - 23:59","za":"00:00 - 23:59","zo":"00:00 - 23:59"}}},{"type":"Feature","geometry":{"type":"Point","coordinates":[5.814763,51.917101]},"properties":{"type":"pakketpunt","locatieNaam":"FedEx OnSite","straatNaam":"VALBURGSEWEG 102","straatNr":"","vervoerder":"FedEx","puntType":"servicepunt","bezettingsgraad":50,"latitude":51.917101,"longitude":5.814763,"canPickup":true,"canDropoff":true,"openingstijden":{"ma":"09:00 - 18:00","di":"09:00 - 18:00","wo":"09:00 - 19:00","do":"09:00 - 18:00","vr":"09:00 - 18:00","za":"09:00 - 15:00","zo":"gesloten"}}},{"type":"Feature","geometry":{"type":"Point","coordinates":[5.838975235819817,51.91932155340167]},"properties":{"type":"pakketpunt","locatieNaam":"FedEx Ship&Get","straatNaam":"Valburgseweg 20 PBA","straatNr":"","vervoerder":"FedEx","puntType":"servicepunt","bezettingsgraad":50,"latitude":51.91932155340167,"longitude":5.838975235819817,"canPickup":true,"canDropoff":true,"openingstijden":{"ma":"08:00 - 20:00","di":"08:00 - 20:00","wo":"08:00 - 20:00","do":"08:00 - 20:00","vr":"08:00 - 20:00","za":"08:00 - 20:00","zo":"gesloten"}}},{"type":"Feature","geometry":{"type":"Point","coordinates":[5.869781,51.913122]},"properties":{"type":"pakketpunt","locatieNaam":"FedEx Station","straatNaam":"Nijverheidsweg 20","straatNr":"","vervoerder":"FedEx","puntType":"servicepunt","bezettingsgraad":50,"latitude":51.913122,"longitude":5.869781,"canPickup":true,"canDropoff":true,"openingstijden":{"ma":"10:00 - 18:00","di":"10:00 - 18:00","wo":"10:00 - 18:00","do":"10:00 - 18:00","vr":"10:00 - 18:00","za":"gesloten","zo":"gesloten"}}},{"type":"Feature","geometry":{"type":"Point","coordinates":[5.81476,51.9171]},"properties":{"type":"pakketpunt","locatieNaam":"VOF AUTOBEDRIJF JOS VAN DE KUILEN","straatNaam":"Valburgseweg 102","straatNr":"","vervoerder":"InPost","puntType":"servicepunt","bezettingsgraad":50,"latitude":51.9171,"longitude":5.81476,"canPickup":true,"canDropoff":true,"openingstijden":null}},{"type":"Feature","geometry":{"type":"Point","coordinates":[5.71148,51.93136]},"properties":{"type":"pakketpunt","locatieNaam":"NINI ZETTEN","straatNaam":"Hoofdstraat 70","straatNr":"","vervoerder":"InPost","puntType":"servicepunt","bezettingsgraad":50,"latitude":51.93136,"longitude":5.71148,"canPickup":true,"canDropoff":true,"openingstijden":null}},{"type":"Feature","geometry":{"type":"Point","coordinates":[5.72471,51.91098]},"properties":{"type":"pakketpunt","locatieNaam":"SMARTWHEELS","straatNaam":"Expeditieweg 8F","straatNr":"","vervoerder":"InPost","puntType":"servicepunt","bezettingsgraad":50,"latitude":51.91098,"longitude":5.72471,"canPickup":true,"canDropoff":true,"openingstijden":null}},{"type":"Feature","geometry":{"type":"Polygon","coordinates":[[[5.660351,51.929612],[5.660178,51.929798],[5.660238,51.929815],[5.660241,51.929817],[5.660344,51.929847],[5.660473,51.929882],[5.660452,51.930022],[5.660433,51.930152],[5.66035,51.930713],[5.660232,51.931571],[5.66023,51.931581],[5.660139,51.932368],[5.660096,51.932726],[5.660044,51.933068],[5.660018,51.933311],[5.659951,51.933576],[5.659948,51.933583],[5.659983,51.933596],[5.660016,51.933602],[5.660025,51.933607],[5.660036,51.93361],[5.660096,51.933623],[5.660287,51.933661],[5.660345,51.933735],[5.660482,51.933883],[5.660473,51.933912],[5.660372,51.934259],[5.660254,51.934647],[5.660254,51.934648],[5.660147,51.935053],[5.660052,51.93542],[5.65993,51.935885],[5.659734,51.936634],[5.659619,51.937082],[5.660083,51.937184],[5.660548,51.937297],[5.66117,51.937452],[5.661806,51.937594],[5.662516,51.937745],[5.662965,51.937841],[5.663499,51.937956],[5.663698,51.937998],[5.664333,51.938141],[5.665488,51.938401],[5.666204,51.938561],[5.666932,51.938719],[5.667759,51.938892],[5.667754,51.938897],[5.667749,51.938904],[5.667741,51.938915],[5.667715,51.938908],[5.66754,51.939124],[5.66742,51.93927],[5.667211,51.939532],[5.667124,51.939642],[5.666867,51.939962],[5.666603,51.940298],[5.666302,51.940672],[5.66608,51.940951],[5.666055,51.940983],[5.665857,51.941235],[5.665723,51.941405],[5.665721,51.941402],[5.665293,51.941284],[5.665064,51.941221],[5.664819,51.941156],[5.663516,51.940812],[5.663333,51.940764],[5.663138,51.940712],[5.663082,51.940791],[5.663019,51.94088],[5.662964,51.940961],[5.662915,51.941036],[5.662864,51.941109],[5.6628,51.941202],[5.662737,51.941288],[5.66267,51.941383],[5.662611,51.941467],[5.662556,51.941542],[5.662501,51.941622],[5.662432,51.941724],[5.662369,51.941817],[5.662306,51.94191],[5.662246,51.941996],[5.662185,51.942082],[5.66213,51.94216],[5.662068,51.94225],[5.662004,51.942341],[5.661944,51.942431],[5.661907,51.942484],[5.661871,51.94254],[5.661854,51.942568],[5.66185,51.942575],[5.661847,51.942578],[5.661844,51.942581],[5.66184,51.942583],[5.661836,51.942585],[5.66182,51.942589],[5.661797,51.942595],[5.661756,51.942598],[5.661846,51.942627],[5.661837,51.94264],[5.661784,51.942721],[5.661781,51.942726],[5.661756,51.942756],[5.661753,51.94276],[5.661754,51.942761],[5.661746,51.94277],[5.661493,51.943121],[5.661341,51.943335],[5.661322,51.943362],[5.66129,51.943405],[5.661176,51.943563],[5.661144,51.943607],[5.66038,51.943346],[5.660284,51.943313],[5.660233,51.943296],[5.659838,51.94316],[5.659604,51.943082],[5.659478,51.943039],[5.659005,51.942877],[5.658543,51.942724],[5.65782,51.942506],[5.657067,51.942268],[5.656791,51.942188],[5.656734,51.94217],[5.656686,51.942156],[5.65667,51.942151],[5.656581,51.942124],[5.65571,51.941848],[5.65495,51.941597],[5.654724,51.941522],[5.654534,51.941467],[5.654345,51.941411],[5.654327,51.941437],[5.654324,51.941442],[5.654185,51.94164],[5.653913,51.94201],[5.65385,51.942097],[5.653673,51.942346],[5.653551,51.942526],[5.653532,51.942553],[5.653513,51.942583],[5.653459,51.942662],[5.653392,51.94276],[5.653383,51.942752],[5.653345,51.94281],[5.653319,51.94285],[5.653311,51.942861],[5.653298,51.942878],[5.65328,51.942901],[5.653209,51.942994],[5.653192,51.943015],[5.653183,51.943026],[5.653156,51.94298],[5.653077,51.942894],[5.653001,51.942811],[5.65287,51.942731],[5.652728,51.942684],[5.652608,51.942651],[5.652556,51.942639],[5.652471,51.942628],[5.652393,51.942625],[5.652205,51.942633],[5.652023,51.942639],[5.65192,51.94263],[5.651918,51.942629],[5.651802,51.942629],[5.651782,51.942625],[5.651662,51.942585],[5.65155,51.942538],[5.651364,51.942444],[5.651179,51.942381],[5.650938,51.942285],[5.650893,51.942275],[5.650643,51.942269],[5.650641,51.942268],[5.650634,51.942267],[5.650627,51.942265],[5.650619,51.942263],[5.650613,51.94226],[5.650606,51.942258],[5.6506,51.942254],[5.650284,51.941998],[5.650231,51.941963],[5.650143,51.941922],[5.64973,51.941732],[5.649476,51.941616],[5.64944,51.941599],[5.649305,51.94151],[5.649246,51.94146],[5.649221,51.941432],[5.649174,51.941404],[5.648529,51.941052],[5.648496,51.941037],[5.648222,51.940923],[5.647796,51.940742],[5.647639,51.940664],[5.647461,51.940578],[5.6473,51.940487],[5.647212,51.940442],[5.64703,51.940333],[5.647029,51.940332],[5.647026,51.94033],[5.647023,51.940329],[5.64702,51.940327],[5.647016,51.940326],[5.647012,51.940326],[5.647008,51.940325],[5.647004,51.940325],[5.647,51.940326],[5.646996,51.940326],[5.646992,51.940328],[5.646989,51.940329],[5.646986,51.940331],[5.646983,51.940332],[5.646981,51.940335],[5.646978,51.940339],[5.646947,51.940382],[5.646947,51.940382],[5.646823,51.940551],[5.646593,51.94088],[5.646554,51.940939],[5.646472,51.941013],[5.646346,51.941061],[5.646344,51.941063],[5.646339,51.941067],[5.646335,51.941071],[5.646331,51.941076],[5.646328,51.941081],[5.646325,51.941086],[5.646323,51.941091],[5.646437,51.941279],[5.646556,51.9415],[5.646653,51.941753],[5.646804,51.942148],[5.646843,51.942286],[5.646895,51.942463],[5.646948,51.942548],[5.647006,51.942638],[5.647041,51.9427],[5.647082,51.942779],[5.647125,51.942859],[5.647223,51.943129],[5.647338,51.943444],[5.647382,51.943549],[5.647405,51.943643],[5.647411,51.943664],[5.647439,51.943769],[5.647485,51.943932],[5.647514,51.94404],[5.647537,51.944164],[5.647557,51.944283],[5.647584,51.944437],[5.647599,51.944569],[5.647607,51.944624],[5.647646,51.944641],[5.647653,51.944644],[5.647659,51.944646],[5.64767,51.944646],[5.647681,51.944644],[5.647691,51.944642],[5.647709,51.944637],[5.647759,51.94462],[5.64808,51.944517],[5.648099,51.94451],[5.6482,51.94448],[5.648247,51.944465],[5.648259,51.944462],[5.648265,51.944462],[5.648271,51.944464],[5.648278,51.944466],[5.648284,51.944469],[5.648284,51.94447],[5.648292,51.94448],[5.64832,51.94452],[5.648334,51.944541],[5.648364,51.944585],[5.648417,51.944663],[5.648448,51.944722],[5.64845,51.944727],[5.648475,51.944771],[5.648497,51.94481],[5.648521,51.944849],[5.648548,51.944892],[5.648562,51.94492],[5.648619,51.945025],[5.648658,51.945121],[5.648692,51.945199],[5.648722,51.945298],[5.648722,51.945301],[5.64879,51.945482],[5.648795,51.945488],[5.648801,51.945494],[5.648808,51.945499],[5.648815,51.945505],[5.648822,51.94551],[5.64883,51.945515],[5.648836,51.945518],[5.648844,51.945523],[5.648853,51.945527],[5.648862,51.945531],[5.648872,51.945534],[5.648882,51.945538],[5.649022,51.945586],[5.649084,51.945619],[5.649113,51.945642],[5.649167,51.945704],[5.649222,51.945767],[5.649369,51.945945],[5.649437,51.946028],[5.649533,51.946154],[5.649684,51.946319],[5.649833,51.946466],[5.649946,51.946574],[5.650153,51.946767],[5.650248,51.946839],[5.650312,51.946885],[5.650344,51.946926],[5.650383,51.946993],[5.650385,51.947045],[5.650338,51.947159],[5.650314,51.947258],[5.650313,51.947309],[5.650322,51.947342],[5.65033,51.947361],[5.650365,51.947407],[5.650419,51.947453],[5.650452,51.947471],[5.650509,51.947499],[5.650551,51.947516],[5.650602,51.947537],[5.650732,51.947559],[5.65082,51.947582],[5.650936,51.947627],[5.651033,51.947656],[5.651075,51.947659],[5.651117,51.947657],[5.65117,51.947651],[5.651207,51.947654],[5.651242,51.947662],[5.65126,51.947676],[5.651289,51.947742],[5.651301,51.947769],[5.651353,51.947822],[5.651412,51.94786],[5.651507,51.947914],[5.651575,51.947953],[5.651662,51.948001],[5.651716,51.94803],[5.651718,51.948029],[5.651886,51.947949],[5.652356,51.947724],[5.653367,51.947235],[5.654288,51.946787],[5.654604,51.946638],[5.654704,51.946591],[5.654801,51.946545],[5.654804,51.946546],[5.654973,51.9467],[5.655054,51.946783],[5.655169,51.946878],[5.655512,51.947106],[5.655985,51.947417],[5.656147,51.94753],[5.656227,51.947585],[5.656227,51.947586],[5.656474,51.947753],[5.656822,51.947979],[5.657027,51.948113],[5.657062,51.948136],[5.657229,51.948248],[5.657348,51.948326],[5.657358,51.948319],[5.657441,51.948265],[5.657731,51.948408],[5.657976,51.948544],[5.658194,51.948656],[5.658275,51.948696],[5.6587,51.948902],[5.65912,51.949112],[5.659348,51.94921],[5.659659,51.949371],[5.65982,51.949459],[5.65991,51.949501],[5.659967,51.949527],[5.660652,51.949849],[5.661144,51.950093],[5.661522,51.950292],[5.661794,51.950423],[5.662172,51.950612],[5.662438,51.950744],[5.662487,51.95077],[5.662538,51.950799],[5.662861,51.950947],[5.663405,51.951272],[5.663433,51.951288],[5.663463,51.951305],[5.663581,51.951375],[5.664274,51.951784],[5.664845,51.952123],[5.66495,51.952185],[5.665125,51.952288],[5.665989,51.952799],[5.666409,51.952847],[5.666807,51.952927],[5.667606,51.953105],[5.667933,51.95318],[5.668001,51.953193],[5.668819,51.953477],[5.669249,51.953628],[5.669501,51.953733],[5.669698,51.953821],[5.669963,51.953942],[5.670424,51.954194],[5.67071,51.954343],[5.671363,51.954688],[5.672506,51.955372],[5.67338,51.955908],[5.674612,51.956683],[5.67471,51.956741],[5.674816,51.956795],[5.675328,51.957034],[5.676034,51.957364],[5.676114,51.957396],[5.676193,51.957429],[5.676273,51.957462],[5.676353,51.957494],[5.676433,51.957527],[5.676513,51.957559],[5.676593,51.957591],[5.676673,51.957623],[5.676754,51.957655],[5.676834,51.957687],[5.676915,51.957718],[5.676996,51.95775],[5.677077,51.957781],[5.677456,51.957932],[5.677965,51.958099],[5.679154,51.958484],[5.679827,51.958671],[5.68039,51.95881],[5.681349,51.95904],[5.681918,51.959159],[5.682133,51.959196],[5.683513,51.95942],[5.684563,51.959584],[5.686335,51.959847],[5.687969,51.960091],[5.688849,51.96023],[5.688896,51.960237],[5.689805,51.960366],[5.690133,51.960408],[5.691127,51.96055],[5.692154,51.960698],[5.693272,51.960883],[5.695104,51.961183],[5.69646,51.961405],[5.697507,51.961559],[5.698776,51.961736],[5.699458,51.961827],[5.70091,51.962013],[5.702465,51.962204],[5.704083,51.962392],[5.704506,51.962441],[5.706633,51.962706],[5.708593,51.96293],[5.708847,51.962961],[5.709476,51.963031],[5.710384,51.963092],[5.710996,51.963137],[5.711509,51.963123],[5.713233,51.963109],[5.71434,51.963102],[5.715003,51.963097],[5.716282,51.963167],[5.717464,51.963238],[5.718418,51.963387],[5.720074,51.963646],[5.720338,51.963687],[5.721503,51.963868],[5.72206,51.963959],[5.722606,51.964051],[5.723608,51.964225],[5.724644,51.964617],[5.725668,51.965288],[5.726569,51.965933],[5.726609,51.965961],[5.727658,51.966712],[5.727788,51.966782],[5.72845,51.967142],[5.729733,51.96763],[5.730773,51.967969],[5.731254,51.968003],[5.731635,51.96803],[5.735475,51.968891],[5.736451,51.969109],[5.73854,51.969575],[5.73882,51.969638],[5.739917,51.969874],[5.74161,51.970113],[5.743187,51.970235],[5.744892,51.970222],[5.746296,51.97002],[5.746452,51.969998],[5.747876,51.969609],[5.749108,51.969112],[5.750475,51.968517],[5.750996,51.968276],[5.751838,51.967885],[5.752091,51.967768],[5.753251,51.967218],[5.754308,51.966731],[5.754499,51.966643],[5.754767,51.966515],[5.756237,51.96588],[5.756327,51.965843],[5.757685,51.965286],[5.758428,51.964985],[5.761901,51.963531],[5.764755,51.962483],[5.764808,51.962466],[5.764913,51.962433],[5.765497,51.96225],[5.765734,51.962176],[5.767353,51.961662],[5.768461,51.96131],[5.769414,51.961008],[5.769518,51.960978],[5.770016,51.960828],[5.772151,51.960163],[5.773503,51.959803],[5.774283,51.959637],[5.774598,51.959566],[5.77498,51.959493],[5.776181,51.9593],[5.777611,51.959127],[5.778965,51.958996],[5.780018,51.958995],[5.780255,51.958995],[5.780347,51.958991],[5.780751,51.959005],[5.781181,51.959045],[5.782351,51.959154],[5.78246,51.959169],[5.783575,51.959338],[5.784953,51.959608],[5.785796,51.959825],[5.786773,51.960159],[5.787996,51.960631],[5.789575,51.961239],[5.791857,51.962115],[5.79507,51.963352],[5.798389,51.96457],[5.801439,51.965693],[5.801927,51.965873],[5.803705,51.966522],[5.804251,51.966721],[5.806788,51.967655],[5.80693,51.967709],[5.807056,51.967757],[5.807144,51.967792],[5.807759,51.968035],[5.807954,51.968122],[5.808602,51.968379],[5.809207,51.968622],[5.809274,51.968649],[5.810394,51.969107],[5.810745,51.969252],[5.81089,51.969313],[5.811507,51.969563],[5.811906,51.969716],[5.812452,51.969918],[5.813744,51.970399],[5.81434,51.970618],[5.815085,51.97088],[5.816002,51.971195],[5.816319,51.9713],[5.816827,51.971455],[5.817289,51.971596],[5.817918,51.971772],[5.818391,51.9719],[5.818659,51.971972],[5.819063,51.972079],[5.819341,51.972143],[5.819816,51.972254],[5.820211,51.972341],[5.820883,51.972485],[5.822015,51.9727],[5.822045,51.972705],[5.823193,51.972902],[5.823618,51.972974],[5.824197,51.973071],[5.82442,51.973109],[5.82543,51.973231],[5.828704,51.973531],[5.830358,51.973617],[5.83146,51.973641],[5.832123,51.973648],[5.832142,51.973648],[5.832988,51.973649],[5.833508,51.973643],[5.834505,51.973613],[5.835343,51.973559],[5.835438,51.97277],[5.835473,51.972531],[5.835476,51.972386],[5.835661,51.972155],[5.836008,51.971698],[5.836196,51.971431],[5.836156,51.971429],[5.836159,51.971384],[5.836161,51.971359],[5.836195,51.970923],[5.836196,51.970916],[5.836198,51.970887],[5.835382,51.970849],[5.835372,51.970744],[5.835368,51.9707],[5.835358,51.970592],[5.835354,51.970546],[5.835252,51.969427],[5.835177,51.96886],[5.835278,51.968727],[5.835359,51.968657],[5.835444,51.968612],[5.83553,51.968571],[5.835718,51.968514],[5.835782,51.968475],[5.835815,51.968447],[5.835846,51.968397],[5.835862,51.968111],[5.835816,51.968109],[5.835844,51.96791],[5.835845,51.967904],[5.835864,51.967763],[5.835875,51.967665],[5.835897,51.967467],[5.835924,51.967216],[5.835931,51.966984],[5.83597,51.966616],[5.835979,51.96633],[5.835953,51.966164],[5.8359,51.966005],[5.835839,51.965816],[5.835696,51.965615],[5.835604,51.965474],[5.835569,51.965403],[5.835442,51.964799],[5.835295,51.964418],[5.835181,51.964169],[5.835142,51.96409],[5.83511,51.964026],[5.835076,51.963961],[5.834815,51.96358],[5.834671,51.963358],[5.834601,51.963247],[5.834421,51.963034],[5.834228,51.962869],[5.834224,51.962865],[5.834007,51.962715],[5.833351,51.96239],[5.832939,51.962176],[5.832761,51.962083],[5.832714,51.962058],[5.832655,51.962027],[5.832372,51.96189],[5.83195,51.961728],[5.831226,51.96149],[5.831065,51.961445],[5.830561,51.961273],[5.829778,51.961022],[5.829806,51.960998],[5.829339,51.960848],[5.829371,51.960766],[5.829375,51.960756],[5.82955,51.960301],[5.830197,51.958624],[5.830938,51.958693],[5.831018,51.958697],[5.831091,51.958692],[5.831191,51.958677],[5.831271,51.958666],[5.831296,51.958657],[5.831338,51.958617],[5.831345,51.958536],[5.831338,51.958306],[5.831318,51.958031],[5.831296,51.957643],[5.831286,51.957371],[5.831315,51.956901],[5.831344,51.956474],[5.831346,51.956363],[5.831331,51.956041],[5.831304,51.955684],[5.831282,51.955548],[5.831257,51.955467],[5.831211,51.955369],[5.831136,51.955194],[5.831042,51.954999],[5.830881,51.954685],[5.830701,51.954388],[5.830507,51.954122],[5.830429,51.954031],[5.830357,51.953952],[5.830299,51.953905],[5.830167,51.953848],[5.830081,51.953853],[5.830081,51.953835],[5.830073,51.953745],[5.830097,51.953725],[5.830105,51.95371],[5.830107,51.953687],[5.830077,51.953631],[5.829992,51.953531],[5.829912,51.953432],[5.830507,51.953266],[5.830465,51.953183],[5.829763,51.951832],[5.829758,51.951822],[5.829445,51.951258],[5.829227,51.950885],[5.828771,51.95004],[5.828768,51.949999],[5.828759,51.9499],[5.828722,51.949304],[5.828718,51.949233],[5.828711,51.948989],[5.828708,51.948901],[5.828699,51.948642],[5.828697,51.948589],[5.828692,51.948504],[5.828634,51.948484],[5.828636,51.948463],[5.828646,51.948331],[5.828649,51.948297],[5.828655,51.948259],[5.828665,51.948224],[5.828691,51.948124],[5.828721,51.948068],[5.828747,51.948019],[5.82876,51.947952],[5.828771,51.947913],[5.828791,51.947845],[5.828805,51.947809],[5.828965,51.947474],[5.828983,51.947438],[5.829018,51.94737],[5.829035,51.94732],[5.829062,51.947245],[5.829084,51.947176],[5.829114,51.947099],[5.829149,51.946951],[5.829206,51.946723],[5.829231,51.946625],[5.829364,51.946638],[5.829418,51.946435],[5.829434,51.946371],[5.829446,51.946326],[5.829484,51.946177],[5.829521,51.946027],[5.829657,51.94551],[5.829724,51.945442],[5.829928,51.945237],[5.829931,51.945237],[5.829935,51.945237],[5.830558,51.945241],[5.830894,51.945244],[5.830991,51.945238],[5.831032,51.945232],[5.831086,51.945214],[5.831111,51.945201],[5.831132,51.945196],[5.831153,51.945194],[5.83132,51.945185],[5.831439,51.945182],[5.83155,51.945181],[5.831873,51.945183],[5.831909,51.945185],[5.832287,51.945184],[5.832488,51.945184],[5.832489,51.945171],[5.832879,51.945169],[5.833597,51.945176],[5.834154,51.945172],[5.834562,51.945168],[5.834735,51.94516],[5.835674,51.945166],[5.835967,51.945185],[5.836072,51.945183],[5.837172,51.945178],[5.837234,51.945177],[5.837304,51.945177],[5.837307,51.94434],[5.837307,51.944159],[5.837403,51.944157],[5.838252,51.944132],[5.838595,51.944122],[5.838641,51.944121],[5.838652,51.944148],[5.838671,51.944171],[5.838716,51.944199],[5.838762,51.944227],[5.838829,51.944266],[5.8389,51.944305],[5.838953,51.944297],[5.838959,51.944297],[5.839466,51.944243],[5.840516,51.944139],[5.842048,51.943987],[5.84224,51.943963],[5.842244,51.943971],[5.843023,51.943881],[5.844009,51.94376],[5.845508,51.943552],[5.845996,51.94348],[5.847811,51.943229],[5.84968,51.942944],[5.849781,51.943184],[5.850091,51.943861],[5.850381,51.944482],[5.850394,51.94451],[5.852373,51.944159],[5.85269,51.944102],[5.852955,51.944055],[5.853267,51.944008],[5.853559,51.943958],[5.853937,51.943904],[5.854694,51.94378],[5.855325,51.943668],[5.855558,51.943625],[5.85587,51.943574],[5.856466,51.943459],[5.857579,51.943267],[5.859127,51.943003],[5.859241,51.942973],[5.860048,51.942833],[5.860354,51.94278],[5.86081,51.942699],[5.861332,51.9426],[5.861362,51.942594],[5.861392,51.942586],[5.861631,51.942564],[5.861696,51.942549],[5.861754,51.942536],[5.861797,51.942526],[5.861935,51.942504],[5.861976,51.94251],[5.862012,51.942534],[5.862023,51.942551],[5.862082,51.942643],[5.862237,51.942887],[5.862243,51.94289],[5.863238,51.942764],[5.864253,51.942636],[5.865243,51.942513],[5.866154,51.942401],[5.866784,51.942332],[5.867279,51.94228],[5.867783,51.942242],[5.868114,51.942216],[5.8685,51.942185],[5.868781,51.942133],[5.86913,51.942071],[5.869727,51.941964],[5.869712,51.941933],[5.870452,51.941792],[5.871236,51.941643],[5.871893,51.941522],[5.872097,51.941474],[5.872419,51.941391],[5.872632,51.941336],[5.873283,51.941167],[5.873467,51.94112],[5.873754,51.941034],[5.874057,51.940964],[5.874444,51.940854],[5.874606,51.940816],[5.874634,51.940809],[5.87474,51.940777],[5.874756,51.940786],[5.874972,51.940703],[5.875197,51.94062],[5.875813,51.94038],[5.876076,51.940267],[5.87619,51.940199],[5.876266,51.940145],[5.8763,51.940114],[5.877204,51.939169],[5.877472,51.938994],[5.877519,51.938966],[5.877861,51.938834],[5.878151,51.938799],[5.878164,51.938797],[5.878593,51.938746],[5.878611,51.938744],[5.878723,51.93874],[5.878825,51.938735],[5.879213,51.938695],[5.879485,51.938648],[5.879541,51.938632],[5.87967,51.938594],[5.87977,51.938565],[5.881396,51.938247],[5.881852,51.938082],[5.88234,51.937893],[5.882638,51.93782],[5.882831,51.937767],[5.88357,51.937666],[5.883752,51.937631],[5.88377,51.937629],[5.883904,51.937614],[5.884356,51.937551],[5.88449,51.937527],[5.884641,51.937491],[5.884822,51.93744],[5.884894,51.937415],[5.885023,51.937371],[5.885338,51.937218],[5.885365,51.937205],[5.885652,51.937066],[5.886263,51.936771],[5.886923,51.936422],[5.887035,51.936475],[5.887145,51.936426],[5.887781,51.936168],[5.887973,51.936096],[5.888122,51.9361],[5.888253,51.936119],[5.889729,51.935993],[5.890542,51.935932],[5.890551,51.935931],[5.892412,51.935761],[5.892523,51.93575],[5.892674,51.935732],[5.892827,51.935703],[5.893028,51.935653],[5.893191,51.935608],[5.894424,51.935264],[5.894932,51.935129],[5.895589,51.934967],[5.896257,51.934803],[5.896829,51.934653],[5.897051,51.934594],[5.897448,51.934486],[5.897507,51.93447],[5.897919,51.934358],[5.897926,51.934356],[5.897997,51.934336],[5.898034,51.934326],[5.897578,51.933855],[5.896495,51.932737],[5.896107,51.932336],[5.895947,51.932171],[5.895814,51.932031],[5.895669,51.931873],[5.895028,51.931211],[5.894852,51.931016],[5.894756,51.93092],[5.894321,51.930491],[5.893705,51.929868],[5.89347,51.929613],[5.893277,51.929414],[5.893246,51.92938],[5.893095,51.929216],[5.892866,51.92898],[5.892097,51.928191],[5.891718,51.927759],[5.889639,51.9254],[5.889522,51.925265],[5.889531,51.925262],[5.889574,51.925244],[5.88961,51.925229],[5.889656,51.925207],[5.889687,51.925191],[5.889728,51.925168],[5.889837,51.925103],[5.890114,51.92494],[5.89041,51.924763],[5.890753,51.92456],[5.891221,51.924279],[5.891642,51.92403],[5.891954,51.923836],[5.892354,51.923598],[5.892759,51.92335],[5.893193,51.923091],[5.893639,51.922821],[5.894106,51.922545],[5.894585,51.922253],[5.895181,51.921902],[5.895594,51.921658],[5.895796,51.921535],[5.895983,51.921421],[5.896243,51.921264],[5.896749,51.920958],[5.896997,51.92081],[5.896908,51.920708],[5.896617,51.920377],[5.895963,51.919633],[5.895783,51.919429],[5.895203,51.918759],[5.894483,51.917916],[5.894002,51.917316],[5.893058,51.916186],[5.894538,51.915076],[5.894562,51.915058],[5.894555,51.915043],[5.894521,51.914974],[5.894381,51.914728],[5.894277,51.914504],[5.89406,51.913978],[5.89397,51.913736],[5.893904,51.913531],[5.893836,51.913329],[5.893715,51.912996],[5.893691,51.91293],[5.892756,51.911619],[5.892615,51.911406],[5.892036,51.91053],[5.892032,51.910521],[5.89203,51.910511],[5.892031,51.910502],[5.892033,51.910492],[5.892037,51.910485],[5.892043,51.910476],[5.892051,51.910469],[5.892061,51.910461],[5.892068,51.910457],[5.892079,51.910452],[5.89201,51.910258],[5.892012,51.910239],[5.892012,51.910236],[5.892049,51.909829],[5.892008,51.909713],[5.891556,51.908427],[5.891547,51.908337],[5.89154,51.908264],[5.891206,51.907284],[5.891199,51.907263],[5.890818,51.907284],[5.890467,51.907316],[5.890368,51.907324],[5.889782,51.907361],[5.889412,51.907389],[5.889204,51.907407],[5.889114,51.907419],[5.888965,51.907448],[5.888527,51.907582],[5.888189,51.90767],[5.887871,51.907747],[5.887677,51.907792],[5.887347,51.907861],[5.88696,51.907932],[5.886656,51.907975],[5.886572,51.90798],[5.886501,51.907984],[5.886359,51.907998],[5.886077,51.908054],[5.885985,51.908072],[5.885754,51.908105],[5.88552,51.908127],[5.885401,51.908139],[5.885173,51.908156],[5.885088,51.908161],[5.884934,51.908161],[5.884542,51.908162],[5.884402,51.908169],[5.884158,51.908179],[5.883954,51.908183],[5.8838,51.908189],[5.883613,51.908204],[5.883459,51.908212],[5.883402,51.908216],[5.883254,51.908226],[5.883103,51.908231],[5.882961,51.908231],[5.882823,51.908227],[5.882637,51.908211],[5.882218,51.908147],[5.882046,51.908133],[5.881955,51.908127],[5.881453,51.908134],[5.881048,51.908134],[5.880737,51.908106],[5.880443,51.908068],[5.880373,51.908069],[5.880373,51.908069],[5.880233,51.908073],[5.879841,51.908083],[5.879624,51.908092],[5.879311,51.908105],[5.878927,51.908116],[5.878692,51.908122],[5.878551,51.908128],[5.878465,51.908132],[5.878196,51.908147],[5.877873,51.908172],[5.877767,51.908178],[5.877712,51.908178],[5.87766,51.908171],[5.877457,51.908147],[5.877252,51.908128],[5.877206,51.908127],[5.877151,51.908127],[5.877071,51.908134],[5.876881,51.908159],[5.876798,51.908169],[5.87608,51.908253],[5.87589,51.908272],[5.873763,51.908457],[5.873761,51.908442],[5.873665,51.908452],[5.873662,51.908439],[5.873196,51.905523],[5.87325,51.905423],[5.87313,51.905419],[5.87308,51.905412],[5.873044,51.905399],[5.873023,51.90538],[5.873012,51.905357],[5.873178,51.905344],[5.873153,51.905218],[5.872984,51.905231],[5.872998,51.905205],[5.873019,51.90518],[5.87305,51.905157],[5.873086,51.905141],[5.873137,51.905127],[5.87321,51.905114],[5.873285,51.905105],[5.873279,51.905063],[5.873234,51.904751],[5.873192,51.904482],[5.873135,51.904213],[5.873089,51.904024],[5.873072,51.903948],[5.873027,51.903794],[5.872955,51.903585],[5.872817,51.903232],[5.872673,51.902903],[5.872572,51.902713],[5.872482,51.902555],[5.872451,51.902503],[5.872359,51.902346],[5.872187,51.90207],[5.872155,51.902023],[5.872142,51.902005],[5.872286,51.902008],[5.87229,51.902009],[5.875344,51.902082],[5.875421,51.902084],[5.875412,51.901962],[5.875635,51.901546],[5.875887,51.90081],[5.875887,51.900802],[5.875869,51.900023],[5.875863,51.899991],[5.875838,51.899968],[5.875343,51.899637],[5.874714,51.899225],[5.874683,51.899206],[5.874646,51.899119],[5.874667,51.89848],[5.874668,51.898476],[5.874682,51.898059],[5.874739,51.897571],[5.874293,51.897528],[5.87406,51.897502],[5.873266,51.897396],[5.872239,51.897254],[5.871274,51.897133],[5.871111,51.897144],[5.871011,51.897146],[5.870766,51.897146],[5.867831,51.897045],[5.867653,51.897044],[5.867513,51.897046],[5.867047,51.897052],[5.86665,51.897057],[5.866577,51.897058],[5.866113,51.897065],[5.865159,51.897072],[5.864805,51.897075],[5.86385,51.89709],[5.863409,51.897088],[5.863007,51.897083],[5.862544,51.897073],[5.862215,51.897065],[5.862046,51.897062],[5.858531,51.897015],[5.85821,51.897012],[5.858056,51.897008],[5.857793,51.89701],[5.856874,51.897012],[5.856878,51.896958],[5.856948,51.896954],[5.857021,51.896117],[5.857028,51.896068],[5.856998,51.896011],[5.857011,51.895929],[5.857114,51.894778],[5.857124,51.894621],[5.856668,51.894575],[5.856563,51.894565],[5.856436,51.894552],[5.853467,51.894321],[5.85278,51.89427],[5.852063,51.894239],[5.851297,51.894247],[5.849817,51.894191],[5.849764,51.894189],[5.849765,51.894179],[5.849726,51.894194],[5.848596,51.894144],[5.847371,51.894129],[5.846931,51.894121],[5.84623,51.894098],[5.845129,51.894057],[5.843784,51.893991],[5.842142,51.893915],[5.841192,51.893867],[5.840847,51.893843],[5.840656,51.893831],[5.839663,51.89376],[5.839091,51.893734],[5.838308,51.893694],[5.8383,51.893795],[5.838064,51.893782],[5.836848,51.89375],[5.836722,51.893746],[5.836681,51.893745],[5.834397,51.893689],[5.8343,51.893689],[5.831738,51.893798],[5.83026,51.893856],[5.830241,51.893857],[5.830238,51.893681],[5.83023,51.893299],[5.830219,51.892731],[5.830186,51.891776],[5.830191,51.89174],[5.830198,51.891726],[5.830236,51.891703],[5.830288,51.891684],[5.83037,51.891666],[5.830426,51.891655],[5.830964,51.891524],[5.831242,51.891447],[5.831699,51.891301],[5.831803,51.891268],[5.833964,51.890577],[5.834106,51.890513],[5.834389,51.890342],[5.834526,51.890236],[5.835496,51.88898],[5.835638,51.888756],[5.835771,51.888504],[5.83594,51.888148],[5.836028,51.887961],[5.836095,51.887799],[5.836151,51.887596],[5.836166,51.88745],[5.836166,51.887261],[5.836142,51.887031],[5.836105,51.886871],[5.836059,51.886725],[5.836001,51.886566],[5.835875,51.88616],[5.835869,51.886112],[5.835874,51.886034],[5.835877,51.885997],[5.835894,51.885918],[5.835905,51.885875],[5.835924,51.885822],[5.83593,51.885807],[5.835957,51.885754],[5.836006,51.88566],[5.836036,51.885601],[5.836066,51.885532],[5.836139,51.885345],[5.836191,51.885199],[5.836228,51.885028],[5.836414,51.884463],[5.836416,51.884433],[5.836443,51.884393],[5.836653,51.883732],[5.836674,51.883693],[5.836698,51.88368],[5.836821,51.883656],[5.83747,51.883558],[5.837574,51.883528],[5.837654,51.883497],[5.837788,51.883434],[5.837692,51.883325],[5.836923,51.882495],[5.8369,51.88247],[5.836082,51.881542],[5.835973,51.881419],[5.835964,51.881411],[5.835613,51.881086],[5.835411,51.880907],[5.8353,51.880809],[5.835172,51.880699],[5.834974,51.880514],[5.834702,51.880273],[5.834573,51.880155],[5.834572,51.880154],[5.834538,51.880108],[5.834449,51.880024],[5.834267,51.879853],[5.833444,51.879063],[5.832813,51.878435],[5.832959,51.878382],[5.835154,51.877619],[5.835152,51.877618],[5.835121,51.877575],[5.835105,51.877552],[5.835038,51.877457],[5.834847,51.877206],[5.834846,51.877204],[5.834798,51.877136],[5.834761,51.877062],[5.834695,51.876932],[5.83468,51.876902],[5.834649,51.876828],[5.834646,51.876822],[5.834635,51.876793],[5.834533,51.876626],[5.834415,51.876431],[5.834372,51.876361],[5.83431,51.876265],[5.834284,51.876225],[5.834328,51.87622],[5.834321,51.876206],[5.834274,51.876099],[5.834123,51.875757],[5.834077,51.875657],[5.83403,51.875578],[5.833898,51.875405],[5.83348,51.874887],[5.833443,51.874838],[5.833474,51.87483],[5.833123,51.874384],[5.832845,51.87403],[5.83256,51.873728],[5.832527,51.873694],[5.832694,51.873591],[5.832472,51.873288],[5.832439,51.873247],[5.832416,51.873218],[5.83203,51.872735],[5.831831,51.872487],[5.831611,51.872232],[5.831434,51.872315],[5.831465,51.872358],[5.830886,51.872394],[5.830011,51.872389],[5.829183,51.872383],[5.829127,51.872396],[5.828997,51.872395],[5.828987,51.872407],[5.828925,51.872481],[5.828897,51.872511],[5.828887,51.872526],[5.828877,51.872545],[5.828208,51.873354],[5.828204,51.873357],[5.828201,51.87336],[5.828197,51.873364],[5.828193,51.873367],[5.828189,51.87337],[5.828184,51.873373],[5.82818,51.873376],[5.828175,51.873379],[5.828171,51.873382],[5.828166,51.873384],[5.828161,51.873387],[5.828155,51.873389],[5.82815,51.873391],[5.828144,51.873394],[5.828139,51.873396],[5.828133,51.873398],[5.828127,51.873399],[5.828121,51.873401],[5.828115,51.873402],[5.828109,51.873404],[5.828103,51.873405],[5.828097,51.873406],[5.828091,51.873407],[5.828084,51.873408],[5.828078,51.873409],[5.828071,51.873409],[5.828065,51.87341],[5.828058,51.87341],[5.828052,51.87341],[5.828045,51.87341],[5.828039,51.87341],[5.827922,51.873416],[5.827908,51.873417],[5.827894,51.873417],[5.827879,51.873418],[5.827865,51.873418],[5.827851,51.873419],[5.827837,51.873419],[5.827822,51.873419],[5.827808,51.873419],[5.827794,51.873419],[5.82778,51.873418],[5.827765,51.873418],[5.827751,51.873417],[5.827737,51.873416],[5.827723,51.873415],[5.827709,51.873414],[5.827695,51.873413],[5.827681,51.873412],[5.827667,51.87341],[5.827653,51.873408],[5.827639,51.873407],[5.827625,51.873405],[5.827611,51.873403],[5.827597,51.8734],[5.827584,51.873398],[5.82757,51.873396],[5.827556,51.873393],[5.827543,51.87339],[5.827529,51.873387],[5.827423,51.873371],[5.827416,51.873371],[5.827409,51.87337],[5.827401,51.87337],[5.827394,51.87337],[5.827387,51.87337],[5.827379,51.87337],[5.827372,51.87337],[5.827365,51.87337],[5.827357,51.87337],[5.82735,51.873371],[5.827343,51.873371],[5.827336,51.873372],[5.827328,51.873373],[5.827321,51.873374],[5.827273,51.873377],[5.827254,51.873367],[5.827208,51.873347],[5.827142,51.873316],[5.827106,51.873298],[5.827077,51.87328],[5.827071,51.873275],[5.827071,51.873267],[5.827068,51.873261],[5.827062,51.873256],[5.827026,51.873231],[5.826971,51.873186],[5.826912,51.873136],[5.826891,51.873114],[5.826875,51.873095],[5.826852,51.873069],[5.82683,51.873044],[5.826807,51.873019],[5.826793,51.873006],[5.826773,51.872993],[5.826744,51.872977],[5.826685,51.872948],[5.826615,51.872916],[5.826579,51.872896],[5.82655,51.872874],[5.826534,51.872863],[5.826525,51.872857],[5.826481,51.872826],[5.82646,51.87281],[5.826447,51.872793],[5.826445,51.872779],[5.826442,51.872766],[5.826435,51.872757],[5.82642,51.872746],[5.826399,51.872732],[5.826379,51.872713],[5.826369,51.872698],[5.825993,51.872741],[5.825418,51.872808],[5.825002,51.872853],[5.824444,51.872923],[5.824079,51.87297],[5.824071,51.872743],[5.823808,51.87264],[5.823795,51.872633],[5.823597,51.872547],[5.823503,51.872507],[5.82324,51.872398],[5.822895,51.872255],[5.822011,51.87189],[5.821191,51.871561],[5.821168,51.871554],[5.820684,51.871404],[5.820185,51.871243],[5.819863,51.871142],[5.819076,51.870896],[5.819011,51.870876],[5.818624,51.87075],[5.817075,51.870265],[5.816712,51.870427],[5.816202,51.870654],[5.815847,51.870809],[5.815166,51.871054],[5.8142,51.871398],[5.813303,51.871717],[5.812497,51.872004],[5.811799,51.872251],[5.811383,51.872395],[5.810946,51.872551],[5.810529,51.872697],[5.810314,51.872773],[5.809799,51.87292],[5.809468,51.873014],[5.809157,51.873099],[5.80876,51.87321],[5.80802,51.873423],[5.807312,51.873624],[5.806495,51.873858],[5.805716,51.87408],[5.805196,51.874228],[5.804387,51.874458],[5.803511,51.874666],[5.802875,51.874814],[5.801803,51.875059],[5.801001,51.875239],[5.800613,51.875328],[5.800485,51.875356],[5.80031,51.875387],[5.800101,51.875421],[5.799914,51.87545],[5.79945,51.875517],[5.798628,51.875644],[5.798351,51.875686],[5.797997,51.875739],[5.797382,51.875832],[5.79676,51.875929],[5.796135,51.876021],[5.795506,51.876111],[5.794873,51.876198],[5.79458,51.876239],[5.794135,51.876303],[5.79366,51.87637],[5.793283,51.876424],[5.79274,51.876502],[5.792362,51.876553],[5.79174,51.876636],[5.791012,51.876729],[5.790264,51.876827],[5.789681,51.876904],[5.789345,51.876946],[5.789046,51.876982],[5.788718,51.877014],[5.788268,51.877056],[5.787328,51.877139],[5.786581,51.877207],[5.785993,51.877261],[5.785545,51.877302],[5.785119,51.877341],[5.784832,51.877364],[5.784318,51.877409],[5.783773,51.877457],[5.78329,51.877499],[5.78275,51.877544],[5.782358,51.877577],[5.781864,51.877622],[5.781504,51.877651],[5.781026,51.877693],[5.780575,51.877734],[5.780271,51.87776],[5.780011,51.877785],[5.779511,51.877844],[5.779072,51.877896],[5.778495,51.877966],[5.777985,51.87803],[5.777363,51.878106],[5.776479,51.878219],[5.775181,51.878389],[5.773357,51.878641],[5.771445,51.878943],[5.769879,51.879195],[5.76932,51.879302],[5.76841,51.879479],[5.767392,51.879675],[5.766922,51.879776],[5.765848,51.880009],[5.764674,51.880266],[5.763288,51.880593],[5.76203,51.880893],[5.761035,51.881119],[5.760796,51.881189],[5.759923,51.881446],[5.758655,51.881772],[5.758358,51.881847],[5.757783,51.881994],[5.757182,51.882148],[5.757018,51.88219],[5.75645,51.882336],[5.755962,51.882456],[5.755508,51.882568],[5.754978,51.882696],[5.75454,51.882805],[5.754264,51.882868],[5.75378,51.88298],[5.752935,51.88317],[5.752338,51.883296],[5.751792,51.88341],[5.751305,51.883504],[5.750565,51.883642],[5.749516,51.88383],[5.748717,51.88397],[5.748001,51.884093],[5.747741,51.884136],[5.747315,51.884203],[5.746927,51.884263],[5.746304,51.884351],[5.74604,51.884386],[5.745704,51.884432],[5.74529,51.884491],[5.744968,51.884538],[5.744839,51.884552],[5.744301,51.884618],[5.743681,51.884691],[5.743267,51.884738],[5.742736,51.884801],[5.742246,51.884861],[5.741732,51.884916],[5.741357,51.884952],[5.740916,51.884996],[5.740733,51.885013],[5.740104,51.88507],[5.739207,51.885153],[5.738267,51.885243],[5.737607,51.885304],[5.736418,51.885415],[5.73356,51.885766],[5.732241,51.885949],[5.730983,51.886134],[5.729308,51.886467],[5.727585,51.886832],[5.726767,51.887012],[5.726164,51.88715],[5.72366,51.887828],[5.722029,51.888294],[5.720946,51.888632],[5.720498,51.888787],[5.718265,51.889561],[5.715303,51.890658],[5.715152,51.890707],[5.714864,51.890811],[5.714649,51.890889],[5.714357,51.890991],[5.714004,51.891115],[5.713657,51.891239],[5.713356,51.891346],[5.712999,51.891471],[5.712737,51.891558],[5.712469,51.891646],[5.712124,51.891761],[5.711799,51.891863],[5.711472,51.891968],[5.711174,51.892057],[5.710519,51.892251],[5.710115,51.892369],[5.709514,51.89254],[5.709231,51.892623],[5.708963,51.892701],[5.708736,51.892765],[5.708467,51.892842],[5.708264,51.8929],[5.708002,51.892969],[5.707614,51.893065],[5.707184,51.893167],[5.706982,51.893216],[5.706659,51.893292],[5.707755,51.894079],[5.707955,51.894223],[5.708035,51.89428],[5.708559,51.894657],[5.708961,51.894946],[5.709317,51.895202],[5.709661,51.89545],[5.709789,51.895561],[5.709827,51.895594],[5.710001,51.895751],[5.709943,51.895763],[5.709925,51.895778],[5.709912,51.895802],[5.709918,51.895823],[5.709934,51.895847],[5.709964,51.895876],[5.71005,51.895941],[5.710524,51.896198],[5.710516,51.896255],[5.710535,51.896289],[5.710575,51.896326],[5.710628,51.896357],[5.71069,51.896396],[5.71074,51.896437],[5.710796,51.896472],[5.710852,51.896502],[5.710903,51.896533],[5.711022,51.89659],[5.711012,51.896724],[5.711003,51.896774],[5.710938,51.896918],[5.710829,51.897085],[5.710658,51.897261],[5.710533,51.897352],[5.710254,51.89754],[5.710061,51.897662],[5.709807,51.897779],[5.709545,51.897854],[5.709212,51.897915],[5.708925,51.897957],[5.708583,51.897979],[5.708297,51.897976],[5.707999,51.897954],[5.707681,51.897904],[5.707313,51.897834],[5.706979,51.897766],[5.706638,51.897671],[5.706491,51.897808],[5.7064,51.89792],[5.706358,51.897989],[5.706345,51.898058],[5.706353,51.898151],[5.706373,51.898323],[5.70642,51.898749],[5.706438,51.898909],[5.706509,51.899023],[5.706722,51.899327],[5.70692,51.899601],[5.707156,51.899941],[5.707462,51.900371],[5.707552,51.900498],[5.707767,51.900784],[5.708038,51.901152],[5.708068,51.901194],[5.70807,51.901196],[5.708143,51.901249],[5.708138,51.901316],[5.708136,51.901339],[5.708129,51.901372],[5.708103,51.901478],[5.708074,51.901606],[5.708038,51.901754],[5.707983,51.901929],[5.707915,51.902113],[5.707875,51.902234],[5.707868,51.902244],[5.707839,51.902316],[5.707825,51.902363],[5.707792,51.902443],[5.707756,51.902511],[5.707733,51.902532],[5.70773,51.902549],[5.70772,51.902591],[5.707719,51.902598],[5.70769,51.902631],[5.707631,51.902707],[5.707563,51.902792],[5.707562,51.902793],[5.707597,51.902851],[5.707479,51.902946],[5.7074,51.903022],[5.707352,51.903069],[5.707215,51.903201],[5.707122,51.903296],[5.707038,51.90337],[5.706947,51.903443],[5.706864,51.90351],[5.706753,51.903593],[5.706671,51.903642],[5.706569,51.903697],[5.706452,51.903753],[5.706315,51.903819],[5.706195,51.903878],[5.706087,51.903915],[5.705956,51.903945],[5.705825,51.903968],[5.705678,51.90399],[5.70552,51.904015],[5.705318,51.904036],[5.705331,51.90409],[5.705335,51.904105],[5.705404,51.904387],[5.705441,51.904511],[5.705537,51.904797],[5.705647,51.905082],[5.705725,51.905272],[5.705857,51.905599],[5.705964,51.905864],[5.706109,51.906221],[5.706139,51.906295],[5.70615,51.906318],[5.706158,51.90632],[5.706411,51.906337],[5.706397,51.906428],[5.706349,51.906761],[5.706315,51.906974],[5.706283,51.907219],[5.706245,51.907479],[5.706199,51.907814],[5.706191,51.907879],[5.706179,51.907917],[5.706163,51.907944],[5.706131,51.907989],[5.706085,51.908048],[5.706003,51.908146],[5.705938,51.908223],[5.705863,51.908289],[5.705722,51.908422],[5.705414,51.908724],[5.705398,51.90874],[5.70517,51.908967],[5.705031,51.90911],[5.704893,51.909242],[5.704794,51.909335],[5.704696,51.909428],[5.704627,51.90949],[5.704589,51.909526],[5.704546,51.909568],[5.704443,51.909657],[5.704353,51.909738],[5.704203,51.909866],[5.704058,51.909999],[5.703919,51.910119],[5.703822,51.910212],[5.703754,51.910264],[5.703713,51.910304],[5.703539,51.910458],[5.703351,51.910625],[5.703205,51.910775],[5.703061,51.91092],[5.702876,51.911116],[5.702797,51.9112],[5.702771,51.911228],[5.702544,51.911467],[5.702439,51.911597],[5.702351,51.911688],[5.702163,51.911906],[5.702014,51.912072],[5.701965,51.912126],[5.701565,51.912576],[5.701204,51.912979],[5.701118,51.913085],[5.701016,51.913197],[5.700977,51.91325],[5.700805,51.913418],[5.700727,51.91349],[5.700526,51.913654],[5.700317,51.913817],[5.699933,51.914136],[5.69979,51.914254],[5.699689,51.914317],[5.699541,51.914404],[5.699329,51.914522],[5.699226,51.914568],[5.699114,51.914612],[5.69901,51.914652],[5.698879,51.914699],[5.698524,51.91482],[5.69825,51.914907],[5.698112,51.914945],[5.697932,51.914992],[5.697669,51.915055],[5.697339,51.915135],[5.697241,51.915159],[5.697106,51.915192],[5.696915,51.915256],[5.696892,51.915265],[5.696845,51.915285],[5.696792,51.915315],[5.6967,51.915375],[5.696622,51.915432],[5.696524,51.9155],[5.696424,51.915588],[5.696344,51.915648],[5.696283,51.9157],[5.696239,51.915749],[5.696206,51.915796],[5.696179,51.915841],[5.696155,51.915889],[5.696134,51.915945],[5.696115,51.916006],[5.696075,51.91616],[5.696065,51.916196],[5.695977,51.91641],[5.695918,51.916531],[5.695877,51.91662],[5.695668,51.916788],[5.695515,51.916906],[5.695372,51.917017],[5.695205,51.917138],[5.695017,51.917246],[5.694845,51.917319],[5.694729,51.917357],[5.694282,51.917517],[5.694157,51.917565],[5.693937,51.917639],[5.693655,51.917738],[5.693238,51.917896],[5.693083,51.917961],[5.692943,51.918017],[5.69245,51.918279],[5.692449,51.918279],[5.692196,51.918395],[5.69245,51.918541],[5.692566,51.918607],[5.69273,51.918707],[5.693309,51.919044],[5.693979,51.919429],[5.694851,51.919934],[5.695355,51.920226],[5.695743,51.920457],[5.696057,51.920643],[5.696161,51.920715],[5.696222,51.920753],[5.696256,51.920782],[5.696272,51.920803],[5.696278,51.920852],[5.696181,51.920859],[5.696174,51.920811],[5.69608,51.920851],[5.696,51.920885],[5.695812,51.920964],[5.695753,51.92099],[5.695557,51.921077],[5.695453,51.921123],[5.695309,51.921185],[5.695258,51.921207],[5.695169,51.921245],[5.69508,51.92128],[5.694854,51.921373],[5.694549,51.921274],[5.694358,51.921213],[5.694117,51.921135],[5.693964,51.921086],[5.69395,51.921081],[5.69391,51.921068],[5.693578,51.92096],[5.692977,51.920766],[5.692803,51.920711],[5.692465,51.920657],[5.692255,51.920624],[5.691561,51.920501],[5.691268,51.920441],[5.691082,51.920406],[5.690535,51.920303],[5.689928,51.92019],[5.689524,51.920115],[5.689351,51.920088],[5.689204,51.920065],[5.688727,51.920005],[5.68802,51.91992],[5.687526,51.919849],[5.687333,51.91982],[5.687188,51.919791],[5.687129,51.919779],[5.686998,51.919758],[5.686818,51.919727],[5.686555,51.919669],[5.686343,51.91962],[5.686108,51.919568],[5.685925,51.919525],[5.68571,51.91948],[5.685551,51.919455],[5.685222,51.919408],[5.684979,51.919369],[5.684808,51.919332],[5.684687,51.919297],[5.684576,51.919264],[5.684368,51.919208],[5.683469,51.918956],[5.682911,51.918798],[5.682322,51.918634],[5.68172,51.918464],[5.681616,51.918435],[5.681211,51.91832],[5.681127,51.918375],[5.681063,51.91842],[5.681054,51.918427],[5.681025,51.918447],[5.681017,51.918453],[5.680851,51.91857],[5.680717,51.918676],[5.680522,51.918829],[5.680419,51.918893],[5.680331,51.918944],[5.679916,51.919194],[5.679479,51.919447],[5.679072,51.919686],[5.678916,51.91978],[5.678667,51.919953],[5.678267,51.920237],[5.677981,51.920442],[5.677792,51.920561],[5.677634,51.920652],[5.677482,51.920738],[5.677393,51.920783],[5.677334,51.92081],[5.677253,51.920841],[5.677251,51.920842],[5.677125,51.92089],[5.676991,51.920934],[5.676867,51.92097],[5.676681,51.921009],[5.676561,51.921032],[5.676361,51.921066],[5.676196,51.921093],[5.676009,51.921115],[5.676022,51.921127],[5.676064,51.921164],[5.676102,51.921193],[5.676217,51.921258],[5.676513,51.921428],[5.67689,51.921642],[5.677088,51.921751],[5.677092,51.921754],[5.677092,51.921758],[5.677083,51.921944],[5.677081,51.921978],[5.677072,51.922147],[5.677068,51.922206],[5.677066,51.922221],[5.677065,51.922225],[5.676791,51.922459],[5.676587,51.922635],[5.676493,51.922706],[5.676187,51.922952],[5.676053,51.923064],[5.675999,51.923104],[5.675898,51.923185],[5.675897,51.923186],[5.675894,51.923189],[5.675767,51.923295],[5.675767,51.923295],[5.67587,51.923353],[5.675996,51.923423],[5.676151,51.923511],[5.676328,51.923617],[5.676401,51.923662],[5.676487,51.923711],[5.676571,51.923758],[5.67665,51.923802],[5.67673,51.923846],[5.676808,51.923892],[5.676889,51.923934],[5.67697,51.923979],[5.677065,51.924029],[5.677163,51.92408],[5.677275,51.924141],[5.677482,51.924254],[5.677519,51.924273],[5.677554,51.924292],[5.677583,51.924261],[5.677631,51.924288],[5.677566,51.924357],[5.677558,51.924366],[5.677485,51.924444],[5.677223,51.924716],[5.677074,51.924864],[5.677024,51.92492],[5.676947,51.924995],[5.676555,51.925393],[5.676434,51.925525],[5.676416,51.925543],[5.676358,51.925601],[5.676163,51.925801],[5.676069,51.925893],[5.676002,51.925959],[5.675933,51.926028],[5.675821,51.926142],[5.67581,51.926153],[5.67601,51.926273],[5.6763,51.926456],[5.676375,51.926508],[5.676437,51.926554],[5.676489,51.926596],[5.676546,51.926646],[5.676598,51.926699],[5.676642,51.92675],[5.676737,51.926851],[5.676803,51.926935],[5.676914,51.927082],[5.676993,51.927184],[5.677121,51.927319],[5.677186,51.927383],[5.67725,51.927436],[5.677344,51.9275],[5.677418,51.927549],[5.677519,51.927596],[5.677681,51.92767],[5.678037,51.927836],[5.678316,51.927974],[5.678376,51.92801],[5.67841,51.928048],[5.67845,51.928095],[5.678463,51.928133],[5.67846,51.928201],[5.67844,51.928277],[5.678429,51.928321],[5.678324,51.928608],[5.678313,51.928644],[5.678307,51.928703],[5.678299,51.928792],[5.678308,51.928865],[5.678328,51.928926],[5.678378,51.929032],[5.67841,51.929075],[5.678435,51.929105],[5.678468,51.929127],[5.678503,51.929146],[5.67859,51.929179],[5.678682,51.929203],[5.678733,51.929216],[5.67878,51.929224],[5.678871,51.929234],[5.678962,51.929236],[5.679073,51.929231],[5.679176,51.929223],[5.67929,51.929216],[5.679362,51.929213],[5.679499,51.929213],[5.679662,51.92922],[5.679801,51.929225],[5.679925,51.929226],[5.680061,51.929226],[5.680127,51.929221],[5.680334,51.929202],[5.68046,51.929189],[5.680496,51.929187],[5.680611,51.929186],[5.680701,51.929188],[5.680989,51.929204],[5.681264,51.929221],[5.681377,51.929228],[5.681626,51.929242],[5.681953,51.929264],[5.682121,51.929276],[5.682187,51.929282],[5.682247,51.929291],[5.682602,51.929358],[5.682777,51.929395],[5.683273,51.929518],[5.683416,51.929557],[5.683687,51.929625],[5.68392,51.929682],[5.68436,51.929778],[5.684454,51.9298],[5.684513,51.929825],[5.684566,51.929848],[5.68462,51.929874],[5.684713,51.929921],[5.684771,51.929954],[5.684868,51.930021],[5.684957,51.930093],[5.68508,51.93019],[5.685115,51.930214],[5.685163,51.930242],[5.685411,51.930356],[5.685751,51.93052],[5.685864,51.930583],[5.68591,51.930611],[5.685982,51.930669],[5.686054,51.930724],[5.686133,51.930774],[5.686225,51.930828],[5.686329,51.930875],[5.686419,51.930906],[5.686498,51.930935],[5.686612,51.930965],[5.687057,51.931097],[5.687131,51.931123],[5.687203,51.931153],[5.687307,51.931205],[5.687383,51.931241],[5.687509,51.931306],[5.687636,51.931379],[5.687732,51.931431],[5.68783,51.93148],[5.687966,51.931545],[5.688124,51.931619],[5.688251,51.931673],[5.688386,51.931732],[5.688456,51.931768],[5.688536,51.931811],[5.688616,51.93186],[5.688714,51.931922],[5.688831,51.932005],[5.688972,51.93211],[5.689061,51.932173],[5.689181,51.932262],[5.689284,51.93233],[5.689342,51.932363],[5.689413,51.932399],[5.689507,51.932436],[5.689574,51.932453],[5.689687,51.932474],[5.689811,51.932492],[5.689927,51.932506],[5.690037,51.932515],[5.69023,51.932514],[5.690344,51.932503],[5.690496,51.932485],[5.690658,51.93246],[5.690779,51.932435],[5.690904,51.932404],[5.691194,51.932322],[5.691363,51.932277],[5.691522,51.932236],[5.691787,51.932167],[5.691892,51.932138],[5.692034,51.9321],[5.692157,51.93206],[5.692297,51.93201],[5.692438,51.931961],[5.692541,51.931927],[5.692551,51.931924],[5.692777,51.931847],[5.692935,51.931794],[5.693005,51.931776],[5.693154,51.931738],[5.69334,51.931689],[5.693466,51.931655],[5.693554,51.93163],[5.693746,51.931569],[5.693924,51.931519],[5.694134,51.931454],[5.694262,51.931419],[5.694382,51.931391],[5.69458,51.93135],[5.694689,51.931336],[5.69472,51.931333],[5.694758,51.93133],[5.694879,51.931322],[5.695241,51.931297],[5.695506,51.931282],[5.695697,51.931271],[5.695805,51.931266],[5.696044,51.931259],[5.696322,51.931251],[5.696307,51.931292],[5.696306,51.931295],[5.696276,51.931376],[5.696071,51.931583],[5.695776,51.931879],[5.695532,51.932128],[5.695342,51.932334],[5.695137,51.932547],[5.694834,51.932862],[5.694532,51.933155],[5.694511,51.933191],[5.694484,51.933239],[5.694281,51.933434],[5.693883,51.933822],[5.693759,51.933943],[5.69361,51.934088],[5.693356,51.934346],[5.693118,51.934565],[5.693117,51.934566],[5.693031,51.934647],[5.692897,51.934566],[5.692889,51.934562],[5.692883,51.934566],[5.692869,51.934577],[5.692831,51.934567],[5.692762,51.934548],[5.692668,51.934522],[5.692585,51.934506],[5.692559,51.934503],[5.6925,51.934498],[5.692402,51.93449],[5.692314,51.934488],[5.692206,51.934492],[5.692098,51.934502],[5.691968,51.934525],[5.691726,51.934576],[5.691572,51.934608],[5.691327,51.93466],[5.691083,51.93472],[5.690282,51.934931],[5.690152,51.934961],[5.689969,51.934999],[5.689943,51.935004],[5.689893,51.935012],[5.689791,51.935032],[5.689679,51.935051],[5.689597,51.935058],[5.689514,51.935065],[5.689443,51.935069],[5.689352,51.935072],[5.689273,51.935066],[5.689151,51.935054],[5.689012,51.935036],[5.688867,51.93501],[5.688841,51.935008],[5.688824,51.935013],[5.688813,51.93502],[5.688808,51.935034],[5.688805,51.935044],[5.688778,51.935141],[5.688772,51.93514],[5.687603,51.934861],[5.685397,51.934284],[5.684997,51.934188],[5.684348,51.934007],[5.683704,51.933795],[5.683693,51.933792],[5.682703,51.933515],[5.682037,51.933338],[5.681191,51.933121],[5.680326,51.932896],[5.67958,51.932699],[5.678773,51.932496],[5.678023,51.932333],[5.677573,51.932246],[5.677534,51.932231],[5.677435,51.932191],[5.677344,51.932149],[5.677255,51.932112],[5.677176,51.93208],[5.677099,51.932046],[5.677031,51.932014],[5.677022,51.93201],[5.676158,51.931798],[5.675344,51.931575],[5.674925,51.931459],[5.674448,51.931344],[5.673912,51.93121],[5.673578,51.931128],[5.673553,51.931123],[5.67307,51.931024],[5.672585,51.930925],[5.671733,51.930747],[5.671302,51.930657],[5.671124,51.930613],[5.671053,51.930593],[5.670995,51.930569],[5.670932,51.930545],[5.67073,51.930515],[5.670723,51.930514],[5.670717,51.930514],[5.670481,51.930492],[5.670385,51.930492],[5.669678,51.930484],[5.669502,51.930482],[5.668834,51.930472],[5.66877,51.93047],[5.668366,51.93046],[5.667562,51.930439],[5.667348,51.930429],[5.666876,51.930389],[5.666044,51.930326],[5.665126,51.930271],[5.664218,51.930211],[5.663936,51.930179],[5.663699,51.930144],[5.66345,51.930108],[5.663226,51.930076],[5.662708,51.930006],[5.662391,51.929971],[5.661868,51.929897],[5.661866,51.929896],[5.661853,51.929894],[5.66132,51.929808],[5.660669,51.92968],[5.660538,51.929659],[5.660425,51.929631],[5.660419,51.929629],[5.66041,51.929627],[5.660351,51.929612]]]},"properties":{"type":"boundary","gemeente":"Overbetuwe"}}]}