{"type":"FeatureCollection","metadata":{"gemeente":"Peel en Maas","slug":"peel-en-maas","generated_at":"2026-09-28T08:30:20.036424Z","total_points":97,"providers":["Amazon","DHL","DPD","PostNL","VintedGo","GLS","FedEx","InPost"],"bounds":[5.8702598,51.29139,6.0976377576710625,51.36121288055806]},"features":[{"type":"Feature","geometry":{"type":"Point","coordinates":[6.04926137785525,51.291710276923]},"properties":{"type":"pakketpunt","locatieNaam":"Peel en Maas Tabak","straatNaam":"Baarskampstraat 29 A","straatNr":"","vervoerder":"Amazon","puntType":"3p","bezettingsgraad":50,"latitude":51.291710276923,"longitude":6.04926137785525,"canPickup":true,"canDropoff":false,"openingstijden":null}},{"type":"Feature","geometry":{"type":"Point","coordinates":[5.99855437299202,51.3196647221209]},"properties":{"type":"pakketpunt","locatieNaam":"Gifts- en Tabakshop Helden","straatNaam":"Kaupmanshof 24","straatNr":"","vervoerder":"Amazon","puntType":"3p","bezettingsgraad":50,"latitude":51.3196647221209,"longitude":5.99855437299202,"canPickup":true,"canDropoff":false,"openingstijden":null}},{"type":"Feature","geometry":{"type":"Point","coordinates":[5.9746874373881935,51.327303887767876]},"properties":{"type":"pakketpunt","locatieNaam":"DHL - Pakketautomaat Jumbo Panningen","straatNaam":"Kerkstraat 43","straatNr":"","vervoerder":"Amazon","puntType":"3p","bezettingsgraad":50,"latitude":51.327303887767876,"longitude":5.9746874373881935,"canPickup":true,"canDropoff":false,"openingstijden":null}},{"type":"Feature","geometry":{"type":"Point","coordinates":[5.88271621864413,51.3461222557763]},"properties":{"type":"pakketpunt","locatieNaam":"Kadoballonpeelenmaas","straatNaam":"Dorpsstraat 48","straatNr":"","vervoerder":"Amazon","puntType":"3p","bezettingsgraad":50,"latitude":51.3461222557763,"longitude":5.88271621864413,"canPickup":true,"canDropoff":false,"openingstijden":null}},{"type":"Feature","geometry":{"type":"Point","coordinates":[6.09377320780773,51.3314317108734]},"properties":{"type":"pakketpunt","locatieNaam":"Marréli PpP","straatNaam":"Grotestraat 26 A","straatNr":"","vervoerder":"Amazon","puntType":"3p","bezettingsgraad":50,"latitude":51.3314317108734,"longitude":6.09377320780773,"canPickup":true,"canDropoff":false,"openingstijden":null}},{"type":"Feature","geometry":{"type":"Point","coordinates":[6.0976377576710625,51.337479207142245]},"properties":{"type":"pakketpunt","locatieNaam":"DHL - Pakketautomaat Tango Napoleonsbaan","straatNaam":"Napoleonsbaan Noord 10-B","straatNr":"","vervoerder":"Amazon","puntType":"3p","bezettingsgraad":50,"latitude":51.337479207142245,"longitude":6.0976377576710625,"canPickup":true,"canDropoff":false,"openingstijden":null}},{"type":"Feature","geometry":{"type":"Point","coordinates":[5.9172381,51.3336645]},"properties":{"type":"pakketpunt","locatieNaam":"DHL - Pakketautomaat Beringe","straatNaam":"Zwenkgras","straatNr":"3","vervoerder":"DHL","puntType":"packStation","bezettingsgraad":50,"latitude":51.3336645,"longitude":5.9172381,"canPickup":true,"canDropoff":true,"openingstijden":{"ma":"00:00 - 23:59","di":"00:00 - 23:59","wo":"00:00 - 23:59","do":"00:00 - 23:59","vr":"00:00 - 23:59","za":"00:00 - 23:59","zo":"00:00 - 23:59"}}},{"type":"Feature","geometry":{"type":"Point","coordinates":[5.8702598,51.3330609]},"properties":{"type":"pakketpunt","locatieNaam":"Bouten Bloemen","straatNaam":"Kampsteeg","straatNr":"32","vervoerder":"DHL","puntType":"parcelShop","bezettingsgraad":50,"latitude":51.3330609,"longitude":5.8702598,"canPickup":true,"canDropoff":true,"openingstijden":{"ma":"gesloten","di":"08:00 - 12:00, 13:00 - 18:00","wo":"08:00 - 12:00, 13:00 - 18:00","do":"08:00 - 12:00, 13:00 - 18:00","vr":"08:00 - 12:00, 13:00 - 18:00","za":"08:30 - 12:00, 13:00 - 18:00","zo":"gesloten"}}},{"type":"Feature","geometry":{"type":"Point","coordinates":[5.970936973209802,51.326607019811206]},"properties":{"type":"pakketpunt","locatieNaam":"Pakketautomaat GAMMA Helden","straatNaam":"J.F. Kennedylaan","straatNr":"28","vervoerder":"DHL","puntType":"packStation","bezettingsgraad":50,"latitude":51.326607019811206,"longitude":5.970936973209802,"canPickup":true,"canDropoff":true,"openingstijden":{"ma":"00:00 - 23:59","di":"00:00 - 23:59","wo":"00:00 - 23:59","do":"00:00 - 23:59","vr":"00:00 - 23:59","za":"00:00 - 23:59","zo":"00:00 - 23:59"}}},{"type":"Feature","geometry":{"type":"Point","coordinates":[5.884023,51.345549]},"properties":{"type":"pakketpunt","locatieNaam":"EP Meijel","straatNaam":"Dorpstraat","straatNr":"24","vervoerder":"DHL","puntType":"parcelShop","bezettingsgraad":50,"latitude":51.345549,"longitude":5.884023,"canPickup":true,"canDropoff":true,"openingstijden":{"ma":"gesloten","di":"08:30 - 18:00","wo":"08:30 - 18:00","do":"08:30 - 18:00","vr":"08:30 - 18:00","za":"09:00 - 16:00","zo":"gesloten"}}},{"type":"Feature","geometry":{"type":"Point","coordinates":[5.9747917,51.3265669]},"properties":{"type":"pakketpunt","locatieNaam":"Giftclub Panningen","straatNaam":"Kerkstraat","straatNr":"45","vervoerder":"DHL","puntType":"parcelShop","bezettingsgraad":50,"latitude":51.3265669,"longitude":5.9747917,"canPickup":true,"canDropoff":true,"openingstijden":{"ma":"09:00 - 20:00","di":"09:00 - 20:00","wo":"09:00 - 20:00","do":"09:00 - 20:00","vr":"09:00 - 20:00","za":"09:00 - 20:00","zo":"09:00 - 20:00"}}},{"type":"Feature","geometry":{"type":"Point","coordinates":[5.9746874373881935,51.327303887767876]},"properties":{"type":"pakketpunt","locatieNaam":"Pakketautomaat Jumbo Panningen","straatNaam":"Kerkstraat","straatNr":"43","vervoerder":"DHL","puntType":"packStation","bezettingsgraad":50,"latitude":51.327303887767876,"longitude":5.9746874373881935,"canPickup":true,"canDropoff":true,"openingstijden":{"ma":"00:00 - 23:59","di":"00:00 - 23:59","wo":"00:00 - 23:59","do":"00:00 - 23:59","vr":"00:00 - 23:59","za":"00:00 - 23:59","zo":"00:00 - 23:59"}}},{"type":"Feature","geometry":{"type":"Point","coordinates":[5.979427997741212,51.32780336605696]},"properties":{"type":"pakketpunt","locatieNaam":"Pakketautomaat Lidl Panningen","straatNaam":"Pastoor Huijbenplein","straatNr":"19","vervoerder":"DHL","puntType":"packStation","bezettingsgraad":50,"latitude":51.32780336605696,"longitude":5.979427997741212,"canPickup":true,"canDropoff":true,"openingstijden":{"ma":"08:00 - 21:00","di":"08:00 - 21:00","wo":"08:00 - 21:00","do":"08:00 - 21:00","vr":"08:00 - 21:00","za":"08:00 - 21:00","zo":"09:00 - 18:00"}}},{"type":"Feature","geometry":{"type":"Point","coordinates":[5.9818908,51.3281082]},"properties":{"type":"pakketpunt","locatieNaam":"Allesz Helden Panningen","straatNaam":"Raadhuisstraat","straatNr":"5","vervoerder":"DHL","puntType":"parcelShop","bezettingsgraad":50,"latitude":51.3281082,"longitude":5.9818908,"canPickup":true,"canDropoff":true,"openingstijden":{"ma":"11:00 - 18:00","di":"09:00 - 18:00","wo":"09:00 - 18:00","do":"09:00 - 18:00","vr":"09:00 - 18:00","za":"09:00 - 17:00","zo":"gesloten"}}},{"type":"Feature","geometry":{"type":"Point","coordinates":[5.9809779,51.3289723]},"properties":{"type":"pakketpunt","locatieNaam":"Intertoys Panningen","straatNaam":"Markt","straatNr":"61","vervoerder":"DHL","puntType":"parcelShop","bezettingsgraad":50,"latitude":51.3289723,"longitude":5.9809779,"canPickup":true,"canDropoff":true,"openingstijden":{"ma":"10:00 - 18:00","di":"09:30 - 18:00","wo":"09:30 - 18:00","do":"09:30 - 18:00","vr":"09:30 - 18:00","za":"09:30 - 17:00","zo":"gesloten"}}},{"type":"Feature","geometry":{"type":"Point","coordinates":[5.9822869300842285,51.32859420776367]},"properties":{"type":"pakketpunt","locatieNaam":"Shoeby Helden Panningen","straatNaam":"Markt","straatNr":"137","vervoerder":"DHL","puntType":"parcelShop","bezettingsgraad":50,"latitude":51.32859420776367,"longitude":5.9822869300842285,"canPickup":true,"canDropoff":true,"openingstijden":{"ma":"13:00 - 18:00","di":"09:30 - 18:00","wo":"09:30 - 18:00","do":"09:30 - 18:00","vr":"09:30 - 18:00","za":"09:30 - 17:00","zo":"gesloten"}}},{"type":"Feature","geometry":{"type":"Point","coordinates":[5.9816933,51.329366]},"properties":{"type":"pakketpunt","locatieNaam":"Snuffelshop Gediam","straatNaam":"Markt","straatNr":"83-D","vervoerder":"DHL","puntType":"parcelShop","bezettingsgraad":50,"latitude":51.329366,"longitude":5.9816933,"canPickup":true,"canDropoff":true,"openingstijden":{"ma":"13:00 - 18:00","di":"09:00 - 18:00","wo":"09:00 - 18:00","do":"09:00 - 18:00","vr":"09:00 - 18:00","za":"09:00 - 16:00","zo":"gesloten"}}},{"type":"Feature","geometry":{"type":"Point","coordinates":[5.998744812993068,51.319660912499934]},"properties":{"type":"pakketpunt","locatieNaam":"Pakketautomaat Peel&Maas Tabak","straatNaam":"Kaupmanshof","straatNr":"24","vervoerder":"DHL","puntType":"packStation","bezettingsgraad":50,"latitude":51.319660912499934,"longitude":5.998744812993068,"canPickup":true,"canDropoff":true,"openingstijden":{"ma":"09:00 - 18:00","di":"09:00 - 18:00","wo":"09:00 - 18:00","do":"09:00 - 18:00","vr":"09:00 - 18:00","za":"09:00 - 18:00","zo":"12:00 - 17:00"}}},{"type":"Feature","geometry":{"type":"Point","coordinates":[5.99702144912768,51.33471088210502]},"properties":{"type":"pakketpunt","locatieNaam":"Pakketautomaat Esso Helden","straatNaam":"Maasbreeseweg","straatNr":"29","vervoerder":"DHL","puntType":"packStation","bezettingsgraad":50,"latitude":51.33471088210502,"longitude":5.99702144912768,"canPickup":true,"canDropoff":true,"openingstijden":{"ma":"00:00 - 23:59","di":"00:00 - 23:59","wo":"00:00 - 23:59","do":"00:00 - 23:59","vr":"00:00 - 23:59","za":"00:00 - 23:59","zo":"00:00 - 23:59"}}},{"type":"Feature","geometry":{"type":"Point","coordinates":[5.9722194,51.3534358]},"properties":{"type":"pakketpunt","locatieNaam":"Verstraten Tuincentrum","straatNaam":"Sevenumsedijk","straatNr":"11-a","vervoerder":"DHL","puntType":"parcelShop","bezettingsgraad":50,"latitude":51.3534358,"longitude":5.9722194,"canPickup":true,"canDropoff":true,"openingstijden":{"ma":"14:15 - 18:00","di":"11:00 - 18:00","wo":"11:00 - 18:00","do":"11:00 - 18:00","vr":"11:00 - 18:00","za":"09:00 - 16:00","zo":"gesloten"}}},{"type":"Feature","geometry":{"type":"Point","coordinates":[6.0615422,51.3036228]},"properties":{"type":"pakketpunt","locatieNaam":"Lukoil Kessel Minga Shops","straatNaam":"Baarloseweg","straatNr":"48","vervoerder":"DHL","puntType":"parcelShop","bezettingsgraad":50,"latitude":51.3036228,"longitude":6.0615422,"canPickup":true,"canDropoff":true,"openingstijden":{"ma":"06:00 - 20:00","di":"06:00 - 20:00","wo":"06:00 - 20:00","do":"06:00 - 20:00","vr":"06:00 - 20:00","za":"08:00 - 20:00","zo":"09:00 - 20:00"}}},{"type":"Feature","geometry":{"type":"Point","coordinates":[6.04925366819027,51.29152554749721]},"properties":{"type":"pakketpunt","locatieNaam":"Pakketautomaat PLUS Kessel","straatNaam":"Baarskampstraat","straatNr":"29","vervoerder":"DHL","puntType":"packStation","bezettingsgraad":50,"latitude":51.29152554749721,"longitude":6.04925366819027,"canPickup":true,"canDropoff":true,"openingstijden":{"ma":"08:00 - 20:00","di":"08:00 - 20:00","wo":"08:00 - 20:00","do":"08:00 - 20:00","vr":"08:00 - 20:00","za":"08:00 - 20:00","zo":"09:00 - 18:00"}}},{"type":"Feature","geometry":{"type":"Point","coordinates":[6.088895996659865,51.332121491861386]},"properties":{"type":"pakketpunt","locatieNaam":"Pakketautomaat DHL Baarlo","straatNaam":"Kruisstraat","straatNr":"11-Kast","vervoerder":"DHL","puntType":"packStation","bezettingsgraad":50,"latitude":51.332121491861386,"longitude":6.088895996659865,"canPickup":true,"canDropoff":true,"openingstijden":{"ma":"00:00 - 23:59","di":"00:00 - 23:59","wo":"00:00 - 23:59","do":"00:00 - 23:59","vr":"00:00 - 23:59","za":"00:00 - 23:59","zo":"00:00 - 23:59"}}},{"type":"Feature","geometry":{"type":"Point","coordinates":[6.089349,51.332322]},"properties":{"type":"pakketpunt","locatieNaam":"DHL Pakketpunt Baarlo balie","straatNaam":"Kruisstraat","straatNr":"11","vervoerder":"DHL","puntType":"parcelShop","bezettingsgraad":50,"latitude":51.332322,"longitude":6.089349,"canPickup":true,"canDropoff":true,"openingstijden":{"ma":"07:00 - 19:00","di":"07:00 - 19:00","wo":"07:00 - 19:00","do":"07:00 - 19:00","vr":"07:00 - 19:00","za":"07:00 - 18:00","zo":"gesloten"}}},{"type":"Feature","geometry":{"type":"Point","coordinates":[6.0976377576710625,51.337479207142245]},"properties":{"type":"pakketpunt","locatieNaam":"Pakketautomaat Tango Napoleonsbaan","straatNaam":"Napoleonsbaan Noord","straatNr":"10-B","vervoerder":"DHL","puntType":"packStation","bezettingsgraad":50,"latitude":51.337479207142245,"longitude":6.0976377576710625,"canPickup":true,"canDropoff":true,"openingstijden":{"ma":"00:00 - 23:59","di":"00:00 - 23:59","wo":"00:00 - 23:59","do":"00:00 - 23:59","vr":"00:00 - 23:59","za":"00:00 - 23:59","zo":"00:00 - 23:59"}}},{"type":"Feature","geometry":{"type":"Point","coordinates":[6.05002,51.355062]},"properties":{"type":"pakketpunt","locatieNaam":"BP Maasbree","straatNaam":"Provincialeweg","straatNr":"19","vervoerder":"DHL","puntType":"parcelShop","bezettingsgraad":50,"latitude":51.355062,"longitude":6.05002,"canPickup":true,"canDropoff":true,"openingstijden":{"ma":"07:00 - 20:00","di":"07:00 - 20:00","wo":"07:00 - 20:00","do":"07:00 - 20:00","vr":"07:00 - 20:00","za":"08:00 - 18:00","zo":"10:00 - 16:00"}}},{"type":"Feature","geometry":{"type":"Point","coordinates":[6.0938294,51.3315145]},"properties":{"type":"pakketpunt","locatieNaam":"Marreli","straatNaam":"GROTESTRAAT","straatNr":"26A","vervoerder":"DPD","puntType":"pickup_point","bezettingsgraad":50,"latitude":51.3315145,"longitude":6.0938294,"canPickup":true,"canDropoff":true,"openingstijden":{"ma":"gesloten","di":"10:00 - 17:30","wo":"10:00 - 17:30","do":"10:00 - 17:30","vr":"10:00 - 17:30","za":"10:00 - 16:00","zo":"gesloten"}}},{"type":"Feature","geometry":{"type":"Point","coordinates":[5.884681,51.3421062]},"properties":{"type":"pakketpunt","locatieNaam":"Hermans D.H.Z","straatNaam":"PRINS BERNHARDSTRAAT","straatNr":"1","vervoerder":"DPD","puntType":"pickup_point","bezettingsgraad":50,"latitude":51.3421062,"longitude":5.884681,"canPickup":true,"canDropoff":true,"openingstijden":{"ma":"09:00 - 12:30, 13:00 - 18:00","di":"09:00 - 12:30, 13:00 - 18:00","wo":"09:00 - 12:30, 13:00 - 18:00","do":"09:00 - 12:30, 13:00 - 18:00","vr":"09:00 - 12:30, 13:00 - 18:00","za":"09:00 - 17:00","zo":"gesloten"}}},{"type":"Feature","geometry":{"type":"Point","coordinates":[6.046954,51.357536]},"properties":{"type":"pakketpunt","locatieNaam":"Breebikes","straatNaam":"DORPSTRAAT","straatNr":"8","vervoerder":"DPD","puntType":"pickup_point","bezettingsgraad":50,"latitude":51.357536,"longitude":6.046954,"canPickup":true,"canDropoff":true,"openingstijden":{"ma":"gesloten","di":"09:00 - 12:15, 13:15 - 18:00","wo":"09:00 - 12:15, 13:15 - 18:00","do":"09:00 - 12:15, 13:15 - 18:00","vr":"09:00 - 12:15, 13:15 - 18:00","za":"09:00 - 16:00","zo":"gesloten"}}},{"type":"Feature","geometry":{"type":"Point","coordinates":[5.9848512,51.3272619]},"properties":{"type":"pakketpunt","locatieNaam":"Discus Ebisch","straatNaam":"WIETELWEG","straatNr":"2","vervoerder":"DPD","puntType":"pickup_point","bezettingsgraad":50,"latitude":51.3272619,"longitude":5.9848512,"canPickup":true,"canDropoff":true,"openingstijden":{"ma":"13:00 - 18:00","di":"09:00 - 18:00","wo":"09:00 - 18:00","do":"09:00 - 18:00","vr":"09:00 - 18:00","za":"09:30 - 17:00","zo":"gesloten"}}},{"type":"Feature","geometry":{"type":"Point","coordinates":[6.0615422,51.3036228]},"properties":{"type":"pakketpunt","locatieNaam":"Lukoil Kessel","straatNaam":"BAARLOSEWEG","straatNr":"48","vervoerder":"DPD","puntType":"pickup_point","bezettingsgraad":50,"latitude":51.3036228,"longitude":6.0615422,"canPickup":true,"canDropoff":true,"openingstijden":{"ma":"06:00 - 20:00","di":"06:00 - 20:00","wo":"06:00 - 20:00","do":"06:00 - 20:00","vr":"06:00 - 20:00","za":"08:00 - 20:00","zo":"09:00 - 20:00"}}},{"type":"Feature","geometry":{"type":"Point","coordinates":[5.974792,51.326567]},"properties":{"type":"pakketpunt","locatieNaam":"Giftclub Panningen","straatNaam":"KERKSTRAAT","straatNr":"45","vervoerder":"DPD","puntType":"pickup_point","bezettingsgraad":50,"latitude":51.326567,"longitude":5.974792,"canPickup":true,"canDropoff":true,"openingstijden":{"ma":"09:00 - 20:00","di":"09:00 - 20:00","wo":"09:00 - 20:00","do":"09:00 - 20:00","vr":"09:00 - 20:00","za":"09:00 - 20:00","zo":"09:00 - 20:00"}}},{"type":"Feature","geometry":{"type":"Point","coordinates":[5.99855,51.31967]},"properties":{"type":"pakketpunt","locatieNaam":"Pakketautomaat Peel en Maas Tabak","straatNaam":"KAUPMANSHOF","straatNr":"24","vervoerder":"DPD","puntType":"dpd_box","bezettingsgraad":50,"latitude":51.31967,"longitude":5.99855,"canPickup":true,"canDropoff":true,"openingstijden":{"ma":"09:00 - 18:00","di":"09:00 - 18:00","wo":"09:00 - 18:00","do":"09:00 - 18:00","vr":"09:00 - 18:00","za":"09:00 - 18:00","zo":"09:00 - 18:00"}}},{"type":"Feature","geometry":{"type":"Point","coordinates":[5.981188674,51.32897727]},"properties":{"type":"pakketpunt","locatieNaam":"Primera Panningen","straatNaam":"Markt","straatNr":"65","vervoerder":"PostNL","puntType":"servicepunt","bezettingsgraad":50,"latitude":51.32897727,"longitude":5.981188674,"canPickup":true,"canDropoff":true,"openingstijden":"10:00 - 18:00 (Na 18:00 open; Zaterdag open)"}},{"type":"Feature","geometry":{"type":"Point","coordinates":[5.9834176332257,51.3293613939901]},"properties":{"type":"pakketpunt","locatieNaam":"Pakketautomaat","straatNaam":"Kepringelehof","straatNr":"3PBA","vervoerder":"PostNL","puntType":"automaat","bezettingsgraad":50,"latitude":51.3293613939901,"longitude":5.9834176332257,"canPickup":true,"canDropoff":true,"openingstijden":"00:00 - 23:59"}},{"type":"Feature","geometry":{"type":"Point","coordinates":[5.97557802453152,51.3267045956388]},"properties":{"type":"pakketpunt","locatieNaam":"Pakketautomaat","straatNaam":"Kerkstraat","straatNr":"43PBA","vervoerder":"PostNL","puntType":"automaat","bezettingsgraad":50,"latitude":51.3267045956388,"longitude":5.97557802453152,"canPickup":true,"canDropoff":true,"openingstijden":"00:00 - 23:59"}},{"type":"Feature","geometry":{"type":"Point","coordinates":[5.97114223,51.32651119]},"properties":{"type":"pakketpunt","locatieNaam":"GAMMA Helden Panningen","straatNaam":"John F. Kennedylaan","straatNr":"28","vervoerder":"PostNL","puntType":"servicepunt","bezettingsgraad":50,"latitude":51.32651119,"longitude":5.97114223,"canPickup":true,"canDropoff":true,"openingstijden":"09:00 - 21:00"}},{"type":"Feature","geometry":{"type":"Point","coordinates":[5.971127769,51.32650228]},"properties":{"type":"pakketpunt","locatieNaam":"Pakket- en briefautomaat","straatNaam":"John F. Kennedylaan","straatNr":"28PBA","vervoerder":"PostNL","puntType":"automaat","bezettingsgraad":50,"latitude":51.32650228,"longitude":5.971127769,"canPickup":true,"canDropoff":true,"openingstijden":"00:00 - 23:59"}},{"type":"Feature","geometry":{"type":"Point","coordinates":[5.99855437299202,51.3196647221209]},"properties":{"type":"pakketpunt","locatieNaam":"Pakketautomaat","straatNaam":"Kaupmanshof","straatNr":"24PBA","vervoerder":"PostNL","puntType":"automaat","bezettingsgraad":50,"latitude":51.3196647221209,"longitude":5.99855437299202,"canPickup":true,"canDropoff":true,"openingstijden":"09:00 - 18:00"}},{"type":"Feature","geometry":{"type":"Point","coordinates":[5.99855437299202,51.3196647221209]},"properties":{"type":"pakketpunt","locatieNaam":"Gifts- en Tabakshop Helden","straatNaam":"Kaupmanshof","straatNr":"24","vervoerder":"PostNL","puntType":"servicepunt","bezettingsgraad":50,"latitude":51.3196647221209,"longitude":5.99855437299202,"canPickup":true,"canDropoff":true,"openingstijden":"09:00 - 18:00 (Na 18:00 open; Zaterdag open; Zondag open)"}},{"type":"Feature","geometry":{"type":"Point","coordinates":[5.944824699,51.33788534]},"properties":{"type":"pakketpunt","locatieNaam":"Pakket- en Briefautomaat","straatNaam":"Ber Vullingsstraat","straatNr":"2PBA","vervoerder":"PostNL","puntType":"automaat","bezettingsgraad":50,"latitude":51.33788534,"longitude":5.944824699,"canPickup":true,"canDropoff":true,"openingstijden":"00:00 - 23:59"}},{"type":"Feature","geometry":{"type":"Point","coordinates":[5.91938361126096,51.3356672861997]},"properties":{"type":"pakketpunt","locatieNaam":"Second Go Electro","straatNaam":"De Oude Kooien","straatNr":"15","vervoerder":"PostNL","puntType":"servicepunt","bezettingsgraad":50,"latitude":51.3356672861997,"longitude":5.91938361126096,"canPickup":true,"canDropoff":true,"openingstijden":"08:00 - 17:30"}},{"type":"Feature","geometry":{"type":"Point","coordinates":[5.94127551,51.36117455]},"properties":{"type":"pakketpunt","locatieNaam":"Pakket- en Briefautomaat","straatNaam":"Pastoor Vullinghsstraat","straatNr":"3PBA","vervoerder":"PostNL","puntType":"automaat","bezettingsgraad":50,"latitude":51.36117455,"longitude":5.94127551,"canPickup":true,"canDropoff":true,"openingstijden":"00:00 - 23:59"}},{"type":"Feature","geometry":{"type":"Point","coordinates":[6.04897552654786,51.3541943519816]},"properties":{"type":"pakketpunt","locatieNaam":"Tuincentrum Vaessen","straatNaam":"Kanaalweg","straatNr":"7","vervoerder":"PostNL","puntType":"servicepunt","bezettingsgraad":50,"latitude":51.3541943519816,"longitude":6.04897552654786,"canPickup":true,"canDropoff":true,"openingstijden":"09:30 - 18:00 (Na 18:00 open; Zaterdag open)"}},{"type":"Feature","geometry":{"type":"Point","coordinates":[6.045675977,51.35833899]},"properties":{"type":"pakketpunt","locatieNaam":"Pakket- en briefautomaat","straatNaam":"Heierveldlaan","straatNr":"10PBA","vervoerder":"PostNL","puntType":"automaat","bezettingsgraad":50,"latitude":51.35833899,"longitude":6.045675977,"canPickup":true,"canDropoff":true,"openingstijden":"00:00 - 23:59"}},{"type":"Feature","geometry":{"type":"Point","coordinates":[5.891501,51.345308]},"properties":{"type":"pakketpunt","locatieNaam":"Pakket- en briefautomaat","straatNaam":"Kerkstraat","straatNr":"25PBA","vervoerder":"PostNL","puntType":"automaat","bezettingsgraad":50,"latitude":51.345308,"longitude":5.891501,"canPickup":true,"canDropoff":true,"openingstijden":"00:00 - 23:59"}},{"type":"Feature","geometry":{"type":"Point","coordinates":[6.04926137785525,51.291710276923]},"properties":{"type":"pakketpunt","locatieNaam":"Peel en Maas Tabak","straatNaam":"Baarskampstraat","straatNr":"29A","vervoerder":"PostNL","puntType":"servicepunt","bezettingsgraad":50,"latitude":51.291710276923,"longitude":6.04926137785525,"canPickup":true,"canDropoff":true,"openingstijden":"09:00 - 18:00 (Na 18:00 open; Zaterdag open; Zondag open)"}},{"type":"Feature","geometry":{"type":"Point","coordinates":[6.049261378,51.29171028]},"properties":{"type":"pakketpunt","locatieNaam":"Pakket- en briefautomaat","straatNaam":"Baarskampstraat","straatNr":"29PBA","vervoerder":"PostNL","puntType":"automaat","bezettingsgraad":50,"latitude":51.29171028,"longitude":6.049261378,"canPickup":true,"canDropoff":true,"openingstijden":"00:00 - 23:59"}},{"type":"Feature","geometry":{"type":"Point","coordinates":[5.88271621864413,51.3461222557763]},"properties":{"type":"pakketpunt","locatieNaam":"Kadoballonpeelenmaas","straatNaam":"Dorpsstraat","straatNr":"48","vervoerder":"PostNL","puntType":"servicepunt","bezettingsgraad":50,"latitude":51.3461222557763,"longitude":5.88271621864413,"canPickup":true,"canDropoff":true,"openingstijden":null}},{"type":"Feature","geometry":{"type":"Point","coordinates":[6.09377320780773,51.3314317108734]},"properties":{"type":"pakketpunt","locatieNaam":"Marréli PpP","straatNaam":"Grotestraat","straatNr":"26A","vervoerder":"PostNL","puntType":"servicepunt","bezettingsgraad":50,"latitude":51.3314317108734,"longitude":6.09377320780773,"canPickup":true,"canDropoff":true,"openingstijden":null}},{"type":"Feature","geometry":{"type":"Point","coordinates":[6.095190975,51.33125231]},"properties":{"type":"pakketpunt","locatieNaam":"Pakketautomaat","straatNaam":"Grotestraat","straatNr":"11PBA","vervoerder":"PostNL","puntType":"automaat","bezettingsgraad":50,"latitude":51.33125231,"longitude":6.095190975,"canPickup":true,"canDropoff":true,"openingstijden":"08:00 - 20:00"}},{"type":"Feature","geometry":{"type":"Point","coordinates":[6.096603149,51.33071336]},"properties":{"type":"pakketpunt","locatieNaam":"Bazus","straatNaam":"Markt","straatNr":"15","vervoerder":"PostNL","puntType":"servicepunt","bezettingsgraad":50,"latitude":51.33071336,"longitude":6.096603149,"canPickup":true,"canDropoff":true,"openingstijden":null}},{"type":"Feature","geometry":{"type":"Point","coordinates":[5.98179,51.32935]},"properties":{"type":"pakketpunt","locatieNaam":"Snuffelshop","straatNaam":"Markt 83D","straatNr":"","vervoerder":"VintedGo","puntType":"parcel_shop","bezettingsgraad":50,"latitude":51.32935,"longitude":5.98179,"canPickup":true,"canDropoff":true,"openingstijden":null}},{"type":"Feature","geometry":{"type":"Point","coordinates":[5.87026253,51.33306302]},"properties":{"type":"pakketpunt","locatieNaam":"Bouten Bloemen","straatNaam":"Kampsteeg 32","straatNr":"","vervoerder":"VintedGo","puntType":"parcel_shop","bezettingsgraad":50,"latitude":51.33306302,"longitude":5.87026253,"canPickup":true,"canDropoff":true,"openingstijden":null}},{"type":"Feature","geometry":{"type":"Point","coordinates":[5.975337,51.326504]},"properties":{"type":"pakketpunt","locatieNaam":"The Giftclub Panningen","straatNaam":"Kerkstraat 45","straatNr":"","vervoerder":"VintedGo","puntType":"parcel_shop","bezettingsgraad":50,"latitude":51.326504,"longitude":5.975337,"canPickup":true,"canDropoff":true,"openingstijden":null}},{"type":"Feature","geometry":{"type":"Point","coordinates":[5.88402,51.34555]},"properties":{"type":"pakketpunt","locatieNaam":"EW:Winkelmolen ","straatNaam":"Dorpsstraat 24","straatNr":"","vervoerder":"VintedGo","puntType":"parcel_shop","bezettingsgraad":50,"latitude":51.34555,"longitude":5.88402,"canPickup":true,"canDropoff":true,"openingstijden":null}},{"type":"Feature","geometry":{"type":"Point","coordinates":[6.04716,51.35752]},"properties":{"type":"pakketpunt","locatieNaam":"DA de Klimop","straatNaam":"Dorpstraat 8b","straatNr":"","vervoerder":"VintedGo","puntType":"parcel_shop","bezettingsgraad":50,"latitude":51.35752,"longitude":6.04716,"canPickup":true,"canDropoff":true,"openingstijden":null}},{"type":"Feature","geometry":{"type":"Point","coordinates":[6.0565349,51.356877]},"properties":{"type":"pakketpunt","locatieNaam":"Tooke","straatNaam":"Wilhelminalaan 52","straatNr":"","vervoerder":"VintedGo","puntType":"locker","bezettingsgraad":50,"latitude":51.356877,"longitude":6.0565349,"canPickup":true,"canDropoff":true,"openingstijden":null}},{"type":"Feature","geometry":{"type":"Point","coordinates":[5.9726964,51.3533301]},"properties":{"type":"pakketpunt","locatieNaam":"Verstraten Tuincentrum","straatNaam":"Sevenumsedijk 11a","straatNr":"","vervoerder":"VintedGo","puntType":"locker","bezettingsgraad":50,"latitude":51.3533301,"longitude":5.9726964,"canPickup":true,"canDropoff":true,"openingstijden":null}},{"type":"Feature","geometry":{"type":"Point","coordinates":[6.04944,51.2914731]},"properties":{"type":"pakketpunt","locatieNaam":"Plus Phicoop Kessel","straatNaam":"baarskampstraat 29","straatNr":"","vervoerder":"VintedGo","puntType":"locker","bezettingsgraad":50,"latitude":51.2914731,"longitude":6.04944,"canPickup":true,"canDropoff":true,"openingstijden":null}},{"type":"Feature","geometry":{"type":"Point","coordinates":[5.99879,51.31925]},"properties":{"type":"pakketpunt","locatieNaam":"Plus Phicoop Helden","straatNaam":"kaupmanshof 34","straatNr":"","vervoerder":"VintedGo","puntType":"locker","bezettingsgraad":50,"latitude":51.31925,"longitude":5.99879,"canPickup":true,"canDropoff":true,"openingstijden":null}},{"type":"Feature","geometry":{"type":"Point","coordinates":[5.9754447,51.3265727]},"properties":{"type":"pakketpunt","locatieNaam":"Jumbo Cleo","straatNaam":"Kerkstraat 43","straatNr":"","vervoerder":"VintedGo","puntType":"locker","bezettingsgraad":50,"latitude":51.3265727,"longitude":5.9754447,"canPickup":true,"canDropoff":true,"openingstijden":null}},{"type":"Feature","geometry":{"type":"Point","coordinates":[5.8874457,51.3420897]},"properties":{"type":"pakketpunt","locatieNaam":"Hubo Bouwmarkt Meijel","straatNaam":"prins bernhardstraat 1","straatNr":"","vervoerder":"VintedGo","puntType":"locker","bezettingsgraad":50,"latitude":51.3420897,"longitude":5.8874457,"canPickup":true,"canDropoff":true,"openingstijden":null}},{"type":"Feature","geometry":{"type":"Point","coordinates":[6.09519097,51.3312523]},"properties":{"type":"pakketpunt","locatieNaam":"Pakketautomaat","straatNaam":"Grotestraat","straatNr":"11","vervoerder":"GLS","puntType":"locker","bezettingsgraad":50,"latitude":51.3312523,"longitude":6.09519097,"canPickup":true,"canDropoff":true,"openingstijden":{"ma":"08:00 - 20:00","di":"08:00 - 20:00","wo":"08:00 - 20:00","do":"08:00 - 20:00","vr":"08:00 - 21:00","za":"08:00 - 20:00","zo":"10:00 - 18:00"}}},{"type":"Feature","geometry":{"type":"Point","coordinates":[6.0470367,51.3575118]},"properties":{"type":"pakketpunt","locatieNaam":"Drogisterij De Klimop","straatNaam":"Dorpstraat","straatNr":"8 B","vervoerder":"GLS","puntType":"parcel_shop","bezettingsgraad":50,"latitude":51.3575118,"longitude":6.0470367,"canPickup":true,"canDropoff":true,"openingstijden":{"ma":"08:30 - 12:15, 13:15 - 18:00","di":"08:30 - 12:15, 13:15 - 18:00","wo":"08:30 - 12:15, 13:15 - 18:00","do":"08:30 - 12:15, 13:15 - 18:00","vr":"08:30 - 12:15, 13:15 - 18:00","za":"08:30 - 16:00","zo":"00:00 - 00:00"}}},{"type":"Feature","geometry":{"type":"Point","coordinates":[6.04567597,51.3583389]},"properties":{"type":"pakketpunt","locatieNaam":"Pakketautomaat","straatNaam":"Heierveldlaan","straatNr":"10","vervoerder":"GLS","puntType":"locker","bezettingsgraad":50,"latitude":51.3583389,"longitude":6.04567597,"canPickup":true,"canDropoff":true,"openingstijden":{"ma":"00:00 - 23:59","di":"00:00 - 23:59","wo":"00:00 - 23:59","do":"00:00 - 23:59","vr":"00:00 - 23:59","za":"00:00 - 23:59","zo":"00:00 - 23:59"}}},{"type":"Feature","geometry":{"type":"Point","coordinates":[6.04926137,51.2917102]},"properties":{"type":"pakketpunt","locatieNaam":"Pakketautomaat","straatNaam":"Baarskampstraat","straatNr":"29","vervoerder":"GLS","puntType":"locker","bezettingsgraad":50,"latitude":51.2917102,"longitude":6.04926137,"canPickup":true,"canDropoff":true,"openingstijden":{"ma":"00:00 - 23:59","di":"00:00 - 23:59","wo":"00:00 - 23:59","do":"00:00 - 23:59","vr":"00:00 - 23:59","za":"00:00 - 23:59","zo":"00:00 - 23:59"}}},{"type":"Feature","geometry":{"type":"Point","coordinates":[5.99855437,51.3196647]},"properties":{"type":"pakketpunt","locatieNaam":"Pakketautomaat","straatNaam":"Kaupmanshof","straatNr":"24","vervoerder":"GLS","puntType":"locker","bezettingsgraad":50,"latitude":51.3196647,"longitude":5.99855437,"canPickup":true,"canDropoff":true,"openingstijden":{"ma":"09:00 - 18:00","di":"09:00 - 18:00","wo":"09:00 - 18:00","do":"09:00 - 18:00","vr":"09:00 - 18:00","za":"09:00 - 18:00","zo":"12:00 - 17:00"}}},{"type":"Feature","geometry":{"type":"Point","coordinates":[5.98341763,51.3293613]},"properties":{"type":"pakketpunt","locatieNaam":"Pakketautomaat","straatNaam":"Kepringelehof","straatNr":"3","vervoerder":"GLS","puntType":"locker","bezettingsgraad":50,"latitude":51.3293613,"longitude":5.98341763,"canPickup":true,"canDropoff":true,"openingstijden":{"ma":"00:00 - 23:59","di":"00:00 - 23:59","wo":"00:00 - 23:59","do":"00:00 - 23:59","vr":"00:00 - 23:59","za":"00:00 - 23:59","zo":"00:00 - 23:59"}}},{"type":"Feature","geometry":{"type":"Point","coordinates":[5.9726964,51.3533301]},"properties":{"type":"pakketpunt","locatieNaam":"Verstraten Tuincentrum","straatNaam":"Sevenumsedijk","straatNr":"11","vervoerder":"GLS","puntType":"parcel_shop","bezettingsgraad":50,"latitude":51.3533301,"longitude":5.9726964,"canPickup":true,"canDropoff":true,"openingstijden":{"ma":"14:15 - 18:00","di":"11:00 - 18:00","wo":"11:00 - 18:00","do":"11:00 - 18:00","vr":"11:00 - 18:00","za":"09:00 - 16:00","zo":"00:00 - 00:00"}}},{"type":"Feature","geometry":{"type":"Point","coordinates":[5.9817848,51.3293374]},"properties":{"type":"pakketpunt","locatieNaam":"Snuffelshop Gediam","straatNaam":"Markt","straatNr":"83D","vervoerder":"GLS","puntType":"parcel_shop","bezettingsgraad":50,"latitude":51.3293374,"longitude":5.9817848,"canPickup":true,"canDropoff":true,"openingstijden":{"ma":"13:00 - 18:00","di":"09:00 - 18:00","wo":"09:00 - 18:00","do":"09:00 - 18:00","vr":"09:00 - 18:00","za":"09:15 - 16:00","zo":"00:00 - 00:00"}}},{"type":"Feature","geometry":{"type":"Point","coordinates":[5.97557802,51.3267045]},"properties":{"type":"pakketpunt","locatieNaam":"Pakketautomaat","straatNaam":"Kerkstraat","straatNr":"43","vervoerder":"GLS","puntType":"locker","bezettingsgraad":50,"latitude":51.3267045,"longitude":5.97557802,"canPickup":true,"canDropoff":true,"openingstijden":{"ma":"00:00 - 23:59","di":"00:00 - 23:59","wo":"00:00 - 23:59","do":"00:00 - 23:59","vr":"00:00 - 23:59","za":"00:00 - 23:59","zo":"00:00 - 23:59"}}},{"type":"Feature","geometry":{"type":"Point","coordinates":[5.97112776,51.3265022]},"properties":{"type":"pakketpunt","locatieNaam":"Pakketautomaat","straatNaam":"John F. Kennedylaan","straatNr":"28","vervoerder":"GLS","puntType":"locker","bezettingsgraad":50,"latitude":51.3265022,"longitude":5.97112776,"canPickup":true,"canDropoff":true,"openingstijden":{"ma":"00:00 - 23:59","di":"00:00 - 23:59","wo":"00:00 - 23:59","do":"00:00 - 23:59","vr":"00:00 - 23:59","za":"00:00 - 23:59","zo":"00:00 - 23:59"}}},{"type":"Feature","geometry":{"type":"Point","coordinates":[5.94127551,51.3611745]},"properties":{"type":"pakketpunt","locatieNaam":"Pakketautomaat","straatNaam":"Pastoor Vullinghsstraat","straatNr":"3","vervoerder":"GLS","puntType":"locker","bezettingsgraad":50,"latitude":51.3611745,"longitude":5.94127551,"canPickup":true,"canDropoff":true,"openingstijden":{"ma":"00:00 - 23:59","di":"00:00 - 23:59","wo":"00:00 - 23:59","do":"00:00 - 23:59","vr":"00:00 - 23:59","za":"00:00 - 23:59","zo":"00:00 - 23:59"}}},{"type":"Feature","geometry":{"type":"Point","coordinates":[5.94482469,51.3378853]},"properties":{"type":"pakketpunt","locatieNaam":"Pakketautomaat","straatNaam":"Ber Vullingsstraat","straatNr":"2","vervoerder":"GLS","puntType":"locker","bezettingsgraad":50,"latitude":51.3378853,"longitude":5.94482469,"canPickup":true,"canDropoff":true,"openingstijden":{"ma":"00:00 - 23:59","di":"00:00 - 23:59","wo":"00:00 - 23:59","do":"00:00 - 23:59","vr":"00:00 - 23:59","za":"00:00 - 23:59","zo":"00:00 - 00:00"}}},{"type":"Feature","geometry":{"type":"Point","coordinates":[5.891501,51.345308]},"properties":{"type":"pakketpunt","locatieNaam":"Pakketautomaat","straatNaam":"Kerkstraat","straatNr":"25","vervoerder":"GLS","puntType":"locker","bezettingsgraad":50,"latitude":51.345308,"longitude":5.891501,"canPickup":true,"canDropoff":true,"openingstijden":{"ma":"00:00 - 23:59","di":"00:00 - 23:59","wo":"00:00 - 23:59","do":"00:00 - 23:59","vr":"00:00 - 23:59","za":"00:00 - 23:59","zo":"00:00 - 23:59"}}},{"type":"Feature","geometry":{"type":"Point","coordinates":[5.8840851,51.345551]},"properties":{"type":"pakketpunt","locatieNaam":"EP Winkelmolen","straatNaam":"Dorpstraat","straatNr":"24","vervoerder":"GLS","puntType":"parcel_shop","bezettingsgraad":50,"latitude":51.345551,"longitude":5.8840851,"canPickup":true,"canDropoff":true,"openingstijden":{"ma":"00:00 - 00:00","di":"08:30 - 12:30, 13:30 - 18:00","wo":"08:30 - 12:30, 13:30 - 18:00","do":"08:30 - 12:30, 13:30 - 21:00","vr":"08:30 - 12:30, 13:30 - 18:00","za":"08:30 - 16:00","zo":"00:00 - 00:00"}}},{"type":"Feature","geometry":{"type":"Point","coordinates":[5.884085,51.345551]},"properties":{"type":"pakketpunt","locatieNaam":"FedEx OnSite","straatNaam":"DORPSSTRAAT 24","straatNr":"","vervoerder":"FedEx","puntType":"servicepunt","bezettingsgraad":50,"latitude":51.345551,"longitude":5.884085,"canPickup":true,"canDropoff":true,"openingstijden":{"ma":"gesloten","di":"08:30 - 12:30, 13:30 - 18:00","wo":"08:30 - 12:30, 13:30 - 18:00","do":"08:30 - 12:30, 13:30 - 18:00","vr":"08:30 - 12:30, 13:30 - 18:00","za":"09:00 - 16:00","zo":"gesloten"}}},{"type":"Feature","geometry":{"type":"Point","coordinates":[5.891140998620683,51.34524531554776]},"properties":{"type":"pakketpunt","locatieNaam":"FedEx Ship&Get","straatNaam":"Kerkstraat 25 PBA","straatNr":"","vervoerder":"FedEx","puntType":"servicepunt","bezettingsgraad":50,"latitude":51.34524531554776,"longitude":5.891140998620683,"canPickup":true,"canDropoff":true,"openingstijden":{"ma":"00:00 - 23:59","di":"00:00 - 23:59","wo":"00:00 - 23:59","do":"00:00 - 23:59","vr":"00:00 - 23:59","za":"00:00 - 23:59","zo":"00:00 - 23:59"}}},{"type":"Feature","geometry":{"type":"Point","coordinates":[5.9416368723269875,51.36121288055806]},"properties":{"type":"pakketpunt","locatieNaam":"FedEx Ship&Get","straatNaam":"Pastoor Vullinghsstraat 3 PBA","straatNr":"","vervoerder":"FedEx","puntType":"servicepunt","bezettingsgraad":50,"latitude":51.36121288055806,"longitude":5.9416368723269875,"canPickup":true,"canDropoff":true,"openingstijden":{"ma":"00:00 - 23:59","di":"00:00 - 23:59","wo":"00:00 - 23:59","do":"00:00 - 23:59","vr":"00:00 - 23:59","za":"00:00 - 23:59","zo":"00:00 - 23:59"}}},{"type":"Feature","geometry":{"type":"Point","coordinates":[5.944825,51.337885]},"properties":{"type":"pakketpunt","locatieNaam":"FedEx Ship&Get","straatNaam":"Ber Vullingsstraat 2 PBA","straatNr":"","vervoerder":"FedEx","puntType":"servicepunt","bezettingsgraad":50,"latitude":51.337885,"longitude":5.944825,"canPickup":true,"canDropoff":true,"openingstijden":{"ma":"00:00 - 23:59","di":"00:00 - 23:59","wo":"00:00 - 23:59","do":"00:00 - 23:59","vr":"00:00 - 23:59","za":"00:00 - 23:59","zo":"gesloten"}}},{"type":"Feature","geometry":{"type":"Point","coordinates":[5.970737034425393,51.32628436836922]},"properties":{"type":"pakketpunt","locatieNaam":"FedEx Ship&Get","straatNaam":"John F. Kennedylaan 28 PBA","straatNr":"","vervoerder":"FedEx","puntType":"servicepunt","bezettingsgraad":50,"latitude":51.32628436836922,"longitude":5.970737034425393,"canPickup":true,"canDropoff":true,"openingstijden":{"ma":"00:00 - 23:59","di":"00:00 - 23:59","wo":"00:00 - 23:59","do":"00:00 - 23:59","vr":"00:00 - 23:59","za":"00:00 - 23:59","zo":"00:00 - 23:59"}}},{"type":"Feature","geometry":{"type":"Point","coordinates":[5.972719669328885,51.35331581179767]},"properties":{"type":"pakketpunt","locatieNaam":"FedEx OnSite","straatNaam":"SEVENUMSEDIJK 11A","straatNr":"","vervoerder":"FedEx","puntType":"servicepunt","bezettingsgraad":50,"latitude":51.35331581179767,"longitude":5.972719669328885,"canPickup":true,"canDropoff":true,"openingstijden":{"ma":"14:15 - 18:00","di":"11:00 - 18:00","wo":"11:00 - 18:00","do":"11:00 - 18:00","vr":"11:00 - 18:00","za":"09:00 - 16:00","zo":"gesloten"}}},{"type":"Feature","geometry":{"type":"Point","coordinates":[5.981616,51.329451]},"properties":{"type":"pakketpunt","locatieNaam":"FedEx OnSite","straatNaam":"MARKT 83D","straatNr":"","vervoerder":"FedEx","puntType":"servicepunt","bezettingsgraad":50,"latitude":51.329451,"longitude":5.981616,"canPickup":true,"canDropoff":true,"openingstijden":{"ma":"13:00 - 18:00","di":"09:00 - 18:00","wo":"09:00 - 18:00","do":"09:00 - 18:00","vr":"09:00 - 18:00","za":"09:00 - 18:00","zo":"gesloten"}}},{"type":"Feature","geometry":{"type":"Point","coordinates":[5.983459524239727,51.32948186533513]},"properties":{"type":"pakketpunt","locatieNaam":"FedEx Ship&Get","straatNaam":"Kepringelehof 3 PBA","straatNr":"","vervoerder":"FedEx","puntType":"servicepunt","bezettingsgraad":50,"latitude":51.32948186533513,"longitude":5.983459524239727,"canPickup":true,"canDropoff":true,"openingstijden":{"ma":"00:00 - 23:59","di":"00:00 - 23:59","wo":"00:00 - 23:59","do":"00:00 - 23:59","vr":"00:00 - 23:59","za":"00:00 - 23:59","zo":"00:00 - 23:59"}}},{"type":"Feature","geometry":{"type":"Point","coordinates":[6.045867171854318,51.35826915180155]},"properties":{"type":"pakketpunt","locatieNaam":"FedEx Ship&Get","straatNaam":"Heierveldlaan 10 PBA","straatNr":"","vervoerder":"FedEx","puntType":"servicepunt","bezettingsgraad":50,"latitude":51.35826915180155,"longitude":6.045867171854318,"canPickup":true,"canDropoff":true,"openingstijden":{"ma":"00:00 - 23:59","di":"00:00 - 23:59","wo":"00:00 - 23:59","do":"00:00 - 23:59","vr":"00:00 - 23:59","za":"00:00 - 23:59","zo":"00:00 - 23:59"}}},{"type":"Feature","geometry":{"type":"Point","coordinates":[6.047059143254101,51.35751091267641]},"properties":{"type":"pakketpunt","locatieNaam":"FedEx OnSite","straatNaam":"DORPSTRAAT 8B","straatNr":"","vervoerder":"FedEx","puntType":"servicepunt","bezettingsgraad":50,"latitude":51.35751091267641,"longitude":6.047059143254101,"canPickup":true,"canDropoff":true,"openingstijden":{"ma":"08:30 - 18:00","di":"08:30 - 18:00","wo":"08:30 - 18:00","do":"08:30 - 18:00","vr":"08:30 - 18:00","za":"08:30 - 16:00","zo":"gesloten"}}},{"type":"Feature","geometry":{"type":"Point","coordinates":[6.049265465705078,51.291683021825406]},"properties":{"type":"pakketpunt","locatieNaam":"FedEx Ship&Get","straatNaam":"Baarskampstraat 29 PBA","straatNr":"","vervoerder":"FedEx","puntType":"servicepunt","bezettingsgraad":50,"latitude":51.291683021825406,"longitude":6.049265465705078,"canPickup":true,"canDropoff":true,"openingstijden":{"ma":"00:00 - 23:59","di":"00:00 - 23:59","wo":"00:00 - 23:59","do":"00:00 - 23:59","vr":"00:00 - 23:59","za":"00:00 - 23:59","zo":"00:00 - 23:59"}}},{"type":"Feature","geometry":{"type":"Point","coordinates":[6.095048258717823,51.331084332927055]},"properties":{"type":"pakketpunt","locatieNaam":"FedEx Ship&Get","straatNaam":"Grotestraat 11 PBA","straatNr":"","vervoerder":"FedEx","puntType":"servicepunt","bezettingsgraad":50,"latitude":51.331084332927055,"longitude":6.095048258717823,"canPickup":true,"canDropoff":true,"openingstijden":{"ma":"08:00 - 20:00","di":"08:00 - 20:00","wo":"08:00 - 20:00","do":"08:00 - 20:00","vr":"08:00 - 21:00","za":"08:00 - 20:00","zo":"10:00 - 18:00"}}},{"type":"Feature","geometry":{"type":"Point","coordinates":[5.88409,51.34555]},"properties":{"type":"pakketpunt","locatieNaam":"EW WINKELMOLEN","straatNaam":"Dorpsstraat 24","straatNr":"","vervoerder":"InPost","puntType":"servicepunt","bezettingsgraad":50,"latitude":51.34555,"longitude":5.88409,"canPickup":true,"canDropoff":true,"openingstijden":null}},{"type":"Feature","geometry":{"type":"Point","coordinates":[5.9727,51.35333]},"properties":{"type":"pakketpunt","locatieNaam":"VERSTRATEN TUINCENTRUM","straatNaam":"Sevenumsedijk 11a","straatNr":"","vervoerder":"InPost","puntType":"servicepunt","bezettingsgraad":50,"latitude":51.35333,"longitude":5.9727,"canPickup":true,"canDropoff":true,"openingstijden":null}},{"type":"Feature","geometry":{"type":"Point","coordinates":[6.04704,51.35752]},"properties":{"type":"pakketpunt","locatieNaam":"DA DROGISTERIJ DE KLIMOP","straatNaam":"DORPSTRAAT 8B","straatNr":"","vervoerder":"InPost","puntType":"servicepunt","bezettingsgraad":50,"latitude":51.35752,"longitude":6.04704,"canPickup":true,"canDropoff":true,"openingstijden":"L/Ma/Me/J/V 8:30-18,S 8:30-16"}},{"type":"Feature","geometry":{"type":"Point","coordinates":[5.98162,51.32945]},"properties":{"type":"pakketpunt","locatieNaam":"SNUFFELSHOP GEDIAM","straatNaam":"Markt 83D","straatNr":"","vervoerder":"InPost","puntType":"servicepunt","bezettingsgraad":50,"latitude":51.32945,"longitude":5.98162,"canPickup":true,"canDropoff":true,"openingstijden":null}},{"type":"Feature","geometry":{"type":"Point","coordinates":[5.97491,51.32722]},"properties":{"type":"pakketpunt","locatieNaam":"","straatNaam":"Kerkstraat","straatNr":"43","vervoerder":"InPost","puntType":"automaat","bezettingsgraad":50,"latitude":51.32722,"longitude":5.97491,"canPickup":true,"canDropoff":true,"openingstijden":"24/7"}},{"type":"Feature","geometry":{"type":"Point","coordinates":[6.04951,51.29139]},"properties":{"type":"pakketpunt","locatieNaam":"PEEL EN MAAS TABAK KESSEL","straatNaam":"Baarskampstraat 29a","straatNr":"","vervoerder":"InPost","puntType":"servicepunt","bezettingsgraad":50,"latitude":51.29139,"longitude":6.04951,"canPickup":true,"canDropoff":true,"openingstijden":null}},{"type":"Feature","geometry":{"type":"Point","coordinates":[5.99867,51.31969]},"properties":{"type":"pakketpunt","locatieNaam":"GIFT- EN TABAKSHOP HELDEN","straatNaam":"Kaupmanshof 24","straatNr":"","vervoerder":"InPost","puntType":"servicepunt","bezettingsgraad":50,"latitude":51.31969,"longitude":5.99867,"canPickup":true,"canDropoff":true,"openingstijden":null}},{"type":"Feature","geometry":{"type":"Point","coordinates":[6.04933,51.29156]},"properties":{"type":"pakketpunt","locatieNaam":"","straatNaam":"Baarskampstraat","straatNr":"29","vervoerder":"InPost","puntType":"automaat","bezettingsgraad":50,"latitude":51.29156,"longitude":6.04933,"canPickup":true,"canDropoff":true,"openingstijden":"24/7"}},{"type":"Feature","geometry":{"type":"Polygon","coordinates":[[[5.840194,51.346877],[5.83879,51.34534],[5.83855,51.345078],[5.837081,51.343483],[5.836716,51.343087],[5.835822,51.342116],[5.835797,51.342089],[5.834667,51.340862],[5.833431,51.339519],[5.833064,51.33912],[5.832153,51.338132],[5.832076,51.338046],[5.832977,51.337286],[5.83325,51.337054],[5.833502,51.336837],[5.833941,51.336458],[5.834044,51.33637],[5.834418,51.336048],[5.834898,51.335635],[5.836156,51.334552],[5.836248,51.334469],[5.83778,51.333137],[5.837793,51.333126],[5.837802,51.333118],[5.837918,51.333015],[5.837944,51.332994],[5.838084,51.332883],[5.838108,51.33286],[5.838507,51.332515],[5.839272,51.331855],[5.83941,51.331736],[5.839433,51.331716],[5.840016,51.331213],[5.840443,51.330845],[5.841712,51.329751],[5.841951,51.329542],[5.842049,51.329457],[5.843949,51.327794],[5.843985,51.327764],[5.844468,51.327341],[5.844657,51.327175],[5.844841,51.327016],[5.845726,51.326251],[5.845832,51.326159],[5.846297,51.325761],[5.84631,51.325751],[5.847813,51.324447],[5.847831,51.324432],[5.849681,51.322828],[5.849685,51.322826],[5.849784,51.322738],[5.850699,51.321948],[5.852108,51.320729],[5.852142,51.320702],[5.853513,51.320483],[5.853679,51.320448],[5.855218,51.320191],[5.855987,51.320064],[5.855987,51.320074],[5.856893,51.319927],[5.858052,51.319738],[5.858804,51.319616],[5.859191,51.319552],[5.859975,51.319427],[5.860578,51.319331],[5.861588,51.31917],[5.861652,51.31916],[5.862539,51.319019],[5.86337,51.318885],[5.863374,51.318884],[5.864804,51.318658],[5.866478,51.31839],[5.866488,51.318388],[5.86665,51.318362],[5.866877,51.318325],[5.867288,51.31826],[5.868315,51.318097],[5.868363,51.318089],[5.868531,51.318063],[5.870073,51.317817],[5.87161,51.317572],[5.871632,51.317568],[5.871681,51.317561],[5.871739,51.317552],[5.873163,51.317325],[5.874087,51.317177],[5.874898,51.317048],[5.875376,51.316972],[5.87662,51.316769],[5.876668,51.316762],[5.877014,51.316703],[5.877516,51.316623],[5.877823,51.316578],[5.878149,51.316519],[5.878262,51.316502],[5.878358,51.316485],[5.878403,51.316479],[5.878448,51.316471],[5.878729,51.316424],[5.878855,51.316404],[5.878866,51.316402],[5.878888,51.316399],[5.879074,51.316368],[5.879667,51.316268],[5.881189,51.316018],[5.881816,51.315915],[5.882494,51.315804],[5.883165,51.315693],[5.883846,51.315582],[5.883999,51.315557],[5.884023,51.31555],[5.88426,51.31548],[5.884748,51.315336],[5.885434,51.315135],[5.886065,51.314949],[5.886603,51.314794],[5.886635,51.314786],[5.88674,51.314754],[5.886852,51.314722],[5.886896,51.314709],[5.886973,51.314687],[5.889209,51.314025],[5.890417,51.313668],[5.890758,51.313567],[5.892379,51.313092],[5.899266,51.31106],[5.899458,51.311001],[5.900297,51.310758],[5.903505,51.309812],[5.904416,51.309543],[5.905911,51.309105],[5.909948,51.307922],[5.910654,51.307709],[5.910374,51.308201],[5.90987,51.309088],[5.909459,51.30981],[5.908462,51.31157],[5.907816,51.312709],[5.907621,51.313048],[5.907504,51.313252],[5.907567,51.313241],[5.90773,51.313195],[5.90801,51.313118],[5.915334,51.311094],[5.917853,51.310398],[5.919327,51.30999],[5.922792,51.309029],[5.92351,51.30883],[5.932149,51.306454],[5.933604,51.306054],[5.93941,51.304457],[5.942934,51.303487],[5.942993,51.303469],[5.946442,51.302531],[5.954706,51.30028],[5.955604,51.299884],[5.95914,51.298325],[5.96072,51.297628],[5.962325,51.296921],[5.962382,51.296897],[5.962552,51.296825],[5.96607,51.295338],[5.966404,51.295197],[5.968445,51.29432],[5.970215,51.293571],[5.971165,51.293166],[5.971173,51.293163],[5.971177,51.293161],[5.974153,51.291893],[5.97498,51.291542],[5.976749,51.29079],[5.978675,51.289972],[5.978737,51.289945],[5.978791,51.289919],[5.981689,51.288698],[5.983519,51.287932],[5.986409,51.286718],[5.986682,51.286605],[5.987549,51.28624],[6.008272,51.277529],[6.009182,51.275559],[6.009099,51.275507],[6.009196,51.275046],[6.009584,51.273986],[6.010395,51.272628],[6.010731,51.272183],[6.010877,51.27197],[6.010956,51.271783],[6.011015,51.271553],[6.010998,51.27132],[6.010913,51.270962],[6.010809,51.270252],[6.010686,51.269909],[6.010531,51.26961],[6.010396,51.268459],[6.010318,51.267525],[6.010207,51.267343],[6.01002,51.267076],[6.0098,51.266709],[6.009627,51.266344],[6.009597,51.266123],[6.009612,51.265759],[6.009901,51.265923],[6.01041,51.266101],[6.011088,51.266254],[6.012114,51.266436],[6.012654,51.266509],[6.01317,51.266556],[6.014181,51.266564],[6.014424,51.266559],[6.015055,51.266476],[6.015831,51.266326],[6.016631,51.266157],[6.017404,51.266005],[6.017637,51.265969],[6.018592,51.265872],[6.018853,51.26586],[6.019294,51.265856],[6.020663,51.265871],[6.022217,51.265957],[6.022812,51.266012],[6.023771,51.266122],[6.024637,51.266285],[6.025006,51.266388],[6.025591,51.266582],[6.027257,51.26734],[6.027454,51.267446],[6.027676,51.267615],[6.028198,51.268056],[6.028544,51.268625],[6.028866,51.269321],[6.029098,51.270036],[6.029356,51.270984],[6.029687,51.272692],[6.029853,51.273292],[6.030536,51.274027],[6.031238,51.274507],[6.03207,51.274997],[6.033211,51.275636],[6.034239,51.276354],[6.037284,51.278728],[6.037889,51.279187],[6.038499,51.279679],[6.039914,51.280733],[6.04198,51.282094],[6.042999,51.283127],[6.043789,51.283768],[6.04513,51.284759],[6.045815,51.285187],[6.046416,51.285602],[6.048329,51.286392],[6.049058,51.286924],[6.049629,51.287194],[6.050591,51.287649],[6.052878,51.288601],[6.054074,51.289025],[6.055239,51.289392],[6.058425,51.290247],[6.05888,51.289672],[6.059172,51.289589],[6.059427,51.289668],[6.060355,51.289422],[6.060967,51.289236],[6.062241,51.288905],[6.063278,51.288698],[6.063622,51.288705],[6.064272,51.288674],[6.064835,51.288673],[6.066001,51.288701],[6.066381,51.288793],[6.066819,51.288881],[6.067056,51.289003],[6.067589,51.289341],[6.068384,51.289912],[6.068777,51.290282],[6.06905,51.290514],[6.069328,51.290804],[6.069975,51.291431],[6.070034,51.291523],[6.0705,51.292445],[6.070568,51.292613],[6.070593,51.292711],[6.070582,51.292805],[6.070771,51.292845],[6.071051,51.293079],[6.070891,51.293677],[6.077597,51.295258],[6.080515,51.296148],[6.081227,51.296394],[6.083642,51.297053],[6.084717,51.297454],[6.08591,51.297904],[6.087897,51.298644],[6.089139,51.29924],[6.090817,51.300326],[6.092282,51.301322],[6.092628,51.301572],[6.093964,51.302633],[6.095619,51.304364],[6.096056,51.304783],[6.097312,51.305667],[6.098556,51.306413],[6.100454,51.307214],[6.101953,51.308071],[6.102621,51.308519],[6.103552,51.309267],[6.104213,51.310216],[6.10482,51.31087],[6.105227,51.311374],[6.105585,51.311787],[6.105915,51.312143],[6.107368,51.313879],[6.109334,51.316181],[6.109772,51.316758],[6.110562,51.317613],[6.111291,51.318298],[6.111439,51.318427],[6.112839,51.319466],[6.113819,51.320347],[6.114509,51.321011],[6.11539,51.321999],[6.116233,51.323206],[6.116877,51.325774],[6.117353,51.326817],[6.117524,51.327191],[6.117575,51.327331],[6.117945,51.328503],[6.118097,51.329218],[6.118153,51.329513],[6.11819,51.329752],[6.1182,51.329925],[6.118092,51.330439],[6.117984,51.330946],[6.11796,51.331048],[6.117666,51.33196],[6.1173,51.333127],[6.117025,51.333876],[6.117002,51.333935],[6.116969,51.334012],[6.116878,51.334227],[6.116859,51.334275],[6.116829,51.334355],[6.1168,51.33444],[6.116779,51.334529],[6.116755,51.334627],[6.116735,51.334713],[6.11668,51.334942],[6.116609,51.335242],[6.116553,51.335502],[6.116546,51.335561],[6.116477,51.336084],[6.116451,51.336354],[6.116418,51.336576],[6.116408,51.336668],[6.116404,51.336713],[6.116418,51.337423],[6.11642,51.337514],[6.116428,51.337601],[6.116464,51.338024],[6.116475,51.338148],[6.116485,51.338231],[6.116499,51.338321],[6.116536,51.338532],[6.116593,51.338881],[6.116608,51.338951],[6.11662,51.339005],[6.116643,51.339076],[6.116657,51.33911],[6.116913,51.339435],[6.117108,51.339684],[6.117203,51.339774],[6.117464,51.340066],[6.118796,51.341017],[6.119139,51.341229],[6.120125,51.341837],[6.120357,51.341952],[6.121841,51.342689],[6.123254,51.34337],[6.122645,51.34388],[6.12206,51.34437],[6.122642,51.34468],[6.121632,51.345375],[6.121027,51.34583],[6.121123,51.345858],[6.119905,51.346687],[6.118773,51.345931],[6.117553,51.346901],[6.117055,51.347329],[6.11515,51.349046],[6.114002,51.350188],[6.113151,51.350985],[6.113027,51.3511],[6.112467,51.351624],[6.111416,51.352363],[6.1071,51.356003],[6.106908,51.356058],[6.105791,51.35622],[6.1057,51.356225],[6.105704,51.356233],[6.101838,51.356795],[6.100483,51.356981],[6.099655,51.357097],[6.098803,51.358693],[6.098555,51.359311],[6.098305,51.359819],[6.098271,51.359812],[6.097733,51.360819],[6.097655,51.360807],[6.097094,51.361917],[6.09671,51.362732],[6.096739,51.362758],[6.096655,51.362849],[6.096556,51.363027],[6.094939,51.365605],[6.094898,51.365662],[6.094819,51.365772],[6.092725,51.36867],[6.092645,51.368801],[6.092293,51.369168],[6.092008,51.369579],[6.092229,51.369678],[6.091942,51.370074],[6.091067,51.371595],[6.087591,51.370335],[6.087283,51.371569],[6.086234,51.372596],[6.084231,51.374076],[6.077587,51.378173],[6.088837,51.385095],[6.090459,51.385911],[6.090397,51.388368],[6.090379,51.388463],[6.090389,51.388678],[6.090377,51.389022],[6.090374,51.38911],[6.090321,51.389112],[6.090209,51.389069],[6.090122,51.389093],[6.089453,51.389141],[6.088918,51.389234],[6.088608,51.3893],[6.087948,51.389441],[6.08755,51.389557],[6.087207,51.389673],[6.086868,51.389807],[6.086504,51.38997],[6.086169,51.390152],[6.085728,51.390434],[6.085674,51.390464],[6.085584,51.390477],[6.085179,51.390771],[6.084806,51.391097],[6.084408,51.391493],[6.084197,51.391749],[6.083903,51.392187],[6.083803,51.392384],[6.083728,51.392571],[6.083383,51.392514],[6.081498,51.392146],[6.080878,51.393057],[6.080628,51.39312],[6.080392,51.393202],[6.080213,51.393279],[6.079834,51.39347],[6.079574,51.393582],[6.0794,51.393644],[6.079178,51.393704],[6.07878,51.393771],[6.078354,51.393806],[6.078048,51.393815],[6.077624,51.393807],[6.077461,51.394105],[6.077305,51.39439],[6.077304,51.394393],[6.075686,51.394099],[6.075235,51.393979],[6.074431,51.393822],[6.073623,51.395028],[6.073126,51.395729],[6.070099,51.395154],[6.07005,51.395141],[6.064248,51.393687],[6.063163,51.393415],[6.062997,51.393374],[6.0625,51.393249],[6.060567,51.392764],[6.059291,51.392445],[6.058769,51.392314],[6.058767,51.392313],[6.058332,51.392204],[6.058266,51.392187],[6.05117,51.390408],[6.051054,51.390379],[6.049771,51.390057],[6.048079,51.389633],[6.047684,51.389534],[6.047585,51.389509],[6.047513,51.38949],[6.046758,51.389293],[6.042947,51.388299],[6.042823,51.388266],[6.042553,51.388196],[6.04201,51.388062],[6.040388,51.387662],[6.040248,51.387627],[6.038185,51.387111],[6.037416,51.386919],[6.035887,51.386537],[6.035555,51.386454],[6.03366,51.385981],[6.03221,51.385618],[6.032114,51.385594],[6.029322,51.384896],[6.028439,51.384675],[6.027267,51.384389],[6.027171,51.384364],[6.027076,51.38434],[6.026035,51.384076],[6.025092,51.383835],[6.023932,51.38354],[6.023924,51.383538],[6.023888,51.383529],[6.023851,51.383519],[6.022127,51.383081],[6.022045,51.38306],[6.022013,51.383053],[6.020871,51.382773],[6.020846,51.382766],[6.02075,51.382743],[6.019244,51.382374],[6.018766,51.382257],[6.017424,51.382004],[6.013718,51.381286],[6.009707,51.380508],[6.007708,51.38012],[6.007624,51.380106],[6.007262,51.380044],[6.006857,51.379975],[6.006808,51.379965],[6.006677,51.379959],[6.006179,51.379902],[6.00565,51.379849],[6.00554,51.379838],[6.004844,51.379769],[6.003986,51.379684],[5.999731,51.37926],[5.998312,51.379119],[5.995475,51.378836],[5.994057,51.378695],[5.992638,51.378553],[5.99157,51.378435],[5.990461,51.378333],[5.990405,51.378328],[5.98993,51.378239],[5.989833,51.378221],[5.989122,51.378203],[5.988981,51.378202],[5.988188,51.378196],[5.987946,51.378194],[5.987007,51.378187],[5.986873,51.378186],[5.98651,51.378183],[5.985712,51.378177],[5.985579,51.378176],[5.985519,51.378175],[5.985073,51.378172],[5.984676,51.378172],[5.983646,51.37816],[5.982109,51.378149],[5.981896,51.378149],[5.98134,51.378144],[5.977538,51.378116],[5.976095,51.378105],[5.974015,51.37809],[5.973556,51.378087],[5.972586,51.378085],[5.97218,51.378084],[5.971532,51.378082],[5.96173,51.378059],[5.957897,51.37805],[5.957703,51.378143],[5.957692,51.378149],[5.95758,51.378205],[5.952646,51.380585],[5.952194,51.380801],[5.949663,51.382013],[5.948332,51.382651],[5.948206,51.382712],[5.947429,51.383085],[5.947327,51.383134],[5.945195,51.38335],[5.945191,51.38335],[5.9388,51.383995],[5.93863,51.384012],[5.938357,51.384039],[5.933683,51.384512],[5.933082,51.384572],[5.93224,51.384657],[5.931323,51.384749],[5.931287,51.384753],[5.927141,51.382447],[5.92449,51.380974],[5.922196,51.3797],[5.919242,51.378059],[5.918704,51.37776],[5.918152,51.377453],[5.917272,51.376964],[5.916392,51.376475],[5.915291,51.375859],[5.912383,51.374246],[5.91071,51.373316],[5.910572,51.373239],[5.909594,51.372695],[5.908374,51.372017],[5.907617,51.371596],[5.906861,51.371175],[5.906163,51.370787],[5.904866,51.370067],[5.904182,51.369686],[5.902269,51.368622],[5.901047,51.367942],[5.900356,51.367558],[5.899313,51.366977],[5.89827,51.366397],[5.897024,51.365704],[5.895778,51.36501],[5.895682,51.364957],[5.895273,51.364729],[5.892545,51.363221],[5.892435,51.36316],[5.892325,51.363098],[5.891751,51.362779],[5.891242,51.362496],[5.891177,51.362459],[5.890988,51.362354],[5.890797,51.362249],[5.890744,51.362218],[5.889733,51.361657],[5.88926,51.361395],[5.889183,51.361353],[5.889177,51.361349],[5.888623,51.361042],[5.888069,51.360734],[5.887239,51.360273],[5.886456,51.359839],[5.885673,51.359404],[5.885496,51.359306],[5.885352,51.359226],[5.885205,51.359144],[5.884988,51.359024],[5.884769,51.358902],[5.884532,51.35877],[5.884294,51.358638],[5.88417,51.35857],[5.884047,51.358502],[5.883807,51.358368],[5.882767,51.357791],[5.882236,51.357496],[5.882186,51.357469],[5.88187,51.357293],[5.88167,51.357182],[5.881373,51.357017],[5.881262,51.356956],[5.881152,51.356895],[5.880869,51.356737],[5.880585,51.35658],[5.879959,51.356232],[5.879289,51.35586],[5.879142,51.355779],[5.879041,51.355722],[5.878844,51.355613],[5.878699,51.355533],[5.878501,51.355428],[5.878162,51.355246],[5.877823,51.355065],[5.877683,51.35499],[5.877002,51.354625],[5.876487,51.35435],[5.87632,51.35426],[5.87601,51.3541],[5.875929,51.354056],[5.875716,51.353943],[5.87533,51.353738],[5.875263,51.353701],[5.874543,51.353313],[5.87036,51.352535],[5.865948,51.3517],[5.865795,51.351671],[5.864398,51.351407],[5.864128,51.351356],[5.863494,51.351236],[5.862328,51.351019],[5.860938,51.350759],[5.860903,51.350753],[5.860243,51.350628],[5.859863,51.350557],[5.859519,51.350492],[5.859024,51.350399],[5.858878,51.350372],[5.858818,51.350361],[5.858783,51.350354],[5.858527,51.350307],[5.858433,51.350288],[5.85565,51.349768],[5.854766,51.349603],[5.85105,51.348908],[5.850926,51.348885],[5.850914,51.348882],[5.850025,51.348716],[5.848223,51.348379],[5.847475,51.348239],[5.846521,51.348061],[5.846286,51.348017],[5.845956,51.347955],[5.845822,51.34793],[5.844579,51.347698],[5.84383,51.347557],[5.840194,51.346877]]]},"properties":{"type":"boundary","gemeente":"Peel en Maas"}}]}