{"type":"FeatureCollection","metadata":{"gemeente":"Reimerswaal","slug":"reimerswaal","generated_at":"2026-10-05T09:02:51.452591Z","total_points":30,"providers":["Amazon","DHL","DPD","PostNL","VintedGo","ViaTim","FedEx","InPost","Budbee"],"bounds":[4.00407,51.41648,4.181800587,51.50038496]},"features":[{"type":"Feature","geometry":{"type":"Point","coordinates":[4.11372804609941,51.4298522219712]},"properties":{"type":"pakketpunt","locatieNaam":"Hubo Krabbendijke","straatNaam":"Dorpsstraat 46 A","straatNr":"","vervoerder":"Amazon","puntType":"3p","bezettingsgraad":50,"latitude":51.4298522219712,"longitude":4.11372804609941,"canPickup":true,"canDropoff":false,"openingstijden":null}},{"type":"Feature","geometry":{"type":"Point","coordinates":[4.052121412999973,51.48090296181093]},"properties":{"type":"pakketpunt","locatieNaam":"DHL - Pakketautomaat AVIA Yerseke","straatNaam":"Kreeft 1","straatNr":"","vervoerder":"Amazon","puntType":"3p","bezettingsgraad":50,"latitude":51.48090296181093,"longitude":4.052121412999973,"canPickup":true,"canDropoff":false,"openingstijden":null}},{"type":"Feature","geometry":{"type":"Point","coordinates":[4.068697,51.416481]},"properties":{"type":"pakketpunt","locatieNaam":"DHL Buurtpunt ViaTim & Floz Design","straatNaam":"Havenstraat","straatNr":"3","vervoerder":"DHL","puntType":"parcelShop","bezettingsgraad":50,"latitude":51.416481,"longitude":4.068697,"canPickup":true,"canDropoff":true,"openingstijden":{"ma":"16:00 - 20:00","di":"16:00 - 20:00","wo":"16:00 - 20:00","do":"16:00 - 20:00","vr":"16:00 - 20:00","za":"gesloten","zo":"gesloten"}}},{"type":"Feature","geometry":{"type":"Point","coordinates":[4.0736605,51.4458074]},"properties":{"type":"pakketpunt","locatieNaam":"DHL Buurtpunt ViaTim & Johanna","straatNaam":"2e Vlietweg","straatNr":"18-B","vervoerder":"DHL","puntType":"parcelShop","bezettingsgraad":50,"latitude":51.4458074,"longitude":4.0736605,"canPickup":true,"canDropoff":true,"openingstijden":{"ma":"16:00 - 21:00","di":"16:00 - 21:00","wo":"16:00 - 21:00","do":"16:00 - 21:00","vr":"16:00 - 21:00","za":"09:00 - 12:00","zo":"gesloten"}}},{"type":"Feature","geometry":{"type":"Point","coordinates":[4.117983,51.42854]},"properties":{"type":"pakketpunt","locatieNaam":"Bike Totaal Vermare","straatNaam":"Oostweg","straatNr":"27","vervoerder":"DHL","puntType":"parcelShop","bezettingsgraad":50,"latitude":51.42854,"longitude":4.117983,"canPickup":true,"canDropoff":true,"openingstijden":{"ma":"08:00 - 20:00","di":"08:00 - 20:00","wo":"08:00 - 20:00","do":"08:00 - 20:00","vr":"08:00 - 20:00","za":"08:00 - 17:00","zo":"gesloten"}}},{"type":"Feature","geometry":{"type":"Point","coordinates":[4.052121412999973,51.48090296181093]},"properties":{"type":"pakketpunt","locatieNaam":"Pakketautomaat AVIA Yerseke","straatNaam":"Kreeft","straatNr":"1","vervoerder":"DHL","puntType":"packStation","bezettingsgraad":50,"latitude":51.48090296181093,"longitude":4.052121412999973,"canPickup":true,"canDropoff":true,"openingstijden":{"ma":"00:00 - 23:59","di":"00:00 - 23:59","wo":"00:00 - 23:59","do":"00:00 - 23:59","vr":"00:00 - 23:59","za":"00:00 - 23:59","zo":"00:00 - 23:59"}}},{"type":"Feature","geometry":{"type":"Point","coordinates":[4.050871,51.494674]},"properties":{"type":"pakketpunt","locatieNaam":"Enorm Harthoorn","straatNaam":"Kaaistraat","straatNr":"8","vervoerder":"DHL","puntType":"parcelShop","bezettingsgraad":50,"latitude":51.494674,"longitude":4.050871,"canPickup":true,"canDropoff":true,"openingstijden":{"ma":"07:45 - 12:00, 13:00 - 18:00","di":"07:45 - 12:00, 13:00 - 18:00","wo":"07:45 - 12:00, 13:00 - 18:00","do":"07:45 - 12:00, 13:00 - 18:00","vr":"07:45 - 12:00, 13:00 - 18:00","za":"07:45 - 16:00","zo":"gesloten"}}},{"type":"Feature","geometry":{"type":"Point","coordinates":[4.0498187,51.4919977]},"properties":{"type":"pakketpunt","locatieNaam":"Electro World Yerseke","straatNaam":"Dreef","straatNr":"2","vervoerder":"DHL","puntType":"parcelShop","bezettingsgraad":50,"latitude":51.4919977,"longitude":4.0498187,"canPickup":true,"canDropoff":true,"openingstijden":{"ma":"13:00 - 18:00","di":"09:00 - 12:00, 13:00 - 18:00","wo":"09:00 - 12:00, 13:00 - 18:00","do":"09:00 - 12:00, 13:00 - 18:00","vr":"09:00 - 12:00, 13:00 - 20:00","za":"09:00 - 16:00","zo":"gesloten"}}},{"type":"Feature","geometry":{"type":"Point","coordinates":[4.11791,51.42839]},"properties":{"type":"pakketpunt","locatieNaam":"Biketotaal Vermare","straatNaam":"OOSTWEG","straatNr":"27","vervoerder":"DPD","puntType":"pickup_point","bezettingsgraad":50,"latitude":51.42839,"longitude":4.11791,"canPickup":true,"canDropoff":true,"openingstijden":{"ma":"08:00 - 18:00, 19:00 - 20:30","di":"08:00 - 18:00, 19:00 - 20:30","wo":"08:00 - 18:00, 19:00 - 20:30","do":"08:00 - 18:00, 19:00 - 20:30","vr":"08:00 - 18:00, 19:00 - 20:30","za":"08:00 - 17:00","zo":"gesloten"}}},{"type":"Feature","geometry":{"type":"Point","coordinates":[4.05078,51.49474]},"properties":{"type":"pakketpunt","locatieNaam":"Enorm Harthoorn","straatNaam":"KAAISTRAAT","straatNr":"8","vervoerder":"DPD","puntType":"pickup_point","bezettingsgraad":50,"latitude":51.49474,"longitude":4.05078,"canPickup":true,"canDropoff":true,"openingstijden":{"ma":"07:45 - 12:00, 13:00 - 18:00","di":"07:45 - 12:00, 13:00 - 18:00","wo":"07:45 - 12:00, 13:00 - 18:00","do":"07:45 - 12:00, 13:00 - 18:00","vr":"07:45 - 12:00, 13:00 - 18:00","za":"07:45 - 16:00","zo":"gesloten"}}},{"type":"Feature","geometry":{"type":"Point","coordinates":[4.0736605,51.4458074]},"properties":{"type":"pakketpunt","locatieNaam":"ViaTim & Johanna","straatNaam":"2E VLIETWEG","straatNr":"18 b","vervoerder":"DPD","puntType":"pickup_point","bezettingsgraad":50,"latitude":51.4458074,"longitude":4.0736605,"canPickup":true,"canDropoff":true,"openingstijden":{"ma":"16:00 - 21:00","di":"16:00 - 21:00","wo":"16:00 - 21:00","do":"16:00 - 21:00","vr":"16:00 - 21:00","za":"09:00 - 12:00","zo":"gesloten"}}},{"type":"Feature","geometry":{"type":"Point","coordinates":[4.11372804609941,51.4298522219712]},"properties":{"type":"pakketpunt","locatieNaam":"Hubo Krabbendijke","straatNaam":"Dorpsstraat","straatNr":"46A","vervoerder":"PostNL","puntType":"servicepunt","bezettingsgraad":50,"latitude":51.4298522219712,"longitude":4.11372804609941,"canPickup":true,"canDropoff":true,"openingstijden":"08:30 - 18:00 (Na 18:00 open; Zaterdag open)"}},{"type":"Feature","geometry":{"type":"Point","coordinates":[4.07611186,51.44219183]},"properties":{"type":"pakketpunt","locatieNaam":"Dagbesteding De Putter","straatNaam":"Lavendeldijk","straatNr":"4B","vervoerder":"PostNL","puntType":"servicepunt","bezettingsgraad":50,"latitude":51.44219183,"longitude":4.07611186,"canPickup":true,"canDropoff":true,"openingstijden":"08:30 - 12:00, 13:00 - 17:00"}},{"type":"Feature","geometry":{"type":"Point","coordinates":[4.03328878051,51.44941591023]},"properties":{"type":"pakketpunt","locatieNaam":"DA Kruiningen B.V.","straatNaam":"Hoofdstraat","straatNr":"69","vervoerder":"PostNL","puntType":"servicepunt","bezettingsgraad":50,"latitude":51.44941591023,"longitude":4.03328878051,"canPickup":true,"canDropoff":true,"openingstijden":"13:00 - 17:30 (Zaterdag open)"}},{"type":"Feature","geometry":{"type":"Point","coordinates":[4.181800587,51.41650692]},"properties":{"type":"pakketpunt","locatieNaam":"Spar Hak Rilland","straatNaam":"Hoofdweg","straatNr":"25","vervoerder":"PostNL","puntType":"servicepunt","bezettingsgraad":50,"latitude":51.41650692,"longitude":4.181800587,"canPickup":true,"canDropoff":true,"openingstijden":"08:00 - 20:00 (Na 18:00 open; Zaterdag open)"}},{"type":"Feature","geometry":{"type":"Point","coordinates":[4.18178645181035,51.4164977876985]},"properties":{"type":"pakketpunt","locatieNaam":"Pakketautomaat","straatNaam":"Hoofdweg","straatNr":"25PBA","vervoerder":"PostNL","puntType":"automaat","bezettingsgraad":50,"latitude":51.4164977876985,"longitude":4.18178645181035,"canPickup":true,"canDropoff":true,"openingstijden":"00:00 - 23:59"}},{"type":"Feature","geometry":{"type":"Point","coordinates":[4.05039310455322,51.4943934273401]},"properties":{"type":"pakketpunt","locatieNaam":"Hoekman Boekhandel Plus","straatNaam":"Noordzandstraat","straatNr":"34","vervoerder":"PostNL","puntType":"servicepunt","bezettingsgraad":50,"latitude":51.4943934273401,"longitude":4.05039310455322,"canPickup":true,"canDropoff":true,"openingstijden":"13:00 - 18:00 (Na 18:00 open; Zaterdag open)"}},{"type":"Feature","geometry":{"type":"Point","coordinates":[4.00607769952397,51.447667599928]},"properties":{"type":"pakketpunt","locatieNaam":"Pakketautomaat","straatNaam":"Leklaan","straatNr":"2PBA","vervoerder":"PostNL","puntType":"automaat","bezettingsgraad":50,"latitude":51.447667599928,"longitude":4.00607769952397,"canPickup":true,"canDropoff":true,"openingstijden":"00:00 - 23:59"}},{"type":"Feature","geometry":{"type":"Point","coordinates":[4.00407,51.44738]},"properties":{"type":"pakketpunt","locatieNaam":"E. Leijs","straatNaam":"Nieuwstraat 17","straatNr":"","vervoerder":"VintedGo","puntType":"social","bezettingsgraad":50,"latitude":51.44738,"longitude":4.00407,"canPickup":true,"canDropoff":true,"openingstijden":null}},{"type":"Feature","geometry":{"type":"Point","coordinates":[4.0687,51.41648]},"properties":{"type":"pakketpunt","locatieNaam":" Floz Design","straatNaam":"Havenstraat 3","straatNr":"","vervoerder":"VintedGo","puntType":"social","bezettingsgraad":50,"latitude":51.41648,"longitude":4.0687,"canPickup":true,"canDropoff":true,"openingstijden":null}},{"type":"Feature","geometry":{"type":"Point","coordinates":[4.1178,51.42842]},"properties":{"type":"pakketpunt","locatieNaam":"Biketotaalvermare","straatNaam":"Oostweg 27","straatNr":"","vervoerder":"VintedGo","puntType":"parcel_shop","bezettingsgraad":50,"latitude":51.42842,"longitude":4.1178,"canPickup":true,"canDropoff":true,"openingstijden":null}},{"type":"Feature","geometry":{"type":"Point","coordinates":[4.04948658,51.50038496]},"properties":{"type":"pakketpunt","locatieNaam":"Verhuurservice Yerseke","straatNaam":"Industrieweg 14","straatNr":"","vervoerder":"VintedGo","puntType":"locker","bezettingsgraad":50,"latitude":51.50038496,"longitude":4.04948658,"canPickup":true,"canDropoff":true,"openingstijden":null}},{"type":"Feature","geometry":{"type":"Point","coordinates":[4.116036,51.4332217]},"properties":{"type":"pakketpunt","locatieNaam":"Cafe Stationskoffiehuis","straatNaam":"Spoorlaan 22","straatNr":"","vervoerder":"VintedGo","puntType":"locker","bezettingsgraad":50,"latitude":51.4332217,"longitude":4.116036,"canPickup":true,"canDropoff":true,"openingstijden":null}},{"type":"Feature","geometry":{"type":"Point","coordinates":[4.076995828565488,51.44388514591859]},"properties":{"type":"pakketpunt","locatieNaam":"ViaTim en Johanna","straatNaam":"2e Vlietweg","straatNr":"18B","vervoerder":"ViaTim","puntType":"servicepunt","bezettingsgraad":50,"latitude":51.44388514591859,"longitude":4.076995828565488,"canPickup":true,"canDropoff":true,"openingstijden":{"ma":"16:00 - 21:00","di":"16:00 - 21:00","wo":"16:00 - 21:00","do":"16:00 - 21:00","vr":"16:00 - 21:00","za":"09:00 - 12:00","zo":"gesloten"}}},{"type":"Feature","geometry":{"type":"Point","coordinates":[4.06869725491233,51.4164809554405]},"properties":{"type":"pakketpunt","locatieNaam":"ViaTim & Floz Design","straatNaam":"Havenstraat","straatNr":"3","vervoerder":"ViaTim","puntType":"servicepunt","bezettingsgraad":50,"latitude":51.4164809554405,"longitude":4.06869725491233,"canPickup":true,"canDropoff":true,"openingstijden":{"ma":"16:00 - 20:00","di":"16:00 - 20:00","wo":"16:00 - 20:00","do":"16:00 - 20:00","vr":"16:00 - 20:00","za":"gesloten","zo":"gesloten"}}},{"type":"Feature","geometry":{"type":"Point","coordinates":[4.181786,51.416498]},"properties":{"type":"pakketpunt","locatieNaam":"FedEx Ship&Get","straatNaam":"Hoofdweg 25 PBA","straatNr":"","vervoerder":"FedEx","puntType":"servicepunt","bezettingsgraad":50,"latitude":51.416498,"longitude":4.181786,"canPickup":true,"canDropoff":true,"openingstijden":{"ma":"00:00 - 23:59","di":"00:00 - 23:59","wo":"00:00 - 23:59","do":"00:00 - 23:59","vr":"00:00 - 23:59","za":"00:00 - 23:59","zo":"00:00 - 23:59"}}},{"type":"Feature","geometry":{"type":"Point","coordinates":[4.118019,51.428456]},"properties":{"type":"pakketpunt","locatieNaam":"FedEx OnSite","straatNaam":"OOSTWEG 27","straatNr":"","vervoerder":"FedEx","puntType":"servicepunt","bezettingsgraad":50,"latitude":51.428456,"longitude":4.118019,"canPickup":true,"canDropoff":true,"openingstijden":{"ma":"08:00 - 12:00, 13:00 - 20:00","di":"08:00 - 12:00, 13:00 - 20:00","wo":"08:00 - 12:00, 13:00 - 20:00","do":"08:00 - 12:00, 13:00 - 20:00","vr":"08:00 - 12:00, 13:00 - 20:00","za":"08:00 - 12:00, 13:00 - 17:00","zo":"gesloten"}}},{"type":"Feature","geometry":{"type":"Point","coordinates":[4.11802,51.42846]},"properties":{"type":"pakketpunt","locatieNaam":"BIKE TOTAAL VERMARE","straatNaam":"Oostweg 27","straatNr":"","vervoerder":"InPost","puntType":"servicepunt","bezettingsgraad":50,"latitude":51.42846,"longitude":4.11802,"canPickup":true,"canDropoff":true,"openingstijden":null}},{"type":"Feature","geometry":{"type":"Point","coordinates":[4.04981,51.5003]},"properties":{"type":"pakketpunt","locatieNaam":"","straatNaam":"Industrieweg","straatNr":"14","vervoerder":"InPost","puntType":"automaat","bezettingsgraad":50,"latitude":51.5003,"longitude":4.04981,"canPickup":true,"canDropoff":true,"openingstijden":"24/7"}},{"type":"Feature","geometry":{"type":"Point","coordinates":[4.049641,51.4915245]},"properties":{"type":"pakketpunt","locatieNaam":"Budbee","straatNaam":"","straatNr":"","vervoerder":"Budbee","puntType":"automaat","bezettingsgraad":50,"latitude":51.4915245,"longitude":4.049641,"canPickup":true,"canDropoff":true,"openingstijden":null}},{"type":"Feature","geometry":{"type":"Polygon","coordinates":[[[3.935352,51.447013],[3.935374,51.446987],[3.937067,51.44547],[3.937506,51.445076],[3.942131,51.440928],[3.947391,51.436208],[3.957272,51.42734],[3.963209,51.42201],[3.963784,51.421991],[3.963818,51.42199],[3.989085,51.42117],[4.000746,51.42079],[4.019778,51.420167],[4.020422,51.419478],[4.020766,51.419112],[4.021441,51.41839],[4.02636,51.413131],[4.029083,51.410219],[4.036289,51.402511],[4.036995,51.401754],[4.036998,51.401751],[4.037396,51.401326],[4.045706,51.392432],[4.048075,51.389895],[4.051029,51.389945],[4.063009,51.390147],[4.078791,51.39041],[4.079679,51.390425],[4.079752,51.390426],[4.089097,51.39058],[4.113544,51.390982],[4.114948,51.391005],[4.111438,51.38418],[4.108553,51.37857],[4.102551,51.366862],[4.111303,51.367881],[4.113632,51.368441],[4.114156,51.368569],[4.11462,51.368665],[4.11513,51.36872],[4.116023,51.368822],[4.117498,51.368933],[4.118529,51.368998],[4.119338,51.369026],[4.121622,51.369079],[4.122171,51.369069],[4.122686,51.369076],[4.123231,51.36906],[4.12402,51.369014],[4.125195,51.368947],[4.126491,51.368868],[4.127235,51.368852],[4.127544,51.368858],[4.127927,51.368865],[4.128496,51.368877],[4.129232,51.368931],[4.129905,51.368984],[4.13118,51.369127],[4.132536,51.36928],[4.13419,51.369469],[4.135516,51.36963],[4.136421,51.36977],[4.13757,51.369924],[4.137787,51.369955],[4.139358,51.370178],[4.140282,51.37031],[4.140678,51.370376],[4.141025,51.370435],[4.141599,51.370552],[4.142824,51.370819],[4.143955,51.371058],[4.144848,51.371252],[4.145961,51.371505],[4.146652,51.371688],[4.14738,51.371914],[4.148161,51.372162],[4.149158,51.372505],[4.150499,51.372991],[4.152033,51.373549],[4.152709,51.373805],[4.15326,51.374007],[4.153403,51.374056],[4.15355,51.374106],[4.153768,51.374174],[4.154337,51.374301],[4.155293,51.374498],[4.155766,51.3746],[4.156213,51.374715],[4.156779,51.374863],[4.157486,51.375092],[4.158439,51.375457],[4.15975,51.375975],[4.160267,51.376154],[4.160793,51.376355],[4.161552,51.376594],[4.162431,51.376872],[4.162875,51.377024],[4.163537,51.3772],[4.164368,51.377398],[4.165176,51.377597],[4.165785,51.377727],[4.166215,51.377816],[4.166301,51.377829],[4.166717,51.377889],[4.167571,51.377978],[4.168522,51.378068],[4.169023,51.378119],[4.169527,51.378203],[4.170969,51.378591],[4.17236,51.379004],[4.173131,51.379233],[4.174197,51.379521],[4.174901,51.379702],[4.175539,51.379897],[4.175999,51.380085],[4.177289,51.380693],[4.178571,51.381308],[4.179666,51.381867],[4.180544,51.382279],[4.181008,51.382491],[4.181705,51.382732],[4.182529,51.383009],[4.183455,51.383268],[4.184075,51.383421],[4.184813,51.383618],[4.185514,51.383744],[4.186084,51.383839],[4.186932,51.383925],[4.187859,51.383989],[4.190115,51.384571],[4.190787,51.384835],[4.191141,51.385025],[4.191594,51.385269],[4.192139,51.385499],[4.192754,51.385757],[4.193503,51.386008],[4.194417,51.386292],[4.194806,51.386376],[4.195175,51.386455],[4.196315,51.386715],[4.197046,51.38688],[4.197865,51.387019],[4.19899,51.387177],[4.199958,51.387295],[4.201145,51.387403],[4.202387,51.387492],[4.20346,51.387541],[4.204535,51.387562],[4.205208,51.38753],[4.206022,51.387469],[4.206743,51.387362],[4.207332,51.387178],[4.207786,51.386994],[4.208342,51.386661],[4.208583,51.386427],[4.208916,51.386013],[4.209043,51.385767],[4.209221,51.385209],[4.209224,51.385201],[4.20964,51.383795],[4.210104,51.382175],[4.210619,51.380387],[4.210887,51.379728],[4.211057,51.379317],[4.211446,51.378686],[4.212077,51.377772],[4.212644,51.376882],[4.212811,51.376615],[4.213007,51.376282],[4.213178,51.375884],[4.21338,51.375406],[4.213713,51.374635],[4.214262,51.373311],[4.214522,51.372698],[4.214837,51.371981],[4.215352,51.370972],[4.215826,51.37009],[4.216253,51.369356],[4.216669,51.368763],[4.217126,51.368084],[4.217427,51.367503],[4.21751,51.367314],[4.217822,51.366603],[4.218126,51.365923],[4.218559,51.365171],[4.218929,51.364547],[4.219486,51.363708],[4.220019,51.362896],[4.220637,51.361963],[4.220832,51.361686],[4.220938,51.361459],[4.221093,51.36128],[4.221358,51.360996],[4.221414,51.360941],[4.221619,51.360813],[4.22188,51.360609],[4.222138,51.360433],[4.22233,51.360293],[4.222537,51.360145],[4.222729,51.359958],[4.222927,51.359742],[4.223532,51.359115],[4.223942,51.358678],[4.224263,51.358342],[4.224551,51.358089],[4.224751,51.357925],[4.224962,51.357768],[4.225401,51.357467],[4.226215,51.356896],[4.226763,51.356516],[4.227117,51.356219],[4.227636,51.355822],[4.228236,51.355297],[4.228669,51.354962],[4.228969,51.354723],[4.229269,51.354514],[4.229671,51.354273],[4.230169,51.354004],[4.231564,51.353156],[4.232405,51.352559],[4.232832,51.35222],[4.233252,51.35191],[4.233451,51.351755],[4.233716,51.351566],[4.234078,51.351346],[4.234926,51.350842],[4.236021,51.350217],[4.236805,51.349755],[4.240672,51.352861],[4.242049,51.353967],[4.232526,51.357572],[4.226746,51.359759],[4.222066,51.36451],[4.220477,51.367343],[4.219928,51.368322],[4.21826,51.372209],[4.217577,51.373885],[4.217856,51.373895],[4.223625,51.374104],[4.232506,51.374425],[4.239362,51.374672],[4.241582,51.374752],[4.242858,51.374798],[4.243664,51.374827],[4.244143,51.374845],[4.244885,51.374871],[4.245106,51.374879],[4.245331,51.374887],[4.251522,51.37511],[4.252471,51.375144],[4.252554,51.375147],[4.264271,51.375568],[4.267247,51.375674],[4.270585,51.375794],[4.271041,51.37581],[4.271725,51.375835],[4.272167,51.37585],[4.274728,51.375942],[4.277423,51.376038],[4.277099,51.376676],[4.276992,51.376885],[4.274686,51.381415],[4.274557,51.38167],[4.274436,51.381669],[4.274415,51.381703],[4.274363,51.381708],[4.274315,51.3818],[4.274285,51.381858],[4.273894,51.382612],[4.27398,51.382629],[4.273822,51.382929],[4.273698,51.38315],[4.272853,51.383213],[4.272236,51.383259],[4.27216,51.383264],[4.268382,51.383546],[4.268325,51.38363],[4.268005,51.384102],[4.267985,51.384131],[4.267652,51.384621],[4.266867,51.385778],[4.266349,51.386541],[4.266377,51.38656],[4.268634,51.388126],[4.268635,51.388168],[4.268636,51.388173],[4.268665,51.388886],[4.26871,51.389966],[4.26874,51.390689],[4.268741,51.390699],[4.26876,51.391184],[4.268771,51.391451],[4.26878,51.391662],[4.26878,51.391662],[4.268847,51.393257],[4.268854,51.393427],[4.268862,51.393611],[4.268863,51.393639],[4.268911,51.394787],[4.268921,51.395038],[4.268923,51.395079],[4.268925,51.395116],[4.268929,51.395232],[4.268962,51.39602],[4.268904,51.396183],[4.268918,51.396577],[4.268918,51.396577],[4.269055,51.400188],[4.269061,51.400347],[4.269017,51.400483],[4.268535,51.401949],[4.267938,51.403767],[4.267668,51.404588],[4.267499,51.405105],[4.266746,51.407397],[4.266493,51.408167],[4.266481,51.408196],[4.266416,51.408351],[4.266034,51.409266],[4.265638,51.410215],[4.26526,51.411122],[4.264592,51.412724],[4.264483,51.412985],[4.26416,51.413759],[4.264106,51.413913],[4.264074,51.41405],[4.263758,51.416266],[4.263732,51.416449],[4.265291,51.418269],[4.26532,51.418307],[4.266285,51.419831],[4.266303,51.419853],[4.266325,51.419876],[4.266368,51.419916],[4.266404,51.419946],[4.266447,51.419979],[4.26649,51.420002],[4.266576,51.420052],[4.266729,51.420134],[4.269145,51.421432],[4.269575,51.421663],[4.269619,51.421687],[4.269759,51.421763],[4.270118,51.421957],[4.270859,51.422362],[4.272829,51.423417],[4.273526,51.423792],[4.273566,51.423814],[4.273702,51.423887],[4.275049,51.424612],[4.275245,51.424719],[4.275489,51.424852],[4.275729,51.424982],[4.27576,51.425],[4.275852,51.425049],[4.275843,51.425061],[4.275841,51.425064],[4.275761,51.425176],[4.275713,51.425243],[4.27568,51.425289],[4.275564,51.425451],[4.2755,51.425542],[4.274621,51.426788],[4.274529,51.426919],[4.273951,51.427738],[4.273888,51.427826],[4.272085,51.430354],[4.272002,51.430471],[4.271794,51.430772],[4.271331,51.431442],[4.271202,51.431594],[4.271037,51.431825],[4.270908,51.432006],[4.268586,51.435262],[4.268256,51.435724],[4.268247,51.435737],[4.268165,51.435851],[4.268162,51.435856],[4.268119,51.435916],[4.265665,51.439356],[4.265432,51.439681],[4.265418,51.4397],[4.259052,51.448628],[4.252683,51.457556],[4.250422,51.460725],[4.243717,51.470118],[4.239947,51.47541],[4.23255,51.485788],[4.232182,51.486304],[4.230328,51.488904],[4.226897,51.488573],[4.226301,51.488515],[4.226299,51.488515],[4.222842,51.488181],[4.21739,51.487655],[4.215588,51.48748],[4.192217,51.485219],[4.158887,51.481985],[4.134777,51.47964],[4.133909,51.479555],[4.129663,51.484768],[4.128967,51.485622],[4.123618,51.492188],[4.112182,51.506217],[4.109327,51.506406],[4.09079,51.50763],[4.076357,51.508582],[4.062547,51.50949],[4.06039,51.509632],[4.067525,51.526472],[4.067408,51.526512],[4.066614,51.526844],[4.066259,51.52699],[4.065912,51.527106],[4.065534,51.527186],[4.063266,51.527478],[4.062117,51.527626],[4.061611,51.527722],[4.060371,51.527993],[4.060211,51.528044],[4.060057,51.528089],[4.059927,51.528128],[4.059684,51.528217],[4.059593,51.52826],[4.059375,51.528411],[4.059013,51.528667],[4.058594,51.528992],[4.058096,51.529431],[4.057943,51.529563],[4.057803,51.52963],[4.057463,51.529729],[4.057067,51.529827],[4.056686,51.529908],[4.056167,51.529999],[4.055775,51.530016],[4.055408,51.529926],[4.055032,51.529815],[4.05467,51.529706],[4.054279,51.529565],[4.053955,51.529433],[4.053624,51.529277],[4.053473,51.529283],[4.053338,51.529332],[4.05326,51.52938],[4.053019,51.529529],[4.052124,51.530249],[4.051871,51.530413],[4.051508,51.530549],[4.049867,51.530896],[4.047784,51.531596],[4.047713,51.531608],[4.047566,51.531625],[4.046868,51.53153],[4.045959,51.531405],[4.045693,51.531374],[4.045285,51.53139],[4.041875,51.532127],[4.03966,51.532647],[4.03824,51.532867],[4.037377,51.533087],[4.036862,51.533239],[4.035692,51.533598],[4.034504,51.533899],[4.031011,51.534801],[4.029495,51.5352],[4.028403,51.53544],[4.027207,51.535684],[4.026774,51.535711],[4.025366,51.535674],[4.025066,51.535721],[4.023999,51.536016],[4.023355,51.536194],[4.022968,51.53629],[4.022587,51.536341],[4.022416,51.536368],[4.022206,51.536387],[4.021786,51.536429],[4.02141,51.536491],[4.020952,51.536568],[4.020563,51.536649],[4.020163,51.536738],[4.019776,51.536844],[4.019371,51.53692],[4.017874,51.537091],[4.017622,51.537119],[4.01717,51.537167],[4.016723,51.537231],[4.016171,51.537356],[4.014884,51.5377],[4.01308,51.538244],[4.013365,51.526902],[4.013366,51.526876],[4.013521,51.522409],[4.013676,51.517916],[4.013684,51.517693],[4.013668,51.517451],[4.013681,51.517444],[4.013693,51.517432],[4.013725,51.51737],[4.013758,51.517308],[4.01382,51.517172],[4.013994,51.5168],[4.014061,51.516643],[4.01408,51.516593],[4.014128,51.516482],[4.014164,51.516464],[4.014201,51.516437],[4.014229,51.516407],[4.014274,51.516347],[4.014344,51.516225],[4.014408,51.516107],[4.014489,51.515962],[4.014585,51.51579],[4.01467,51.515639],[4.014756,51.515488],[4.014863,51.515298],[4.014928,51.515196],[4.015007,51.51507],[4.015075,51.514982],[4.015179,51.514855],[4.015328,51.514701],[4.015427,51.514599],[4.015794,51.514213],[4.015755,51.514169],[4.015705,51.514139],[4.015621,51.514096],[4.015659,51.514041],[4.01571,51.51401],[4.015734,51.513996],[4.016008,51.513805],[4.015991,51.513756],[4.015988,51.513748],[4.015982,51.513734],[4.016044,51.513696],[4.01608,51.513666],[4.016144,51.513615],[4.016261,51.513506],[4.01632,51.513452],[4.01637,51.513405],[4.016502,51.513288],[4.016555,51.513236],[4.016652,51.513142],[4.016788,51.513036],[4.016905,51.512946],[4.017068,51.51283],[4.017104,51.512797],[4.01725,51.512658],[4.017359,51.512527],[4.017383,51.512483],[4.017388,51.512467],[4.017388,51.51245],[4.017375,51.512431],[4.01735,51.512411],[4.017297,51.512383],[4.017163,51.51231],[4.017006,51.512226],[4.016889,51.512161],[4.016816,51.512105],[4.01673,51.512038],[4.01667,51.511974],[4.016593,51.511879],[4.016518,51.511746],[4.016476,51.511657],[4.016427,51.511522],[4.016407,51.51148],[4.016351,51.511405],[4.016274,51.511327],[4.016206,51.511258],[4.01612,51.511179],[4.016007,51.511101],[4.015894,51.511067],[4.01567,51.511023],[4.015503,51.510993],[4.015367,51.510961],[4.015262,51.510933],[4.015205,51.510926],[4.015129,51.510824],[4.015019,51.51066],[4.014989,51.51061],[4.014968,51.510571],[4.014952,51.510524],[4.014946,51.51043],[4.014943,51.510372],[4.014932,51.51032],[4.01492,51.510262],[4.014882,51.510198],[4.014833,51.510096],[4.014727,51.509937],[4.014647,51.509824],[4.014613,51.509776],[4.014553,51.509693],[4.01452,51.509624],[4.0145,51.509549],[4.01449,51.509464],[4.014477,51.50929],[4.014409,51.508935],[4.014401,51.508895],[4.014359,51.508663],[4.014313,51.508442],[4.01428,51.508356],[4.014226,51.508265],[4.014158,51.508173],[4.014124,51.508134],[4.014038,51.508056],[4.013956,51.507975],[4.013914,51.507922],[4.013893,51.507889],[4.013872,51.507845],[4.013846,51.50782],[4.013679,51.50765],[4.013593,51.507588],[4.013541,51.50756],[4.013436,51.507515],[4.013366,51.507495],[4.013168,51.507465],[4.012913,51.50744],[4.012777,51.507427],[4.012481,51.50741],[4.012301,51.507394],[4.012173,51.507387],[4.01205,51.50738],[4.01197,51.507374],[4.011966,51.507365],[4.011962,51.507359],[4.011928,51.507301],[4.011922,51.507296],[4.01167,51.507077],[4.011567,51.506989],[4.011502,51.50694],[4.011421,51.506896],[4.011286,51.506864],[4.011099,51.50686],[4.010952,51.506876],[4.010763,51.506896],[4.010594,51.506907],[4.010542,51.506909],[4.010484,51.506896],[4.009864,51.506625],[4.009367,51.506401],[4.008898,51.50618],[4.008579,51.506025],[4.008341,51.505882],[4.008367,51.505687],[4.008369,51.505639],[4.008374,51.505623],[4.006377,51.504581],[4.006094,51.504839],[4.00517,51.504842],[4.004731,51.504843],[4.004713,51.500905],[4.004768,51.499831],[4.004814,51.498933],[4.004839,51.498168],[4.004843,51.498064],[4.004915,51.495847],[4.004995,51.494334],[4.005085,51.492643],[4.005179,51.490846],[4.005255,51.489407],[4.005396,51.486739],[4.005408,51.486502],[4.005646,51.481862],[4.005708,51.480647],[4.005797,51.478917],[4.006015,51.474674],[4.006081,51.47345],[4.006112,51.472878],[4.006155,51.472096],[4.006317,51.469516],[4.006325,51.469395],[4.006502,51.466589],[4.006517,51.466321],[4.006652,51.463894],[4.006727,51.462547],[4.007205,51.459406],[4.007323,51.458634],[4.006031,51.458633],[4.005871,51.458726],[4.005841,51.458725],[4.005751,51.458723],[4.005159,51.45831],[4.004804,51.458063],[4.004672,51.458133],[4.0042,51.457627],[4.003789,51.457244],[4.003493,51.457017],[4.002688,51.457359],[4.002191,51.457455],[4.001821,51.457139],[4.001586,51.456832],[4.000972,51.456266],[4.00092,51.456218],[4.000068,51.456751],[3.999227,51.456084],[3.999131,51.456134],[3.999075,51.456163],[3.998866,51.456273],[3.998637,51.456107],[3.997818,51.455513],[3.997612,51.455385],[3.99744,51.455278],[3.996861,51.454918],[3.996583,51.454785],[3.996232,51.454617],[3.996016,51.454477],[3.994963,51.453573],[3.994533,51.453092],[3.994502,51.45303],[3.994485,51.452985],[3.994381,51.452858],[3.994324,51.452776],[3.994231,51.4526],[3.994203,51.452528],[3.994156,51.452438],[3.994089,51.452356],[3.994009,51.452282],[3.993864,51.452176],[3.993495,51.45182],[3.993139,51.451475],[3.992978,51.45132],[3.992941,51.451284],[3.991884,51.450234],[3.991716,51.450066],[3.991451,51.449803],[3.989882,51.450942],[3.98911,51.451416],[3.98829,51.451871],[3.987598,51.452181],[3.986464,51.452579],[3.985313,51.452928],[3.981348,51.454016],[3.979254,51.454575],[3.979244,51.454577],[3.975381,51.455454],[3.973179,51.455991],[3.97223,51.456142],[3.971346,51.456236],[3.969212,51.456339],[3.967713,51.456322],[3.966956,51.456266],[3.965861,51.456114],[3.965421,51.456051],[3.963875,51.455812],[3.962999,51.45569],[3.962765,51.45567],[3.961784,51.45559],[3.960559,51.455509],[3.959678,51.455489],[3.957443,51.455436],[3.956604,51.455376],[3.955844,51.455287],[3.954169,51.455007],[3.9517,51.454529],[3.950679,51.454308],[3.950365,51.454225],[3.949576,51.454016],[3.94553,51.452801],[3.944284,51.452359],[3.942993,51.451876],[3.942159,51.451524],[3.940173,51.450514],[3.939146,51.450001],[3.938325,51.449505],[3.937594,51.449098],[3.936633,51.448196],[3.935944,51.447503],[3.935352,51.447013]]]},"properties":{"type":"boundary","gemeente":"Reimerswaal"}}]}