{"type":"FeatureCollection","metadata":{"gemeente":"Rheden","slug":"rheden","generated_at":"2026-09-28T08:31:10.737330Z","total_points":42,"providers":["DHL","DPD","PostNL","VintedGo","GLS","FedEx","InPost","Budbee"],"bounds":[5.9639045,51.98724761644588,6.108022181936441,52.0634]},"features":[{"type":"Feature","geometry":{"type":"Point","coordinates":[6.024647817567721,52.00047700350681]},"properties":{"type":"pakketpunt","locatieNaam":"Pakketautomaat SC Rheden","straatNaam":"IJsselsingel","straatNr":"91-VC/108","vervoerder":"DHL","puntType":"packStation","bezettingsgraad":50,"latitude":52.00047700350681,"longitude":6.024647817567721,"canPickup":true,"canDropoff":true,"openingstijden":{"ma":"00:00 - 23:59","di":"00:00 - 23:59","wo":"00:00 - 23:59","do":"00:00 - 23:59","vr":"00:00 - 23:59","za":"00:00 - 23:59","zo":"00:00 - 23:59"}}},{"type":"Feature","geometry":{"type":"Point","coordinates":[5.9639045,51.9944887]},"properties":{"type":"pakketpunt","locatieNaam":"Pakketautomaat Lidl Velp","straatNaam":"Nordlaan","straatNr":"33","vervoerder":"DHL","puntType":"packStation","bezettingsgraad":50,"latitude":51.9944887,"longitude":5.9639045,"canPickup":true,"canDropoff":true,"openingstijden":{"ma":"08:00 - 21:00","di":"08:00 - 21:00","wo":"08:00 - 21:00","do":"08:00 - 21:00","vr":"08:00 - 21:00","za":"08:00 - 21:00","zo":"09:00 - 19:00"}}},{"type":"Feature","geometry":{"type":"Point","coordinates":[5.9779881,51.996166]},"properties":{"type":"pakketpunt","locatieNaam":"Techshop Velp","straatNaam":"Hoofdstraat","straatNr":"17-A","vervoerder":"DHL","puntType":"parcelShop","bezettingsgraad":50,"latitude":51.996166,"longitude":5.9779881,"canPickup":true,"canDropoff":true,"openingstijden":{"ma":"12:00 - 18:00","di":"10:00 - 18:00","wo":"10:00 - 18:00","do":"10:00 - 18:00","vr":"10:00 - 18:00","za":"10:00 - 17:00","zo":"gesloten"}}},{"type":"Feature","geometry":{"type":"Point","coordinates":[5.9745167,51.9953961]},"properties":{"type":"pakketpunt","locatieNaam":"Telefoon Expert Velp","straatNaam":"Den Heuvel","straatNr":"42","vervoerder":"DHL","puntType":"parcelShop","bezettingsgraad":50,"latitude":51.9953961,"longitude":5.9745167,"canPickup":true,"canDropoff":true,"openingstijden":{"ma":"gesloten","di":"10:00 - 18:00","wo":"10:00 - 18:00","do":"10:00 - 18:00","vr":"10:00 - 18:00","za":"gesloten","zo":"gesloten"}}},{"type":"Feature","geometry":{"type":"Point","coordinates":[6.108022181936441,52.052523840539656]},"properties":{"type":"pakketpunt","locatieNaam":"Pakketautomaat Praxis Dieren","straatNaam":"Spankerenseweg","straatNr":"50","vervoerder":"DHL","puntType":"packStation","bezettingsgraad":50,"latitude":52.052523840539656,"longitude":6.108022181936441,"canPickup":true,"canDropoff":true,"openingstijden":{"ma":"00:00 - 23:59","di":"00:00 - 23:59","wo":"00:00 - 23:59","do":"00:00 - 23:59","vr":"00:00 - 23:59","za":"00:00 - 23:59","zo":"00:00 - 23:59"}}},{"type":"Feature","geometry":{"type":"Point","coordinates":[6.10083043662517,52.051022767140466]},"properties":{"type":"pakketpunt","locatieNaam":"Pakketautomaat terStal Dieren","straatNaam":"Diderna","straatNr":"1-Kast","vervoerder":"DHL","puntType":"packStation","bezettingsgraad":50,"latitude":52.051022767140466,"longitude":6.10083043662517,"canPickup":true,"canDropoff":true,"openingstijden":{"ma":"13:00 - 17:30","di":"09:30 - 17:30","wo":"09:30 - 17:30","do":"09:30 - 17:30","vr":"09:30 - 17:30","za":"10:00 - 17:00","zo":"gesloten"}}},{"type":"Feature","geometry":{"type":"Point","coordinates":[6.10037088394165,52.051239013671875]},"properties":{"type":"pakketpunt","locatieNaam":"G&W Natuurwinkel de Veluwe Dieren","straatNaam":"Diderna","straatNr":"6","vervoerder":"DHL","puntType":"parcelShop","bezettingsgraad":50,"latitude":52.051239013671875,"longitude":6.10037088394165,"canPickup":true,"canDropoff":true,"openingstijden":{"ma":"13:00 - 17:30","di":"09:30 - 17:30","wo":"09:30 - 17:30","do":"09:30 - 17:30","vr":"09:30 - 17:30","za":"09:30 - 17:00","zo":"gesloten"}}},{"type":"Feature","geometry":{"type":"Point","coordinates":[6.100033283112642,52.05158716063469]},"properties":{"type":"pakketpunt","locatieNaam":"Pakketautomaat Lidl Dieren","straatNaam":"Diderna","straatNr":"13","vervoerder":"DHL","puntType":"packStation","bezettingsgraad":50,"latitude":52.05158716063469,"longitude":6.100033283112642,"canPickup":true,"canDropoff":true,"openingstijden":{"ma":"08:00 - 21:00","di":"08:00 - 21:00","wo":"08:00 - 21:00","do":"08:00 - 21:00","vr":"08:00 - 21:00","za":"08:00 - 21:00","zo":"12:00 - 19:00"}}},{"type":"Feature","geometry":{"type":"Point","coordinates":[6.10029,52.05099]},"properties":{"type":"pakketpunt","locatieNaam":"Natuurwinkel de Veluwe","straatNaam":"DIDERNA","straatNr":"6","vervoerder":"DPD","puntType":"pickup_point","bezettingsgraad":50,"latitude":52.05099,"longitude":6.10029,"canPickup":true,"canDropoff":true,"openingstijden":{"ma":"13:00 - 17:30","di":"09:30 - 17:30","wo":"09:30 - 17:30","do":"09:30 - 17:30","vr":"09:30 - 17:30","za":"09:30 - 17:00","zo":"gesloten"}}},{"type":"Feature","geometry":{"type":"Point","coordinates":[6.10467,52.05745]},"properties":{"type":"pakketpunt","locatieNaam":"Nirwana bedden","straatNaam":"DE MARKE","straatNr":"2 K","vervoerder":"DPD","puntType":"pickup_point","bezettingsgraad":50,"latitude":52.05745,"longitude":6.10467,"canPickup":true,"canDropoff":true,"openingstijden":{"ma":"12:00 - 16:00","di":"12:00 - 16:00","wo":"12:00 - 16:00","do":"12:00 - 16:00","vr":"12:00 - 16:00","za":"gesloten","zo":"gesloten"}}},{"type":"Feature","geometry":{"type":"Point","coordinates":[6.1028128,52.0485834]},"properties":{"type":"pakketpunt","locatieNaam":"Expert Dieren","straatNaam":"WILHELMINAWEG","straatNr":"30","vervoerder":"DPD","puntType":"pickup_point","bezettingsgraad":50,"latitude":52.0485834,"longitude":6.1028128,"canPickup":true,"canDropoff":true,"openingstijden":{"ma":"13:00 - 18:00","di":"09:00 - 18:00","wo":"09:00 - 18:00","do":"09:00 - 18:00","vr":"09:00 - 18:00","za":"09:00 - 17:00","zo":"gesloten"}}},{"type":"Feature","geometry":{"type":"Point","coordinates":[6.1065025,52.0518063]},"properties":{"type":"pakketpunt","locatieNaam":"Pakketautomaat Carwash Stout","straatNaam":"SPANKERENSEWEG","straatNr":"36","vervoerder":"DPD","puntType":"dpd_box","bezettingsgraad":50,"latitude":52.0518063,"longitude":6.1065025,"canPickup":true,"canDropoff":true,"openingstijden":{"ma":"09:00 - 21:00","di":"09:00 - 21:00","wo":"09:00 - 21:00","do":"09:00 - 21:00","vr":"09:00 - 21:00","za":"09:00 - 21:00","zo":"09:00 - 21:00"}}},{"type":"Feature","geometry":{"type":"Point","coordinates":[5.9793264,51.9971284]},"properties":{"type":"pakketpunt","locatieNaam":"Het Aardappelpakhuis","straatNaam":"NIEUW-SCHOONOORD","straatNr":"1","vervoerder":"DPD","puntType":"pickup_point","bezettingsgraad":50,"latitude":51.9971284,"longitude":5.9793264,"canPickup":true,"canDropoff":true,"openingstijden":{"ma":"09:00 - 15:00","di":"09:00 - 15:00","wo":"09:00 - 15:00","do":"09:00 - 15:00","vr":"09:00 - 15:00","za":"09:00 - 14:00","zo":"gesloten"}}},{"type":"Feature","geometry":{"type":"Point","coordinates":[6.092054601,52.0322871]},"properties":{"type":"pakketpunt","locatieNaam":"Brood- en Banketbakkerij Samberg","straatNaam":"de Friedhof","straatNr":"1","vervoerder":"PostNL","puntType":"servicepunt","bezettingsgraad":50,"latitude":52.0322871,"longitude":6.092054601,"canPickup":true,"canDropoff":true,"openingstijden":"08:00 - 18:00 (Na 18:00 open; Zaterdag open)"}},{"type":"Feature","geometry":{"type":"Point","coordinates":[6.094230388,52.05379225]},"properties":{"type":"pakketpunt","locatieNaam":"Pakket- en briefautomaat","straatNaam":"Harderwijkerweg","straatNr":"67PBA","vervoerder":"PostNL","puntType":"automaat","bezettingsgraad":50,"latitude":52.05379225,"longitude":6.094230388,"canPickup":true,"canDropoff":true,"openingstijden":"00:00 - 23:59"}},{"type":"Feature","geometry":{"type":"Point","coordinates":[6.101191432,52.04962458]},"properties":{"type":"pakketpunt","locatieNaam":"Primera Sloot","straatNaam":"Callunaplein","straatNr":"2","vervoerder":"PostNL","puntType":"servicepunt","bezettingsgraad":50,"latitude":52.04962458,"longitude":6.101191432,"canPickup":true,"canDropoff":true,"openingstijden":null}},{"type":"Feature","geometry":{"type":"Point","coordinates":[6.10119143201015,52.0496245809022]},"properties":{"type":"pakketpunt","locatieNaam":"Pakketautomaat","straatNaam":"Callunaplein","straatNr":"2PBA","vervoerder":"PostNL","puntType":"automaat","bezettingsgraad":50,"latitude":52.0496245809022,"longitude":6.10119143201015,"canPickup":true,"canDropoff":true,"openingstijden":"00:00 - 23:59"}},{"type":"Feature","geometry":{"type":"Point","coordinates":[6.0912172,52.0633739]},"properties":{"type":"pakketpunt","locatieNaam":"Spar","straatNaam":"Cederlaan","straatNr":"25","vervoerder":"PostNL","puntType":"servicepunt","bezettingsgraad":50,"latitude":52.0633739,"longitude":6.0912172,"canPickup":true,"canDropoff":true,"openingstijden":"08:00 - 19:00 (Na 18:00 open; Zaterdag open; Zondag open)"}},{"type":"Feature","geometry":{"type":"Point","coordinates":[5.969912848,51.99595023]},"properties":{"type":"pakketpunt","locatieNaam":"The Read Shop","straatNaam":"Hoofdstraat","straatNr":"220","vervoerder":"PostNL","puntType":"servicepunt","bezettingsgraad":50,"latitude":51.99595023,"longitude":5.969912848,"canPickup":true,"canDropoff":true,"openingstijden":"09:30 - 18:00 (Na 18:00 open; Zaterdag open)"}},{"type":"Feature","geometry":{"type":"Point","coordinates":[5.9801943259359,51.9872520334827]},"properties":{"type":"pakketpunt","locatieNaam":"Pakketautomaat","straatNaam":"Churchillplein","straatNr":"42PBA","vervoerder":"PostNL","puntType":"automaat","bezettingsgraad":50,"latitude":51.9872520334827,"longitude":5.9801943259359,"canPickup":true,"canDropoff":true,"openingstijden":"08:00 - 21:00"}},{"type":"Feature","geometry":{"type":"Point","coordinates":[5.971720393,51.99163583]},"properties":{"type":"pakketpunt","locatieNaam":"Pakket- en briefautomaat","straatNaam":"Ijsselstraat","straatNr":"30PBA","vervoerder":"PostNL","puntType":"automaat","bezettingsgraad":50,"latitude":51.99163583,"longitude":5.971720393,"canPickup":true,"canDropoff":true,"openingstijden":"00:00 - 23:59"}},{"type":"Feature","geometry":{"type":"Point","coordinates":[6.1009537,52.0506666]},"properties":{"type":"pakketpunt","locatieNaam":"Natuurwinkel de Veluwe","straatNaam":"Diderna 6","straatNr":"","vervoerder":"VintedGo","puntType":"parcel_shop","bezettingsgraad":50,"latitude":52.0506666,"longitude":6.1009537,"canPickup":true,"canDropoff":true,"openingstijden":null}},{"type":"Feature","geometry":{"type":"Point","coordinates":[6.1065161,52.0518145]},"properties":{"type":"pakketpunt","locatieNaam":"Carwash Stout / Geldersevuurwerkhal","straatNaam":"Spankerenseweg 36","straatNr":"","vervoerder":"VintedGo","puntType":"locker","bezettingsgraad":50,"latitude":52.0518145,"longitude":6.1065161,"canPickup":true,"canDropoff":true,"openingstijden":null}},{"type":"Feature","geometry":{"type":"Point","coordinates":[5.978675,51.9976751]},"properties":{"type":"pakketpunt","locatieNaam":"Het Aardappelpakhuis, Aardappelen, Groente En Fruit","straatNaam":"Nieuw Schoonoord 1","straatNr":"","vervoerder":"VintedGo","puntType":"parcel_shop","bezettingsgraad":50,"latitude":51.9976751,"longitude":5.978675,"canPickup":true,"canDropoff":true,"openingstijden":null}},{"type":"Feature","geometry":{"type":"Point","coordinates":[6.09119,52.0634]},"properties":{"type":"pakketpunt","locatieNaam":"Spar Dieren","straatNaam":"Cederlaan 25","straatNr":"","vervoerder":"VintedGo","puntType":"locker","bezettingsgraad":50,"latitude":52.0634,"longitude":6.09119,"canPickup":true,"canDropoff":true,"openingstijden":null}},{"type":"Feature","geometry":{"type":"Point","coordinates":[5.973531,51.9961968]},"properties":{"type":"pakketpunt","locatieNaam":"Hart Van Velp","straatNaam":"Hoofdstraat 168","straatNr":"","vervoerder":"VintedGo","puntType":"parcel_shop","bezettingsgraad":50,"latitude":51.9961968,"longitude":5.973531,"canPickup":true,"canDropoff":true,"openingstijden":null}},{"type":"Feature","geometry":{"type":"Point","coordinates":[5.97172039,51.9916358]},"properties":{"type":"pakketpunt","locatieNaam":"Pakketautomaat","straatNaam":"Ijsselstraat","straatNr":"30","vervoerder":"GLS","puntType":"locker","bezettingsgraad":50,"latitude":51.9916358,"longitude":5.97172039,"canPickup":true,"canDropoff":true,"openingstijden":{"ma":"00:00 - 23:59","di":"00:00 - 23:59","wo":"00:00 - 23:59","do":"00:00 - 23:59","vr":"00:00 - 23:59","za":"00:00 - 23:59","zo":"00:00 - 23:59"}}},{"type":"Feature","geometry":{"type":"Point","coordinates":[5.98019432,51.987252]},"properties":{"type":"pakketpunt","locatieNaam":"Pakketautomaat","straatNaam":"Churchillplein","straatNr":"42","vervoerder":"GLS","puntType":"locker","bezettingsgraad":50,"latitude":51.987252,"longitude":5.98019432,"canPickup":true,"canDropoff":true,"openingstijden":{"ma":"08:00 - 21:00","di":"08:00 - 21:00","wo":"08:00 - 21:00","do":"08:00 - 21:00","vr":"08:00 - 21:00","za":"08:00 - 21:00","zo":"12:00 - 19:00"}}},{"type":"Feature","geometry":{"type":"Point","coordinates":[5.9797866,51.9973503]},"properties":{"type":"pakketpunt","locatieNaam":"Het Aardappelpakhuis","straatNaam":"Nieuw-Schoonoord","straatNr":"1","vervoerder":"GLS","puntType":"parcel_shop","bezettingsgraad":50,"latitude":51.9973503,"longitude":5.9797866,"canPickup":true,"canDropoff":true,"openingstijden":{"ma":"09:00 - 15:00","di":"09:00 - 15:00","wo":"09:00 - 15:00","do":"09:00 - 15:00","vr":"09:00 - 15:00","za":"09:00 - 14:00","zo":"00:00 - 00:00"}}},{"type":"Feature","geometry":{"type":"Point","coordinates":[6.10119143,52.0496245]},"properties":{"type":"pakketpunt","locatieNaam":"Pakketautomaat","straatNaam":"Callunaplein","straatNr":"2","vervoerder":"GLS","puntType":"locker","bezettingsgraad":50,"latitude":52.0496245,"longitude":6.10119143,"canPickup":true,"canDropoff":true,"openingstijden":{"ma":"00:00 - 23:59","di":"00:00 - 23:59","wo":"00:00 - 23:59","do":"00:00 - 23:59","vr":"00:00 - 23:59","za":"00:00 - 23:59","zo":"00:00 - 23:59"}}},{"type":"Feature","geometry":{"type":"Point","coordinates":[6.1036286,52.0561884]},"properties":{"type":"pakketpunt","locatieNaam":"TSQUARE","straatNaam":"Industrielaan","straatNr":"2A","vervoerder":"GLS","puntType":"parcel_shop","bezettingsgraad":50,"latitude":52.0561884,"longitude":6.1036286,"canPickup":true,"canDropoff":true,"openingstijden":{"ma":"09:00 - 17:00","di":"09:00 - 17:00","wo":"00:00 - 00:00","do":"09:00 - 17:00","vr":"09:00 - 17:00","za":"00:00 - 00:00","zo":"00:00 - 00:00"}}},{"type":"Feature","geometry":{"type":"Point","coordinates":[6.09423038,52.0537922]},"properties":{"type":"pakketpunt","locatieNaam":"Pakketautomaat","straatNaam":"Harderwijkerweg","straatNr":"67","vervoerder":"GLS","puntType":"locker","bezettingsgraad":50,"latitude":52.0537922,"longitude":6.09423038,"canPickup":true,"canDropoff":true,"openingstijden":{"ma":"00:00 - 23:59","di":"00:00 - 23:59","wo":"00:00 - 23:59","do":"00:00 - 23:59","vr":"00:00 - 23:59","za":"00:00 - 23:59","zo":"00:00 - 23:59"}}},{"type":"Feature","geometry":{"type":"Point","coordinates":[5.971896542903745,51.99158765704927]},"properties":{"type":"pakketpunt","locatieNaam":"FedEx Ship&Get","straatNaam":"Ijsselstraat 30 PBA","straatNr":"","vervoerder":"FedEx","puntType":"servicepunt","bezettingsgraad":50,"latitude":51.99158765704927,"longitude":5.971896542903745,"canPickup":true,"canDropoff":true,"openingstijden":{"ma":"00:00 - 23:59","di":"00:00 - 23:59","wo":"00:00 - 23:59","do":"00:00 - 23:59","vr":"00:00 - 23:59","za":"00:00 - 23:59","zo":"00:00 - 23:59"}}},{"type":"Feature","geometry":{"type":"Point","coordinates":[5.98019260493289,51.98724761644588]},"properties":{"type":"pakketpunt","locatieNaam":"FedEx Ship&Get","straatNaam":"Churchillplein 42 PBA","straatNr":"","vervoerder":"FedEx","puntType":"servicepunt","bezettingsgraad":50,"latitude":51.98724761644588,"longitude":5.98019260493289,"canPickup":true,"canDropoff":true,"openingstijden":{"ma":"08:00 - 21:00","di":"08:00 - 21:00","wo":"08:00 - 21:00","do":"08:00 - 21:00","vr":"08:00 - 21:00","za":"08:00 - 21:00","zo":"12:00 - 19:00"}}},{"type":"Feature","geometry":{"type":"Point","coordinates":[5.979329063979946,51.99712015764718]},"properties":{"type":"pakketpunt","locatieNaam":"FedEx OnSite","straatNaam":"NIEUW SCHOONOORD 1","straatNr":"","vervoerder":"FedEx","puntType":"servicepunt","bezettingsgraad":50,"latitude":51.99712015764718,"longitude":5.979329063979946,"canPickup":true,"canDropoff":true,"openingstijden":{"ma":"09:00 - 15:00","di":"09:00 - 15:00","wo":"09:00 - 15:00","do":"09:00 - 15:00","vr":"09:00 - 15:00","za":"09:00 - 14:00","zo":"gesloten"}}},{"type":"Feature","geometry":{"type":"Point","coordinates":[6.035419108598314,52.00500259855114]},"properties":{"type":"pakketpunt","locatieNaam":"FedEx Ship&Get","straatNaam":"Groenestraat 70","straatNr":"","vervoerder":"FedEx","puntType":"servicepunt","bezettingsgraad":50,"latitude":52.00500259855114,"longitude":6.035419108598314,"canPickup":true,"canDropoff":true,"openingstijden":{"ma":"gesloten","di":"gesloten","wo":"gesloten","do":"gesloten","vr":"gesloten","za":"gesloten","zo":"gesloten"}}},{"type":"Feature","geometry":{"type":"Point","coordinates":[6.094278210649993,52.053797952817334]},"properties":{"type":"pakketpunt","locatieNaam":"FedEx Ship&Get","straatNaam":"Harderwijkerweg 67 PBA","straatNr":"","vervoerder":"FedEx","puntType":"servicepunt","bezettingsgraad":50,"latitude":52.053797952817334,"longitude":6.094278210649993,"canPickup":true,"canDropoff":true,"openingstijden":{"ma":"00:00 - 23:59","di":"00:00 - 23:59","wo":"00:00 - 23:59","do":"00:00 - 23:59","vr":"00:00 - 23:59","za":"00:00 - 23:59","zo":"00:00 - 23:59"}}},{"type":"Feature","geometry":{"type":"Point","coordinates":[6.100213558230214,52.05102575465474]},"properties":{"type":"pakketpunt","locatieNaam":"FedEx OnSite","straatNaam":"DIDERNA 6","straatNr":"","vervoerder":"FedEx","puntType":"servicepunt","bezettingsgraad":50,"latitude":52.05102575465474,"longitude":6.100213558230214,"canPickup":true,"canDropoff":true,"openingstijden":{"ma":"13:00 - 17:30","di":"09:30 - 17:30","wo":"09:30 - 17:30","do":"09:30 - 17:30","vr":"09:30 - 17:30","za":"09:30 - 17:00","zo":"gesloten"}}},{"type":"Feature","geometry":{"type":"Point","coordinates":[6.10038,52.05102]},"properties":{"type":"pakketpunt","locatieNaam":"G&W GEZONDHEIDSWINKEL DIEREN","straatNaam":"Diderna 6","straatNr":"","vervoerder":"InPost","puntType":"servicepunt","bezettingsgraad":50,"latitude":52.05102,"longitude":6.10038,"canPickup":true,"canDropoff":true,"openingstijden":null}},{"type":"Feature","geometry":{"type":"Point","coordinates":[5.97904,51.99728]},"properties":{"type":"pakketpunt","locatieNaam":"HET AARDAPPELPAKHUIS","straatNaam":"Nieuw Schoonoord 1","straatNr":"","vervoerder":"InPost","puntType":"servicepunt","bezettingsgraad":50,"latitude":51.99728,"longitude":5.97904,"canPickup":true,"canDropoff":true,"openingstijden":null}},{"type":"Feature","geometry":{"type":"Point","coordinates":[6.10644,52.05201]},"properties":{"type":"pakketpunt","locatieNaam":"","straatNaam":"Spankerenseweg","straatNr":"36","vervoerder":"InPost","puntType":"automaat","bezettingsgraad":50,"latitude":52.05201,"longitude":6.10644,"canPickup":true,"canDropoff":true,"openingstijden":"MON|07:00-21:00|-;TUE|07:00-21:00|-;WED|07:00-21:00|-;THU|07:00-21:00|-;FRI|07:00-21:00|-;SAT|07:00-21:00|-;SUN|07:00-21:00|-;"}},{"type":"Feature","geometry":{"type":"Point","coordinates":[6.1018568,52.0504929]},"properties":{"type":"pakketpunt","locatieNaam":"Budbee","straatNaam":"","straatNr":"","vervoerder":"Budbee","puntType":"automaat","bezettingsgraad":50,"latitude":52.0504929,"longitude":6.1018568,"canPickup":true,"canDropoff":true,"openingstijden":null}},{"type":"Feature","geometry":{"type":"Polygon","coordinates":[[[5.951526,51.999638],[5.952266,51.999786],[5.952328,51.999799],[5.95257,51.999848],[5.953618,52.000061],[5.953729,52.000084],[5.953856,52.000109],[5.954132,52.000163],[5.954704,52.000276],[5.955129,52.000359],[5.955381,52.000408],[5.955591,52.000449],[5.956304,52.000588],[5.956662,52.000658],[5.957799,52.000876],[5.957975,52.00086],[5.958265,52.000832],[5.958535,52.000804],[5.958778,52.000779],[5.959128,52.000739],[5.959448,52.000704],[5.959883,52.00066],[5.960297,52.000614],[5.960809,52.000558],[5.961164,52.000514],[5.961401,52.000487],[5.961504,52.000475],[5.961712,52.000451],[5.96171,52.000457],[5.961703,52.000475],[5.961866,52.000456],[5.961958,52.000446],[5.962067,52.000434],[5.962988,52.000329],[5.963087,52.000318],[5.963203,52.000363],[5.963274,52.000381],[5.963549,52.000448],[5.964871,52.000766],[5.965509,52.000917],[5.965665,52.000953],[5.966805,52.00122],[5.967956,52.001492],[5.968418,52.001598],[5.968643,52.00165],[5.968726,52.001669],[5.968722,52.001677],[5.968735,52.001679],[5.968741,52.00167],[5.969032,52.001738],[5.969132,52.001762],[5.969249,52.001792],[5.969365,52.00182],[5.969467,52.001845],[5.969498,52.001852],[5.969556,52.001867],[5.969711,52.001905],[5.969728,52.001909],[5.969847,52.001938],[5.969872,52.001944],[5.969874,52.001939],[5.969881,52.001941],[5.969911,52.001949],[5.96991,52.001952],[5.969919,52.001954],[5.969973,52.001966],[5.97004,52.001981],[5.970155,52.002007],[5.970429,52.002072],[5.970499,52.00209],[5.970572,52.002109],[5.970659,52.002129],[5.970678,52.002134],[5.970826,52.002168],[5.97332,52.002779],[5.973424,52.002801],[5.973458,52.002808],[5.973515,52.002819],[5.973612,52.00283],[5.973781,52.002835],[5.973785,52.002835],[5.973807,52.002837],[5.97401,52.002837],[5.974396,52.002839],[5.974514,52.002839],[5.974577,52.002862],[5.974625,52.00288],[5.97463,52.002882],[5.974709,52.00291],[5.974766,52.002972],[5.974768,52.002975],[5.974847,52.00306],[5.974882,52.003099],[5.974892,52.003111],[5.974931,52.003159],[5.974971,52.003211],[5.974998,52.003243],[5.975067,52.003344],[5.975187,52.003536],[5.975261,52.003661],[5.975311,52.003742],[5.975346,52.003804],[5.975372,52.00385],[5.975445,52.003973],[5.975485,52.004041],[5.975518,52.004088],[5.97555,52.004126],[5.97559,52.00417],[5.97567,52.004263],[5.975721,52.004322],[5.975755,52.004362],[5.975905,52.004515],[5.976194,52.00503],[5.9762,52.005224],[5.976205,52.005358],[5.976205,52.005395],[5.976205,52.005417],[5.976205,52.00543],[5.976208,52.005624],[5.976213,52.005789],[5.976218,52.005963],[5.976324,52.006015],[5.976843,52.00627],[5.977076,52.006388],[5.977243,52.006504],[5.977469,52.006688],[5.977948,52.00712],[5.977925,52.007301],[5.978202,52.007798],[5.97868,52.008688],[5.978884,52.009071],[5.978922,52.00923],[5.978987,52.009515],[5.979085,52.009875],[5.979213,52.010346],[5.979392,52.011167],[5.979614,52.012068],[5.979712,52.01251],[5.97976,52.012718],[5.979802,52.012915],[5.97983,52.013123],[5.979849,52.013274],[5.97986,52.013493],[5.97989,52.013836],[5.97991,52.014107],[5.979956,52.014681],[5.980004,52.015186],[5.98001,52.015248],[5.980009,52.015249],[5.979928,52.015318],[5.979854,52.015381],[5.979842,52.015392],[5.979792,52.015436],[5.979745,52.015474],[5.97973,52.015492],[5.979706,52.015525],[5.979659,52.015612],[5.979597,52.015729],[5.979537,52.01583],[5.979491,52.015914],[5.979442,52.015999],[5.979389,52.016094],[5.979329,52.016217],[5.979249,52.016363],[5.979188,52.016464],[5.979181,52.016482],[5.979317,52.016731],[5.979916,52.017709],[5.980461,52.018405],[5.980485,52.018426],[5.980882,52.018803],[5.980898,52.018806],[5.980994,52.018838],[5.981043,52.018853],[5.981947,52.019125],[5.982388,52.019255],[5.982928,52.01939],[5.983461,52.019529],[5.984027,52.019674],[5.984058,52.019678],[5.984087,52.019675],[5.984096,52.019683],[5.984127,52.019694],[5.984211,52.019717],[5.984332,52.019747],[5.984505,52.019794],[5.984513,52.019796],[5.984623,52.019822],[5.984712,52.01985],[5.984773,52.019871],[5.984835,52.019898],[5.984898,52.019929],[5.985059,52.020006],[5.985151,52.020059],[5.985316,52.02016],[5.985639,52.020361],[5.98593,52.020545],[5.986061,52.020627],[5.986323,52.02079],[5.986478,52.020893],[5.986594,52.020975],[5.986693,52.021039],[5.986926,52.021201],[5.987211,52.021391],[5.987507,52.021571],[5.987897,52.021805],[5.988017,52.02187],[5.988159,52.021962],[5.988238,52.022014],[5.98854,52.022207],[5.988656,52.022285],[5.98998,52.022906],[5.990858,52.023271],[5.991824,52.023678],[5.992242,52.023857],[5.992903,52.024077],[5.99365,52.024336],[5.994126,52.024501],[5.994882,52.025221],[5.995153,52.025481],[5.995321,52.025641],[5.995772,52.026171],[5.995805,52.02622],[5.994936,52.027555],[5.9948,52.027771],[5.994588,52.028105],[5.994526,52.028207],[5.993714,52.029522],[5.9925,52.031413],[5.991359,52.033233],[5.990185,52.035172],[5.989713,52.036127],[5.989643,52.036272],[5.989388,52.036787],[5.988634,52.038317],[5.9882,52.039127],[5.988147,52.039226],[5.987864,52.039724],[5.987817,52.039807],[5.987656,52.040102],[5.987629,52.040149],[5.98762,52.040166],[5.987119,52.041101],[5.987063,52.041209],[5.986518,52.041886],[5.986516,52.041889],[5.985815,52.04278],[5.98506,52.043739],[5.984836,52.044021],[5.984682,52.044215],[5.984357,52.044624],[5.983479,52.04574],[5.982669,52.04677],[5.982665,52.046774],[5.981796,52.047899],[5.98165,52.048088],[5.981272,52.048743],[5.980171,52.050622],[5.978827,52.052936],[5.977959,52.05439],[5.978039,52.054398],[5.980115,52.054591],[5.980279,52.054616],[5.980413,52.054635],[5.980968,52.054701],[5.981187,52.054714],[5.981601,52.05475],[5.981659,52.054757],[5.981977,52.054786],[5.982112,52.054801],[5.98235,52.054828],[5.982808,52.054878],[5.983038,52.054898],[5.983291,52.054928],[5.983411,52.05493],[5.983564,52.05493],[5.98378,52.054934],[5.98421,52.054945],[5.984615,52.054961],[5.984982,52.054967],[5.984985,52.054967],[5.985159,52.05497],[5.985756,52.054989],[5.98622,52.054997],[5.986721,52.055011],[5.987141,52.055035],[5.987423,52.055036],[5.987976,52.055063],[5.988108,52.055064],[5.98824,52.055056],[5.988442,52.055059],[5.988762,52.055062],[5.988966,52.055068],[5.989027,52.055073],[5.989069,52.055072],[5.989133,52.055064],[5.989275,52.055046],[5.989384,52.055031],[5.989513,52.05502],[5.989798,52.05498],[5.990007,52.05495],[5.990149,52.054938],[5.990459,52.054911],[5.990592,52.054907],[5.990727,52.054899],[5.991013,52.054858],[5.991238,52.054829],[5.991366,52.05482],[5.991445,52.054816],[5.991512,52.054822],[5.991536,52.054823],[5.99157,52.05482],[5.991658,52.054803],[5.991745,52.054786],[5.991837,52.054778],[5.99191,52.054779],[5.992024,52.054772],[5.992154,52.054758],[5.992203,52.054749],[5.992229,52.054745],[5.992316,52.054732],[5.992458,52.054716],[5.992563,52.054702],[5.992626,52.05469],[5.992769,52.054666],[5.992877,52.054648],[5.992999,52.054643],[5.99316,52.054623],[5.993328,52.054598],[5.993491,52.054574],[5.993703,52.054539],[5.994041,52.054495],[5.994151,52.054483],[5.994317,52.054474],[5.994423,52.054463],[5.99449,52.054454],[5.994546,52.05444],[5.994615,52.054428],[5.994707,52.054431],[5.994769,52.054438],[5.994846,52.054438],[5.995054,52.054424],[5.995256,52.054403],[5.99539,52.054386],[5.995552,52.054369],[5.995736,52.054342],[5.995848,52.054326],[5.996093,52.054302],[5.996189,52.054292],[5.996422,52.054265],[5.996748,52.054226],[5.997363,52.054149],[5.997689,52.054115],[5.99792,52.054086],[5.998056,52.054074],[5.998143,52.054066],[5.998189,52.054061],[5.998216,52.054058],[5.998284,52.054054],[5.998344,52.054053],[5.998409,52.054058],[5.9985,52.054067],[5.998509,52.054068],[5.99869,52.054097],[5.999356,52.05423],[5.999553,52.054265],[5.999803,52.054311],[5.999899,52.054328],[6.000018,52.05435],[6.000054,52.054357],[6.000161,52.054385],[6.000248,52.054413],[6.000324,52.054441],[6.000399,52.054476],[6.000468,52.054512],[6.000774,52.054692],[6.000799,52.054705],[6.001098,52.054864],[6.0014,52.055035],[6.001473,52.055078],[6.001588,52.055136],[6.001757,52.055221],[6.00188,52.055286],[6.001982,52.055354],[6.002119,52.055449],[6.002247,52.055547],[6.002357,52.055637],[6.002632,52.055831],[6.002857,52.05599],[6.003058,52.05613],[6.003269,52.056269],[6.00349,52.056403],[6.003573,52.056449],[6.003677,52.056512],[6.003735,52.056549],[6.003769,52.056574],[6.003795,52.056598],[6.003893,52.056685],[6.003921,52.056716],[6.003947,52.056748],[6.003958,52.056764],[6.003968,52.056777],[6.003988,52.056806],[6.004009,52.056843],[6.004028,52.056876],[6.004047,52.056909],[6.00407,52.056941],[6.004089,52.056969],[6.004107,52.056998],[6.004172,52.057105],[6.004187,52.057138],[6.004212,52.057178],[6.004243,52.057221],[6.004285,52.057284],[6.004323,52.057331],[6.004359,52.057382],[6.004392,52.057435],[6.004437,52.057503],[6.004476,52.057562],[6.004514,52.057622],[6.004546,52.057673],[6.004598,52.057754],[6.004637,52.057813],[6.004672,52.057865],[6.004715,52.057926],[6.004745,52.057973],[6.004789,52.058044],[6.00483,52.05811],[6.004866,52.058166],[6.004905,52.058224],[6.004939,52.058276],[6.004981,52.058346],[6.005165,52.058622],[6.005218,52.058702],[6.005266,52.058781],[6.005302,52.058835],[6.005336,52.058888],[6.005359,52.058935],[6.005377,52.058976],[6.005392,52.059032],[6.005418,52.059132],[6.005429,52.059168],[6.005464,52.059277],[6.005493,52.059422],[6.005518,52.059545],[6.005538,52.059654],[6.005573,52.059794],[6.00561,52.059957],[6.005634,52.060096],[6.005654,52.060225],[6.005669,52.060295],[6.005678,52.060336],[6.005685,52.06037],[6.005699,52.060441],[6.005717,52.060518],[6.005736,52.060614],[6.005751,52.060699],[6.005765,52.060775],[6.005789,52.060885],[6.005809,52.060989],[6.005831,52.061107],[6.005856,52.061207],[6.005881,52.061321],[6.005896,52.061416],[6.005918,52.061501],[6.005935,52.061574],[6.005935,52.061576],[6.005952,52.061643],[6.005965,52.061687],[6.006031,52.062081],[6.006044,52.062131],[6.00606,52.062184],[6.006074,52.062232],[6.006094,52.062295],[6.006111,52.062368],[6.00612,52.062427],[6.006121,52.062429],[6.006136,52.062496],[6.006147,52.062563],[6.006158,52.06262],[6.006166,52.062661],[6.006174,52.062713],[6.00618,52.062764],[6.006182,52.062823],[6.00618,52.062871],[6.00618,52.062919],[6.006183,52.062981],[6.006192,52.063042],[6.006198,52.063107],[6.0062,52.063229],[6.006188,52.063358],[6.006172,52.063506],[6.006184,52.063655],[6.006184,52.063666],[6.006182,52.063778],[6.006177,52.063876],[6.006163,52.063964],[6.006152,52.064075],[6.006137,52.064192],[6.00613,52.064253],[6.006125,52.06445],[6.006122,52.064579],[6.006129,52.064632],[6.00613,52.064721],[6.00613,52.064723],[6.006133,52.064815],[6.006134,52.064876],[6.00613,52.065009],[6.006126,52.065143],[6.006118,52.065292],[6.006118,52.065434],[6.006112,52.065616],[6.006108,52.065675],[6.006099,52.065801],[6.006084,52.065913],[6.00608,52.066015],[6.006087,52.066116],[6.006084,52.066187],[6.006087,52.066242],[6.006089,52.066283],[6.00609,52.066308],[6.006088,52.066328],[6.006085,52.066349],[6.008741,52.066094],[6.009644,52.066002],[6.01204,52.06621],[6.012155,52.066221],[6.013138,52.066306],[6.015619,52.06653],[6.01571,52.066538],[6.015721,52.066539],[6.016079,52.066572],[6.016108,52.066575],[6.018072,52.066759],[6.01898,52.066844],[6.020189,52.066957],[6.020825,52.067017],[6.020927,52.067026],[6.022138,52.067141],[6.023738,52.067282],[6.025272,52.0679],[6.025352,52.067933],[6.026664,52.068466],[6.027692,52.068884],[6.028026,52.06902],[6.028277,52.069202],[6.028385,52.069281],[6.028935,52.06968],[6.028994,52.06972],[6.029714,52.07024],[6.030994,52.071184],[6.032015,52.071694],[6.032089,52.071731],[6.034618,52.072994],[6.035318,52.073387],[6.035458,52.073465],[6.035526,52.073503],[6.036328,52.07395],[6.036953,52.074273],[6.038415,52.075018],[6.039184,52.075531],[6.04116,52.076865],[6.041635,52.077185],[6.041927,52.077397],[6.0427,52.077958],[6.042766,52.07801],[6.043609,52.078662],[6.043678,52.078715],[6.044924,52.079641],[6.046477,52.080103],[6.047645,52.080453],[6.048182,52.080615],[6.050346,52.081225],[6.05116,52.081584],[6.053227,52.082577],[6.054823,52.083296],[6.055322,52.083546],[6.055827,52.08382],[6.055976,52.083889],[6.056468,52.084159],[6.05732,52.084648],[6.057449,52.084705],[6.058411,52.085237],[6.058433,52.085294],[6.058499,52.085323],[6.058607,52.085324],[6.058642,52.085338],[6.058789,52.085397],[6.058813,52.085406],[6.059234,52.085575],[6.059835,52.085804],[6.05991,52.085832],[6.060041,52.085882],[6.060243,52.085961],[6.060538,52.086075],[6.061503,52.086409],[6.062236,52.086644],[6.063337,52.086997],[6.063599,52.087077],[6.064087,52.087227],[6.064592,52.087387],[6.064887,52.087477],[6.065027,52.087521],[6.06531,52.087608],[6.065553,52.087685],[6.065978,52.087819],[6.066173,52.087865],[6.066964,52.088053],[6.067353,52.088138],[6.067377,52.088144],[6.067411,52.088154],[6.067468,52.08817],[6.067472,52.088171],[6.067509,52.08818],[6.067599,52.088203],[6.067606,52.088205],[6.067713,52.088215],[6.067753,52.088219],[6.067754,52.088219],[6.067783,52.088222],[6.06784,52.088227],[6.067982,52.088241],[6.067985,52.088241],[6.068141,52.088247],[6.068281,52.088246],[6.068369,52.08824],[6.068568,52.088221],[6.068724,52.088201],[6.068951,52.088172],[6.069204,52.088138],[6.069262,52.088131],[6.069481,52.088106],[6.069879,52.088058],[6.069881,52.088057],[6.070158,52.088025],[6.070372,52.088],[6.070373,52.088],[6.070957,52.087936],[6.070958,52.087935],[6.071043,52.087926],[6.07137,52.087888],[6.071567,52.08787],[6.071615,52.087866],[6.072004,52.087808],[6.072082,52.087798],[6.072347,52.087765],[6.072666,52.087736],[6.073405,52.087679],[6.073784,52.08765],[6.075993,52.087504],[6.076029,52.087502],[6.07608,52.087498],[6.076102,52.087498],[6.076145,52.087367],[6.076536,52.085933],[6.076676,52.085418],[6.07669,52.085298],[6.076707,52.085137],[6.076707,52.085123],[6.076709,52.084808],[6.076707,52.084764],[6.076708,52.084716],[6.076868,52.084715],[6.076989,52.084714],[6.077,52.08461],[6.077229,52.084614],[6.077228,52.084545],[6.077241,52.084545],[6.077299,52.084545],[6.077486,52.084547],[6.077483,52.084582],[6.077634,52.084582],[6.077985,52.084582],[6.078159,52.084582],[6.078238,52.084582],[6.078317,52.084583],[6.078461,52.084583],[6.078609,52.084583],[6.078716,52.084583],[6.078728,52.084583],[6.078771,52.084447],[6.078811,52.084321],[6.078947,52.083894],[6.079017,52.083675],[6.079017,52.083674],[6.07902,52.083664],[6.079004,52.083663],[6.078831,52.08365],[6.078655,52.083637],[6.078492,52.083625],[6.078336,52.083613],[6.07818,52.083602],[6.078038,52.083591],[6.077994,52.083588],[6.077878,52.08358],[6.077802,52.083574],[6.077656,52.083563],[6.077667,52.083552],[6.077691,52.083526],[6.077854,52.083539],[6.078174,52.083556],[6.078508,52.083577],[6.078819,52.083604],[6.079165,52.083642],[6.079171,52.083642],[6.08011,52.083753],[6.080287,52.083774],[6.080335,52.083785],[6.08039,52.083791],[6.080391,52.083791],[6.08075,52.083833],[6.080751,52.083831],[6.08085,52.083578],[6.080917,52.083403],[6.081035,52.083101],[6.081036,52.083097],[6.081145,52.082824],[6.081225,52.082622],[6.081295,52.082446],[6.081355,52.082296],[6.081444,52.08228],[6.081469,52.082276],[6.083243,52.081944],[6.084293,52.081748],[6.084302,52.081747],[6.084428,52.081721],[6.084632,52.081687],[6.084796,52.081659],[6.085006,52.081623],[6.085006,52.081615],[6.08526,52.081567],[6.085262,52.081566],[6.085266,52.081565],[6.085411,52.081536],[6.085618,52.081495],[6.085688,52.081482],[6.08578,52.081465],[6.085781,52.08146],[6.085798,52.081457],[6.085838,52.081449],[6.085841,52.081449],[6.085949,52.081428],[6.085965,52.081425],[6.085968,52.081424],[6.086058,52.081407],[6.086088,52.081401],[6.086335,52.081353],[6.086381,52.081345],[6.08648,52.081325],[6.086794,52.081271],[6.086942,52.081246],[6.086986,52.081239],[6.087207,52.081198],[6.087264,52.081188],[6.087384,52.081166],[6.08768,52.081108],[6.088082,52.08103],[6.088529,52.080948],[6.088811,52.080897],[6.088978,52.080867],[6.08924,52.080817],[6.089466,52.080776],[6.089671,52.080739],[6.089931,52.080691],[6.090069,52.080665],[6.090071,52.080669],[6.090074,52.080669],[6.09021,52.080644],[6.090296,52.080628],[6.090348,52.080618],[6.0904,52.080608],[6.090488,52.080592],[6.0908,52.080533],[6.091334,52.080435],[6.091469,52.08041],[6.093553,52.08002],[6.093813,52.079971],[6.098084,52.079166],[6.098171,52.07915],[6.098217,52.07914],[6.098539,52.079078],[6.098955,52.078999],[6.09974,52.078851],[6.099765,52.078845],[6.099843,52.078826],[6.099851,52.078825],[6.101143,52.078581],[6.101999,52.078417],[6.102378,52.078345],[6.103423,52.078144],[6.103419,52.078139],[6.103419,52.078138],[6.103247,52.077933],[6.103084,52.077732],[6.103019,52.077651],[6.102954,52.077571],[6.10299,52.077555],[6.103959,52.077145],[6.104457,52.076927],[6.105825,52.076344],[6.106813,52.075922],[6.108934,52.075016],[6.109226,52.074893],[6.109327,52.074798],[6.109358,52.074768],[6.109684,52.074459],[6.110047,52.074115],[6.110116,52.074124],[6.110162,52.074125],[6.110177,52.074123],[6.11019,52.074116],[6.110201,52.074098],[6.110209,52.074075],[6.110209,52.074054],[6.110583,52.074018],[6.110623,52.073973],[6.11179,52.072668],[6.111533,52.07271],[6.111532,52.072697],[6.111492,52.072701],[6.111492,52.072681],[6.111794,52.072633],[6.112043,52.072593],[6.112306,52.072549],[6.11243,52.072531],[6.112526,52.072519],[6.112784,52.07249],[6.112829,52.072486],[6.112889,52.072438],[6.112894,52.072434],[6.113236,52.072156],[6.113268,52.072129],[6.113286,52.072114],[6.113381,52.072041],[6.113478,52.071967],[6.113698,52.071796],[6.113704,52.071785],[6.113721,52.071772],[6.113971,52.071583],[6.114077,52.071482],[6.114143,52.071394],[6.114201,52.071299],[6.114242,52.071231],[6.114456,52.070789],[6.114656,52.070363],[6.114843,52.070015],[6.114893,52.06992],[6.114895,52.069916],[6.115255,52.069168],[6.115249,52.069167],[6.115288,52.069066],[6.115306,52.069028],[6.115354,52.068928],[6.115379,52.068874],[6.115548,52.068547],[6.115684,52.068255],[6.11569,52.068246],[6.115699,52.068231],[6.117038,52.06838],[6.117369,52.068417],[6.118037,52.068477],[6.118368,52.068505],[6.118655,52.068531],[6.118969,52.068569],[6.119341,52.068611],[6.119392,52.068618],[6.1195,52.068639],[6.119576,52.068648],[6.119676,52.068661],[6.11969,52.068663],[6.120017,52.068696],[6.12028,52.068733],[6.120378,52.068748],[6.120452,52.068754],[6.12053,52.06875],[6.120624,52.068731],[6.120661,52.068721],[6.120729,52.068702],[6.120861,52.068654],[6.120984,52.068595],[6.121001,52.068585],[6.121021,52.068576],[6.121011,52.068569],[6.120989,52.06854],[6.120978,52.068516],[6.120978,52.068484],[6.12097,52.068444],[6.12094,52.068407],[6.120866,52.068313],[6.120818,52.068255],[6.120798,52.068235],[6.120768,52.068194],[6.12076,52.068182],[6.120736,52.068134],[6.120715,52.068086],[6.120683,52.068035],[6.120675,52.068022],[6.120631,52.06797],[6.120563,52.067897],[6.120523,52.067855],[6.120454,52.0678],[6.120396,52.067763],[6.120359,52.067735],[6.120344,52.067723],[6.120316,52.067707],[6.120311,52.067704],[6.12023,52.067686],[6.120193,52.067652],[6.120181,52.067638],[6.12016,52.067607],[6.120128,52.067587],[6.120114,52.067582],[6.120084,52.067574],[6.120061,52.06756],[6.120029,52.067534],[6.119949,52.067459],[6.119918,52.067428],[6.119902,52.06739],[6.119903,52.067382],[6.119906,52.067334],[6.119946,52.067234],[6.119952,52.067206],[6.11996,52.067184],[6.119963,52.067167],[6.119963,52.067152],[6.119959,52.067139],[6.119938,52.067096],[6.11991,52.067046],[6.119884,52.066994],[6.119881,52.066965],[6.119881,52.066961],[6.119894,52.066934],[6.119911,52.066911],[6.119927,52.066884],[6.11993,52.066872],[6.119935,52.066833],[6.119939,52.066787],[6.119953,52.066762],[6.11996,52.066752],[6.119987,52.066723],[6.120033,52.066673],[6.120071,52.06663],[6.120092,52.066586],[6.120098,52.066548],[6.120095,52.066513],[6.120096,52.0665],[6.120095,52.06647],[6.120098,52.06646],[6.120108,52.066437],[6.120125,52.066426],[6.120184,52.066381],[6.120207,52.066363],[6.120235,52.066332],[6.120278,52.066286],[6.120325,52.066227],[6.120344,52.066204],[6.120371,52.066169],[6.120397,52.066131],[6.120432,52.066062],[6.120508,52.065914],[6.120533,52.065867],[6.120547,52.065842],[6.120567,52.065801],[6.120611,52.065748],[6.120653,52.065716],[6.12075,52.065661],[6.120776,52.06564],[6.120844,52.065586],[6.120855,52.065578],[6.120908,52.065536],[6.120985,52.065479],[6.120987,52.065478],[6.121042,52.065438],[6.121083,52.06541],[6.121134,52.065374],[6.121201,52.065341],[6.121223,52.065333],[6.121252,52.065323],[6.121321,52.065302],[6.121371,52.065289],[6.121427,52.065263],[6.121464,52.065243],[6.121501,52.065205],[6.121523,52.065162],[6.121539,52.065099],[6.121554,52.064971],[6.121605,52.064685],[6.12161,52.064642],[6.121632,52.064479],[6.121646,52.064419],[6.121648,52.06435],[6.121663,52.064302],[6.121673,52.064281],[6.121702,52.064242],[6.121734,52.064211],[6.121756,52.064192],[6.121794,52.064161],[6.121813,52.064144],[6.121858,52.064103],[6.121951,52.06402],[6.122057,52.063909],[6.122092,52.06388],[6.122141,52.063851],[6.122182,52.063817],[6.122231,52.063772],[6.122258,52.063746],[6.1223,52.063717],[6.12235,52.063685],[6.122581,52.063566],[6.122665,52.063528],[6.122673,52.063506],[6.122692,52.063451],[6.122769,52.06323],[6.123589,52.063431],[6.123856,52.063497],[6.123894,52.063506],[6.123942,52.063516],[6.124033,52.06354],[6.124132,52.063564],[6.124218,52.063579],[6.124218,52.06358],[6.124205,52.06361],[6.124224,52.063613],[6.124405,52.063657],[6.124509,52.063682],[6.124678,52.063724],[6.124679,52.063724],[6.125304,52.063876],[6.125547,52.063935],[6.125725,52.063975],[6.126274,52.064112],[6.126393,52.06414],[6.126495,52.064156],[6.126792,52.064181],[6.126903,52.064195],[6.127088,52.064236],[6.127366,52.06431],[6.127574,52.064338],[6.127612,52.064343],[6.127801,52.064348],[6.128103,52.064356],[6.128699,52.06428],[6.128721,52.064278],[6.128782,52.064256],[6.128832,52.064221],[6.128871,52.064174],[6.128985,52.0641],[6.12916,52.063991],[6.129169,52.063986],[6.129195,52.063969],[6.129199,52.063879],[6.129199,52.063877],[6.1292,52.06385],[6.129208,52.063623],[6.129207,52.063528],[6.129199,52.0635],[6.129184,52.063443],[6.129044,52.063203],[6.128829,52.062957],[6.128754,52.062871],[6.12882,52.062799],[6.129095,52.06273],[6.12947,52.062736],[6.129493,52.062736],[6.130914,52.062747],[6.131797,52.062754],[6.132069,52.062755],[6.132083,52.062755],[6.132226,52.062744],[6.132489,52.062033],[6.132492,52.061944],[6.132507,52.061942],[6.132541,52.06186],[6.132592,52.061859],[6.132749,52.061857],[6.132792,52.061857],[6.132973,52.061881],[6.134842,52.061923],[6.134923,52.061922],[6.135201,52.061934],[6.135357,52.061949],[6.135409,52.061961],[6.135751,52.062059],[6.135764,52.06203],[6.135802,52.06194],[6.135842,52.061846],[6.136292,52.060794],[6.136334,52.060667],[6.136364,52.060577],[6.136425,52.060392],[6.135501,52.059825],[6.135354,52.059734],[6.136055,52.059468],[6.136513,52.059487],[6.136679,52.059434],[6.136685,52.059432],[6.136816,52.05939],[6.137469,52.059181],[6.137164,52.05889],[6.136837,52.058613],[6.136749,52.058541],[6.136577,52.0584],[6.136408,52.05828],[6.136129,52.058054],[6.136056,52.057997],[6.135848,52.057831],[6.135324,52.057463],[6.134724,52.057107],[6.134604,52.057039],[6.13402,52.05671],[6.133894,52.056643],[6.133459,52.05642],[6.133177,52.056273],[6.13288,52.056118],[6.132395,52.055882],[6.132074,52.055733],[6.131789,52.055602],[6.131359,52.055408],[6.130843,52.055172],[6.130328,52.054942],[6.129994,52.0548],[6.129436,52.054563],[6.129336,52.054526],[6.128338,52.054171],[6.128187,52.054117],[6.127635,52.053928],[6.127358,52.053841],[6.127003,52.053725],[6.126629,52.053615],[6.126234,52.053504],[6.125873,52.053404],[6.125476,52.053294],[6.125082,52.053184],[6.124533,52.053012],[6.123889,52.052822],[6.123496,52.052703],[6.122838,52.052461],[6.12229,52.052262],[6.121761,52.052059],[6.121217,52.051839],[6.120565,52.051559],[6.120109,52.051343],[6.119684,52.051124],[6.119231,52.050882],[6.118777,52.050634],[6.118164,52.050286],[6.117636,52.049967],[6.117525,52.049897],[6.117324,52.049771],[6.116462,52.049221],[6.115715,52.048713],[6.115261,52.048382],[6.114761,52.048018],[6.114162,52.047538],[6.11359,52.047044],[6.113134,52.046613],[6.112901,52.046376],[6.112672,52.046093],[6.112041,52.045322],[6.111605,52.044699],[6.11131,52.044159],[6.111074,52.043568],[6.110916,52.042958],[6.110813,52.042034],[6.110957,52.041176],[6.111055,52.040667],[6.111167,52.040329],[6.111266,52.040104],[6.11142,52.039772],[6.111548,52.039532],[6.111724,52.039252],[6.111904,52.038997],[6.112091,52.038769],[6.112319,52.038501],[6.112599,52.038235],[6.112944,52.037946],[6.113137,52.037796],[6.113301,52.03767],[6.113657,52.037436],[6.113825,52.037335],[6.113995,52.037232],[6.114343,52.037035],[6.114789,52.0368],[6.115286,52.036554],[6.115852,52.036296],[6.11639,52.036066],[6.116848,52.035881],[6.117354,52.0357],[6.117828,52.035532],[6.118248,52.035388],[6.118709,52.035243],[6.119142,52.035126],[6.119535,52.035025],[6.119989,52.034911],[6.120466,52.034808],[6.120882,52.034728],[6.121502,52.034617],[6.121986,52.034488],[6.122694,52.0343],[6.123285,52.034115],[6.123918,52.033885],[6.124797,52.03353],[6.125259,52.033327],[6.125797,52.033075],[6.126327,52.032802],[6.126947,52.032449],[6.127399,52.032157],[6.127904,52.031801],[6.12854,52.03132],[6.128973,52.03097],[6.129514,52.030475],[6.130031,52.029945],[6.130442,52.029465],[6.130731,52.029101],[6.131001,52.028705],[6.131303,52.02821],[6.131643,52.02754],[6.131818,52.027112],[6.132022,52.026552],[6.132072,52.026359],[6.132195,52.025771],[6.132243,52.025497],[6.132268,52.025168],[6.132277,52.024904],[6.132257,52.024288],[6.132207,52.023832],[6.132087,52.023151],[6.13198,52.02274],[6.131841,52.022348],[6.131623,52.021885],[6.130726,52.020344],[6.130078,52.019509],[6.129886,52.019397],[6.129649,52.019236],[6.129389,52.019052],[6.129139,52.01885],[6.128931,52.01865],[6.128717,52.018411],[6.12855,52.018185],[6.128326,52.017843],[6.128039,52.017438],[6.127838,52.017109],[6.127639,52.016704],[6.127523,52.01641],[6.12741,52.016049],[6.127357,52.015768],[6.127376,52.015496],[6.127413,52.015191],[6.127484,52.014792],[6.127569,52.014567],[6.127591,52.014471],[6.127605,52.013966],[6.127498,52.013154],[6.1274,52.012714],[6.127306,52.012422],[6.127165,52.012073],[6.127025,52.011798],[6.126555,52.010944],[6.12596,52.010127],[6.125226,52.009347],[6.124372,52.008619],[6.123403,52.007956],[6.122339,52.007353],[6.121145,52.006813],[6.119888,52.00636],[6.11857,52.00597],[6.117965,52.005837],[6.117837,52.005824],[6.117271,52.005722],[6.11676,52.005586],[6.116286,52.005421],[6.115915,52.005257],[6.115185,52.004876],[6.115025,52.004769],[6.114768,52.004567],[6.114351,52.004164],[6.114056,52.00379],[6.113815,52.003318],[6.113703,52.003056],[6.113583,52.002559],[6.113522,52.002142],[6.11341,52.001549],[6.113279,52.000972],[6.112732,51.999717],[6.112282,51.998975],[6.112047,51.998658],[6.111818,51.998367],[6.111502,51.998043],[6.111106,51.997659],[6.110688,51.997323],[6.110094,51.996862],[6.109591,51.996437],[6.109476,51.996341],[6.108964,51.996122],[6.108358,51.99587],[6.107523,51.99557],[6.106679,51.995313],[6.105266,51.994947],[6.103429,51.99452],[6.101752,51.99421],[6.101139,51.99408],[6.101124,51.994077],[6.097179,51.993305],[6.096231,51.993131],[6.095375,51.992987],[6.094334,51.992841],[6.093749,51.992787],[6.092734,51.992751],[6.09206,51.992768],[6.090692,51.992894],[6.089831,51.993042],[6.087919,51.99343],[6.086934,51.993761],[6.086683,51.993867],[6.085443,51.994334],[6.085002,51.994561],[6.084253,51.995038],[6.083862,51.995321],[6.083576,51.995549],[6.082939,51.99616],[6.082763,51.996378],[6.082185,51.997161],[6.081568,51.997868],[6.081036,51.998444],[6.080215,51.999127],[6.079713,51.999502],[6.079293,51.999843],[6.078733,52.000375],[6.078334,52.000827],[6.078026,52.001315],[6.077928,52.001517],[6.077735,52.002027],[6.077642,52.002321],[6.077618,52.002507],[6.07759,52.002918],[6.077588,52.003256],[6.077663,52.003786],[6.077925,52.004398],[6.078247,52.005011],[6.078391,52.005333],[6.078662,52.005853],[6.078784,52.006297],[6.078822,52.006492],[6.078845,52.007131],[6.078789,52.007469],[6.078685,52.007889],[6.07858,52.008177],[6.078348,52.008669],[6.077852,52.009366],[6.077622,52.009623],[6.077247,52.009989],[6.076898,52.010306],[6.076473,52.01065],[6.075917,52.011012],[6.075628,52.011177],[6.074853,52.011578],[6.074079,52.011929],[6.072986,52.012362],[6.072745,52.012456],[6.070987,52.013081],[6.069216,52.013773],[6.068279,52.014168],[6.067734,52.014305],[6.067018,52.014523],[6.066209,52.014706],[6.065511,52.01484],[6.064688,52.014951],[6.063989,52.015004],[6.063045,52.015025],[6.061781,52.014982],[6.06143,52.01493],[6.060947,52.014879],[6.060831,52.014854],[6.060491,52.014809],[6.059446,52.014595],[6.058896,52.014467],[6.0583,52.014288],[6.057912,52.014158],[6.05744,52.014022],[6.056736,52.013723],[6.054048,52.012318],[6.053284,52.011975],[6.052776,52.011765],[6.050637,52.010988],[6.049602,52.010598],[6.049217,52.010427],[6.048992,52.010315],[6.048851,52.010231],[6.048613,52.010125],[6.04803,52.009776],[6.047403,52.009309],[6.046823,52.008787],[6.046112,52.008074],[6.04575,52.007556],[6.045611,52.00732],[6.045451,52.00697],[6.045362,52.006717],[6.045319,52.006537],[6.044993,52.005005],[6.044784,52.004369],[6.044616,52.003989],[6.044516,52.003816],[6.044225,52.003474],[6.043954,52.003112],[6.043653,52.002762],[6.043229,52.002356],[6.042936,52.002107],[6.042624,52.001863],[6.042146,52.001532],[6.041383,52.001095],[6.040843,52.000844],[6.040075,52.000518],[6.038476,51.999923],[6.037141,51.999359],[6.036532,51.999064],[6.035696,51.998614],[6.034619,51.997976],[6.033598,51.997392],[6.032817,51.99703],[6.032501,51.996901],[6.031458,51.996553],[6.030391,51.996274],[6.030025,51.996198],[6.029679,51.996141],[6.028645,51.995929],[6.028236,51.995861],[6.027791,51.99584],[6.026839,51.995825],[6.025976,51.995832],[6.025617,51.995847],[6.024722,51.995933],[6.024222,51.99601],[6.023366,51.996169],[6.022906,51.996278],[6.022489,51.996401],[6.022093,51.996505],[6.021538,51.996674],[6.021175,51.996763],[6.020633,51.99687],[6.019679,51.997003],[6.019388,51.997032],[6.018618,51.997082],[6.017317,51.997103],[6.01665,51.997057],[6.015941,51.996969],[6.015334,51.996868],[6.014741,51.996704],[6.014199,51.996522],[6.013844,51.996403],[6.012804,51.995996],[6.011999,51.995646],[6.011677,51.995482],[6.011318,51.995275],[6.0098,51.994376],[6.009647,51.994272],[6.008954,51.99376],[6.008391,51.993303],[6.007992,51.992948],[6.00768,51.992645],[6.00736,51.992304],[6.006978,51.991855],[6.006744,51.991557],[6.006414,51.991084],[6.006126,51.990601],[6.005871,51.990081],[6.005638,51.989514],[6.005473,51.989023],[6.004615,51.985845],[6.004513,51.985518],[6.004084,51.984401],[6.003831,51.983867],[6.002987,51.982303],[6.001965,51.98065],[6.001855,51.980464],[6.001667,51.980158],[6.001433,51.979789],[6.001245,51.979529],[6.001188,51.979456],[6.001116,51.979363],[6.000772,51.978938],[6.000563,51.978717],[6.000301,51.978455],[6.000094,51.978269],[5.999773,51.978008],[5.999465,51.977797],[5.999011,51.977483],[5.998683,51.977288],[5.998284,51.977065],[5.997939,51.976885],[5.997604,51.976725],[5.997309,51.97659],[5.996559,51.976275],[5.996118,51.976114],[5.995535,51.975898],[5.995032,51.975727],[5.99464,51.9756],[5.994156,51.975445],[5.991217,51.974601],[5.990934,51.97453],[5.99034,51.974406],[5.989892,51.974762],[5.989851,51.974794],[5.989705,51.97491],[5.989662,51.974944],[5.987402,51.976737],[5.987068,51.976993],[5.986801,51.977204],[5.98676,51.977243],[5.986759,51.977245],[5.986738,51.977331],[5.986735,51.977341],[5.98669,51.977527],[5.986486,51.977682],[5.986267,51.977847],[5.986019,51.97804],[5.985878,51.978142],[5.986013,51.978151],[5.985968,51.978184],[5.985677,51.978382],[5.98499,51.978884],[5.985009,51.978898],[5.984927,51.978956],[5.984924,51.978958],[5.984873,51.978995],[5.984456,51.979253],[5.984,51.979551],[5.983977,51.979566],[5.983943,51.979588],[5.983549,51.979837],[5.983546,51.979838],[5.983296,51.97999],[5.982619,51.980399],[5.98218,51.980662],[5.981531,51.981004],[5.981074,51.981243],[5.980609,51.981475],[5.980135,51.981701],[5.9796,51.981958],[5.97952,51.981953],[5.979513,51.981992],[5.978744,51.982311],[5.978401,51.982448],[5.977315,51.982864],[5.977145,51.982919],[5.976927,51.982991],[5.976281,51.983216],[5.975511,51.983451],[5.975512,51.983589],[5.975492,51.983585],[5.975238,51.983578],[5.975032,51.983574],[5.975028,51.98372],[5.9748,51.983725],[5.974609,51.983726],[5.974258,51.983821],[5.973729,51.983966],[5.973654,51.983987],[5.973509,51.984027],[5.97347,51.984038],[5.973261,51.984095],[5.973027,51.984163],[5.972709,51.98426],[5.972358,51.984366],[5.972023,51.984466],[5.971723,51.984557],[5.971246,51.984696],[5.971242,51.984698],[5.971239,51.9847],[5.971098,51.98478],[5.970877,51.984909],[5.970632,51.98494],[5.970402,51.984966],[5.97,51.985023],[5.969962,51.98503],[5.969873,51.985045],[5.969773,51.985072],[5.969493,51.985137],[5.96945,51.985147],[5.969265,51.985189],[5.969006,51.985259],[5.968724,51.985338],[5.968357,51.985438],[5.968104,51.985505],[5.967993,51.985537],[5.967632,51.985646],[5.967233,51.985768],[5.966896,51.985876],[5.966457,51.986023],[5.966074,51.986161],[5.965683,51.986297],[5.965645,51.986311],[5.965178,51.986487],[5.964821,51.986631],[5.96452,51.986747],[5.9643,51.986846],[5.963923,51.987013],[5.96362,51.987148],[5.963479,51.987207],[5.963477,51.987209],[5.963337,51.98727],[5.963278,51.987296],[5.963115,51.987367],[5.963061,51.987391],[5.963033,51.987405],[5.962879,51.987484],[5.962704,51.987575],[5.962573,51.987637],[5.962479,51.987683],[5.962324,51.98776],[5.962164,51.98784],[5.962007,51.987922],[5.961878,51.987991],[5.961751,51.988058],[5.961584,51.988153],[5.961479,51.988215],[5.961354,51.988279],[5.961353,51.988279],[5.961328,51.988292],[5.961098,51.98841],[5.961098,51.98841],[5.961048,51.988436],[5.960947,51.988487],[5.960883,51.988521],[5.960868,51.98853],[5.960853,51.988539],[5.960819,51.988559],[5.960816,51.98856],[5.960509,51.988756],[5.960113,51.98901],[5.960029,51.98906],[5.959904,51.98914],[5.95977,51.989228],[5.959674,51.989282],[5.959567,51.98936],[5.95945,51.98945],[5.95936,51.989527],[5.959288,51.989575],[5.959197,51.989637],[5.959082,51.989726],[5.958969,51.989815],[5.958872,51.98989],[5.958717,51.990009],[5.95825,51.990369],[5.958085,51.990498],[5.957975,51.990597],[5.957745,51.990808],[5.957567,51.990968],[5.957393,51.991126],[5.957181,51.991326],[5.956963,51.991531],[5.956749,51.991731],[5.956579,51.991892],[5.95646,51.99201],[5.956382,51.992086],[5.95617,51.992299],[5.956001,51.992472],[5.955797,51.992678],[5.955725,51.992761],[5.955438,51.993083],[5.955193,51.993364],[5.955261,51.993386],[5.955256,51.993391],[5.955498,51.993455],[5.955453,51.993509],[5.955337,51.993651],[5.955321,51.993669],[5.955233,51.993777],[5.955048,51.994002],[5.954955,51.994116],[5.954472,51.994679],[5.954439,51.994725],[5.953969,51.994571],[5.953849,51.994717],[5.953613,51.995002],[5.953406,51.99548],[5.953242,51.995795],[5.953158,51.99595],[5.953127,51.996003],[5.952849,51.996521],[5.952589,51.997007],[5.952588,51.997008],[5.952554,51.997115],[5.952339,51.997572],[5.952261,51.997763],[5.952191,51.99795],[5.951935,51.998461],[5.9518,51.998825],[5.951757,51.998948],[5.951587,51.999399],[5.951546,51.999533],[5.951526,51.999638]]]},"properties":{"type":"boundary","gemeente":"Rheden"}}]}