{"type":"FeatureCollection","metadata":{"gemeente":"Schiedam","slug":"schiedam","generated_at":"2026-09-28T08:32:17.792562Z","total_points":71,"providers":["Amazon","DeBuren","DHL","DPD","PostNL","VintedGo","ViaTim","FedEx","InPost","Budbee"],"bounds":[4.361604108,51.9054,4.41371,51.94428337]},"features":[{"type":"Feature","geometry":{"type":"Point","coordinates":[4.384013279,51.91190474]},"properties":{"type":"pakketpunt","locatieNaam":"Webshop Dierenbenodigheden Schiedam","straatNaam":"Rembrandtlaan 8 B","straatNr":"","vervoerder":"Amazon","puntType":"3p","bezettingsgraad":50,"latitude":51.91190474,"longitude":4.384013279,"canPickup":true,"canDropoff":false,"openingstijden":null}},{"type":"Feature","geometry":{"type":"Point","coordinates":[4.37789188120082,51.9353132182426]},"properties":{"type":"pakketpunt","locatieNaam":"Videocorner Schiedam PpP","straatNaam":"Schiedamseweg 22","straatNr":"","vervoerder":"Amazon","puntType":"3p","bezettingsgraad":50,"latitude":51.9353132182426,"longitude":4.37789188120082,"canPickup":true,"canDropoff":false,"openingstijden":null}},{"type":"Feature","geometry":{"type":"Point","coordinates":[4.376588816,51.93505933]},"properties":{"type":"pakketpunt","locatieNaam":"Giftclub  Spaland","straatNaam":"Hof van Spaland 26","straatNr":"","vervoerder":"Amazon","puntType":"3p","bezettingsgraad":50,"latitude":51.93505933,"longitude":4.376588816,"canPickup":true,"canDropoff":false,"openingstijden":null}},{"type":"Feature","geometry":{"type":"Point","coordinates":[4.377329927052312,51.92458155697975]},"properties":{"type":"pakketpunt","locatieNaam":"DHL - DeBuren Locker 24-7 Tango Schiedam","straatNaam":"Nieuwe Damlaan 9","straatNr":"","vervoerder":"Amazon","puntType":"3p","bezettingsgraad":50,"latitude":51.92458155697975,"longitude":4.377329927052312,"canPickup":true,"canDropoff":false,"openingstijden":null}},{"type":"Feature","geometry":{"type":"Point","coordinates":[4.391178607940674,51.92197036743164]},"properties":{"type":"pakketpunt","locatieNaam":"DHL - Pakketautomaat PLUS Nieuwland","straatNaam":"Monseigneur Nolenslaan 460","straatNr":"","vervoerder":"Amazon","puntType":"3p","bezettingsgraad":50,"latitude":51.92197036743164,"longitude":4.391178607940674,"canPickup":true,"canDropoff":false,"openingstijden":null}},{"type":"Feature","geometry":{"type":"Point","coordinates":[4.407252264,51.92130537]},"properties":{"type":"pakketpunt","locatieNaam":"Spar City Schiedam","straatNaam":"Stationsplein 4","straatNr":"","vervoerder":"Amazon","puntType":"3p","bezettingsgraad":50,"latitude":51.92130537,"longitude":4.407252264,"canPickup":true,"canDropoff":false,"openingstijden":null}},{"type":"Feature","geometry":{"type":"Point","coordinates":[4.40133577958462,51.9173187855399]},"properties":{"type":"pakketpunt","locatieNaam":"All4Beauty by Linh","straatNaam":"Broersveld 137","straatNr":"","vervoerder":"Amazon","puntType":"3p","bezettingsgraad":50,"latitude":51.9173187855399,"longitude":4.40133577958462,"canPickup":true,"canDropoff":false,"openingstijden":null}},{"type":"Feature","geometry":{"type":"Point","coordinates":[4.3776371,51.9251314]},"properties":{"type":"pakketpunt","locatieNaam":"Schiedam | Nieuwe Damlaan | Tango | Pakketautomaat","straatNaam":"Nieuwe Damlaan","straatNr":"9","vervoerder":"DeBuren","puntType":"Buitenkluis","bezettingsgraad":50,"latitude":51.9251314,"longitude":4.3776371,"canPickup":true,"canDropoff":true,"openingstijden":null}},{"type":"Feature","geometry":{"type":"Point","coordinates":[4.367762565612793,51.942283630371094]},"properties":{"type":"pakketpunt","locatieNaam":"Mycrocom","straatNaam":"Frans Rietveldpad","straatNr":"26","vervoerder":"DHL","puntType":"parcelShop","bezettingsgraad":50,"latitude":51.942283630371094,"longitude":4.367762565612793,"canPickup":true,"canDropoff":true,"openingstijden":{"ma":"gesloten","di":"10:00 - 18:00","wo":"10:00 - 18:00","do":"10:00 - 18:00","vr":"10:00 - 18:00","za":"10:00 - 17:00","zo":"gesloten"}}},{"type":"Feature","geometry":{"type":"Point","coordinates":[4.374837602080085,51.93513225967157]},"properties":{"type":"pakketpunt","locatieNaam":"Pakketautomaat Lidl Schiedam","straatNaam":"Hof van Spaland","straatNr":"68","vervoerder":"DHL","puntType":"packStation","bezettingsgraad":50,"latitude":51.93513225967157,"longitude":4.374837602080085,"canPickup":true,"canDropoff":true,"openingstijden":{"ma":"07:00 - 20:00","di":"07:00 - 20:00","wo":"07:00 - 20:00","do":"07:00 - 20:00","vr":"07:00 - 21:00","za":"07:00 - 20:00","zo":"12:00 - 18:00"}}},{"type":"Feature","geometry":{"type":"Point","coordinates":[4.377883,51.935318]},"properties":{"type":"pakketpunt","locatieNaam":"Videocorner Schiedam","straatNaam":"Schiedamseweg","straatNr":"22","vervoerder":"DHL","puntType":"parcelShop","bezettingsgraad":50,"latitude":51.935318,"longitude":4.377883,"canPickup":true,"canDropoff":true,"openingstijden":{"ma":"10:00 - 21:00","di":"10:00 - 21:00","wo":"10:00 - 21:00","do":"10:00 - 21:00","vr":"10:00 - 21:00","za":"10:00 - 21:00","zo":"10:00 - 21:00"}}},{"type":"Feature","geometry":{"type":"Point","coordinates":[4.372461,51.928294]},"properties":{"type":"pakketpunt","locatieNaam":"CIGO De Kethelaar","straatNaam":"Laan van Bol es","straatNr":"11","vervoerder":"DHL","puntType":"parcelShop","bezettingsgraad":50,"latitude":51.928294,"longitude":4.372461,"canPickup":true,"canDropoff":true,"openingstijden":{"ma":"08:00 - 17:30","di":"08:00 - 17:30","wo":"08:00 - 17:30","do":"08:00 - 17:30","vr":"08:00 - 17:30","za":"08:00 - 17:30","zo":"gesloten"}}},{"type":"Feature","geometry":{"type":"Point","coordinates":[4.37916,51.9274489]},"properties":{"type":"pakketpunt","locatieNaam":"Pakketautomaat Basic-Fit Beatrixst","straatNaam":"Prinses Beatrixlaan","straatNr":"4","vervoerder":"DHL","puntType":"packStation","bezettingsgraad":50,"latitude":51.9274489,"longitude":4.37916,"canPickup":true,"canDropoff":true,"openingstijden":{"ma":"00:00 - 23:59","di":"00:00 - 23:59","wo":"00:00 - 23:59","do":"00:00 - 23:59","vr":"00:00 - 23:59","za":"00:00 - 23:59","zo":"00:00 - 23:59"}}},{"type":"Feature","geometry":{"type":"Point","coordinates":[4.377329927052312,51.92458155697975]},"properties":{"type":"pakketpunt","locatieNaam":"DeBuren Locker 24-7 Tango Schiedam","straatNaam":"Nieuwe Damlaan","straatNr":"9","vervoerder":"DHL","puntType":"packStation","bezettingsgraad":50,"latitude":51.92458155697975,"longitude":4.377329927052312,"canPickup":true,"canDropoff":true,"openingstijden":{"ma":"00:00 - 23:59","di":"00:00 - 23:59","wo":"00:00 - 23:59","do":"00:00 - 23:59","vr":"00:00 - 23:59","za":"00:00 - 23:59","zo":"00:00 - 23:59"}}},{"type":"Feature","geometry":{"type":"Point","coordinates":[4.3968437,51.9350483]},"properties":{"type":"pakketpunt","locatieNaam":"DHL Pakketpunt Schiedam","straatNaam":"Fokkerstraat","straatNr":"477","vervoerder":"DHL","puntType":"parcelShop","bezettingsgraad":50,"latitude":51.9350483,"longitude":4.3968437,"canPickup":true,"canDropoff":true,"openingstijden":{"ma":"09:00 - 20:00","di":"09:00 - 20:00","wo":"09:00 - 20:00","do":"09:00 - 20:00","vr":"09:00 - 20:00","za":"09:00 - 18:00","zo":"gesloten"}}},{"type":"Feature","geometry":{"type":"Point","coordinates":[4.3859998,51.9222289]},"properties":{"type":"pakketpunt","locatieNaam":"Pakketwinkel RP Shipping","straatNaam":"Burgemeester van Haarenlaan","straatNr":"784","vervoerder":"DHL","puntType":"parcelShop","bezettingsgraad":50,"latitude":51.9222289,"longitude":4.3859998,"canPickup":true,"canDropoff":true,"openingstijden":{"ma":"gesloten","di":"10:00 - 17:00","wo":"10:00 - 17:00","do":"10:00 - 17:00","vr":"10:00 - 17:00","za":"gesloten","zo":"gesloten"}}},{"type":"Feature","geometry":{"type":"Point","coordinates":[4.399235912609933,51.936478339720864]},"properties":{"type":"pakketpunt","locatieNaam":"Pakketautomaat GAMMA Schiedam-Nrd","straatNaam":"’s-Gravenlandseweg","straatNr":"363","vervoerder":"DHL","puntType":"packStation","bezettingsgraad":50,"latitude":51.936478339720864,"longitude":4.399235912609933,"canPickup":true,"canDropoff":true,"openingstijden":{"ma":"00:00 - 23:59","di":"00:00 - 23:59","wo":"00:00 - 23:59","do":"00:00 - 23:59","vr":"00:00 - 23:59","za":"00:00 - 23:59","zo":"00:00 - 23:59"}}},{"type":"Feature","geometry":{"type":"Point","coordinates":[4.390146,51.9218044]},"properties":{"type":"pakketpunt","locatieNaam":"Uw Eigen Drogist Bergsen","straatNaam":"Mgr. Nolenslaan","straatNr":"516-520","vervoerder":"DHL","puntType":"parcelShop","bezettingsgraad":50,"latitude":51.9218044,"longitude":4.390146,"canPickup":true,"canDropoff":true,"openingstijden":{"ma":"09:00 - 18:00","di":"09:00 - 18:00","wo":"09:00 - 18:00","do":"09:00 - 18:00","vr":"09:00 - 18:00","za":"09:00 - 17:30","zo":"gesloten"}}},{"type":"Feature","geometry":{"type":"Point","coordinates":[4.391178607940674,51.92197036743164]},"properties":{"type":"pakketpunt","locatieNaam":"Pakketautomaat PLUS Nieuwland","straatNaam":"Monseigneur Nolenslaan","straatNr":"460","vervoerder":"DHL","puntType":"packStation","bezettingsgraad":50,"latitude":51.92197036743164,"longitude":4.391178607940674,"canPickup":true,"canDropoff":true,"openingstijden":{"ma":"00:00 - 23:59","di":"00:00 - 23:59","wo":"00:00 - 23:59","do":"00:00 - 23:59","vr":"00:00 - 23:59","za":"00:00 - 23:59","zo":"00:00 - 23:59"}}},{"type":"Feature","geometry":{"type":"Point","coordinates":[4.4058928,51.9311854]},"properties":{"type":"pakketpunt","locatieNaam":"DESTIL Prolians Schiedam","straatNaam":"Van Heekstraat","straatNr":"24","vervoerder":"DHL","puntType":"parcelShop","bezettingsgraad":50,"latitude":51.9311854,"longitude":4.4058928,"canPickup":true,"canDropoff":true,"openingstijden":{"ma":"07:00 - 16:00","di":"07:00 - 16:00","wo":"07:00 - 16:00","do":"07:00 - 16:00","vr":"07:00 - 16:00","za":"gesloten","zo":"gesloten"}}},{"type":"Feature","geometry":{"type":"Point","coordinates":[4.384466,51.9115695]},"properties":{"type":"pakketpunt","locatieNaam":"Pure Joy","straatNaam":"Rubensplein","straatNr":"12-B","vervoerder":"DHL","puntType":"parcelShop","bezettingsgraad":50,"latitude":51.9115695,"longitude":4.384466,"canPickup":true,"canDropoff":true,"openingstijden":{"ma":"09:00 - 17:00","di":"09:00 - 17:00","wo":"09:00 - 17:00","do":"09:00 - 17:00","vr":"09:00 - 17:00","za":"09:00 - 17:00","zo":"gesloten"}}},{"type":"Feature","geometry":{"type":"Point","coordinates":[4.400268832989085,51.9155257371609]},"properties":{"type":"pakketpunt","locatieNaam":"Pakketautomaat HEMA Schiedam","straatNaam":"Nieuwe Passage","straatNr":"43-Kast","vervoerder":"DHL","puntType":"packStation","bezettingsgraad":50,"latitude":51.9155257371609,"longitude":4.400268832989085,"canPickup":true,"canDropoff":true,"openingstijden":{"ma":"09:00 - 17:30","di":"09:00 - 17:30","wo":"09:00 - 17:30","do":"09:00 - 20:00","vr":"09:00 - 17:30","za":"09:00 - 17:30","zo":"12:00 - 17:00"}}},{"type":"Feature","geometry":{"type":"Point","coordinates":[4.400437831878662,51.915374755859375]},"properties":{"type":"pakketpunt","locatieNaam":"Intertoys Schiedam","straatNaam":"Nieuwe Passage","straatNr":"27","vervoerder":"DHL","puntType":"parcelShop","bezettingsgraad":50,"latitude":51.915374755859375,"longitude":4.400437831878662,"canPickup":true,"canDropoff":true,"openingstijden":{"ma":"12:00 - 17:30","di":"09:30 - 17:30","wo":"09:30 - 17:30","do":"09:30 - 17:30","vr":"09:30 - 17:30","za":"09:30 - 17:00","zo":"gesloten"}}},{"type":"Feature","geometry":{"type":"Point","coordinates":[4.4026191,51.9143835]},"properties":{"type":"pakketpunt","locatieNaam":"Iris Bloemsierkunst","straatNaam":"Rotterdamsedijk","straatNr":"445-B","vervoerder":"DHL","puntType":"parcelShop","bezettingsgraad":50,"latitude":51.9143835,"longitude":4.4026191,"canPickup":true,"canDropoff":true,"openingstijden":{"ma":"12:00 - 17:00","di":"12:00 - 17:00","wo":"12:00 - 17:00","do":"12:00 - 17:00","vr":"12:00 - 17:00","za":"12:00 - 17:00","zo":"gesloten"}}},{"type":"Feature","geometry":{"type":"Point","coordinates":[4.4043328,51.9060562]},"properties":{"type":"pakketpunt","locatieNaam":"Trend Home Online","straatNaam":"Groenelaan","straatNr":"53","vervoerder":"DHL","puntType":"parcelShop","bezettingsgraad":50,"latitude":51.9060562,"longitude":4.4043328,"canPickup":true,"canDropoff":true,"openingstijden":{"ma":"09:00 - 18:00","di":"09:00 - 18:00","wo":"09:00 - 18:00","do":"09:00 - 18:00","vr":"09:00 - 18:00","za":"10:00 - 17:00","zo":"gesloten"}}},{"type":"Feature","geometry":{"type":"Point","coordinates":[4.384466,51.91157]},"properties":{"type":"pakketpunt","locatieNaam":"Pure Joy","straatNaam":"RUBENSPLEIN","straatNr":"12B","vervoerder":"DPD","puntType":"pickup_point","bezettingsgraad":50,"latitude":51.91157,"longitude":4.384466,"canPickup":true,"canDropoff":true,"openingstijden":{"ma":"09:00 - 17:00","di":"09:00 - 17:00","wo":"09:00 - 17:00","do":"09:00 - 17:00","vr":"09:00 - 17:00","za":"09:00 - 17:00","zo":"gesloten"}}},{"type":"Feature","geometry":{"type":"Point","coordinates":[4.367463,51.942356]},"properties":{"type":"pakketpunt","locatieNaam":"Mycrocom","straatNaam":"FRANS RIETVELDPAD","straatNr":"26","vervoerder":"DPD","puntType":"pickup_point","bezettingsgraad":50,"latitude":51.942356,"longitude":4.367463,"canPickup":true,"canDropoff":true,"openingstijden":{"ma":"gesloten","di":"10:00 - 18:00","wo":"10:00 - 18:00","do":"10:00 - 18:00","vr":"10:00 - 18:00","za":"10:00 - 17:00","zo":"gesloten"}}},{"type":"Feature","geometry":{"type":"Point","coordinates":[4.4043328,51.9060562]},"properties":{"type":"pakketpunt","locatieNaam":"Trend Home","straatNaam":"GROENELAAN","straatNr":"53","vervoerder":"DPD","puntType":"pickup_point","bezettingsgraad":50,"latitude":51.9060562,"longitude":4.4043328,"canPickup":true,"canDropoff":true,"openingstijden":{"ma":"09:00 - 18:00","di":"09:00 - 18:00","wo":"09:00 - 18:00","do":"09:00 - 18:00","vr":"09:00 - 18:00","za":"10:00 - 17:00","zo":"gesloten"}}},{"type":"Feature","geometry":{"type":"Point","coordinates":[4.377883,51.935318]},"properties":{"type":"pakketpunt","locatieNaam":"Pakketautomaat Videocorner Schiedam","straatNaam":"SCHIEDAMSEWEG","straatNr":"22","vervoerder":"DPD","puntType":"dpd_box","bezettingsgraad":50,"latitude":51.935318,"longitude":4.377883,"canPickup":true,"canDropoff":true,"openingstijden":{"ma":"10:00 - 21:00","di":"10:00 - 21:00","wo":"10:00 - 21:00","do":"10:00 - 21:00","vr":"10:00 - 21:00","za":"10:00 - 21:00","zo":"10:00 - 21:00"}}},{"type":"Feature","geometry":{"type":"Point","coordinates":[4.40138,51.91635]},"properties":{"type":"pakketpunt","locatieNaam":"Izoek","straatNaam":"BROERSVELD","straatNr":"106","vervoerder":"DPD","puntType":"pickup_point","bezettingsgraad":50,"latitude":51.91635,"longitude":4.40138,"canPickup":true,"canDropoff":true,"openingstijden":{"ma":"10:30 - 19:00","di":"10:30 - 19:00","wo":"10:30 - 19:00","do":"10:30 - 19:00","vr":"10:30 - 19:00","za":"10:30 - 19:00","zo":"gesloten"}}},{"type":"Feature","geometry":{"type":"Point","coordinates":[4.3776371048,51.925131403]},"properties":{"type":"pakketpunt","locatieNaam":"Pakketautomaat Tango Nieuwe Damlaan","straatNaam":"NIEUWE DAMLAAN","straatNr":"9","vervoerder":"DPD","puntType":"dpd_box","bezettingsgraad":50,"latitude":51.925131403,"longitude":4.3776371048,"canPickup":true,"canDropoff":true,"openingstijden":{"ma":"00:01 - 23:59","di":"00:01 - 23:59","wo":"00:01 - 23:59","do":"00:01 - 23:59","vr":"00:01 - 23:59","za":"00:01 - 23:59","zo":"00:01 - 23:59"}}},{"type":"Feature","geometry":{"type":"Point","coordinates":[4.37789188120082,51.9353132182426]},"properties":{"type":"pakketpunt","locatieNaam":"Videocorner Schiedam PpP","straatNaam":"Schiedamseweg","straatNr":"22","vervoerder":"PostNL","puntType":"servicepunt","bezettingsgraad":50,"latitude":51.9353132182426,"longitude":4.37789188120082,"canPickup":true,"canDropoff":true,"openingstijden":"10:00 - 21:00"}},{"type":"Feature","geometry":{"type":"Point","coordinates":[4.376588816,51.93505933]},"properties":{"type":"pakketpunt","locatieNaam":"Giftclub  Spaland","straatNaam":"Hof van Spaland","straatNr":"26","vervoerder":"PostNL","puntType":"servicepunt","bezettingsgraad":50,"latitude":51.93505933,"longitude":4.376588816,"canPickup":true,"canDropoff":true,"openingstijden":"10:00 - 17:30 (Zaterdag open)"}},{"type":"Feature","geometry":{"type":"Point","coordinates":[4.3719392004819,51.9284574069348]},"properties":{"type":"pakketpunt","locatieNaam":"Pakket- en briefautomaat","straatNaam":"Laan van Bol'Es","straatNr":"19PBA","vervoerder":"PostNL","puntType":"automaat","bezettingsgraad":50,"latitude":51.9284574069348,"longitude":4.3719392004819,"canPickup":true,"canDropoff":true,"openingstijden":"00:00 - 23:59"}},{"type":"Feature","geometry":{"type":"Point","coordinates":[4.39098096214706,51.9221393770252]},"properties":{"type":"pakketpunt","locatieNaam":"Pakketautomaat","straatNaam":"Mgr Nolenslaan","straatNr":"460PBA","vervoerder":"PostNL","puntType":"automaat","bezettingsgraad":50,"latitude":51.9221393770252,"longitude":4.39098096214706,"canPickup":true,"canDropoff":true,"openingstijden":"00:00 - 23:59"}},{"type":"Feature","geometry":{"type":"Point","coordinates":[4.390159648,51.92180881]},"properties":{"type":"pakketpunt","locatieNaam":"Primera Nolenslaan","straatNaam":"Mgr. Nolenslaan","straatNr":"524","vervoerder":"PostNL","puntType":"servicepunt","bezettingsgraad":50,"latitude":51.92180881,"longitude":4.390159648,"canPickup":true,"canDropoff":true,"openingstijden":"09:00 - 18:30 (Na 18:00 open; Zaterdag open; Zondag open)"}},{"type":"Feature","geometry":{"type":"Point","coordinates":[4.38625426125418,51.9209216823553]},"properties":{"type":"pakketpunt","locatieNaam":"Pakketautomaat","straatNaam":"Nieuwlandplein","straatNr":"17PBA","vervoerder":"PostNL","puntType":"automaat","bezettingsgraad":50,"latitude":51.9209216823553,"longitude":4.38625426125418,"canPickup":true,"canDropoff":true,"openingstijden":"08:00 - 19:30"}},{"type":"Feature","geometry":{"type":"Point","coordinates":[4.398567763,51.93610014]},"properties":{"type":"pakketpunt","locatieNaam":"GAMMA Schiedam-Noord","straatNaam":"'s-Gravelandseweg","straatNr":"363","vervoerder":"PostNL","puntType":"servicepunt","bezettingsgraad":50,"latitude":51.93610014,"longitude":4.398567763,"canPickup":true,"canDropoff":true,"openingstijden":"09:00 - 21:00"}},{"type":"Feature","geometry":{"type":"Point","coordinates":[4.398567763,51.93610014]},"properties":{"type":"pakketpunt","locatieNaam":"Pakket- en briefautomaat","straatNaam":"'s-Gravelandseweg","straatNr":"363PBA","vervoerder":"PostNL","puntType":"automaat","bezettingsgraad":50,"latitude":51.93610014,"longitude":4.398567763,"canPickup":true,"canDropoff":true,"openingstijden":"09:00 - 21:00"}},{"type":"Feature","geometry":{"type":"Point","coordinates":[4.367172745,51.94179155]},"properties":{"type":"pakketpunt","locatieNaam":"Primera Woudhoek","straatNaam":"Geuzenplein","straatNr":"21","vervoerder":"PostNL","puntType":"servicepunt","bezettingsgraad":50,"latitude":51.94179155,"longitude":4.367172745,"canPickup":true,"canDropoff":true,"openingstijden":"08:30 - 17:30"}},{"type":"Feature","geometry":{"type":"Point","coordinates":[4.40133577958462,51.9173187855399]},"properties":{"type":"pakketpunt","locatieNaam":"All4Beauty by Linh","straatNaam":"Broersveld","straatNr":"137","vervoerder":"PostNL","puntType":"servicepunt","bezettingsgraad":50,"latitude":51.9173187855399,"longitude":4.40133577958462,"canPickup":true,"canDropoff":true,"openingstijden":"16:00 - 18:00"}},{"type":"Feature","geometry":{"type":"Point","coordinates":[4.407252264,51.92130537]},"properties":{"type":"pakketpunt","locatieNaam":"Spar City Schiedam","straatNaam":"Stationsplein","straatNr":"4","vervoerder":"PostNL","puntType":"servicepunt","bezettingsgraad":50,"latitude":51.92130537,"longitude":4.407252264,"canPickup":true,"canDropoff":true,"openingstijden":"06:00 - 22:00"}},{"type":"Feature","geometry":{"type":"Point","coordinates":[4.401267956,51.91577214]},"properties":{"type":"pakketpunt","locatieNaam":"Pakketautomaat","straatNaam":"Broersveld","straatNr":"68PBA","vervoerder":"PostNL","puntType":"automaat","bezettingsgraad":50,"latitude":51.91577214,"longitude":4.401267956,"canPickup":true,"canDropoff":true,"openingstijden":"07:00 - 22:00"}},{"type":"Feature","geometry":{"type":"Point","coordinates":[4.361604108,51.94107793]},"properties":{"type":"pakketpunt","locatieNaam":"Racketsport Schiedam","straatNaam":"Zoomweg","straatNr":"4","vervoerder":"PostNL","puntType":"servicepunt","bezettingsgraad":50,"latitude":51.94107793,"longitude":4.361604108,"canPickup":true,"canDropoff":true,"openingstijden":"08:30 - 22:00"}},{"type":"Feature","geometry":{"type":"Point","coordinates":[4.384013279,51.91190474]},"properties":{"type":"pakketpunt","locatieNaam":"Webshop Dierenbenodigheden Schiedam","straatNaam":"Rembrandtlaan","straatNr":"8B","vervoerder":"PostNL","puntType":"servicepunt","bezettingsgraad":50,"latitude":51.91190474,"longitude":4.384013279,"canPickup":true,"canDropoff":true,"openingstijden":"14:00 - 17:30"}},{"type":"Feature","geometry":{"type":"Point","coordinates":[4.400184571,51.91480124]},"properties":{"type":"pakketpunt","locatieNaam":"Readshop Schiedam","straatNaam":"Nieuwe Passage","straatNr":"35","vervoerder":"PostNL","puntType":"servicepunt","bezettingsgraad":50,"latitude":51.91480124,"longitude":4.400184571,"canPickup":true,"canDropoff":true,"openingstijden":"09:00 - 17:30 (Zaterdag open)"}},{"type":"Feature","geometry":{"type":"Point","coordinates":[4.39273765294659,51.9123923751765]},"properties":{"type":"pakketpunt","locatieNaam":"Buurtwinkel Schiedam","straatNaam":"Sint Liduinastraat","straatNr":"55A","vervoerder":"PostNL","puntType":"servicepunt","bezettingsgraad":50,"latitude":51.9123923751765,"longitude":4.39273765294659,"canPickup":true,"canDropoff":true,"openingstijden":"09:00 - 22:00"}},{"type":"Feature","geometry":{"type":"Point","coordinates":[4.411495251,51.91871593]},"properties":{"type":"pakketpunt","locatieNaam":"Tabakshop Oost","straatNaam":"Professor Kamerlingh Onneslaan","straatNr":"75","vervoerder":"PostNL","puntType":"servicepunt","bezettingsgraad":50,"latitude":51.91871593,"longitude":4.411495251,"canPickup":true,"canDropoff":true,"openingstijden":"10:30 - 22:00"}},{"type":"Feature","geometry":{"type":"Point","coordinates":[4.402198014,51.90715965]},"properties":{"type":"pakketpunt","locatieNaam":"Primera de Gorzen","straatNaam":"Groenelaan","straatNr":"103","vervoerder":"PostNL","puntType":"servicepunt","bezettingsgraad":50,"latitude":51.90715965,"longitude":4.402198014,"canPickup":true,"canDropoff":true,"openingstijden":"08:00 - 18:00"}},{"type":"Feature","geometry":{"type":"Point","coordinates":[4.3860003,51.9222285]},"properties":{"type":"pakketpunt","locatieNaam":"RP Shipping","straatNaam":"Burgemeester Van Haarenlaan 784","straatNr":"","vervoerder":"VintedGo","puntType":"parcel_shop","bezettingsgraad":50,"latitude":51.9222285,"longitude":4.3860003,"canPickup":true,"canDropoff":true,"openingstijden":null}},{"type":"Feature","geometry":{"type":"Point","coordinates":[4.39505,51.92258]},"properties":{"type":"pakketpunt","locatieNaam":"Schiehart ","straatNaam":"Joop den Uyllaan 6","straatNr":"","vervoerder":"VintedGo","puntType":"parcel_shop","bezettingsgraad":50,"latitude":51.92258,"longitude":4.39505,"canPickup":true,"canDropoff":true,"openingstijden":null}},{"type":"Feature","geometry":{"type":"Point","coordinates":[4.39849,51.91529]},"properties":{"type":"pakketpunt","locatieNaam":"T3 Drinks","straatNaam":"Hoogstraat 84","straatNr":"","vervoerder":"VintedGo","puntType":"parcel_shop","bezettingsgraad":50,"latitude":51.91529,"longitude":4.39849,"canPickup":true,"canDropoff":true,"openingstijden":null}},{"type":"Feature","geometry":{"type":"Point","coordinates":[4.3672845,51.9423218]},"properties":{"type":"pakketpunt","locatieNaam":"Snoephoek De Woudhoek","straatNaam":"Frans Rietveldpad 32","straatNr":"","vervoerder":"VintedGo","puntType":"parcel_shop","bezettingsgraad":50,"latitude":51.9423218,"longitude":4.3672845,"canPickup":true,"canDropoff":true,"openingstijden":null}},{"type":"Feature","geometry":{"type":"Point","coordinates":[4.3976757,51.9157532]},"properties":{"type":"pakketpunt","locatieNaam":"Used Products - Schiedam","straatNaam":"Hoogstraat 97","straatNr":"","vervoerder":"VintedGo","puntType":"locker","bezettingsgraad":50,"latitude":51.9157532,"longitude":4.3976757,"canPickup":true,"canDropoff":true,"openingstijden":null}},{"type":"Feature","geometry":{"type":"Point","coordinates":[4.4027068,51.915929]},"properties":{"type":"pakketpunt","locatieNaam":"Uppercut 010","straatNaam":"Broersvest 42A","straatNr":"","vervoerder":"VintedGo","puntType":"parcel_shop","bezettingsgraad":50,"latitude":51.915929,"longitude":4.4027068,"canPickup":true,"canDropoff":true,"openingstijden":null}},{"type":"Feature","geometry":{"type":"Point","coordinates":[4.4011577,51.9165372]},"properties":{"type":"pakketpunt","locatieNaam":"Gemakshop Scyedam","straatNaam":"Broersveld 105","straatNr":"","vervoerder":"VintedGo","puntType":"parcel_shop","bezettingsgraad":50,"latitude":51.9165372,"longitude":4.4011577,"canPickup":true,"canDropoff":true,"openingstijden":null}},{"type":"Feature","geometry":{"type":"Point","coordinates":[4.4000289,51.9145815]},"properties":{"type":"pakketpunt","locatieNaam":"Eresbella Beauty Spa","straatNaam":"Hoogstrat145","straatNr":"","vervoerder":"VintedGo","puntType":"parcel_shop","bezettingsgraad":50,"latitude":51.9145815,"longitude":4.4000289,"canPickup":true,"canDropoff":true,"openingstijden":null}},{"type":"Feature","geometry":{"type":"Point","coordinates":[4.3932331,51.9129843]},"properties":{"type":"pakketpunt","locatieNaam":"Hento's","straatNaam":"Sint Liduinastraat 37B","straatNr":"","vervoerder":"VintedGo","puntType":"parcel_shop","bezettingsgraad":50,"latitude":51.9129843,"longitude":4.3932331,"canPickup":true,"canDropoff":true,"openingstijden":null}},{"type":"Feature","geometry":{"type":"Point","coordinates":[4.4013159,51.9173422]},"properties":{"type":"pakketpunt","locatieNaam":"Giftshop Mam & Zo","straatNaam":"Broersveld 157A","straatNr":"","vervoerder":"VintedGo","puntType":"parcel_shop","bezettingsgraad":50,"latitude":51.9173422,"longitude":4.4013159,"canPickup":true,"canDropoff":true,"openingstijden":null}},{"type":"Feature","geometry":{"type":"Point","coordinates":[4.40270575,51.91501441]},"properties":{"type":"pakketpunt","locatieNaam":"ViaTim en Statie","straatNaam":"Rotterdamsedijk","straatNr":"324","vervoerder":"ViaTim","puntType":"servicepunt","bezettingsgraad":50,"latitude":51.91501441,"longitude":4.40270575,"canPickup":true,"canDropoff":true,"openingstijden":{"ma":"11:00 - 14:00","di":"11:00 - 14:00","wo":"gesloten","do":"gesloten","vr":"gesloten","za":"gesloten","zo":"gesloten"}}},{"type":"Feature","geometry":{"type":"Point","coordinates":[4.36473523,51.94428337]},"properties":{"type":"pakketpunt","locatieNaam":"ViaTim en Jay","straatNaam":"Kolenbranderstraat","straatNr":"37","vervoerder":"ViaTim","puntType":"servicepunt","bezettingsgraad":50,"latitude":51.94428337,"longitude":4.36473523,"canPickup":true,"canDropoff":true,"openingstijden":{"ma":"09:00 - 12:00","di":"gesloten","wo":"gesloten","do":"gesloten","vr":"09:00 - 12:00","za":"gesloten","zo":"gesloten"}}},{"type":"Feature","geometry":{"type":"Point","coordinates":[4.39011755,51.91331826]},"properties":{"type":"pakketpunt","locatieNaam":"ViaTim en Fieke","straatNaam":"Anthonie Muysstraat","straatNr":"44b","vervoerder":"ViaTim","puntType":"servicepunt","bezettingsgraad":50,"latitude":51.91331826,"longitude":4.39011755,"canPickup":true,"canDropoff":true,"openingstijden":{"ma":"gesloten","di":"09:00 - 14:00","wo":"09:00 - 12:00","do":"09:00 - 14:00","vr":"gesloten","za":"gesloten","zo":"gesloten"}}},{"type":"Feature","geometry":{"type":"Point","coordinates":[4.393386774685322,51.91290685152254]},"properties":{"type":"pakketpunt","locatieNaam":"FedEx OnSite","straatNaam":"SINT LIDUINASTRAAT 37B","straatNr":"","vervoerder":"FedEx","puntType":"servicepunt","bezettingsgraad":50,"latitude":51.91290685152254,"longitude":4.393386774685322,"canPickup":true,"canDropoff":true,"openingstijden":{"ma":"gesloten","di":"13:00 - 19:00","wo":"13:00 - 19:00","do":"13:00 - 19:00","vr":"13:00 - 19:00","za":"13:00 - 19:00","zo":"gesloten"}}},{"type":"Feature","geometry":{"type":"Point","coordinates":[4.401441804910871,51.91584555071924]},"properties":{"type":"pakketpunt","locatieNaam":"FedEx Ship&Get","straatNaam":"Broersveld 68 PBA","straatNr":"","vervoerder":"FedEx","puntType":"servicepunt","bezettingsgraad":50,"latitude":51.91584555071924,"longitude":4.401441804910871,"canPickup":true,"canDropoff":true,"openingstijden":{"ma":"07:00 - 22:00","di":"07:00 - 22:00","wo":"07:00 - 22:00","do":"07:00 - 22:00","vr":"07:00 - 22:00","za":"07:00 - 22:00","zo":"09:00 - 22:00"}}},{"type":"Feature","geometry":{"type":"Point","coordinates":[4.3719759013113,51.92847723604549]},"properties":{"type":"pakketpunt","locatieNaam":"FedEx Ship&Get","straatNaam":"Laan van Bol'Es 19 PBA","straatNr":"","vervoerder":"FedEx","puntType":"servicepunt","bezettingsgraad":50,"latitude":51.92847723604549,"longitude":4.3719759013113,"canPickup":true,"canDropoff":true,"openingstijden":{"ma":"00:00 - 23:59","di":"00:00 - 23:59","wo":"00:00 - 23:59","do":"00:00 - 23:59","vr":"00:00 - 23:59","za":"00:00 - 23:59","zo":"00:00 - 23:59"}}},{"type":"Feature","geometry":{"type":"Point","coordinates":[4.3990445630504915,51.93618569768493]},"properties":{"type":"pakketpunt","locatieNaam":"FedEx Ship&Get","straatNaam":"'s-Gravelandseweg 363 PBA","straatNr":"","vervoerder":"FedEx","puntType":"servicepunt","bezettingsgraad":50,"latitude":51.93618569768493,"longitude":4.3990445630504915,"canPickup":true,"canDropoff":true,"openingstijden":{"ma":"09:00 - 21:00","di":"09:00 - 21:00","wo":"09:00 - 21:00","do":"09:00 - 21:00","vr":"09:00 - 21:00","za":"09:00 - 18:00","zo":"10:00 - 17:00"}}},{"type":"Feature","geometry":{"type":"Point","coordinates":[4.39342,51.9129]},"properties":{"type":"pakketpunt","locatieNaam":"HENTO'S","straatNaam":"Sint Liduinastraat 37b","straatNr":"","vervoerder":"InPost","puntType":"servicepunt","bezettingsgraad":50,"latitude":51.9129,"longitude":4.39342,"canPickup":true,"canDropoff":true,"openingstijden":null}},{"type":"Feature","geometry":{"type":"Point","coordinates":[4.36744,51.94234]},"properties":{"type":"pakketpunt","locatieNaam":"MYCROCOM.NL","straatNaam":"Frans Rietveldpad 26","straatNr":"","vervoerder":"InPost","puntType":"servicepunt","bezettingsgraad":50,"latitude":51.94234,"longitude":4.36744,"canPickup":true,"canDropoff":true,"openingstijden":null}},{"type":"Feature","geometry":{"type":"Point","coordinates":[4.41371,51.9054]},"properties":{"type":"pakketpunt","locatieNaam":"","straatNaam":"Fortunaweg","straatNr":"4","vervoerder":"InPost","puntType":"automaat","bezettingsgraad":50,"latitude":51.9054,"longitude":4.41371,"canPickup":true,"canDropoff":true,"openingstijden":"24/7"}},{"type":"Feature","geometry":{"type":"Point","coordinates":[4.40224,51.91633]},"properties":{"type":"pakketpunt","locatieNaam":"TABAKZAAK SCHIEDAM","straatNaam":"Broersvest 81B","straatNr":"","vervoerder":"InPost","puntType":"servicepunt","bezettingsgraad":50,"latitude":51.91633,"longitude":4.40224,"canPickup":true,"canDropoff":true,"openingstijden":null}},{"type":"Feature","geometry":{"type":"Point","coordinates":[4.4005617,51.9183063]},"properties":{"type":"pakketpunt","locatieNaam":"Budbee","straatNaam":"","straatNr":"","vervoerder":"Budbee","puntType":"automaat","bezettingsgraad":50,"latitude":51.9183063,"longitude":4.4005617,"canPickup":true,"canDropoff":true,"openingstijden":null}},{"type":"Feature","geometry":{"type":"Polygon","coordinates":[[[4.350671,51.951507],[4.350973,51.951587],[4.351171,51.951642],[4.351272,51.951632],[4.351289,51.951632],[4.351544,51.951643],[4.351651,51.951699],[4.351724,51.951737],[4.351774,51.951763],[4.352188,51.95187],[4.352557,51.951947],[4.352543,51.951974],[4.352592,51.951995],[4.352826,51.9521],[4.35298,51.952154],[4.353504,51.952241],[4.353646,51.952277],[4.353904,51.952355],[4.3544,51.952417],[4.35445,51.952432],[4.354788,51.952604],[4.355095,51.952684],[4.355224,51.952693],[4.355405,51.952682],[4.355513,51.952692],[4.355779,51.95278],[4.356226,51.952885],[4.356491,51.952935],[4.357549,51.95313],[4.357739,51.953223],[4.357992,51.953276],[4.358642,51.953444],[4.359148,51.953517],[4.359464,51.953588],[4.359772,51.953677],[4.359893,51.953681],[4.360058,51.953697],[4.36016,51.953737],[4.360273,51.953786],[4.360459,51.953828],[4.360923,51.953905],[4.361468,51.954019],[4.36189,51.954071],[4.362152,51.95417],[4.36259,51.954318],[4.363125,51.954436],[4.363738,51.954526],[4.364312,51.954668],[4.365082,51.954834],[4.36576,51.954985],[4.366377,51.955077],[4.367071,51.95522],[4.367046,51.955265],[4.366475,51.956296],[4.366011,51.957044],[4.36557,51.957724],[4.365568,51.957727],[4.365545,51.957765],[4.365522,51.957802],[4.365492,51.957851],[4.365268,51.958213],[4.364706,51.959061],[4.36351,51.960871],[4.363533,51.960874],[4.363538,51.960874],[4.364177,51.960968],[4.364346,51.960993],[4.364355,51.960994],[4.36441,51.961002],[4.364461,51.961009],[4.364511,51.961017],[4.364527,51.961019],[4.364548,51.961022],[4.364703,51.961045],[4.364865,51.961069],[4.364904,51.961074],[4.364925,51.961077],[4.365103,51.961106],[4.371649,51.962168],[4.373497,51.962468],[4.373687,51.962515],[4.373722,51.962522],[4.373763,51.962531],[4.3738,51.962539],[4.373843,51.962547],[4.373877,51.962553],[4.373978,51.962567],[4.374054,51.96258],[4.374098,51.962587],[4.374159,51.962601],[4.374208,51.96261],[4.374276,51.962618],[4.374349,51.962627],[4.374387,51.962633],[4.374435,51.962646],[4.374579,51.962696],[4.374695,51.962689],[4.374724,51.962687],[4.374869,51.962678],[4.374877,51.962675],[4.374892,51.962678],[4.375713,51.962814],[4.376537,51.962953],[4.378771,51.96332],[4.379113,51.963375],[4.379309,51.963407],[4.37962,51.962861],[4.37966,51.962788],[4.379821,51.962499],[4.379875,51.962401],[4.37988,51.962392],[4.379898,51.962359],[4.379917,51.962322],[4.380029,51.962111],[4.380256,51.961685],[4.380699,51.960852],[4.381032,51.960228],[4.381033,51.960226],[4.381149,51.960006],[4.381363,51.959592],[4.381668,51.959002],[4.38167,51.958997],[4.381671,51.958996],[4.381895,51.958603],[4.381906,51.958584],[4.381922,51.958554],[4.382055,51.958307],[4.382328,51.9578],[4.38233,51.957797],[4.382347,51.957765],[4.382364,51.957733],[4.382415,51.957638],[4.382415,51.957638],[4.382514,51.957453],[4.382847,51.956867],[4.382913,51.956752],[4.383345,51.955928],[4.383393,51.955836],[4.383628,51.955388],[4.383743,51.955174],[4.38397,51.954751],[4.383979,51.954734],[4.38401,51.954677],[4.384023,51.954652],[4.38404,51.95462],[4.384433,51.953889],[4.384439,51.953878],[4.38444,51.953876],[4.384454,51.95385],[4.384669,51.953449],[4.384766,51.95327],[4.384822,51.953164],[4.384889,51.953038],[4.385102,51.952641],[4.385601,51.951709],[4.385614,51.951685],[4.385617,51.95168],[4.386229,51.950537],[4.386303,51.9504],[4.386658,51.949752],[4.387074,51.948992],[4.387165,51.948826],[4.387165,51.948825],[4.38724,51.94869],[4.387523,51.948172],[4.387538,51.948145],[4.387548,51.948127],[4.387556,51.948112],[4.387567,51.948093],[4.387591,51.948049],[4.387658,51.947927],[4.38783,51.947613],[4.387831,51.947611],[4.387971,51.947355],[4.388116,51.947066],[4.38813,51.947039],[4.388136,51.947028],[4.388173,51.946953],[4.388203,51.946894],[4.388258,51.946784],[4.388302,51.946696],[4.388311,51.946679],[4.388423,51.946456],[4.388423,51.946456],[4.388425,51.946452],[4.388426,51.94645],[4.388426,51.946449],[4.388536,51.946231],[4.388536,51.946231],[4.38891,51.94553],[4.388933,51.945535],[4.389306,51.945619],[4.389333,51.945626],[4.389501,51.945589],[4.389599,51.94552],[4.389672,51.945472],[4.389752,51.945497],[4.389767,51.945502],[4.389821,51.945519],[4.389849,51.945528],[4.389851,51.945528],[4.389925,51.945551],[4.389939,51.945556],[4.39016,51.94563],[4.390314,51.945682],[4.390396,51.945709],[4.390634,51.945789],[4.392407,51.946422],[4.393964,51.946979],[4.393966,51.946979],[4.394057,51.947012],[4.394352,51.94711],[4.394356,51.947109],[4.394781,51.947016],[4.394786,51.947015],[4.394851,51.947001],[4.395142,51.946937],[4.395165,51.946932],[4.395188,51.946927],[4.395151,51.946857],[4.395132,51.946824],[4.394921,51.946458],[4.394379,51.945518],[4.393669,51.944613],[4.393523,51.944523],[4.393478,51.944465],[4.393448,51.94426],[4.393482,51.944248],[4.393876,51.944119],[4.394063,51.944094],[4.394216,51.943999],[4.394977,51.942909],[4.395006,51.942892],[4.397746,51.94132],[4.397778,51.941302],[4.397865,51.941251],[4.398269,51.940963],[4.398472,51.940819],[4.39874,51.940608],[4.399256,51.940252],[4.399376,51.94016],[4.399512,51.940075],[4.399654,51.939962],[4.399789,51.939871],[4.399884,51.939808],[4.400097,51.939669],[4.400381,51.939483],[4.40047,51.93944],[4.400783,51.93924],[4.401274,51.93918],[4.401442,51.93917],[4.401554,51.939164],[4.401731,51.939155],[4.401755,51.939153],[4.401755,51.939153],[4.401777,51.939152],[4.401924,51.939056],[4.402035,51.938984],[4.402115,51.938931],[4.402128,51.938918],[4.40213,51.938917],[4.402151,51.938897],[4.40215,51.93889],[4.40213,51.938737],[4.40209,51.938435],[4.402123,51.938401],[4.402161,51.938373],[4.40392,51.937253],[4.405822,51.937861],[4.406075,51.937801],[4.406422,51.93792],[4.406519,51.937953],[4.407544,51.938304],[4.408518,51.938637],[4.408642,51.938535],[4.409103,51.938157],[4.409317,51.937981],[4.409372,51.937992],[4.409889,51.938092],[4.409949,51.938103],[4.410246,51.93816],[4.410322,51.938175],[4.410803,51.938268],[4.410894,51.938298],[4.410946,51.938315],[4.411124,51.938373],[4.411217,51.938404],[4.411219,51.938404],[4.411473,51.938488],[4.411473,51.938488],[4.411697,51.938561],[4.411808,51.938598],[4.411972,51.938652],[4.412857,51.938943],[4.413207,51.939058],[4.413814,51.939386],[4.414188,51.939613],[4.414421,51.939929],[4.414557,51.940114],[4.414619,51.940156],[4.415492,51.940759],[4.415501,51.940748],[4.415526,51.940718],[4.415727,51.940475],[4.415824,51.940359],[4.416105,51.940021],[4.416168,51.939943],[4.41621,51.939893],[4.416525,51.939513],[4.416562,51.939514],[4.416574,51.939514],[4.416582,51.939514],[4.416644,51.939467],[4.417211,51.938961],[4.417336,51.938843],[4.417357,51.938824],[4.417358,51.938823],[4.417525,51.938659],[4.417707,51.938482],[4.417708,51.938482],[4.417713,51.938477],[4.417635,51.938439],[4.417537,51.938392],[4.417454,51.938353],[4.417431,51.938342],[4.417424,51.938339],[4.41735,51.938304],[4.417048,51.938258],[4.417012,51.938252],[4.417005,51.938251],[4.416751,51.938213],[4.416588,51.938166],[4.416548,51.938155],[4.416464,51.938133],[4.41646,51.938137],[4.416312,51.938074],[4.416308,51.938077],[4.416237,51.938048],[4.416239,51.938045],[4.416178,51.938022],[4.416176,51.938021],[4.41588,51.937897],[4.415586,51.937774],[4.415405,51.93769],[4.415286,51.937635],[4.415086,51.937541],[4.414829,51.937408],[4.414828,51.937407],[4.414779,51.937382],[4.414762,51.937374],[4.414679,51.937336],[4.414479,51.937249],[4.413996,51.937034],[4.41378,51.936936],[4.413555,51.936836],[4.413486,51.936807],[4.41342,51.936782],[4.413358,51.936761],[4.413303,51.936743],[4.413231,51.936721],[4.413157,51.9367],[4.413087,51.936684],[4.413021,51.936674],[4.412954,51.936663],[4.412907,51.936658],[4.412808,51.936647],[4.412738,51.936642],[4.412646,51.936637],[4.412581,51.936635],[4.412447,51.936633],[4.412112,51.93663],[4.412099,51.93663],[4.411911,51.936628],[4.41186,51.936627],[4.411579,51.936621],[4.411537,51.93662],[4.411526,51.93662],[4.411402,51.936618],[4.411269,51.936613],[4.411089,51.936603],[4.410914,51.936592],[4.410687,51.93657],[4.410505,51.936542],[4.410359,51.936509],[4.410187,51.936468],[4.410018,51.936416],[4.409893,51.936373],[4.409811,51.936339],[4.409671,51.93627],[4.409563,51.936207],[4.409553,51.936212],[4.409465,51.936152],[4.409474,51.936145],[4.409329,51.936036],[4.40924,51.935956],[4.409145,51.935863],[4.409126,51.935841],[4.40905,51.935746],[4.409009,51.935682],[4.408958,51.935568],[4.408897,51.935389],[4.408887,51.93536],[4.408866,51.935253],[4.408849,51.935186],[4.408802,51.935176],[4.408797,51.935133],[4.408846,51.935117],[4.408813,51.934787],[4.408791,51.934569],[4.408762,51.934394],[4.408733,51.934264],[4.408656,51.934029],[4.408536,51.933673],[4.408494,51.933554],[4.408452,51.933414],[4.40845,51.933408],[4.408445,51.933389],[4.408394,51.933214],[4.408353,51.933063],[4.408302,51.93287],[4.408245,51.932622],[4.408218,51.932475],[4.408192,51.932304],[4.408178,51.932187],[4.408165,51.932043],[4.408157,51.931924],[4.408147,51.931808],[4.408155,51.931664],[4.408165,51.931473],[4.408173,51.931414],[4.40819,51.931335],[4.408207,51.93127],[4.408236,51.931184],[4.408267,51.931108],[4.408294,51.931057],[4.408343,51.930968],[4.408389,51.93089],[4.408394,51.930881],[4.408506,51.930723],[4.408567,51.930644],[4.408591,51.930611],[4.408671,51.930518],[4.408735,51.930457],[4.408822,51.930375],[4.408991,51.930233],[4.409083,51.930152],[4.409121,51.930117],[4.409253,51.929974],[4.409325,51.929895],[4.409408,51.929806],[4.409429,51.929784],[4.409589,51.929597],[4.409668,51.929504],[4.409708,51.929448],[4.409769,51.929357],[4.409856,51.929156],[4.409875,51.929113],[4.409953,51.929135],[4.4103,51.929234],[4.410349,51.929248],[4.410496,51.929292],[4.411068,51.928525],[4.412134,51.927104],[4.412213,51.926999],[4.412639,51.926431],[4.413143,51.92576],[4.413564,51.925199],[4.413683,51.925039],[4.414339,51.924165],[4.415159,51.923072],[4.415235,51.92297],[4.415322,51.922974],[4.415452,51.922979],[4.415573,51.922985],[4.415715,51.922992],[4.415872,51.923003],[4.416048,51.923015],[4.416148,51.923023],[4.416186,51.923026],[4.416325,51.923038],[4.416436,51.923048],[4.416548,51.92306],[4.416562,51.923061],[4.416583,51.923063],[4.416627,51.923068],[4.416643,51.92307],[4.416745,51.923084],[4.416831,51.9231],[4.416831,51.923095],[4.416831,51.923075],[4.416835,51.922918],[4.416836,51.922917],[4.416836,51.922911],[4.416843,51.922624],[4.417013,51.922522],[4.417015,51.922414],[4.417016,51.922393],[4.417017,51.922342],[4.417026,51.921973],[4.417052,51.920938],[4.417052,51.920937],[4.417052,51.92093],[4.417052,51.92091],[4.417058,51.920688],[4.417064,51.920459],[4.417064,51.920424],[4.417065,51.920418],[4.417073,51.920083],[4.417076,51.919957],[4.417037,51.919829],[4.417005,51.919726],[4.416951,51.919549],[4.416825,51.919138],[4.416645,51.918547],[4.416431,51.917848],[4.416342,51.917556],[4.416316,51.917473],[4.415842,51.915923],[4.415697,51.915938],[4.415691,51.915918],[4.415477,51.915219],[4.415294,51.914621],[4.415252,51.914484],[4.415152,51.91449],[4.415081,51.914494],[4.413601,51.914585],[4.413598,51.914563],[4.413565,51.914334],[4.413563,51.914316],[4.413563,51.914315],[4.413536,51.914141],[4.413506,51.913953],[4.4135,51.913913],[4.413399,51.913914],[4.412806,51.91392],[4.41279,51.91392],[4.412783,51.91392],[4.412777,51.913919],[4.41277,51.913919],[4.412764,51.913918],[4.412759,51.913918],[4.412752,51.913917],[4.412746,51.913916],[4.412739,51.913914],[4.412732,51.913912],[4.412724,51.91391],[4.412715,51.913907],[4.412708,51.913904],[4.412701,51.913901],[4.412693,51.913897],[4.412686,51.913893],[4.412679,51.913888],[4.412673,51.913883],[4.412668,51.913879],[4.412662,51.913872],[4.412554,51.913739],[4.412544,51.913726],[4.412539,51.913719],[4.412528,51.913704],[4.412523,51.913696],[4.412516,51.913681],[4.412512,51.913672],[4.412508,51.913664],[4.412505,51.913656],[4.412501,51.913644],[4.41245,51.913415],[4.412444,51.913403],[4.412392,51.913295],[4.412381,51.913297],[4.412369,51.913298],[4.412356,51.913298],[4.412342,51.913298],[4.412329,51.913297],[4.412314,51.913295],[4.412301,51.913292],[4.412288,51.913289],[4.412277,51.913285],[4.412265,51.91328],[4.412257,51.913276],[4.412257,51.913275],[4.412253,51.913274],[4.412244,51.913268],[4.412229,51.913256],[4.412219,51.913248],[4.41221,51.913239],[4.4122,51.91323],[4.412189,51.913222],[4.412178,51.913214],[4.412167,51.913206],[4.412154,51.913197],[4.412137,51.913187],[4.412118,51.913177],[4.412101,51.913168],[4.412082,51.913159],[4.412063,51.913152],[4.412045,51.913145],[4.412026,51.913138],[4.41201,51.913133],[4.411829,51.913066],[4.411483,51.912938],[4.409159,51.912081],[4.409075,51.91205],[4.409468,51.910674],[4.409543,51.910413],[4.409999,51.909852],[4.410074,51.909876],[4.410119,51.90989],[4.410161,51.909903],[4.411346,51.910273],[4.412743,51.908545],[4.412744,51.908544],[4.412816,51.908455],[4.413446,51.907679],[4.41344,51.907644],[4.413436,51.907621],[4.413417,51.907545],[4.413413,51.907532],[4.413409,51.907519],[4.413405,51.907505],[4.413403,51.907502],[4.413403,51.907501],[4.413403,51.9075],[4.4134,51.907492],[4.413395,51.907479],[4.41339,51.907466],[4.413387,51.907458],[4.413387,51.907457],[4.413386,51.907456],[4.413385,51.907452],[4.413379,51.907439],[4.413374,51.907426],[4.413368,51.907413],[4.413368,51.907413],[4.413362,51.9074],[4.413355,51.907387],[4.413349,51.907374],[4.413347,51.90737],[4.413347,51.90737],[4.413346,51.907369],[4.413342,51.907361],[4.413335,51.907348],[4.413328,51.907335],[4.413324,51.907328],[4.413323,51.907327],[4.413323,51.907326],[4.413321,51.907322],[4.413313,51.90731],[4.413306,51.907297],[4.413298,51.907284],[4.41355,51.906969],[4.413618,51.906884],[4.413619,51.906882],[4.41406,51.90649],[4.41518,51.905493],[4.415345,51.905345],[4.415396,51.90528],[4.415677,51.905025],[4.414328,51.903973],[4.413627,51.903426],[4.412338,51.902421],[4.413684,51.900787],[4.41371,51.900755],[4.413685,51.90075],[4.413679,51.900748],[4.41084,51.900112],[4.409713,51.899858],[4.408017,51.899476],[4.407958,51.899463],[4.407786,51.899424],[4.402138,51.898156],[4.399226,51.897463],[4.399034,51.897417],[4.398632,51.897342],[4.398126,51.897251],[4.397936,51.89722],[4.3976,51.897166],[4.397011,51.897078],[4.396412,51.896998],[4.396385,51.896994],[4.395758,51.896926],[4.394992,51.896849],[4.39342,51.896736],[4.391979,51.896687],[4.391574,51.896681],[4.391013,51.896679],[4.390387,51.896689],[4.389757,51.896706],[4.389144,51.896733],[4.388511,51.896768],[4.388344,51.896779],[4.387618,51.896846],[4.384823,51.897179],[4.382036,51.897626],[4.379005,51.898113],[4.377839,51.898302],[4.375093,51.898746],[4.373795,51.898956],[4.373123,51.899054],[4.372316,51.899168],[4.372138,51.899188],[4.371077,51.899309],[4.37103,51.899314],[4.370681,51.899351],[4.370623,51.899355],[4.370602,51.899394],[4.370581,51.899433],[4.370561,51.899471],[4.37054,51.89951],[4.37052,51.899549],[4.370501,51.899587],[4.370481,51.899626],[4.370462,51.899665],[4.370443,51.899704],[4.370424,51.899743],[4.370405,51.899782],[4.370386,51.899821],[4.370368,51.89986],[4.37035,51.899899],[4.370332,51.899938],[4.370315,51.899977],[4.370297,51.900016],[4.37028,51.900056],[4.370263,51.900095],[4.370246,51.900134],[4.37023,51.900174],[4.370213,51.900213],[4.370197,51.900252],[4.370181,51.900292],[4.370166,51.900331],[4.37015,51.900371],[4.370135,51.90041],[4.37012,51.90045],[4.370105,51.900489],[4.370091,51.900529],[4.370076,51.900569],[4.370062,51.900608],[4.370048,51.900648],[4.370035,51.900688],[4.370021,51.900728],[4.370008,51.900768],[4.369995,51.900807],[4.369982,51.900847],[4.369969,51.900887],[4.369957,51.900927],[4.369945,51.900967],[4.369933,51.901007],[4.369922,51.901047],[4.36991,51.901087],[4.369899,51.901127],[4.369888,51.901167],[4.369877,51.901207],[4.369866,51.901247],[4.369856,51.901287],[4.369846,51.901328],[4.369836,51.901368],[4.369826,51.901408],[4.369817,51.901448],[4.369808,51.901488],[4.369799,51.901529],[4.36979,51.901569],[4.369781,51.901609],[4.369773,51.90165],[4.369765,51.90169],[4.369757,51.90173],[4.36975,51.901771],[4.369742,51.901811],[4.369735,51.901851],[4.369728,51.901892],[4.369722,51.901929],[4.369716,51.901966],[4.36971,51.902003],[4.369704,51.90204],[4.369699,51.902078],[4.369694,51.902115],[4.369688,51.902152],[4.369683,51.902189],[4.369622,51.902835],[4.369564,51.902839],[4.36956,51.902891],[4.369555,51.903083],[4.36956,51.903317],[4.369571,51.903594],[4.369587,51.903797],[4.369588,51.903815],[4.36959,51.903834],[4.369594,51.903876],[4.369598,51.903919],[4.369603,51.903962],[4.369607,51.904004],[4.369612,51.904047],[4.369617,51.90409],[4.369623,51.904129],[4.369629,51.904169],[4.369635,51.904209],[4.369641,51.904248],[4.369647,51.904288],[4.369654,51.904328],[4.36966,51.904367],[4.369667,51.904407],[4.369675,51.904448],[4.369682,51.904489],[4.36969,51.90453],[4.369698,51.90457],[4.369706,51.904611],[4.369715,51.904652],[4.369724,51.904693],[4.369732,51.904734],[4.369742,51.904775],[4.369715,51.904819],[4.369858,51.905527],[4.369858,51.90553],[4.369796,51.905621],[4.369951,51.906392],[4.369919,51.906488],[4.369862,51.906665],[4.369693,51.907187],[4.369612,51.907429],[4.369585,51.907511],[4.369518,51.907737],[4.369451,51.907964],[4.369444,51.907988],[4.369372,51.908231],[4.369297,51.908483],[4.369292,51.908502],[4.369289,51.908517],[4.369288,51.908521],[4.369204,51.908944],[4.369204,51.908946],[4.369196,51.908986],[4.369154,51.909137],[4.369163,51.909178],[4.369133,51.909217],[4.368917,51.909995],[4.368707,51.91078],[4.368686,51.910857],[4.36847,51.911631],[4.368459,51.911682],[4.36836,51.911984],[4.368023,51.912568],[4.367581,51.913331],[4.367424,51.913601],[4.36738,51.913678],[4.36738,51.913678],[4.367378,51.913683],[4.367361,51.913723],[4.367172,51.914181],[4.367166,51.914196],[4.367099,51.914357],[4.366787,51.915112],[4.366438,51.915054],[4.366327,51.915484],[4.366265,51.915758],[4.366209,51.916027],[4.366177,51.916209],[4.366148,51.916437],[4.366127,51.916599],[4.366098,51.916787],[4.366068,51.917307],[4.366048,51.917625],[4.366041,51.917699],[4.365954,51.918579],[4.365927,51.918889],[4.365892,51.919397],[4.365768,51.920665],[4.36572,51.920912],[4.365513,51.921546],[4.365502,51.921567],[4.365483,51.92161],[4.365448,51.921673],[4.365405,51.921725],[4.36532,51.921807],[4.364555,51.922449],[4.364388,51.922599],[4.364165,51.922813],[4.363993,51.922948],[4.363711,51.923151],[4.363552,51.923265],[4.363215,51.923507],[4.362989,51.923669],[4.362924,51.923715],[4.362835,51.92378],[4.362832,51.923782],[4.362773,51.923813],[4.362595,51.923915],[4.362459,51.92398],[4.362422,51.923998],[4.362342,51.924038],[4.362192,51.924095],[4.362168,51.924255],[4.361827,51.926566],[4.361826,51.926571],[4.362434,51.926991],[4.362756,51.927196],[4.362973,51.927315],[4.363235,51.927435],[4.36339,51.927497],[4.363619,51.927579],[4.363922,51.927687],[4.363921,51.927705],[4.363915,51.927763],[4.363906,51.927864],[4.36389,51.928051],[4.363884,51.928118],[4.36387,51.928264],[4.363829,51.928719],[4.363791,51.929157],[4.363631,51.931017],[4.363626,51.93105],[4.363621,51.931083],[4.363616,51.931118],[4.363609,51.931153],[4.363603,51.931198],[4.363596,51.931242],[4.363588,51.931287],[4.363581,51.931332],[4.363573,51.931376],[4.363565,51.931421],[4.363557,51.931466],[4.363549,51.93151],[4.363541,51.931552],[4.363532,51.931594],[4.363524,51.931635],[4.363515,51.931677],[4.363507,51.931719],[4.363498,51.93176],[4.363488,51.931802],[4.363479,51.931843],[4.36347,51.931885],[4.363411,51.932186],[4.363388,51.932305],[4.363271,51.932753],[4.363224,51.932936],[4.363205,51.933009],[4.363135,51.933268],[4.362887,51.934051],[4.362628,51.934745],[4.362569,51.934907],[4.362258,51.935632],[4.362256,51.935637],[4.362198,51.935771],[4.362184,51.935799],[4.362178,51.935813],[4.362087,51.936001],[4.362074,51.936028],[4.362027,51.936127],[4.361981,51.936221],[4.361979,51.936224],[4.361868,51.936467],[4.361574,51.937011],[4.361505,51.937129],[4.361454,51.937213],[4.36121,51.937611],[4.361061,51.937854],[4.360984,51.93797],[4.360853,51.938171],[4.360772,51.938286],[4.36068,51.93842],[4.360508,51.938666],[4.360039,51.939303],[4.359911,51.939464],[4.359579,51.939892],[4.359477,51.940014],[4.359434,51.940067],[4.359142,51.94042],[4.358912,51.940686],[4.358539,51.940989],[4.35702,51.943036],[4.356438,51.943805],[4.356426,51.943821],[4.355829,51.944608],[4.355216,51.945423],[4.354751,51.946046],[4.354227,51.946744],[4.353992,51.94706],[4.353963,51.947099],[4.353917,51.947161],[4.353915,51.947164],[4.351651,51.950195],[4.351319,51.950639],[4.350689,51.951482],[4.350689,51.951483],[4.350685,51.951489],[4.350671,51.951507]]]},"properties":{"type":"boundary","gemeente":"Schiedam"}}]}