{"type":"FeatureCollection","metadata":{"gemeente":"Simpelveld","slug":"simpelveld","generated_at":"2026-09-28T08:32:33.158221Z","total_points":9,"providers":["DHL","DPD","PostNL","VintedGo","FedEx","InPost"],"bounds":[5.9820544,50.81737381348937,6.01050909110209,50.83458804]},"features":[{"type":"Feature","geometry":{"type":"Point","coordinates":[5.98308,50.834089]},"properties":{"type":"pakketpunt","locatieNaam":"Meisters Mode","straatNaam":"Kloosterstraat","straatNr":"6","vervoerder":"DHL","puntType":"parcelShop","bezettingsgraad":50,"latitude":50.834089,"longitude":5.98308,"canPickup":true,"canDropoff":true,"openingstijden":{"ma":"gesloten","di":"09:30 - 18:00","wo":"09:30 - 18:00","do":"09:30 - 17:30","vr":"09:30 - 18:00","za":"09:30 - 17:00","zo":"gesloten"}}},{"type":"Feature","geometry":{"type":"Point","coordinates":[5.9820544,50.8337991]},"properties":{"type":"pakketpunt","locatieNaam":"Raymond Spork","straatNaam":"VROENHOFSTRAAT","straatNr":"5","vervoerder":"DPD","puntType":"pickup_point","bezettingsgraad":50,"latitude":50.8337991,"longitude":5.9820544,"canPickup":true,"canDropoff":true,"openingstijden":{"ma":"09:00 - 12:00","di":"09:00 - 18:00","wo":"09:00 - 18:00","do":"09:00 - 18:00","vr":"09:00 - 18:00","za":"09:00 - 17:00","zo":"gesloten"}}},{"type":"Feature","geometry":{"type":"Point","coordinates":[5.9879396,50.8322765]},"properties":{"type":"pakketpunt","locatieNaam":"Business Point - Automotive RDS","straatNaam":"SCHIFFELDERSTRAAT","straatNr":"46","vervoerder":"DPD","puntType":"pickup_point","bezettingsgraad":50,"latitude":50.8322765,"longitude":5.9879396,"canPickup":true,"canDropoff":true,"openingstijden":{"ma":"10:00 - 18:00","di":"10:00 - 18:00","wo":"10:00 - 18:00","do":"10:00 - 18:00","vr":"10:00 - 18:00","za":"gesloten","zo":"gesloten"}}},{"type":"Feature","geometry":{"type":"Point","coordinates":[5.985502194,50.83458804]},"properties":{"type":"pakketpunt","locatieNaam":"Giftclub Simpelveld","straatNaam":"Kloosterplein","straatNr":"42A","vervoerder":"PostNL","puntType":"servicepunt","bezettingsgraad":50,"latitude":50.83458804,"longitude":5.985502194,"canPickup":true,"canDropoff":true,"openingstijden":"09:00 - 18:00 (Na 18:00 open; Zaterdag open)"}},{"type":"Feature","geometry":{"type":"Point","coordinates":[6.01050909110209,50.8173767975889]},"properties":{"type":"pakketpunt","locatieNaam":"Pakketautomaat","straatNaam":"Gasthof","straatNr":"2PBA","vervoerder":"PostNL","puntType":"automaat","bezettingsgraad":50,"latitude":50.8173767975889,"longitude":6.01050909110209,"canPickup":true,"canDropoff":true,"openingstijden":"08:00 - 20:00"}},{"type":"Feature","geometry":{"type":"Point","coordinates":[5.98794,50.83228]},"properties":{"type":"pakketpunt","locatieNaam":"Automotive Rds","straatNaam":"Schiffelderstraat 46","straatNr":"","vervoerder":"VintedGo","puntType":"parcel_shop","bezettingsgraad":50,"latitude":50.83228,"longitude":5.98794,"canPickup":true,"canDropoff":true,"openingstijden":null}},{"type":"Feature","geometry":{"type":"Point","coordinates":[5.983433,50.833938]},"properties":{"type":"pakketpunt","locatieNaam":"FedEx OnSite","straatNaam":"KLOOSTERSTRAAT 15","straatNr":"","vervoerder":"FedEx","puntType":"servicepunt","bezettingsgraad":50,"latitude":50.833938,"longitude":5.983433,"canPickup":true,"canDropoff":true,"openingstijden":{"ma":"gesloten","di":"10:00 - 17:00","wo":"10:00 - 17:00","do":"10:00 - 17:00","vr":"10:00 - 17:00","za":"10:00 - 17:00","zo":"gesloten"}}},{"type":"Feature","geometry":{"type":"Point","coordinates":[6.010503826686495,50.81737381348937]},"properties":{"type":"pakketpunt","locatieNaam":"FedEx Ship&Get","straatNaam":"Gasthof 2 PBA","straatNr":"","vervoerder":"FedEx","puntType":"servicepunt","bezettingsgraad":50,"latitude":50.81737381348937,"longitude":6.010503826686495,"canPickup":true,"canDropoff":true,"openingstijden":{"ma":"08:00 - 20:00","di":"08:00 - 20:00","wo":"08:00 - 20:00","do":"08:00 - 20:00","vr":"08:00 - 20:00","za":"08:00 - 20:00","zo":"10:00 - 20:00"}}},{"type":"Feature","geometry":{"type":"Point","coordinates":[5.98343,50.83394]},"properties":{"type":"pakketpunt","locatieNaam":"DECO TIME","straatNaam":"Kloosterstraat 15","straatNr":"","vervoerder":"InPost","puntType":"servicepunt","bezettingsgraad":50,"latitude":50.83394,"longitude":5.98343,"canPickup":true,"canDropoff":true,"openingstijden":null}},{"type":"Feature","geometry":{"type":"Polygon","coordinates":[[[5.954781,50.84595],[5.954885,50.845877],[5.954995,50.845762],[5.955115,50.845611],[5.955148,50.845544],[5.955183,50.845427],[5.955175,50.845382],[5.955169,50.845157],[5.955178,50.845065],[5.955207,50.844967],[5.95529,50.844734],[5.955343,50.844582],[5.955406,50.844445],[5.955417,50.844412],[5.955519,50.844232],[5.955646,50.84401],[5.955666,50.843815],[5.955828,50.84346],[5.955871,50.843353],[5.955942,50.843186],[5.955974,50.843106],[5.955992,50.843046],[5.956022,50.842957],[5.956039,50.842913],[5.956061,50.842831],[5.956114,50.84261],[5.956183,50.842341],[5.956225,50.842184],[5.956227,50.842135],[5.956231,50.842072],[5.956239,50.842004],[5.956243,50.841918],[5.956238,50.841832],[5.956213,50.841615],[5.956198,50.841423],[5.956172,50.841187],[5.956129,50.840876],[5.956087,50.840698],[5.956039,50.840522],[5.95601,50.840393],[5.955985,50.840296],[5.955962,50.840209],[5.95592,50.840072],[5.955891,50.839969],[5.955864,50.839888],[5.955847,50.839827],[5.955839,50.839786],[5.955837,50.839763],[5.955808,50.839748],[5.955796,50.839714],[5.955794,50.8397],[5.955793,50.839692],[5.955767,50.839515],[5.955766,50.839508],[5.955763,50.839429],[5.955761,50.839372],[5.955761,50.839366],[5.95576,50.839296],[5.955769,50.839242],[5.95577,50.839237],[5.955776,50.839207],[5.955805,50.839053],[5.955806,50.839048],[5.955821,50.838994],[5.955835,50.838943],[5.955836,50.838939],[5.955883,50.838817],[5.955884,50.838814],[5.95589,50.838794],[5.955922,50.838685],[5.955923,50.838683],[5.955996,50.838516],[5.955996,50.838516],[5.956065,50.838326],[5.956066,50.838325],[5.956166,50.838052],[5.956167,50.83805],[5.956222,50.837896],[5.956223,50.837894],[5.956271,50.837761],[5.956271,50.837759],[5.956304,50.837669],[5.956309,50.837628],[5.95631,50.837626],[5.956313,50.8376],[5.956379,50.837425],[5.956424,50.837277],[5.956425,50.837275],[5.956446,50.837206],[5.95654,50.836952],[5.956542,50.836936],[5.956549,50.836861],[5.956561,50.836846],[5.956602,50.836793],[5.956666,50.836672],[5.956673,50.836652],[5.956688,50.836611],[5.956645,50.836461],[5.956697,50.836363],[5.956778,50.836204],[5.956834,50.836092],[5.956931,50.8359],[5.956947,50.835843],[5.956591,50.835769],[5.9564,50.835763],[5.956408,50.835711],[5.956337,50.83574],[5.95625,50.835793],[5.956176,50.835865],[5.955936,50.835814],[5.955753,50.83571],[5.955525,50.835396],[5.955546,50.83531],[5.95563,50.835172],[5.95577,50.834983],[5.955846,50.834867],[5.955904,50.834747],[5.95594,50.834691],[5.956095,50.83445],[5.956145,50.834372],[5.956149,50.834365],[5.956388,50.834024],[5.956421,50.833979],[5.956484,50.833894],[5.95658,50.833743],[5.956774,50.833433],[5.956795,50.833395],[5.957044,50.83294],[5.957162,50.832602],[5.95747,50.831763],[5.957601,50.831556],[5.957664,50.831447],[5.957763,50.831271],[5.957877,50.831043],[5.957971,50.830858],[5.958062,50.830718],[5.958068,50.830711],[5.958111,50.830652],[5.958112,50.83065],[5.958145,50.830564],[5.958159,50.830518],[5.958202,50.830413],[5.958229,50.830351],[5.958234,50.83034],[5.958285,50.830232],[5.958339,50.830141],[5.958393,50.830048],[5.958447,50.82996],[5.9585,50.829887],[5.958535,50.829838],[5.95861,50.82973],[5.958638,50.829693],[5.958665,50.829642],[5.958679,50.829615],[5.958736,50.82951],[5.958785,50.829435],[5.958794,50.829419],[5.958903,50.829227],[5.95905,50.829012],[5.95916,50.828859],[5.959233,50.828775],[5.95942,50.828567],[5.959486,50.828482],[5.959514,50.828425],[5.959547,50.828353],[5.959544,50.828318],[5.959494,50.828242],[5.959451,50.828169],[5.959441,50.828132],[5.959436,50.828108],[5.959453,50.828081],[5.959472,50.828074],[5.959624,50.828034],[5.959669,50.828031],[5.959794,50.828051],[5.959876,50.828069],[5.960035,50.828108],[5.960093,50.828123],[5.960118,50.828088],[5.960124,50.82808],[5.960191,50.827988],[5.960215,50.827953],[5.960336,50.827889],[5.960629,50.827736],[5.961056,50.827511],[5.961343,50.827355],[5.961453,50.827296],[5.961495,50.827273],[5.961878,50.827065],[5.962168,50.826829],[5.962401,50.826642],[5.962403,50.826641],[5.962689,50.826411],[5.963069,50.826108],[5.963451,50.825802],[5.963869,50.825466],[5.964258,50.825154],[5.964816,50.824704],[5.96518,50.824409],[5.965318,50.824304],[5.96542,50.824143],[5.965577,50.823946],[5.965608,50.82396],[5.96579,50.823777],[5.965923,50.823671],[5.965926,50.823666],[5.965948,50.823652],[5.966045,50.823586],[5.966296,50.823444],[5.966732,50.823206],[5.967048,50.823002],[5.967259,50.822832],[5.967353,50.822749],[5.967473,50.822644],[5.967604,50.822544],[5.967704,50.822479],[5.967904,50.822352],[5.967975,50.822313],[5.968083,50.822251],[5.968143,50.822233],[5.96817,50.822216],[5.968222,50.822189],[5.968268,50.822165],[5.969037,50.821967],[5.969068,50.821959],[5.970029,50.82172],[5.970239,50.821667],[5.970586,50.821583],[5.970688,50.821558],[5.970965,50.82149],[5.971865,50.821271],[5.971371,50.819941],[5.970941,50.81879],[5.970928,50.818756],[5.97062,50.81882],[5.970603,50.818781],[5.970578,50.81873],[5.970565,50.818703],[5.970561,50.818693],[5.970518,50.818606],[5.970389,50.818334],[5.970346,50.818339],[5.970044,50.817661],[5.96983,50.817725],[5.969787,50.817635],[5.969324,50.816663],[5.969318,50.816646],[5.970569,50.816414],[5.971173,50.816305],[5.971196,50.816301],[5.971483,50.816249],[5.971558,50.816236],[5.971609,50.816227],[5.971709,50.816209],[5.971997,50.816158],[5.972155,50.816129],[5.972162,50.816128],[5.972172,50.816126],[5.972212,50.816119],[5.972272,50.816107],[5.97233,50.816094],[5.972913,50.815967],[5.972931,50.815964],[5.973052,50.815937],[5.973165,50.815912],[5.973183,50.815908],[5.973212,50.815902],[5.973425,50.815856],[5.973545,50.815829],[5.973564,50.815826],[5.973712,50.815793],[5.973856,50.815762],[5.973893,50.815753],[5.973914,50.815749],[5.974071,50.815715],[5.974413,50.81564],[5.974433,50.815636],[5.974717,50.815574],[5.974852,50.815545],[5.974891,50.815536],[5.974913,50.815532],[5.975064,50.815499],[5.975086,50.815493],[5.975105,50.815488],[5.975512,50.815373],[5.975775,50.815322],[5.976048,50.815269],[5.976103,50.815258],[5.976625,50.815159],[5.977304,50.81503],[5.977635,50.814967],[5.977688,50.814957],[5.977692,50.814956],[5.977754,50.814944],[5.977845,50.814928],[5.978086,50.814882],[5.978192,50.814859],[5.978254,50.814845],[5.978312,50.814832],[5.978325,50.81483],[5.978376,50.814819],[5.978496,50.814795],[5.978507,50.814792],[5.978639,50.814766],[5.978649,50.814764],[5.978743,50.814745],[5.978918,50.81471],[5.978927,50.814709],[5.979141,50.814666],[5.97922,50.81465],[5.979228,50.814648],[5.979466,50.814601],[5.979523,50.814576],[5.97956,50.81453],[5.979565,50.814524],[5.979926,50.814072],[5.980008,50.81395],[5.980106,50.813804],[5.980278,50.813548],[5.980279,50.813547],[5.980341,50.813441],[5.980373,50.813386],[5.980373,50.813385],[5.980413,50.81327],[5.980445,50.813179],[5.980476,50.81309],[5.980479,50.813086],[5.980539,50.813005],[5.980559,50.812978],[5.980719,50.81289],[5.980923,50.812774],[5.981134,50.812654],[5.981146,50.812647],[5.98137,50.812519],[5.981583,50.812397],[5.981833,50.812254],[5.982052,50.812129],[5.982292,50.811982],[5.982626,50.811439],[5.982643,50.811412],[5.982669,50.811369],[5.982926,50.811437],[5.98297,50.811383],[5.98292,50.811299],[5.982916,50.811295],[5.982873,50.811249],[5.982872,50.811248],[5.982838,50.811221],[5.982722,50.811163],[5.98261,50.811112],[5.982482,50.811065],[5.982478,50.811064],[5.982377,50.81103],[5.982261,50.810994],[5.982258,50.810993],[5.982082,50.810934],[5.981918,50.810858],[5.983482,50.809755],[5.983529,50.809727],[5.98438,50.810221],[5.984866,50.810434],[5.985525,50.810621],[5.98638,50.81019],[5.986869,50.809954],[5.986986,50.809902],[5.987235,50.809798],[5.987563,50.80967],[5.989474,50.808948],[5.991281,50.808138],[5.991444,50.808038],[5.991894,50.807685],[5.991993,50.80762],[5.992834,50.807278],[5.993244,50.806938],[5.99356,50.806731],[5.99382,50.806573],[5.994215,50.806384],[5.994622,50.806141],[5.994765,50.806056],[5.995076,50.805886],[5.99529,50.805785],[5.995853,50.805551],[5.996277,50.805383],[5.998844,50.804262],[5.998884,50.804119],[5.999278,50.803946],[6.00007,50.80352],[6.000419,50.803331],[6.001578,50.802681],[6.002383,50.802192],[6.00363,50.801431],[6.00479,50.801816],[6.007641,50.802764],[6.008456,50.803178],[6.009736,50.803809],[6.010074,50.803982],[6.010953,50.80476],[6.011354,50.805204],[6.011419,50.805242],[6.011423,50.805311],[6.011926,50.805763],[6.012718,50.806479],[6.013215,50.806772],[6.013477,50.8071],[6.013654,50.80738],[6.013899,50.807667],[6.01406,50.807842],[6.014247,50.808046],[6.014536,50.808309],[6.014774,50.808536],[6.014804,50.808561],[6.014834,50.808587],[6.015028,50.808722],[6.015413,50.809001],[6.016517,50.809757],[6.016702,50.809869],[6.017201,50.810128],[6.017904,50.810504],[6.019084,50.811076],[6.019359,50.811272],[6.019745,50.81145],[6.021041,50.812059],[6.021638,50.812332],[6.022355,50.812673],[6.023079,50.813016],[6.023883,50.813424],[6.02473,50.813906],[6.024964,50.814031],[6.025021,50.814112],[6.023529,50.81465],[6.024489,50.815924],[6.022103,50.816809],[6.023252,50.817968],[6.023768,50.818264],[6.023723,50.818402],[6.02366,50.818618],[6.023314,50.818957],[6.022935,50.819329],[6.022747,50.819508],[6.022044,50.820159],[6.021883,50.820099],[6.021858,50.820148],[6.021317,50.819952],[6.021017,50.819849],[6.020637,50.81974],[6.020632,50.819739],[6.020222,50.819954],[6.019677,50.820242],[6.019134,50.820531],[6.018865,50.820677],[6.018596,50.820823],[6.018589,50.820827],[6.018335,50.820975],[6.018059,50.821162],[6.018051,50.821168],[6.017865,50.821312],[6.017819,50.821352],[6.017657,50.821494],[6.017472,50.821685],[6.017308,50.821885],[6.017291,50.821904],[6.017175,50.822047],[6.017141,50.822088],[6.016981,50.822283],[6.016663,50.822685],[6.016631,50.822729],[6.016363,50.823092],[6.016066,50.8235],[6.015936,50.823627],[6.015746,50.823812],[6.015766,50.82382],[6.016479,50.824152],[6.016671,50.824246],[6.01661,50.824335],[6.016604,50.824342],[6.01655,50.824412],[6.016481,50.824492],[6.016364,50.824633],[6.016273,50.824751],[6.016213,50.824846],[6.016151,50.824964],[6.016096,50.825111],[6.016072,50.82518],[6.01703,50.825702],[6.016279,50.8263],[6.016189,50.826373],[6.015873,50.826669],[6.015608,50.826894],[6.015604,50.826899],[6.01506,50.827409],[6.014667,50.827784],[6.014536,50.82791],[6.013907,50.828543],[6.013152,50.829303],[6.012331,50.83013],[6.012257,50.83019],[6.012246,50.830199],[6.011817,50.830544],[6.011464,50.830765],[6.010987,50.831],[6.010419,50.831238],[6.010041,50.831351],[6.009377,50.831507],[6.008648,50.831634],[6.00802,50.831718],[6.007496,50.831779],[6.006979,50.831796],[6.006592,50.831792],[6.006598,50.831868],[6.006011,50.83187],[6.005754,50.831856],[6.005505,50.831837],[6.005339,50.831818],[6.005087,50.831779],[6.004933,50.831737],[6.004707,50.831657],[6.004086,50.83142],[6.003744,50.831615],[6.003554,50.831723],[6.00337,50.831827],[6.003021,50.832026],[6.003688,50.832336],[6.003699,50.832342],[6.003705,50.832344],[6.003708,50.832346],[6.003965,50.832484],[6.004072,50.832572],[6.004228,50.832699],[6.004284,50.832745],[6.004335,50.832806],[6.004624,50.833151],[6.004823,50.833467],[6.005048,50.833914],[6.005062,50.833951],[6.005239,50.834435],[6.005394,50.834936],[6.005397,50.834941],[6.005345,50.835634],[6.005312,50.835805],[6.005255,50.835993],[6.005042,50.836575],[6.004973,50.836732],[6.004915,50.836837],[6.004782,50.837029],[6.004445,50.837398],[6.004221,50.837604],[6.00413,50.837678],[6.003268,50.838256],[6.003208,50.838225],[6.003014,50.838119],[6.001995,50.838842],[6.00199,50.838845],[6.001625,50.838975],[6.001616,50.838978],[6.001534,50.839008],[6.000011,50.839827],[5.99949,50.840107],[5.999779,50.84032],[5.999493,50.840474],[5.998935,50.840741],[5.998359,50.841002],[5.99777,50.841254],[5.997156,50.84148],[5.99676,50.841612],[5.996721,50.841562],[5.996633,50.841451],[5.995684,50.841691],[5.994906,50.841869],[5.994886,50.841878],[5.994265,50.841581],[5.994155,50.841887],[5.994409,50.842145],[5.994331,50.842195],[5.994357,50.842273],[5.994067,50.842527],[5.99403,50.842559],[5.993479,50.842847],[5.992993,50.843126],[5.992907,50.843085],[5.992615,50.843283],[5.992609,50.843287],[5.992377,50.843422],[5.991759,50.843645],[5.991367,50.843721],[5.990938,50.843801],[5.990666,50.843847],[5.990394,50.843711],[5.990071,50.843576],[5.989921,50.843491],[5.988956,50.843891],[5.989525,50.84417],[5.989408,50.844232],[5.989135,50.844378],[5.988868,50.844526],[5.988682,50.844634],[5.988603,50.844681],[5.988316,50.844814],[5.988037,50.844954],[5.988021,50.844963],[5.98777,50.84511],[5.987513,50.845272],[5.987499,50.845286],[5.987293,50.845473],[5.987271,50.845486],[5.987026,50.845625],[5.986791,50.845796],[5.986749,50.84581],[5.986474,50.845904],[5.986288,50.845961],[5.986152,50.846002],[5.985922,50.846097],[5.985607,50.846233],[5.985547,50.846267],[5.985455,50.846301],[5.985144,50.846399],[5.985013,50.84644],[5.984883,50.846485],[5.984755,50.846534],[5.984463,50.846646],[5.984182,50.846761],[5.984018,50.84683],[5.983826,50.846915],[5.983595,50.847025],[5.981362,50.848131],[5.981268,50.848175],[5.980706,50.848436],[5.980249,50.848699],[5.97893,50.849457],[5.978387,50.849769],[5.977887,50.850111],[5.977408,50.850466],[5.976995,50.850853],[5.976613,50.851223],[5.976156,50.851588],[5.975744,50.851974],[5.975515,50.852208],[5.975391,50.852334],[5.975373,50.852352],[5.975362,50.852364],[5.975358,50.852368],[5.975345,50.852385],[5.975046,50.852789],[5.974867,50.852964],[5.97465,50.853177],[5.974441,50.853367],[5.974254,50.853565],[5.974072,50.853765],[5.973901,50.853967],[5.973742,50.854174],[5.973695,50.854225],[5.973557,50.854372],[5.97342,50.854584],[5.973342,50.854705],[5.973274,50.854767],[5.972886,50.855202],[5.972562,50.855621],[5.972259,50.856129],[5.972203,50.856236],[5.972093,50.856448],[5.972036,50.856562],[5.972018,50.856599],[5.971942,50.85675],[5.971931,50.856774],[5.971782,50.857075],[5.971768,50.857104],[5.971678,50.857292],[5.971666,50.857316],[5.971465,50.857749],[5.971255,50.858141],[5.971236,50.858177],[5.971011,50.858606],[5.970961,50.858696],[5.970875,50.858681],[5.970839,50.858765],[5.970836,50.858768],[5.970753,50.858882],[5.970748,50.858889],[5.970602,50.859072],[5.970432,50.859179],[5.970292,50.859388],[5.970216,50.859609],[5.970181,50.859655],[5.970063,50.859809],[5.970036,50.859838],[5.969995,50.859881],[5.969699,50.860195],[5.969645,50.860228],[5.969625,50.860217],[5.969362,50.86008],[5.969087,50.859931],[5.968716,50.859692],[5.968568,50.85959],[5.96846,50.859512],[5.96831,50.859385],[5.968217,50.859304],[5.968088,50.859183],[5.967968,50.859181],[5.967834,50.859038],[5.967805,50.858717],[5.968081,50.858548],[5.968096,50.858492],[5.967406,50.857998],[5.966639,50.857433],[5.966101,50.857027],[5.965982,50.857056],[5.965774,50.856652],[5.965747,50.856498],[5.965748,50.856398],[5.965811,50.856215],[5.965845,50.856159],[5.965916,50.856062],[5.96617,50.855717],[5.966186,50.855695],[5.966207,50.855609],[5.966365,50.855354],[5.966374,50.855328],[5.966383,50.855301],[5.965257,50.855622],[5.965226,50.855631],[5.96508,50.855675],[5.964968,50.855503],[5.964966,50.855501],[5.964935,50.855421],[5.964891,50.85532],[5.964806,50.855146],[5.963862,50.854804],[5.962499,50.85431],[5.961407,50.853915],[5.961154,50.854284],[5.960737,50.854892],[5.960699,50.854876],[5.96066,50.85486],[5.960622,50.854844],[5.960584,50.854828],[5.960546,50.854812],[5.960508,50.854796],[5.96047,50.854779],[5.960432,50.854763],[5.960395,50.854746],[5.960357,50.854729],[5.96032,50.854713],[5.96028,50.854695],[5.96024,50.854677],[5.9602,50.854659],[5.96016,50.854641],[5.96012,50.854623],[5.960081,50.854605],[5.960041,50.854586],[5.960002,50.854568],[5.959963,50.854549],[5.959924,50.854531],[5.959885,50.854512],[5.959523,50.854327],[5.959257,50.854187],[5.959221,50.854168],[5.959169,50.85414],[5.959061,50.85408],[5.958981,50.854035],[5.958906,50.85399],[5.958804,50.853927],[5.958709,50.853866],[5.958641,50.853821],[5.958605,50.853796],[5.958568,50.853771],[5.958508,50.853728],[5.958457,50.853688],[5.958391,50.853637],[5.958346,50.853602],[5.958325,50.853586],[5.958303,50.85357],[5.958282,50.853554],[5.95826,50.853538],[5.958238,50.853522],[5.958215,50.853506],[5.958193,50.85349],[5.95817,50.853475],[5.958147,50.853459],[5.958125,50.853444],[5.958101,50.853428],[5.958078,50.853413],[5.958055,50.853398],[5.958031,50.853383],[5.958008,50.853368],[5.957984,50.853353],[5.95796,50.853338],[5.957936,50.853324],[5.957912,50.853309],[5.957893,50.853298],[5.957874,50.853287],[5.957855,50.853276],[5.957836,50.853265],[5.957816,50.853255],[5.957797,50.853244],[5.957777,50.853234],[5.957758,50.853223],[5.957738,50.853213],[5.957718,50.853203],[5.957698,50.853193],[5.957677,50.853183],[5.957657,50.853173],[5.957637,50.853164],[5.957616,50.853154],[5.957595,50.853144],[5.957574,50.853135],[5.957553,50.853126],[5.95755,50.853124],[5.957547,50.853123],[5.957526,50.853115],[5.957508,50.853108],[5.957489,50.853102],[5.957474,50.853097],[5.957459,50.853092],[5.957444,50.853087],[5.957429,50.853083],[5.957414,50.853078],[5.957399,50.853074],[5.957383,50.853069],[5.957368,50.853065],[5.957352,50.853061],[5.957337,50.853057],[5.957321,50.853054],[5.957305,50.85305],[5.957289,50.853046],[5.957273,50.853043],[5.957257,50.853039],[5.957223,50.853032],[5.95719,50.853025],[5.957161,50.853019],[5.957133,50.853013],[5.957104,50.853006],[5.957076,50.853],[5.957047,50.852993],[5.957019,50.852987],[5.956991,50.85298],[5.956963,50.852973],[5.956674,50.852902],[5.956274,50.8528],[5.956242,50.852791],[5.95621,50.852783],[5.956177,50.852775],[5.956145,50.852768],[5.956113,50.85276],[5.95608,50.852753],[5.956048,50.852745],[5.956015,50.852738],[5.955983,50.852731],[5.95595,50.852724],[5.955917,50.852717],[5.955884,50.85271],[5.955851,50.852704],[5.955819,50.852697],[5.955789,50.852692],[5.95576,50.852688],[5.95573,50.852683],[5.9557,50.852678],[5.955671,50.852674],[5.955641,50.85267],[5.955611,50.852666],[5.955581,50.852662],[5.955551,50.852658],[5.955521,50.852654],[5.955491,50.85265],[5.955461,50.852647],[5.955431,50.852644],[5.955401,50.85264],[5.955371,50.852637],[5.955341,50.852634],[5.955311,50.852632],[5.955281,50.852629],[5.95525,50.852626],[5.955168,50.852619],[5.955086,50.852612],[5.955081,50.852612],[5.955046,50.852609],[5.955011,50.852607],[5.954976,50.852604],[5.954941,50.852601],[5.954906,50.852599],[5.954872,50.852597],[5.954837,50.852595],[5.9546,50.852578],[5.954518,50.852573],[5.954519,50.852569],[5.95452,50.852563],[5.954518,50.852563],[5.954568,50.852517],[5.954589,50.852487],[5.954723,50.852302],[5.954819,50.852166],[5.954925,50.852004],[5.955022,50.851865],[5.955003,50.851858],[5.954859,50.851803],[5.954506,50.851676],[5.954415,50.851642],[5.95426,50.851585],[5.954164,50.851545],[5.954162,50.85154],[5.953804,50.850493],[5.953888,50.850464],[5.953883,50.850414],[5.953974,50.85039],[5.953948,50.850387],[5.953925,50.85038],[5.953908,50.85037],[5.953893,50.850364],[5.953869,50.850352],[5.953856,50.850342],[5.95384,50.850324],[5.953831,50.850295],[5.953641,50.849646],[5.953423,50.848919],[5.953353,50.848687],[5.953344,50.848658],[5.953309,50.848541],[5.953265,50.848382],[5.953253,50.848306],[5.953264,50.848217],[5.953299,50.84813],[5.953343,50.848057],[5.9534,50.847985],[5.953467,50.847917],[5.953545,50.847853],[5.953631,50.8478],[5.953648,50.847789],[5.954244,50.847512],[5.954714,50.847293],[5.954936,50.84719],[5.955064,50.847119],[5.955163,50.847049],[5.955233,50.84699],[5.955296,50.846921],[5.955333,50.846858],[5.955341,50.846845],[5.955364,50.846795],[5.955376,50.846742],[5.955384,50.846661],[5.955376,50.846581],[5.955346,50.846502],[5.955207,50.846276],[5.955122,50.846151],[5.955103,50.846123],[5.955069,50.846088],[5.955035,50.846057],[5.954995,50.846025],[5.95496,50.846002],[5.95495,50.845995],[5.954831,50.845956],[5.954781,50.84595]]]},"properties":{"type":"boundary","gemeente":"Simpelveld"}}]}