{"type":"FeatureCollection","metadata":{"gemeente":"Someren","slug":"someren","generated_at":"2026-10-05T09:05:10.171891Z","total_points":27,"providers":["Amazon","DHL","DPD","PostNL","VintedGo","ViaTim","FedEx","InPost","Budbee"],"bounds":[5.68158735,51.3482491,5.733536,51.41982818]},"features":[{"type":"Feature","geometry":{"type":"Point","coordinates":[5.720430959389112,51.394178268599156]},"properties":{"type":"pakketpunt","locatieNaam":"DHL - Pakketautomaat Karwei Someren","straatNaam":"Witvrouwenbergweg 11","straatNr":"","vervoerder":"Amazon","puntType":"3p","bezettingsgraad":50,"latitude":51.394178268599156,"longitude":5.720430959389112,"canPickup":true,"canDropoff":false,"openingstijden":null}},{"type":"Feature","geometry":{"type":"Point","coordinates":[5.7000522,51.3487413]},"properties":{"type":"pakketpunt","locatieNaam":"DHL Buurtpunt ViaTim & Erik","straatNaam":"Herdersveld","straatNr":"16","vervoerder":"DHL","puntType":"parcelShop","bezettingsgraad":50,"latitude":51.3487413,"longitude":5.7000522,"canPickup":true,"canDropoff":true,"openingstijden":{"ma":"15:30 - 20:00","di":"15:30 - 20:00","wo":"15:30 - 20:00","do":"16:00 - 20:00","vr":"15:30 - 20:00","za":"10:00 - 14:00","zo":"gesloten"}}},{"type":"Feature","geometry":{"type":"Point","coordinates":[5.733472326077913,51.36057775736646]},"properties":{"type":"pakketpunt","locatieNaam":"DenoClean","straatNaam":"Boerenkamplaan","straatNr":"116","vervoerder":"DHL","puntType":"parcelShop","bezettingsgraad":50,"latitude":51.36057775736646,"longitude":5.733472326077913,"canPickup":true,"canDropoff":true,"openingstijden":{"ma":"09:00 - 17:00","di":"09:00 - 17:00","wo":"09:00 - 17:00","do":"09:00 - 17:00","vr":"09:00 - 17:00","za":"gesloten","zo":"gesloten"}}},{"type":"Feature","geometry":{"type":"Point","coordinates":[5.720430959389112,51.394178268599156]},"properties":{"type":"pakketpunt","locatieNaam":"Pakketautomaat Karwei Someren","straatNaam":"Witvrouwenbergweg","straatNr":"11","vervoerder":"DHL","puntType":"packStation","bezettingsgraad":50,"latitude":51.394178268599156,"longitude":5.720430959389112,"canPickup":true,"canDropoff":true,"openingstijden":{"ma":"00:00 - 23:59","di":"00:00 - 23:59","wo":"00:00 - 23:59","do":"00:00 - 23:59","vr":"00:00 - 23:59","za":"00:00 - 23:59","zo":"00:00 - 23:59"}}},{"type":"Feature","geometry":{"type":"Point","coordinates":[5.7138661,51.3886164]},"properties":{"type":"pakketpunt","locatieNaam":"Ut Noorder Snuupke","straatNaam":"Ter Hofstadlaan","straatNr":"40","vervoerder":"DHL","puntType":"parcelShop","bezettingsgraad":50,"latitude":51.3886164,"longitude":5.7138661,"canPickup":true,"canDropoff":true,"openingstijden":{"ma":"12:00 - 17:30","di":"09:30 - 17:30","wo":"09:30 - 17:30","do":"09:30 - 17:30","vr":"09:30 - 17:30","za":"09:30 - 17:00","zo":"gesloten"}}},{"type":"Feature","geometry":{"type":"Point","coordinates":[5.714699,51.386511]},"properties":{"type":"pakketpunt","locatieNaam":"Electro World Someren","straatNaam":"Kanaalstraat","straatNr":"4-B","vervoerder":"DHL","puntType":"parcelShop","bezettingsgraad":50,"latitude":51.386511,"longitude":5.714699,"canPickup":true,"canDropoff":true,"openingstijden":{"ma":"10:30 - 18:00","di":"09:00 - 18:00","wo":"09:00 - 18:00","do":"09:00 - 18:00","vr":"09:00 - 18:00","za":"09:00 - 17:00","zo":"gesloten"}}},{"type":"Feature","geometry":{"type":"Point","coordinates":[5.711236,51.3852068]},"properties":{"type":"pakketpunt","locatieNaam":"Intertoys Someren","straatNaam":"Postelstraat","straatNr":"8","vervoerder":"DHL","puntType":"parcelShop","bezettingsgraad":50,"latitude":51.3852068,"longitude":5.711236,"canPickup":true,"canDropoff":true,"openingstijden":{"ma":"09:00 - 17:30","di":"09:00 - 17:30","wo":"09:00 - 17:30","do":"09:00 - 17:30","vr":"09:00 - 17:30","za":"09:00 - 17:00","zo":"gesloten"}}},{"type":"Feature","geometry":{"type":"Point","coordinates":[5.7003,51.3482491]},"properties":{"type":"pakketpunt","locatieNaam":"ViaTim & Erik Someren","straatNaam":"HERDERSVELD","straatNr":"16","vervoerder":"DPD","puntType":"pickup_point","bezettingsgraad":50,"latitude":51.3482491,"longitude":5.7003,"canPickup":true,"canDropoff":true,"openingstijden":{"ma":"15:30 - 20:00","di":"15:30 - 20:00","wo":"15:30 - 20:00","do":"15:30 - 20:00","vr":"15:30 - 20:00","za":"10:00 - 16:00","zo":"gesloten"}}},{"type":"Feature","geometry":{"type":"Point","coordinates":[5.7203981,51.3947264]},"properties":{"type":"pakketpunt","locatieNaam":"Pakketautomaat Van den Berk Tuinmac","straatNaam":"WITVROUWENBERGWEG","straatNr":"13 A","vervoerder":"DPD","puntType":"dpd_box","bezettingsgraad":50,"latitude":51.3947264,"longitude":5.7203981,"canPickup":true,"canDropoff":true,"openingstijden":{"ma":"00:01 - 23:59","di":"00:01 - 23:59","wo":"00:01 - 23:59","do":"00:01 - 23:59","vr":"00:01 - 23:59","za":"00:01 - 23:59","zo":"00:01 - 23:59"}}},{"type":"Feature","geometry":{"type":"Point","coordinates":[5.733536,51.360506]},"properties":{"type":"pakketpunt","locatieNaam":"DenoClean","straatNaam":"BOERENKAMPLAAN","straatNr":"116","vervoerder":"DPD","puntType":"pickup_point","bezettingsgraad":50,"latitude":51.360506,"longitude":5.733536,"canPickup":true,"canDropoff":true,"openingstijden":{"ma":"09:00 - 17:00","di":"09:00 - 17:00","wo":"09:00 - 17:00","do":"09:00 - 17:00","vr":"09:00 - 17:00","za":"gesloten","zo":"gesloten"}}},{"type":"Feature","geometry":{"type":"Point","coordinates":[5.715435,51.38027]},"properties":{"type":"pakketpunt","locatieNaam":"UR640 Pakketautomaat Budbee","straatNaam":"KERKSTRAAT","straatNr":"30d","vervoerder":"DPD","puntType":"dpd_box","bezettingsgraad":50,"latitude":51.38027,"longitude":5.715435,"canPickup":true,"canDropoff":false,"openingstijden":{"ma":"08:00 - 21:00","di":"08:00 - 21:00","wo":"08:00 - 21:00","do":"08:00 - 21:00","vr":"08:00 - 21:00","za":"08:00 - 20:00","zo":"09:00 - 19:00"}}},{"type":"Feature","geometry":{"type":"Point","coordinates":[5.711129208,51.38521502]},"properties":{"type":"pakketpunt","locatieNaam":"Primera","straatNaam":"Postelstraat","straatNr":"8A","vervoerder":"PostNL","puntType":"servicepunt","bezettingsgraad":50,"latitude":51.38521502,"longitude":5.711129208,"canPickup":true,"canDropoff":true,"openingstijden":"09:00 - 18:00 (Na 18:00 open; Zaterdag open)"}},{"type":"Feature","geometry":{"type":"Point","coordinates":[5.71124112635271,51.382769766819]},"properties":{"type":"pakketpunt","locatieNaam":"Pakketautomaat","straatNaam":"Postelstraat","straatNr":"39PBA","vervoerder":"PostNL","puntType":"automaat","bezettingsgraad":50,"latitude":51.382769766819,"longitude":5.71124112635271,"canPickup":true,"canDropoff":true,"openingstijden":"00:00 - 23:59"}},{"type":"Feature","geometry":{"type":"Point","coordinates":[5.723677671,51.38816373]},"properties":{"type":"pakketpunt","locatieNaam":"Infinity Fitness","straatNaam":"Witvrouwenbergweg","straatNr":"10","vervoerder":"PostNL","puntType":"servicepunt","bezettingsgraad":50,"latitude":51.38816373,"longitude":5.723677671,"canPickup":true,"canDropoff":true,"openingstijden":"08:30 - 22:00"}},{"type":"Feature","geometry":{"type":"Point","coordinates":[5.720475721,51.39430327]},"properties":{"type":"pakketpunt","locatieNaam":"Pakket- en briefautomaat","straatNaam":"Witvrouwenbergweg","straatNr":"11PBA","vervoerder":"PostNL","puntType":"automaat","bezettingsgraad":50,"latitude":51.39430327,"longitude":5.720475721,"canPickup":true,"canDropoff":true,"openingstijden":"00:00 - 23:59"}},{"type":"Feature","geometry":{"type":"Point","coordinates":[5.720490154,51.39431222]},"properties":{"type":"pakketpunt","locatieNaam":"KARWEI Someren-Asten","straatNaam":"Witvrouwenbergweg","straatNr":"11","vervoerder":"PostNL","puntType":"servicepunt","bezettingsgraad":50,"latitude":51.39431222,"longitude":5.720490154,"canPickup":true,"canDropoff":true,"openingstijden":"09:00 - 21:00"}},{"type":"Feature","geometry":{"type":"Point","coordinates":[5.727629072,51.36707357]},"properties":{"type":"pakketpunt","locatieNaam":"De Dierenfabriek","straatNaam":"Boerenkamplaan","straatNr":"62","vervoerder":"PostNL","puntType":"servicepunt","bezettingsgraad":50,"latitude":51.36707357,"longitude":5.727629072,"canPickup":true,"canDropoff":true,"openingstijden":"09:00 - 18:00"}},{"type":"Feature","geometry":{"type":"Point","coordinates":[5.68158735,51.41982818]},"properties":{"type":"pakketpunt","locatieNaam":"Ons Leyendorp","straatNaam":"Offermansstraat","straatNr":"2","vervoerder":"PostNL","puntType":"servicepunt","bezettingsgraad":50,"latitude":51.41982818,"longitude":5.68158735,"canPickup":true,"canDropoff":true,"openingstijden":"08:30 - 19:00 (Na 18:00 open; Zaterdag open)"}},{"type":"Feature","geometry":{"type":"Point","coordinates":[5.7003,51.3482492]},"properties":{"type":"pakketpunt","locatieNaam":"E. Verhees","straatNaam":"Herdersveld 16","straatNr":"","vervoerder":"VintedGo","puntType":"social","bezettingsgraad":50,"latitude":51.3482492,"longitude":5.7003,"canPickup":true,"canDropoff":true,"openingstijden":null}},{"type":"Feature","geometry":{"type":"Point","coordinates":[5.7334616,51.3604438]},"properties":{"type":"pakketpunt","locatieNaam":"Denoclean ","straatNaam":"Boerenkamplaan 116","straatNr":"","vervoerder":"VintedGo","puntType":"parcel_shop","bezettingsgraad":50,"latitude":51.3604438,"longitude":5.7334616,"canPickup":true,"canDropoff":true,"openingstijden":null}},{"type":"Feature","geometry":{"type":"Point","coordinates":[5.7112622,51.3852313]},"properties":{"type":"pakketpunt","locatieNaam":"Intertoys Someren ","straatNaam":"Postelstraat 8","straatNr":"","vervoerder":"VintedGo","puntType":"parcel_shop","bezettingsgraad":50,"latitude":51.3852313,"longitude":5.7112622,"canPickup":true,"canDropoff":true,"openingstijden":null}},{"type":"Feature","geometry":{"type":"Point","coordinates":[5.713858,51.388647]},"properties":{"type":"pakketpunt","locatieNaam":"Ut Noorder Snuupke","straatNaam":"Ter Hofstadlaan 40","straatNr":"","vervoerder":"VintedGo","puntType":"locker","bezettingsgraad":50,"latitude":51.388647,"longitude":5.713858,"canPickup":true,"canDropoff":true,"openingstijden":null}},{"type":"Feature","geometry":{"type":"Point","coordinates":[5.70030006816427,51.3482491334607]},"properties":{"type":"pakketpunt","locatieNaam":"ViaTim & Erik","straatNaam":"Herdersveld","straatNr":"16","vervoerder":"ViaTim","puntType":"servicepunt","bezettingsgraad":50,"latitude":51.3482491334607,"longitude":5.70030006816427,"canPickup":true,"canDropoff":true,"openingstijden":{"ma":"15:30 - 20:00","di":"15:30 - 20:00","wo":"15:30 - 20:00","do":"15:30 - 20:00","vr":"15:30 - 20:00","za":"10:00 - 14:00","zo":"gesloten"}}},{"type":"Feature","geometry":{"type":"Point","coordinates":[5.720563554081863,51.39499204017758]},"properties":{"type":"pakketpunt","locatieNaam":"FedEx Ship&Get","straatNaam":"Witvrouwenbergweg 11 PBA","straatNr":"","vervoerder":"FedEx","puntType":"servicepunt","bezettingsgraad":50,"latitude":51.39499204017758,"longitude":5.720563554081863,"canPickup":true,"canDropoff":true,"openingstijden":{"ma":"00:00 - 23:59","di":"00:00 - 23:59","wo":"00:00 - 23:59","do":"00:00 - 23:59","vr":"00:00 - 23:59","za":"00:00 - 23:59","zo":"00:00 - 23:59"}}},{"type":"Feature","geometry":{"type":"Point","coordinates":[5.733462,51.360444]},"properties":{"type":"pakketpunt","locatieNaam":"FedEx OnSite","straatNaam":"BOERENKAMPLAAN 116","straatNr":"","vervoerder":"FedEx","puntType":"servicepunt","bezettingsgraad":50,"latitude":51.360444,"longitude":5.733462,"canPickup":true,"canDropoff":true,"openingstijden":{"ma":"09:00 - 17:00","di":"09:00 - 17:00","wo":"09:00 - 17:00","do":"09:00 - 17:00","vr":"09:00 - 17:00","za":"gesloten","zo":"gesloten"}}},{"type":"Feature","geometry":{"type":"Point","coordinates":[5.73346,51.36044]},"properties":{"type":"pakketpunt","locatieNaam":"DENO CLEAN","straatNaam":"BOERENKAMPLAAN 116","straatNr":"","vervoerder":"InPost","puntType":"servicepunt","bezettingsgraad":50,"latitude":51.36044,"longitude":5.73346,"canPickup":true,"canDropoff":true,"openingstijden":"L/Ma/Me/J/V, 9-17"}},{"type":"Feature","geometry":{"type":"Point","coordinates":[5.715435,51.38027]},"properties":{"type":"pakketpunt","locatieNaam":"UR640 Pakketautomaat Budbee","straatNaam":"KERKSTRAAT","straatNr":"30d","vervoerder":"Budbee","puntType":"automaat","bezettingsgraad":50,"latitude":51.38027,"longitude":5.715435,"canPickup":true,"canDropoff":true,"openingstijden":null}},{"type":"Feature","geometry":{"type":"Polygon","coordinates":[[[5.637872,51.406708],[5.637855,51.406781],[5.637856,51.408042],[5.637857,51.408428],[5.637855,51.408884],[5.637887,51.409479],[5.637942,51.410208],[5.637951,51.410401],[5.637968,51.410786],[5.637965,51.410851],[5.637914,51.412086],[5.637884,51.41251],[5.637941,51.41272],[5.638221,51.414004],[5.638272,51.414433],[5.638378,51.41534],[5.638388,51.41543],[5.638493,51.416327],[5.638546,51.416775],[5.638598,51.417223],[5.638624,51.417448],[5.638638,51.417672],[5.63867,51.418206],[5.638668,51.418523],[5.638718,51.419021],[5.638736,51.419198],[5.638776,51.419469],[5.638843,51.419917],[5.63891,51.420364],[5.638967,51.420738],[5.639006,51.421105],[5.639036,51.42139],[5.639039,51.421429],[5.639016,51.422457],[5.639042,51.422538],[5.639176,51.422951],[5.639279,51.423272],[5.63932,51.423386],[5.639786,51.424701],[5.639788,51.424707],[5.639987,51.425384],[5.640194,51.426089],[5.64022,51.42617],[5.640436,51.426837],[5.640436,51.426839],[5.641212,51.429262],[5.641871,51.431328],[5.641872,51.431331],[5.642248,51.432462],[5.642429,51.433027],[5.642849,51.434344],[5.64286,51.434367],[5.642954,51.434453],[5.642956,51.43446],[5.643035,51.434813],[5.64243,51.434857],[5.642433,51.434867],[5.642457,51.434928],[5.642812,51.43582],[5.642813,51.435823],[5.643036,51.436384],[5.643134,51.437082],[5.643352,51.437641],[5.643586,51.438239],[5.64364,51.438378],[5.643736,51.438623],[5.643737,51.438626],[5.643759,51.438696],[5.643891,51.43911],[5.643881,51.43913],[5.643732,51.439409],[5.643717,51.439437],[5.643769,51.439641],[5.643821,51.439847],[5.643828,51.439872],[5.643743,51.440005],[5.643624,51.440193],[5.644124,51.440269],[5.644121,51.440314],[5.644077,51.440854],[5.644258,51.440977],[5.644476,51.441123],[5.644603,51.440889],[5.644661,51.440897],[5.645214,51.440975],[5.645121,51.44115],[5.645816,51.44135],[5.64583,51.441354],[5.64588,51.441366],[5.646097,51.44142],[5.646121,51.441425],[5.646202,51.441445],[5.646608,51.441544],[5.646748,51.441579],[5.646795,51.441594],[5.646967,51.441648],[5.64753,51.442005],[5.648244,51.441522],[5.648266,51.441507],[5.6485,51.441725],[5.648625,51.441842],[5.648762,51.441959],[5.648866,51.442077],[5.648978,51.442155],[5.649228,51.442373],[5.649289,51.442448],[5.64934,51.442507],[5.649417,51.442566],[5.649872,51.443],[5.650142,51.443242],[5.650209,51.443275],[5.650235,51.443312],[5.650297,51.443359],[5.650382,51.443438],[5.650426,51.443512],[5.650502,51.44356],[5.650887,51.44389],[5.65106,51.444013],[5.651145,51.444164],[5.651222,51.444211],[5.651285,51.444276],[5.651327,51.444322],[5.651369,51.444383],[5.651732,51.444792],[5.651733,51.444792],[5.651801,51.444876],[5.651869,51.444925],[5.652229,51.44531],[5.652388,51.445509],[5.652499,51.445676],[5.652564,51.445652],[5.653308,51.446385],[5.653282,51.446595],[5.653382,51.446755],[5.653358,51.446768],[5.653587,51.447223],[5.653717,51.44748],[5.653778,51.447619],[5.654301,51.448638],[5.654376,51.448643],[5.654427,51.448691],[5.654362,51.448791],[5.654273,51.44882],[5.654138,51.449069],[5.654111,51.449127],[5.654096,51.449187],[5.654089,51.449242],[5.654089,51.449281],[5.654089,51.449281],[5.65409,51.449326],[5.654103,51.449368],[5.654116,51.449399],[5.654453,51.44994],[5.654608,51.45018],[5.654781,51.450493],[5.655083,51.451077],[5.655279,51.451475],[5.655222,51.451977],[5.655202,51.452157],[5.655195,51.452233],[5.655286,51.452378],[5.655363,51.452424],[5.65618,51.452726],[5.656299,51.452826],[5.656289,51.452871],[5.656236,51.453141],[5.656068,51.453767],[5.656067,51.453771],[5.65575,51.454846],[5.655784,51.454948],[5.655731,51.455016],[5.655633,51.455146],[5.655661,51.455201],[5.655862,51.455215],[5.655982,51.455223],[5.656509,51.455942],[5.656503,51.456017],[5.6565,51.456058],[5.656494,51.45615],[5.656488,51.456255],[5.656472,51.456498],[5.656472,51.456503],[5.656468,51.45656],[5.656526,51.456561],[5.657134,51.456577],[5.65846,51.456608],[5.660571,51.456655],[5.661332,51.456669],[5.662222,51.456695],[5.664188,51.45673],[5.664928,51.456746],[5.665846,51.456763],[5.66597,51.456778],[5.665976,51.45679],[5.66605,51.456792],[5.666059,51.456781],[5.666179,51.456775],[5.66622,51.456773],[5.666951,51.45679],[5.667813,51.45681],[5.668569,51.456829],[5.668781,51.456839],[5.668996,51.456849],[5.668996,51.456852],[5.669137,51.456867],[5.669277,51.456886],[5.669417,51.456908],[5.669578,51.45694],[5.669679,51.456964],[5.66978,51.456991],[5.66991,51.457029],[5.670038,51.45707],[5.670169,51.457114],[5.671149,51.457544],[5.671327,51.457622],[5.671429,51.457665],[5.67155,51.457749],[5.671526,51.457768],[5.671525,51.457768],[5.671525,51.457768],[5.671525,51.457769],[5.671525,51.457769],[5.671525,51.457769],[5.671525,51.457769],[5.671525,51.45777],[5.671525,51.45777],[5.671525,51.45777],[5.671525,51.457771],[5.671525,51.457771],[5.671525,51.457771],[5.671525,51.457772],[5.671525,51.457772],[5.671526,51.457772],[5.671526,51.457772],[5.671526,51.457773],[5.671527,51.457773],[5.671582,51.457799],[5.671597,51.457806],[5.671597,51.457806],[5.671597,51.457807],[5.671598,51.457807],[5.671598,51.457807],[5.671599,51.457807],[5.671599,51.457807],[5.6716,51.457807],[5.6716,51.457807],[5.671601,51.457807],[5.671601,51.457807],[5.671602,51.457807],[5.671602,51.457807],[5.671602,51.457806],[5.671603,51.457806],[5.671603,51.457806],[5.671603,51.457806],[5.671604,51.457806],[5.671604,51.457806],[5.671604,51.457805],[5.671604,51.457805],[5.671605,51.457805],[5.671605,51.457805],[5.671605,51.457804],[5.67162,51.457805],[5.671681,51.457808],[5.671766,51.45781],[5.671932,51.45781],[5.672005,51.457802],[5.672099,51.457783],[5.672166,51.45776],[5.672238,51.457715],[5.672336,51.45763],[5.672662,51.457355],[5.672903,51.457155],[5.673073,51.457005],[5.674042,51.456188],[5.674451,51.455847],[5.674901,51.455473],[5.674952,51.45543],[5.675229,51.455198],[5.675752,51.454752],[5.676174,51.454395],[5.676605,51.454033],[5.676975,51.453721],[5.677144,51.453579],[5.677836,51.452999],[5.678321,51.45259],[5.678747,51.452229],[5.679178,51.45187],[5.679603,51.451508],[5.680028,51.451149],[5.68044,51.45081],[5.680876,51.450434],[5.681059,51.450274],[5.68131,51.450071],[5.681551,51.449875],[5.681927,51.449555],[5.682333,51.449213],[5.682495,51.449076],[5.682598,51.448992],[5.682835,51.44879],[5.683447,51.448262],[5.683741,51.448012],[5.684007,51.447789],[5.684073,51.44774],[5.684152,51.447681],[5.6844,51.44753],[5.684421,51.447541],[5.684522,51.447456],[5.684441,51.447419],[5.684866,51.447061],[5.684962,51.447104],[5.685065,51.447018],[5.685047,51.447008],[5.685173,51.446843],[5.685437,51.446612],[5.685715,51.44638],[5.686545,51.445666],[5.686971,51.445308],[5.687369,51.444984],[5.687537,51.444847],[5.687702,51.444705],[5.687792,51.444627],[5.688327,51.444163],[5.688668,51.443874],[5.688984,51.443611],[5.68926,51.443377],[5.689663,51.443034],[5.689725,51.442983],[5.690364,51.442455],[5.690526,51.442317],[5.690711,51.442166],[5.690848,51.442046],[5.691014,51.441899],[5.691183,51.441746],[5.691329,51.441601],[5.691405,51.441531],[5.691459,51.441481],[5.691715,51.441215],[5.691788,51.441138],[5.691892,51.441017],[5.692221,51.440588],[5.692488,51.440198],[5.692496,51.440185],[5.692757,51.439759],[5.692915,51.439474],[5.693035,51.439224],[5.693046,51.4392],[5.693376,51.439259],[5.693713,51.439319],[5.693866,51.439347],[5.693942,51.43936],[5.693983,51.43924],[5.694056,51.439032],[5.694511,51.437731],[5.694725,51.437064],[5.695207,51.435696],[5.695899,51.433732],[5.696792,51.431198],[5.697633,51.428812],[5.698377,51.426699],[5.698444,51.42651],[5.699829,51.422577],[5.699939,51.422265],[5.699962,51.422201],[5.699979,51.422154],[5.700018,51.422044],[5.700018,51.422044],[5.700795,51.419892],[5.700803,51.419731],[5.700611,51.419172],[5.700582,51.418931],[5.700681,51.418649],[5.700737,51.418492],[5.701015,51.417703],[5.701127,51.417386],[5.701164,51.416928],[5.701155,51.416926],[5.701144,51.416925],[5.701182,51.416821],[5.70129,51.416835],[5.701445,51.416394],[5.701338,51.416379],[5.701376,51.416274],[5.701446,51.416284],[5.701655,51.415919],[5.70182,51.41546],[5.701887,51.415266],[5.702043,51.41485],[5.702216,51.414386],[5.70264,51.413205],[5.702827,51.412681],[5.702877,51.412541],[5.703094,51.41214],[5.703214,51.41196],[5.703423,51.411668],[5.703652,51.411347],[5.703802,51.411141],[5.703853,51.411073],[5.704093,51.410786],[5.704267,51.410588],[5.70445,51.410393],[5.704555,51.410288],[5.704674,51.41017],[5.705072,51.40981],[5.705245,51.409664],[5.705569,51.409409],[5.705784,51.409251],[5.705974,51.409113],[5.706466,51.408781],[5.706604,51.408699],[5.707196,51.408347],[5.707422,51.408159],[5.707794,51.407924],[5.708371,51.407563],[5.712148,51.405217],[5.713809,51.404185],[5.714014,51.404058],[5.714649,51.403661],[5.717725,51.40174],[5.718247,51.401414],[5.721039,51.39967],[5.721629,51.399302],[5.721862,51.399157],[5.722012,51.399107],[5.722045,51.399103],[5.722424,51.399062],[5.722478,51.399047],[5.722575,51.399019],[5.722689,51.398986],[5.722851,51.398898],[5.722901,51.398846],[5.722996,51.398746],[5.723007,51.398662],[5.723012,51.398623],[5.723023,51.398538],[5.72303,51.398483],[5.723037,51.398432],[5.723117,51.398383],[5.723148,51.398363],[5.723196,51.398333],[5.724931,51.397255],[5.725574,51.396855],[5.726097,51.396528],[5.726764,51.396082],[5.72681,51.396051],[5.726712,51.395987],[5.726833,51.395912],[5.726872,51.395936],[5.7271,51.395798],[5.727379,51.395618],[5.727343,51.395594],[5.727464,51.395518],[5.727497,51.395539],[5.727619,51.395489],[5.727671,51.39552],[5.728256,51.395155],[5.728409,51.395059],[5.72864,51.394916],[5.728686,51.394892],[5.728734,51.394876],[5.728972,51.394839],[5.730711,51.393754],[5.730883,51.393647],[5.732029,51.392931],[5.733724,51.391873],[5.734085,51.391602],[5.734267,51.391467],[5.734446,51.391329],[5.73462,51.391189],[5.734789,51.391047],[5.734954,51.390903],[5.735115,51.390757],[5.735239,51.39064],[5.735271,51.390609],[5.735422,51.390459],[5.735569,51.390308],[5.735711,51.390155],[5.735849,51.39],[5.735982,51.389843],[5.736109,51.389685],[5.73623,51.389527],[5.736344,51.389371],[5.736349,51.389364],[5.736416,51.389267],[5.736462,51.389201],[5.73657,51.389038],[5.736673,51.388872],[5.73677,51.388706],[5.736862,51.388539],[5.73695,51.38837],[5.737032,51.388201],[5.737108,51.38803],[5.73718,51.387859],[5.737246,51.387687],[5.737307,51.387513],[5.737362,51.38734],[5.737413,51.387165],[5.737457,51.386991],[5.737496,51.386815],[5.73753,51.38664],[5.737556,51.386462],[5.737591,51.386182],[5.737565,51.386139],[5.73749,51.386009],[5.737497,51.385884],[5.737574,51.385432],[5.738214,51.381642],[5.738397,51.380563],[5.738974,51.377145],[5.73971,51.372787],[5.739734,51.372649],[5.74018,51.370006],[5.740216,51.369793],[5.74058,51.369817],[5.740622,51.369931],[5.74077,51.369996],[5.741239,51.370105],[5.742794,51.370463],[5.742981,51.370511],[5.745339,51.371077],[5.745419,51.371096],[5.74546,51.371106],[5.746217,51.369999],[5.747494,51.368131],[5.747708,51.367818],[5.747719,51.367801],[5.747776,51.367718],[5.747779,51.367713],[5.749387,51.365362],[5.749831,51.364706],[5.749834,51.364701],[5.749879,51.364636],[5.750578,51.363628],[5.750578,51.363627],[5.753619,51.359123],[5.753619,51.359122],[5.753619,51.359123],[5.75362,51.359125],[5.753621,51.359123],[5.754623,51.357654],[5.754895,51.357255],[5.755297,51.356666],[5.755466,51.356419],[5.755643,51.356158],[5.755764,51.355982],[5.756211,51.355325],[5.756619,51.354728],[5.756655,51.354675],[5.756693,51.354619],[5.757572,51.353303],[5.757839,51.352903],[5.758394,51.352072],[5.758474,51.351952],[5.758883,51.351347],[5.759333,51.350682],[5.759717,51.350115],[5.760344,51.349187],[5.760407,51.349094],[5.760932,51.348317],[5.760968,51.348264],[5.761518,51.347452],[5.762763,51.34561],[5.763728,51.344183],[5.763806,51.344065],[5.765127,51.342026],[5.765539,51.341389],[5.765722,51.341107],[5.765984,51.340701],[5.766819,51.339413],[5.766835,51.339388],[5.767603,51.338201],[5.768638,51.336603],[5.769025,51.336004],[5.769654,51.335032],[5.769756,51.334874],[5.769763,51.334865],[5.770449,51.333805],[5.769691,51.333661],[5.767393,51.333224],[5.765782,51.332918],[5.765617,51.332887],[5.763759,51.332534],[5.761635,51.332131],[5.760266,51.331871],[5.760205,51.331859],[5.760093,51.331838],[5.760068,51.331833],[5.756632,51.33118],[5.753201,51.330528],[5.752477,51.330391],[5.750809,51.330074],[5.749767,51.329876],[5.749041,51.329738],[5.743954,51.328777],[5.741832,51.328363],[5.73839,51.327709],[5.737915,51.327619],[5.734446,51.326957],[5.732717,51.326643],[5.732343,51.326575],[5.732162,51.326541],[5.731527,51.326421],[5.726577,51.325488],[5.726375,51.32545],[5.724243,51.325048],[5.722985,51.324804],[5.720288,51.324279],[5.720097,51.324243],[5.719591,51.324147],[5.719448,51.32412],[5.718051,51.323855],[5.717161,51.323687],[5.717109,51.323677],[5.717056,51.323667],[5.71541,51.323349],[5.715064,51.323283],[5.714311,51.323137],[5.71414,51.323105],[5.709935,51.322304],[5.70986,51.32229],[5.709765,51.322272],[5.70803,51.321941],[5.706186,51.32159],[5.704073,51.321188],[5.703825,51.321143],[5.703762,51.321132],[5.702796,51.320947],[5.700332,51.320477],[5.700263,51.320464],[5.700158,51.320444],[5.699098,51.320241],[5.691812,51.318851],[5.690875,51.318673],[5.690677,51.318635],[5.688432,51.318207],[5.687363,51.318003],[5.684001,51.317362],[5.680494,51.316688],[5.679672,51.316531],[5.678722,51.316353],[5.677346,51.316093],[5.676851,51.315996],[5.675632,51.315768],[5.674071,51.31547],[5.673239,51.315311],[5.672142,51.3151],[5.672111,51.315094],[5.672088,51.315134],[5.672085,51.315168],[5.672088,51.315176],[5.6721,51.315202],[5.67211,51.315243],[5.672102,51.315271],[5.672084,51.315313],[5.672069,51.31533],[5.672046,51.315339],[5.672016,51.315342],[5.671976,51.315335],[5.671943,51.315331],[5.671915,51.315331],[5.671889,51.31534],[5.671807,51.315419],[5.671772,51.315453],[5.671494,51.315773],[5.67125,51.315928],[5.670991,51.316152],[5.670982,51.316172],[5.670984,51.316203],[5.670991,51.316231],[5.67099,51.316238],[5.670983,51.316243],[5.670972,51.316248],[5.670959,51.31625],[5.670871,51.316229],[5.670824,51.316222],[5.670789,51.316226],[5.670769,51.31623],[5.670752,51.31624],[5.670574,51.316526],[5.67057,51.316543],[5.670564,51.31657],[5.670564,51.316578],[5.670571,51.316589],[5.670577,51.316599],[5.670581,51.316615],[5.670582,51.316635],[5.670575,51.316675],[5.670571,51.31669],[5.670564,51.316702],[5.670551,51.316711],[5.670543,51.316718],[5.670523,51.316769],[5.670507,51.316817],[5.670509,51.316863],[5.670523,51.316913],[5.670621,51.317082],[5.670678,51.317181],[5.670705,51.317229],[5.67071,51.31725],[5.670705,51.317267],[5.670682,51.317283],[5.670635,51.317324],[5.670516,51.317465],[5.670494,51.317482],[5.670444,51.317512],[5.67043,51.31752],[5.670269,51.317599],[5.670226,51.317659],[5.670314,51.317701],[5.670519,51.317801],[5.670605,51.317846],[5.670617,51.317862],[5.670617,51.317872],[5.670587,51.317893],[5.670524,51.317938],[5.670493,51.317958],[5.670474,51.31798],[5.670454,51.317999],[5.670436,51.318013],[5.670436,51.318032],[5.670613,51.318262],[5.67063,51.318289],[5.670641,51.31831],[5.670637,51.318329],[5.670629,51.318343],[5.67062,51.318354],[5.6706,51.318363],[5.670571,51.318371],[5.670537,51.31838],[5.670514,51.318387],[5.670495,51.31839],[5.670326,51.318368],[5.670311,51.318367],[5.670298,51.318378],[5.670275,51.318487],[5.670273,51.318523],[5.670277,51.318584],[5.670286,51.318614],[5.670298,51.318623],[5.670417,51.318689],[5.670519,51.318756],[5.670632,51.318841],[5.670645,51.318855],[5.670653,51.318865],[5.670655,51.318878],[5.670655,51.318891],[5.670648,51.318905],[5.670647,51.318907],[5.670596,51.318974],[5.670591,51.318992],[5.670593,51.319022],[5.670603,51.319102],[5.670606,51.319192],[5.670602,51.319218],[5.670594,51.319234],[5.670571,51.319262],[5.670562,51.319272],[5.670541,51.319283],[5.670525,51.319289],[5.67051,51.31929],[5.670423,51.319282],[5.67035,51.319282],[5.67033,51.319288],[5.670319,51.319305],[5.670325,51.319338],[5.670361,51.319476],[5.670382,51.319497],[5.670403,51.319515],[5.670431,51.319532],[5.67056,51.319585],[5.670575,51.319595],[5.670598,51.319614],[5.670605,51.319626],[5.670612,51.319645],[5.670612,51.319655],[5.670605,51.319665],[5.670595,51.31967],[5.670551,51.319684],[5.670535,51.319691],[5.670505,51.319727],[5.670482,51.319762],[5.67048,51.319791],[5.670488,51.319817],[5.670503,51.319835],[5.670534,51.319856],[5.670639,51.319901],[5.670767,51.319945],[5.670772,51.319951],[5.67078,51.319965],[5.670781,51.319986],[5.670751,51.320037],[5.670712,51.320126],[5.670707,51.320157],[5.67071,51.320197],[5.670723,51.320229],[5.670752,51.320277],[5.670776,51.3203],[5.6708,51.320314],[5.670828,51.320328],[5.670891,51.320354],[5.670905,51.320364],[5.67091,51.32038],[5.670907,51.320394],[5.670881,51.320433],[5.670866,51.320461],[5.670874,51.320495],[5.670897,51.320551],[5.670931,51.320618],[5.670963,51.320655],[5.670992,51.320675],[5.671248,51.320799],[5.671271,51.320819],[5.671301,51.320852],[5.671313,51.320879],[5.671304,51.320909],[5.671272,51.320947],[5.671253,51.320971],[5.671255,51.320982],[5.671381,51.321144],[5.671441,51.321191],[5.671498,51.32123],[5.671524,51.321252],[5.671558,51.321311],[5.671568,51.321333],[5.67157,51.321359],[5.671565,51.321399],[5.671552,51.32144],[5.671511,51.321507],[5.671504,51.321533],[5.671512,51.321552],[5.671531,51.321577],[5.671552,51.321594],[5.671829,51.321715],[5.67184,51.321722],[5.671842,51.321728],[5.671831,51.321809],[5.671813,51.321917],[5.671625,51.322256],[5.671621,51.322277],[5.671627,51.322295],[5.671686,51.322395],[5.671701,51.322426],[5.671707,51.322451],[5.671565,51.322651],[5.671553,51.322684],[5.671559,51.322711],[5.671639,51.32283],[5.671663,51.322872],[5.671663,51.32289],[5.671656,51.32291],[5.671639,51.322935],[5.671618,51.323001],[5.671592,51.323054],[5.671565,51.323096],[5.671564,51.323108],[5.671565,51.323121],[5.671572,51.323133],[5.671585,51.323146],[5.671707,51.323196],[5.671779,51.323218],[5.67183,51.323275],[5.671923,51.323346],[5.67197,51.323395],[5.67197,51.323396],[5.672017,51.32346],[5.672083,51.323564],[5.672091,51.323583],[5.672091,51.323592],[5.67209,51.323594],[5.672084,51.323604],[5.672059,51.323624],[5.672048,51.323633],[5.672046,51.323634],[5.672014,51.323655],[5.671971,51.323682],[5.671914,51.323719],[5.671844,51.323764],[5.671699,51.323857],[5.671612,51.323927],[5.671572,51.323962],[5.671562,51.323988],[5.671562,51.32402],[5.671562,51.324026],[5.671575,51.324082],[5.67159,51.324146],[5.671588,51.324186],[5.671577,51.324224],[5.671558,51.324238],[5.671538,51.324247],[5.671351,51.324274],[5.671308,51.324281],[5.671264,51.324286],[5.671244,51.324295],[5.671232,51.32431],[5.67121,51.324426],[5.671176,51.324608],[5.671171,51.324639],[5.671162,51.32466],[5.671143,51.32468],[5.671116,51.324698],[5.671075,51.324714],[5.670918,51.324764],[5.67085,51.324785],[5.670826,51.324796],[5.6708,51.324815],[5.67077,51.324868],[5.670759,51.324898],[5.670743,51.324941],[5.670722,51.324982],[5.670697,51.325018],[5.670661,51.325045],[5.670597,51.32508],[5.670548,51.325115],[5.670498,51.325157],[5.670463,51.325212],[5.670439,51.325305],[5.670425,51.325333],[5.670412,51.325359],[5.670382,51.325391],[5.670368,51.3254],[5.670323,51.325431],[5.670179,51.325504],[5.670131,51.325531],[5.670115,51.325547],[5.670108,51.325561],[5.670109,51.325578],[5.670113,51.325593],[5.670115,51.325599],[5.670122,51.325618],[5.67012,51.325631],[5.67011,51.325646],[5.670103,51.325652],[5.670101,51.325654],[5.67005,51.325674],[5.670022,51.32568],[5.669871,51.325691],[5.669701,51.325694],[5.669621,51.325697],[5.669601,51.3257],[5.669559,51.325714],[5.669545,51.325721],[5.669535,51.325731],[5.669522,51.325752],[5.669491,51.325818],[5.669449,51.325882],[5.669391,51.325942],[5.669391,51.325942],[5.669317,51.326007],[5.669293,51.326025],[5.669265,51.326037],[5.669247,51.326042],[5.669224,51.326038],[5.669198,51.326024],[5.669196,51.326022],[5.669173,51.326001],[5.669142,51.325974],[5.66911,51.325953],[5.669094,51.325946],[5.669065,51.325939],[5.668987,51.325936],[5.668949,51.325938],[5.668922,51.325941],[5.668682,51.325998],[5.668612,51.326021],[5.668597,51.326028],[5.668548,51.326062],[5.668495,51.326094],[5.668401,51.326132],[5.66826,51.326173],[5.668202,51.326181],[5.667744,51.326251],[5.667647,51.326267],[5.667573,51.326296],[5.667471,51.326344],[5.667388,51.32639],[5.667324,51.326437],[5.667306,51.326452],[5.667254,51.326496],[5.667175,51.326571],[5.66707,51.326671],[5.667038,51.326693],[5.667003,51.326703],[5.666917,51.326721],[5.66686,51.32673],[5.666817,51.326731],[5.666769,51.326725],[5.666287,51.327904],[5.666287,51.327904],[5.666149,51.328215],[5.666125,51.328268],[5.664494,51.331988],[5.664472,51.332039],[5.664308,51.332403],[5.6639,51.333311],[5.66276,51.335864],[5.662704,51.335982],[5.662292,51.336902],[5.661588,51.338475],[5.66047,51.340986],[5.660286,51.341402],[5.659887,51.342297],[5.659515,51.343134],[5.65926,51.343706],[5.659057,51.34416],[5.65828,51.345901],[5.657716,51.347164],[5.65737,51.347931],[5.65708,51.348579],[5.656951,51.348871],[5.656699,51.349436],[5.656348,51.350219],[5.656267,51.3504],[5.656154,51.350652],[5.65591,51.351197],[5.655667,51.351729],[5.654707,51.353877],[5.654414,51.354538],[5.654136,51.355167],[5.65389,51.355718],[5.65386,51.355785],[5.653649,51.356251],[5.653528,51.356518],[5.653067,51.35752],[5.653021,51.357623],[5.652735,51.358269],[5.652408,51.359002],[5.652074,51.359753],[5.651995,51.35993],[5.651599,51.360816],[5.651198,51.361688],[5.65109,51.361934],[5.650873,51.362437],[5.650589,51.363061],[5.650537,51.363205],[5.650514,51.363253],[5.650488,51.363312],[5.650299,51.363733],[5.650201,51.363953],[5.650005,51.364391],[5.649101,51.366414],[5.648667,51.367385],[5.647959,51.368969],[5.646095,51.373137],[5.646028,51.373286],[5.642842,51.380408],[5.642455,51.381273],[5.642453,51.381277],[5.642086,51.382097],[5.642084,51.382101],[5.642012,51.382262],[5.642012,51.382262],[5.640696,51.385204],[5.63892,51.389173],[5.638975,51.394566],[5.638977,51.395056],[5.638987,51.395367],[5.638994,51.396701],[5.639002,51.397971],[5.638823,51.399877],[5.638391,51.404506],[5.637872,51.406708]]]},"properties":{"type":"boundary","gemeente":"Someren"}}]}