{"type":"FeatureCollection","metadata":{"gemeente":"Stede Broec","slug":"stede-broec","generated_at":"2026-09-28T08:33:29.846637Z","total_points":28,"providers":["DHL","DPD","PostNL","VintedGo","GLS","ViaTim","FedEx","InPost"],"bounds":[5.2168353,52.6899866,5.25372341774326,52.70091396]},"features":[{"type":"Feature","geometry":{"type":"Point","coordinates":[5.2168353,52.6932058]},"properties":{"type":"pakketpunt","locatieNaam":"Pakketautomaat Shell Grootebroek","straatNaam":"Raadhuislaan","straatNr":"25","vervoerder":"DHL","puntType":"packStation","bezettingsgraad":50,"latitude":52.6932058,"longitude":5.2168353,"canPickup":true,"canDropoff":true,"openingstijden":{"ma":"00:00 - 23:59","di":"00:00 - 23:59","wo":"00:00 - 23:59","do":"00:00 - 23:59","vr":"00:00 - 23:59","za":"00:00 - 23:59","zo":"00:00 - 23:59"}}},{"type":"Feature","geometry":{"type":"Point","coordinates":[5.22490128091593,52.69388718455675]},"properties":{"type":"pakketpunt","locatieNaam":"Pakketautomaat GAMMA Grootebroek","straatNaam":"Industrieweg","straatNr":"15","vervoerder":"DHL","puntType":"packStation","bezettingsgraad":50,"latitude":52.69388718455675,"longitude":5.22490128091593,"canPickup":true,"canDropoff":true,"openingstijden":{"ma":"00:00 - 23:59","di":"00:00 - 23:59","wo":"00:00 - 23:59","do":"00:00 - 23:59","vr":"00:00 - 23:59","za":"00:00 - 23:59","zo":"00:00 - 23:59"}}},{"type":"Feature","geometry":{"type":"Point","coordinates":[5.234157085418701,52.697547912597656]},"properties":{"type":"pakketpunt","locatieNaam":"Jeans Centre Grootebroek","straatNaam":"Zesstedenweg","straatNr":"2","vervoerder":"DHL","puntType":"parcelShop","bezettingsgraad":50,"latitude":52.697547912597656,"longitude":5.234157085418701,"canPickup":true,"canDropoff":true,"openingstijden":{"ma":"13:00 - 17:30","di":"09:30 - 17:30","wo":"09:30 - 17:30","do":"09:30 - 20:00","vr":"09:30 - 17:30","za":"09:30 - 17:00","zo":"gesloten"}}},{"type":"Feature","geometry":{"type":"Point","coordinates":[5.234334,52.697258]},"properties":{"type":"pakketpunt","locatieNaam":"Today Streek Boutique","straatNaam":"De middend","straatNr":"36","vervoerder":"DHL","puntType":"parcelShop","bezettingsgraad":50,"latitude":52.697258,"longitude":5.234334,"canPickup":true,"canDropoff":true,"openingstijden":{"ma":"13:00 - 17:30","di":"09:30 - 17:30","wo":"09:30 - 17:30","do":"09:30 - 17:30","vr":"09:30 - 17:30","za":"09:30 - 17:00","zo":"gesloten"}}},{"type":"Feature","geometry":{"type":"Point","coordinates":[5.2347855,52.6971397]},"properties":{"type":"pakketpunt","locatieNaam":"Pakketautomaat terStal Bovenkars","straatNaam":"De Middend","straatNr":"190-Kast","vervoerder":"DHL","puntType":"packStation","bezettingsgraad":50,"latitude":52.6971397,"longitude":5.2347855,"canPickup":true,"canDropoff":true,"openingstijden":{"ma":"11:00 - 18:00","di":"09:30 - 18:00","wo":"09:30 - 18:00","do":"09:30 - 18:00","vr":"09:30 - 18:00","za":"07:30 - 17:00","zo":"gesloten"}}},{"type":"Feature","geometry":{"type":"Point","coordinates":[5.234780311584473,52.69800567626953]},"properties":{"type":"pakketpunt","locatieNaam":"Intertoys Bovenkarspel","straatNaam":"De Middend","straatNr":"216","vervoerder":"DHL","puntType":"parcelShop","bezettingsgraad":50,"latitude":52.69800567626953,"longitude":5.234780311584473,"canPickup":true,"canDropoff":true,"openingstijden":{"ma":"11:00 - 18:00","di":"09:30 - 18:00","wo":"09:30 - 18:00","do":"09:30 - 18:00","vr":"09:30 - 18:00","za":"09:00 - 17:00","zo":"gesloten"}}},{"type":"Feature","geometry":{"type":"Point","coordinates":[5.239148,52.6899866]},"properties":{"type":"pakketpunt","locatieNaam":"Pakketautomaat Lidl Bovenkarspel","straatNaam":"Princenhof","straatNr":"9","vervoerder":"DHL","puntType":"packStation","bezettingsgraad":50,"latitude":52.6899866,"longitude":5.239148,"canPickup":true,"canDropoff":true,"openingstijden":{"ma":"00:00 - 23:59","di":"00:00 - 23:59","wo":"00:00 - 23:59","do":"00:00 - 23:59","vr":"00:00 - 23:59","za":"00:00 - 23:59","zo":"00:00 - 23:59"}}},{"type":"Feature","geometry":{"type":"Point","coordinates":[5.2536746,52.6917383]},"properties":{"type":"pakketpunt","locatieNaam":"DHL Buurtpunt ViaTim & Lilian","straatNaam":"Bakkerstraat","straatNr":"12","vervoerder":"DHL","puntType":"parcelShop","bezettingsgraad":50,"latitude":52.6917383,"longitude":5.2536746,"canPickup":true,"canDropoff":true,"openingstijden":{"ma":"15:30 - 21:00","di":"15:30 - 21:00","wo":"15:30 - 21:00","do":"15:30 - 21:00","vr":"15:30 - 21:00","za":"gesloten","zo":"gesloten"}}},{"type":"Feature","geometry":{"type":"Point","coordinates":[5.22058,52.69422]},"properties":{"type":"pakketpunt","locatieNaam":"De West-Friese Loods","straatNaam":"INDUSTRIEWEG","straatNr":"7A","vervoerder":"DPD","puntType":"pickup_point","bezettingsgraad":50,"latitude":52.69422,"longitude":5.22058,"canPickup":true,"canDropoff":true,"openingstijden":{"ma":"gesloten","di":"10:00 - 17:00","wo":"10:00 - 17:00","do":"10:00 - 17:00","vr":"10:00 - 17:00","za":"09:30 - 16:00","zo":"gesloten"}}},{"type":"Feature","geometry":{"type":"Point","coordinates":[5.224656,52.693993]},"properties":{"type":"pakketpunt","locatieNaam":"Pakket- en briefautomaat","straatNaam":"Industrieweg","straatNr":"15PBA","vervoerder":"PostNL","puntType":"automaat","bezettingsgraad":50,"latitude":52.693993,"longitude":5.224656,"canPickup":true,"canDropoff":true,"openingstijden":"00:00 - 23:59"}},{"type":"Feature","geometry":{"type":"Point","coordinates":[5.22641346081184,52.6928975979131]},"properties":{"type":"pakketpunt","locatieNaam":"Pakketautomaat","straatNaam":"Bedrijfsweg","straatNr":"12PBA","vervoerder":"PostNL","puntType":"automaat","bezettingsgraad":50,"latitude":52.6928975979131,"longitude":5.22641346081184,"canPickup":true,"canDropoff":true,"openingstijden":"09:00 - 18:00"}},{"type":"Feature","geometry":{"type":"Point","coordinates":[5.231337366,52.69333552]},"properties":{"type":"pakketpunt","locatieNaam":"GAMMA Grootebroek","straatNaam":"Industrieweg","straatNr":"15A","vervoerder":"PostNL","puntType":"servicepunt","bezettingsgraad":50,"latitude":52.69333552,"longitude":5.231337366,"canPickup":true,"canDropoff":true,"openingstijden":"09:00 - 21:00"}},{"type":"Feature","geometry":{"type":"Point","coordinates":[5.235842198,52.69522858]},"properties":{"type":"pakketpunt","locatieNaam":"Primera Bovenkarspel","straatNaam":"Stationslaan","straatNr":"49","vervoerder":"PostNL","puntType":"servicepunt","bezettingsgraad":50,"latitude":52.69522858,"longitude":5.235842198,"canPickup":true,"canDropoff":true,"openingstijden":"07:00 - 18:00 (Na 18:00 open; Zaterdag open)"}},{"type":"Feature","geometry":{"type":"Point","coordinates":[5.22781235899016,52.6905449032733]},"properties":{"type":"pakketpunt","locatieNaam":"Pakketautomaat","straatNaam":"Inlaat","straatNr":"61PBA","vervoerder":"PostNL","puntType":"automaat","bezettingsgraad":50,"latitude":52.6905449032733,"longitude":5.22781235899016,"canPickup":true,"canDropoff":true,"openingstijden":"00:00 - 23:59"}},{"type":"Feature","geometry":{"type":"Point","coordinates":[5.25182236273575,52.6936481411256]},"properties":{"type":"pakketpunt","locatieNaam":"Pakket- en briefautomaat","straatNaam":"Murillostraat","straatNr":"22PBA","vervoerder":"PostNL","puntType":"automaat","bezettingsgraad":50,"latitude":52.6936481411256,"longitude":5.25182236273575,"canPickup":true,"canDropoff":true,"openingstijden":"00:00 - 23:59"}},{"type":"Feature","geometry":{"type":"Point","coordinates":[5.234358,52.6971897]},"properties":{"type":"pakketpunt","locatieNaam":"De Bierbroeders & Friends","straatNaam":"De Middend 34-36","straatNr":"","vervoerder":"VintedGo","puntType":"parcel_shop","bezettingsgraad":50,"latitude":52.6971897,"longitude":5.234358,"canPickup":true,"canDropoff":true,"openingstijden":null}},{"type":"Feature","geometry":{"type":"Point","coordinates":[5.2206227,52.694213]},"properties":{"type":"pakketpunt","locatieNaam":"De West-friese Loods","straatNaam":"Industrieweg 7A","straatNr":"","vervoerder":"VintedGo","puntType":"parcel_shop","bezettingsgraad":50,"latitude":52.694213,"longitude":5.2206227,"canPickup":true,"canDropoff":true,"openingstijden":null}},{"type":"Feature","geometry":{"type":"Point","coordinates":[5.224656,52.693993]},"properties":{"type":"pakketpunt","locatieNaam":"Pakketautomaat","straatNaam":"Industrieweg","straatNr":"15","vervoerder":"GLS","puntType":"locker","bezettingsgraad":50,"latitude":52.693993,"longitude":5.224656,"canPickup":true,"canDropoff":true,"openingstijden":{"ma":"00:00 - 23:59","di":"00:00 - 23:59","wo":"00:00 - 23:59","do":"00:00 - 23:59","vr":"00:00 - 23:59","za":"00:00 - 23:59","zo":"00:00 - 23:59"}}},{"type":"Feature","geometry":{"type":"Point","coordinates":[5.22781235,52.6905449]},"properties":{"type":"pakketpunt","locatieNaam":"Pakketautomaat","straatNaam":"Inlaat","straatNr":"61","vervoerder":"GLS","puntType":"locker","bezettingsgraad":50,"latitude":52.6905449,"longitude":5.22781235,"canPickup":true,"canDropoff":true,"openingstijden":{"ma":"00:00 - 23:59","di":"00:00 - 23:59","wo":"00:00 - 23:59","do":"00:00 - 23:59","vr":"00:00 - 23:59","za":"00:00 - 23:59","zo":"00:00 - 23:59"}}},{"type":"Feature","geometry":{"type":"Point","coordinates":[5.22641346,52.6928975]},"properties":{"type":"pakketpunt","locatieNaam":"Pakketautomaat","straatNaam":"Bedrijfsweg","straatNr":"12","vervoerder":"GLS","puntType":"locker","bezettingsgraad":50,"latitude":52.6928975,"longitude":5.22641346,"canPickup":true,"canDropoff":true,"openingstijden":{"ma":"09:00 - 18:00","di":"09:00 - 18:00","wo":"09:00 - 18:00","do":"09:00 - 18:00","vr":"09:00 - 18:00","za":"09:00 - 17:00","zo":"12:00 - 17:00"}}},{"type":"Feature","geometry":{"type":"Point","coordinates":[5.25182236,52.6936481]},"properties":{"type":"pakketpunt","locatieNaam":"Pakketautomaat","straatNaam":"Murillostraat","straatNr":"22","vervoerder":"GLS","puntType":"locker","bezettingsgraad":50,"latitude":52.6936481,"longitude":5.25182236,"canPickup":true,"canDropoff":true,"openingstijden":{"ma":"00:00 - 23:59","di":"00:00 - 23:59","wo":"00:00 - 23:59","do":"00:00 - 23:59","vr":"00:00 - 23:59","za":"00:00 - 23:59","zo":"00:00 - 00:00"}}},{"type":"Feature","geometry":{"type":"Point","coordinates":[5.2411891,52.70091396]},"properties":{"type":"pakketpunt","locatieNaam":"ViaTim en Jos","straatNaam":"Rak","straatNr":"19","vervoerder":"ViaTim","puntType":"servicepunt","bezettingsgraad":50,"latitude":52.70091396,"longitude":5.2411891,"canPickup":true,"canDropoff":true,"openingstijden":{"ma":"13:00 - 17:00","di":"13:00 - 17:00","wo":"13:00 - 17:00","do":"gesloten","vr":"gesloten","za":"gesloten","zo":"gesloten"}}},{"type":"Feature","geometry":{"type":"Point","coordinates":[5.25372341774326,52.6917304465116]},"properties":{"type":"pakketpunt","locatieNaam":"ViaTim & Lilian","straatNaam":"Bakkerstraat","straatNr":"12","vervoerder":"ViaTim","puntType":"servicepunt","bezettingsgraad":50,"latitude":52.6917304465116,"longitude":5.25372341774326,"canPickup":true,"canDropoff":true,"openingstijden":{"ma":"15:30 - 21:00","di":"15:30 - 21:00","wo":"15:30 - 21:00","do":"15:30 - 21:00","vr":"15:30 - 21:00","za":"gesloten","zo":"gesloten"}}},{"type":"Feature","geometry":{"type":"Point","coordinates":[5.2266706859083945,52.69373033888176]},"properties":{"type":"pakketpunt","locatieNaam":"FedEx Ship&Get","straatNaam":"Industrieweg 15 PBA","straatNr":"","vervoerder":"FedEx","puntType":"servicepunt","bezettingsgraad":50,"latitude":52.69373033888176,"longitude":5.2266706859083945,"canPickup":true,"canDropoff":true,"openingstijden":{"ma":"00:00 - 23:59","di":"00:00 - 23:59","wo":"00:00 - 23:59","do":"00:00 - 23:59","vr":"00:00 - 23:59","za":"00:00 - 23:59","zo":"00:00 - 23:59"}}},{"type":"Feature","geometry":{"type":"Point","coordinates":[5.227812,52.690545]},"properties":{"type":"pakketpunt","locatieNaam":"FedEx Ship&Get","straatNaam":"Inlaat 61 PBA","straatNr":"","vervoerder":"FedEx","puntType":"servicepunt","bezettingsgraad":50,"latitude":52.690545,"longitude":5.227812,"canPickup":true,"canDropoff":true,"openingstijden":{"ma":"00:00 - 23:59","di":"00:00 - 23:59","wo":"00:00 - 23:59","do":"00:00 - 23:59","vr":"00:00 - 23:59","za":"00:00 - 23:59","zo":"00:00 - 23:59"}}},{"type":"Feature","geometry":{"type":"Point","coordinates":[5.234313,52.697184]},"properties":{"type":"pakketpunt","locatieNaam":"FedEx OnSite","straatNaam":"DE MIDDEND 34-36","straatNr":"","vervoerder":"FedEx","puntType":"servicepunt","bezettingsgraad":50,"latitude":52.697184,"longitude":5.234313,"canPickup":true,"canDropoff":true,"openingstijden":{"ma":"13:00 - 17:30","di":"09:30 - 17:30","wo":"09:30 - 17:30","do":"09:30 - 17:30","vr":"09:30 - 17:30","za":"09:30 - 17:00","zo":"gesloten"}}},{"type":"Feature","geometry":{"type":"Point","coordinates":[5.251883394319163,52.69363617770518]},"properties":{"type":"pakketpunt","locatieNaam":"FedEx Ship&Get","straatNaam":"Murillostraat 22 PBA","straatNr":"","vervoerder":"FedEx","puntType":"servicepunt","bezettingsgraad":50,"latitude":52.69363617770518,"longitude":5.251883394319163,"canPickup":true,"canDropoff":true,"openingstijden":{"ma":"00:00 - 23:59","di":"00:00 - 23:59","wo":"00:00 - 23:59","do":"00:00 - 23:59","vr":"00:00 - 23:59","za":"00:00 - 23:59","zo":"gesloten"}}},{"type":"Feature","geometry":{"type":"Point","coordinates":[5.23431,52.69718]},"properties":{"type":"pakketpunt","locatieNaam":"DE BIERBROEDERS & FRIENDS (BOVENKARSPEL)","straatNaam":"De Middend 34-36","straatNr":"","vervoerder":"InPost","puntType":"servicepunt","bezettingsgraad":50,"latitude":52.69718,"longitude":5.23431,"canPickup":true,"canDropoff":true,"openingstijden":null}},{"type":"Feature","geometry":{"type":"Polygon","coordinates":[[[5.185373,52.710228],[5.185624,52.710276],[5.18611,52.710378],[5.186587,52.710474],[5.186833,52.710521],[5.187058,52.710567],[5.187305,52.710625],[5.187553,52.710678],[5.187725,52.710717],[5.187842,52.710744],[5.187903,52.710775],[5.187954,52.710815],[5.187987,52.710859],[5.188037,52.710893],[5.188202,52.71093],[5.188676,52.711031],[5.188846,52.711051],[5.18903,52.711059],[5.189237,52.711046],[5.189433,52.711033],[5.189566,52.711048],[5.189711,52.711095],[5.189863,52.71115],[5.189931,52.711184],[5.189973,52.711227],[5.190009,52.711287],[5.19004,52.711407],[5.190072,52.711523],[5.190107,52.711575],[5.190214,52.711647],[5.190354,52.711716],[5.190599,52.711798],[5.190938,52.711895],[5.191041,52.711945],[5.191302,52.712015],[5.19185,52.712153],[5.192538,52.712294],[5.193037,52.71239],[5.193503,52.712464],[5.193783,52.712515],[5.194117,52.712603],[5.194341,52.712676],[5.194761,52.712804],[5.195003,52.712879],[5.195278,52.712993],[5.195515,52.713108],[5.195705,52.713185],[5.196106,52.713302],[5.196474,52.713376],[5.198005,52.713687],[5.200073,52.714103],[5.200763,52.714247],[5.200886,52.714265],[5.201038,52.714279],[5.201181,52.714271],[5.201315,52.714254],[5.201389,52.714256],[5.201452,52.714267],[5.201659,52.714348],[5.201842,52.714425],[5.202327,52.714587],[5.202635,52.71471],[5.20282,52.714762],[5.203026,52.714802],[5.203231,52.714855],[5.203353,52.714898],[5.203771,52.715037],[5.203919,52.71507],[5.204584,52.715196],[5.204876,52.715273],[5.205135,52.715381],[5.205329,52.715433],[5.206005,52.715624],[5.206722,52.715828],[5.207171,52.715953],[5.207518,52.716028],[5.207745,52.716091],[5.207878,52.716138],[5.207984,52.71618],[5.208104,52.716216],[5.208375,52.716283],[5.208732,52.716357],[5.209067,52.716422],[5.209349,52.716486],[5.209491,52.716527],[5.209588,52.716548],[5.209667,52.71656],[5.209789,52.716592],[5.209932,52.716639],[5.210044,52.716686],[5.210282,52.716752],[5.210386,52.716776],[5.210564,52.716818],[5.210698,52.716854],[5.210971,52.71691],[5.211415,52.716953],[5.211896,52.716981],[5.212542,52.717053],[5.213297,52.717143],[5.21407,52.717226],[5.214952,52.717307],[5.215437,52.717344],[5.215668,52.71739],[5.216052,52.717421],[5.216519,52.717418],[5.217041,52.717389],[5.217658,52.71737],[5.218145,52.717406],[5.218493,52.717434],[5.219004,52.717455],[5.219256,52.717487],[5.219352,52.717514],[5.219447,52.717562],[5.219551,52.717618],[5.219639,52.717644],[5.219725,52.717659],[5.219994,52.717682],[5.220134,52.717696],[5.220328,52.717692],[5.220849,52.717675],[5.221166,52.717687],[5.2215,52.717697],[5.22292,52.717625],[5.223401,52.717593],[5.223917,52.717535],[5.224664,52.71743],[5.225302,52.717357],[5.225765,52.717326],[5.226364,52.717304],[5.226748,52.717279],[5.227372,52.71724],[5.227682,52.717229],[5.227978,52.717242],[5.228213,52.717258],[5.229095,52.717265],[5.229867,52.717364],[5.230251,52.71737],[5.231005,52.717382],[5.231825,52.717335],[5.232711,52.717318],[5.233455,52.717308],[5.234145,52.717295],[5.234518,52.717246],[5.23508,52.717166],[5.23524,52.717117],[5.23571,52.716997],[5.235993,52.716945],[5.236377,52.716901],[5.236836,52.716869],[5.2372,52.716864],[5.238018,52.716862],[5.238508,52.716849],[5.239208,52.716816],[5.239715,52.7168],[5.240333,52.716793],[5.240864,52.716787],[5.241346,52.716776],[5.242046,52.716758],[5.242769,52.71674],[5.24351,52.716716],[5.243798,52.716701],[5.244206,52.716667],[5.244303,52.716668],[5.244576,52.716664],[5.244846,52.71665],[5.245657,52.716605],[5.246383,52.716576],[5.247132,52.716559],[5.247803,52.716547],[5.248546,52.716542],[5.248735,52.716541],[5.248887,52.71653],[5.249243,52.716505],[5.24935,52.716506],[5.24971,52.71648],[5.250346,52.716449],[5.251089,52.716417],[5.251926,52.716384],[5.252532,52.716365],[5.252943,52.716352],[5.253108,52.716358],[5.253551,52.716365],[5.254084,52.716363],[5.254809,52.716355],[5.255274,52.716337],[5.255466,52.716323],[5.25564,52.716301],[5.255977,52.716253],[5.256365,52.71622],[5.256668,52.716213],[5.257064,52.716195],[5.25734,52.716184],[5.257502,52.716181],[5.257501,52.716154],[5.257495,52.716097],[5.257494,52.71608],[5.257494,52.716049],[5.257501,52.716002],[5.257506,52.715952],[5.257508,52.715863],[5.257515,52.715781],[5.25752,52.715702],[5.257535,52.715601],[5.257542,52.715511],[5.257551,52.715418],[5.257558,52.715325],[5.257566,52.715244],[5.257572,52.71515],[5.257575,52.715046],[5.257575,52.714957],[5.257581,52.714874],[5.257593,52.714769],[5.257597,52.714697],[5.257606,52.714615],[5.257627,52.714352],[5.25764,52.714236],[5.257666,52.714011],[5.257689,52.713794],[5.257701,52.713697],[5.257715,52.713589],[5.257732,52.71345],[5.257748,52.713318],[5.257761,52.713212],[5.257772,52.713095],[5.257783,52.71298],[5.257796,52.712897],[5.257805,52.712858],[5.257795,52.712797],[5.257787,52.71273],[5.257784,52.71266],[5.257779,52.712585],[5.257773,52.712504],[5.257773,52.712459],[5.257791,52.712356],[5.257811,52.71227],[5.257827,52.712172],[5.257842,52.712092],[5.257863,52.711986],[5.25788,52.711898],[5.257895,52.711822],[5.257912,52.711726],[5.257939,52.71153],[5.257947,52.711375],[5.257943,52.711291],[5.25794,52.711216],[5.257935,52.71112],[5.257937,52.711033],[5.257939,52.710944],[5.257944,52.710853],[5.257949,52.710789],[5.257961,52.710685],[5.257969,52.710591],[5.257982,52.710477],[5.257996,52.710364],[5.258003,52.710279],[5.25801,52.710178],[5.258023,52.710093],[5.258035,52.710017],[5.258047,52.709917],[5.258051,52.709833],[5.258057,52.709713],[5.258063,52.709628],[5.258072,52.709546],[5.258078,52.709462],[5.258092,52.709369],[5.258096,52.709309],[5.258112,52.709255],[5.258128,52.7092],[5.258139,52.709153],[5.258153,52.709104],[5.258155,52.70908],[5.258164,52.708986],[5.258169,52.708908],[5.25817,52.708891],[5.258172,52.708841],[5.258177,52.70877],[5.258184,52.708683],[5.258189,52.708621],[5.258192,52.708565],[5.258193,52.708526],[5.258216,52.708187],[5.258457,52.704733],[5.258462,52.704668],[5.258479,52.704464],[5.258486,52.704383],[5.258743,52.700689],[5.258743,52.700621],[5.258743,52.700559],[5.258754,52.700462],[5.258761,52.700363],[5.25877,52.700255],[5.258771,52.700236],[5.258776,52.700145],[5.258778,52.700036],[5.25878,52.699944],[5.258777,52.699855],[5.258775,52.699782],[5.258774,52.699761],[5.258772,52.69973],[5.258773,52.699693],[5.258773,52.699669],[5.258775,52.699625],[5.258783,52.699527],[5.258792,52.699425],[5.258798,52.699347],[5.258807,52.699254],[5.258818,52.699132],[5.258832,52.699011],[5.258841,52.698929],[5.258849,52.69886],[5.258857,52.698792],[5.258858,52.698709],[5.25886,52.698636],[5.25886,52.698548],[5.258858,52.698478],[5.258864,52.698411],[5.258886,52.698074],[5.258889,52.697999],[5.258897,52.697895],[5.258902,52.697779],[5.258908,52.697707],[5.258915,52.697651],[5.258918,52.697517],[5.258926,52.697394],[5.258931,52.697262],[5.258936,52.697189],[5.258939,52.697118],[5.258943,52.697032],[5.258948,52.696935],[5.258954,52.696844],[5.258955,52.696824],[5.258956,52.696814],[5.258957,52.696719],[5.258959,52.696607],[5.25896,52.696546],[5.258962,52.696463],[5.258962,52.696442],[5.25898,52.695957],[5.258991,52.695783],[5.259008,52.695464],[5.259076,52.69457],[5.259167,52.693357],[5.259173,52.693275],[5.259173,52.693273],[5.259182,52.693152],[5.259285,52.691786],[5.259386,52.690434],[5.259394,52.690298],[5.259534,52.688412],[5.259427,52.688232],[5.259363,52.687797],[5.259362,52.687789],[5.259355,52.687728],[5.259317,52.687411],[5.259314,52.687382],[5.259312,52.687367],[5.259308,52.687332],[5.259287,52.68724],[5.259283,52.687216],[5.259275,52.687169],[5.259274,52.687166],[5.259265,52.687077],[5.25919,52.686304],[5.268962,52.680268],[5.264481,52.677967],[5.262266,52.676829],[5.254661,52.680865],[5.254121,52.681152],[5.247321,52.684759],[5.246662,52.68535],[5.246537,52.685461],[5.246487,52.685506],[5.246388,52.685595],[5.246026,52.685843],[5.246056,52.685844],[5.246029,52.686226],[5.246002,52.686603],[5.243343,52.686234],[5.24334,52.686233],[5.242904,52.686172],[5.242887,52.686216],[5.242787,52.686205],[5.242723,52.686193],[5.242359,52.686149],[5.241784,52.686098],[5.241144,52.686055],[5.240778,52.686035],[5.240553,52.686028],[5.239924,52.686016],[5.239658,52.686014],[5.239659,52.685996],[5.239514,52.685995],[5.239405,52.685994],[5.239317,52.685993],[5.23877,52.685991],[5.238511,52.685987],[5.238136,52.685981],[5.237895,52.68598],[5.237807,52.685981],[5.237713,52.685991],[5.23765,52.685991],[5.23765,52.685981],[5.23765,52.685976],[5.237608,52.685977],[5.237579,52.685977],[5.237554,52.685971],[5.237535,52.685968],[5.237468,52.685965],[5.237361,52.685964],[5.237166,52.685962],[5.237061,52.685963],[5.236989,52.685966],[5.236918,52.685974],[5.236845,52.685987],[5.236734,52.686007],[5.236484,52.686039],[5.236347,52.686053],[5.236255,52.686054],[5.236139,52.686051],[5.235896,52.686046],[5.235696,52.686042],[5.235521,52.686034],[5.235433,52.686029],[5.235207,52.686017],[5.2349,52.685995],[5.234655,52.685978],[5.234518,52.68597],[5.234397,52.685965],[5.234014,52.685951],[5.23366,52.685933],[5.233313,52.68591],[5.233169,52.685899],[5.233135,52.685897],[5.233117,52.685897],[5.232945,52.685883],[5.232923,52.685881],[5.232823,52.685869],[5.232436,52.68584],[5.231813,52.685787],[5.231204,52.685735],[5.230643,52.68569],[5.229782,52.685621],[5.228704,52.685528],[5.228034,52.685469],[5.227532,52.685425],[5.226637,52.685353],[5.226191,52.685324],[5.225721,52.685292],[5.224994,52.685239],[5.224944,52.685238],[5.224779,52.685235],[5.224758,52.685231],[5.224731,52.685228],[5.224532,52.685205],[5.224268,52.685175],[5.223597,52.685102],[5.223302,52.685094],[5.223042,52.685093],[5.222907,52.685082],[5.222516,52.685033],[5.222307,52.685011],[5.222293,52.685009],[5.222151,52.684995],[5.221343,52.684927],[5.220838,52.684889],[5.220688,52.684872],[5.22038,52.684828],[5.219748,52.684781],[5.218858,52.684701],[5.218022,52.684646],[5.21753,52.684605],[5.216985,52.68455],[5.216883,52.68454],[5.216806,52.684536],[5.216123,52.684483],[5.215591,52.684446],[5.215556,52.684446],[5.215534,52.68445],[5.21548,52.68447],[5.215395,52.684453],[5.215311,52.684437],[5.215311,52.684437],[5.215109,52.684397],[5.215107,52.684397],[5.21496,52.684386],[5.214626,52.68436],[5.214623,52.684359],[5.214542,52.684356],[5.214435,52.684346],[5.214394,52.684343],[5.214164,52.684323],[5.213483,52.684264],[5.212801,52.684205],[5.212002,52.684136],[5.21136,52.684081],[5.210784,52.684033],[5.210181,52.683979],[5.209748,52.68394],[5.209664,52.683933],[5.209394,52.683898],[5.2092,52.683875],[5.209118,52.683862],[5.208791,52.683809],[5.208368,52.683727],[5.207945,52.683605],[5.207561,52.683465],[5.207558,52.683463],[5.207207,52.683255],[5.207204,52.683253],[5.206916,52.683079],[5.206639,52.682873],[5.2065,52.682739],[5.206453,52.682676],[5.206412,52.682608],[5.206377,52.682573],[5.206231,52.682374],[5.206117,52.68221],[5.20606,52.682103],[5.206016,52.681998],[5.205991,52.681931],[5.205908,52.681705],[5.205876,52.681606],[5.205797,52.681358],[5.205734,52.681146],[5.205727,52.681124],[5.205631,52.680801],[5.205624,52.680779],[5.205545,52.680549],[5.205407,52.68012],[5.205218,52.679574],[5.205164,52.679422],[5.205013,52.678917],[5.204843,52.678397],[5.204705,52.677956],[5.204595,52.677614],[5.204435,52.677877],[5.202659,52.680796],[5.201918,52.682013],[5.201852,52.682122],[5.201261,52.683093],[5.200344,52.684598],[5.199926,52.685285],[5.199896,52.685334],[5.199791,52.685506],[5.199729,52.685609],[5.199676,52.685695],[5.198229,52.688043],[5.198221,52.688064],[5.197613,52.689065],[5.197497,52.689238],[5.197283,52.689427],[5.197214,52.68951],[5.197058,52.689774],[5.196248,52.691144],[5.196006,52.691553],[5.195702,52.692143],[5.195667,52.69221],[5.195695,52.692215],[5.195834,52.692248],[5.196004,52.692278],[5.195936,52.692392],[5.195855,52.692527],[5.19579,52.692635],[5.195784,52.692646],[5.195718,52.692769],[5.195667,52.692841],[5.195621,52.692906],[5.195507,52.693118],[5.195494,52.693142],[5.195419,52.693278],[5.195336,52.693428],[5.195258,52.693568],[5.195217,52.69364],[5.19516,52.693739],[5.195094,52.69386],[5.195052,52.69393],[5.195038,52.693955],[5.19501,52.694006],[5.19496,52.694094],[5.194915,52.694167],[5.194882,52.694222],[5.194856,52.694264],[5.194825,52.694313],[5.194755,52.694429],[5.194688,52.69454],[5.194616,52.694662],[5.194567,52.694745],[5.1945,52.694859],[5.194435,52.694971],[5.194372,52.695079],[5.194278,52.695242],[5.194205,52.695372],[5.194131,52.695498],[5.194063,52.695618],[5.194018,52.695695],[5.193978,52.695766],[5.193905,52.695875],[5.193858,52.695946],[5.193778,52.696079],[5.193726,52.696166],[5.19365,52.696291],[5.193587,52.696395],[5.193534,52.696464],[5.193474,52.696545],[5.193386,52.696662],[5.193359,52.696714],[5.19331,52.696792],[5.193247,52.696889],[5.193206,52.696955],[5.193123,52.697095],[5.193114,52.697107],[5.193114,52.697108],[5.193091,52.697182],[5.193062,52.697253],[5.193043,52.697322],[5.193,52.697417],[5.192994,52.697429],[5.192971,52.697478],[5.192965,52.697492],[5.19295,52.697518],[5.192711,52.697942],[5.192438,52.698397],[5.192376,52.698478],[5.192231,52.698742],[5.192225,52.698753],[5.19188,52.699352],[5.191448,52.700083],[5.191221,52.70049],[5.191154,52.700595],[5.190944,52.700918],[5.190876,52.701006],[5.190816,52.701114],[5.190553,52.701587],[5.190435,52.701774],[5.190387,52.701851],[5.190371,52.701847],[5.190324,52.701926],[5.190321,52.701931],[5.190233,52.702082],[5.190213,52.702114],[5.190163,52.702197],[5.190016,52.702441],[5.189853,52.70271],[5.189723,52.702924],[5.18969,52.702981],[5.189637,52.703081],[5.189568,52.703215],[5.189552,52.703242],[5.189534,52.703273],[5.189455,52.703404],[5.189369,52.703538],[5.18933,52.703595],[5.189274,52.703677],[5.189213,52.703806],[5.189153,52.70393],[5.189116,52.704015],[5.189095,52.704056],[5.188987,52.70423],[5.188862,52.704423],[5.18874,52.704623],[5.188677,52.704725],[5.188676,52.704726],[5.188655,52.704761],[5.188605,52.70484],[5.188571,52.704893],[5.188478,52.705059],[5.188328,52.705331],[5.188206,52.70555],[5.188108,52.705727],[5.188056,52.705817],[5.187906,52.706046],[5.18767,52.706395],[5.18754,52.7066],[5.18744,52.706764],[5.187314,52.706978],[5.187222,52.70713],[5.18713,52.707272],[5.187066,52.707378],[5.187023,52.707452],[5.186832,52.707731],[5.186642,52.708027],[5.185978,52.709194],[5.185849,52.709441],[5.185385,52.710188],[5.185373,52.710228]]]},"properties":{"type":"boundary","gemeente":"Stede Broec"}}]}