{"type":"FeatureCollection","metadata":{"gemeente":"Veenendaal","slug":"veenendaal","generated_at":"2026-09-28T08:35:44.934907Z","total_points":66,"providers":["Amazon","DeBuren","DHL","DPD","PostNL","VintedGo","FedEx","InPost","Budbee"],"bounds":[5.53294,52.0058329373876,5.580946574,52.04546131]},"features":[{"type":"Feature","geometry":{"type":"Point","coordinates":[5.553214878,52.0243309]},"properties":{"type":"pakketpunt","locatieNaam":"Reinaerde de Bombardon","straatNaam":"Kerkewijk 10 B","straatNr":"","vervoerder":"Amazon","puntType":"3p","bezettingsgraad":50,"latitude":52.0243309,"longitude":5.553214878,"canPickup":true,"canDropoff":false,"openingstijden":null}},{"type":"Feature","geometry":{"type":"Point","coordinates":[5.55248377181098,52.035459223697]},"properties":{"type":"pakketpunt","locatieNaam":"Pandjeshuisonline PpP","straatNaam":"Nieuweweg 155","straatNr":"","vervoerder":"Amazon","puntType":"3p","bezettingsgraad":50,"latitude":52.035459223697,"longitude":5.55248377181098,"canPickup":true,"canDropoff":false,"openingstijden":null}},{"type":"Feature","geometry":{"type":"Point","coordinates":[5.569144611,52.03268427]},"properties":{"type":"pakketpunt","locatieNaam":"Tabac & Gifts Edwin en Janet","straatNaam":"Ronde Erf 56","straatNr":"","vervoerder":"Amazon","puntType":"3p","bezettingsgraad":50,"latitude":52.03268427,"longitude":5.569144611,"canPickup":true,"canDropoff":false,"openingstijden":null}},{"type":"Feature","geometry":{"type":"Point","coordinates":[5.580946574,52.02551986]},"properties":{"type":"pakketpunt","locatieNaam":"T&G Edwin en Janet Oost","straatNaam":"Stuivenbergheem 3","straatNr":"","vervoerder":"Amazon","puntType":"3p","bezettingsgraad":50,"latitude":52.02551986,"longitude":5.580946574,"canPickup":true,"canDropoff":false,"openingstijden":null}},{"type":"Feature","geometry":{"type":"Point","coordinates":[5.5579261,52.010465]},"properties":{"type":"pakketpunt","locatieNaam":"Veenendaal | De Smalle Zijde | Gulf | Pakketautomaat","straatNaam":"De Smalle Zijde","straatNr":"1","vervoerder":"DeBuren","puntType":"Buitenkluis","bezettingsgraad":50,"latitude":52.010465,"longitude":5.5579261,"canPickup":true,"canDropoff":true,"openingstijden":null}},{"type":"Feature","geometry":{"type":"Point","coordinates":[5.5414031,52.0380041]},"properties":{"type":"pakketpunt","locatieNaam":"Veenendaal | Gildetrom | TinQ | Pakket-automaat","straatNaam":"Gildetrom","straatNr":"2","vervoerder":"DeBuren","puntType":"Buitenkluis","bezettingsgraad":50,"latitude":52.0380041,"longitude":5.5414031,"canPickup":true,"canDropoff":true,"openingstijden":null}},{"type":"Feature","geometry":{"type":"Point","coordinates":[5.55357,52.00608]},"properties":{"type":"pakketpunt","locatieNaam":"Pakketautomaat Jumbo Petenbos","straatNaam":"Paddestolenlaan","straatNr":"40","vervoerder":"DHL","puntType":"packStation","bezettingsgraad":50,"latitude":52.00608,"longitude":5.55357,"canPickup":true,"canDropoff":true,"openingstijden":{"ma":"00:00 - 23:59","di":"00:00 - 23:59","wo":"00:00 - 23:59","do":"00:00 - 23:59","vr":"00:00 - 23:59","za":"00:00 - 23:59","zo":"00:00 - 23:59"}}},{"type":"Feature","geometry":{"type":"Point","coordinates":[5.55810370245341,52.011078302766705]},"properties":{"type":"pakketpunt","locatieNaam":"DeBuren Locker 24-7  Gulf Veenend","straatNaam":"De Smalle Zijde","straatNr":"1","vervoerder":"DHL","puntType":"packStation","bezettingsgraad":50,"latitude":52.011078302766705,"longitude":5.55810370245341,"canPickup":true,"canDropoff":true,"openingstijden":{"ma":"00:00 - 23:59","di":"00:00 - 23:59","wo":"00:00 - 23:59","do":"00:00 - 23:59","vr":"00:00 - 23:59","za":"00:00 - 23:59","zo":"00:00 - 23:59"}}},{"type":"Feature","geometry":{"type":"Point","coordinates":[5.559243128807297,52.0118120944836]},"properties":{"type":"pakketpunt","locatieNaam":"Pakketautomaat Praxis Veenendaal","straatNaam":"Groeneveldselaan","straatNr":"49","vervoerder":"DHL","puntType":"packStation","bezettingsgraad":50,"latitude":52.0118120944836,"longitude":5.559243128807297,"canPickup":true,"canDropoff":true,"openingstijden":{"ma":"09:00 - 21:00","di":"09:00 - 21:00","wo":"09:00 - 21:00","do":"09:00 - 21:00","vr":"09:00 - 21:00","za":"09:00 - 18:00","zo":"12:00 - 17:00"}}},{"type":"Feature","geometry":{"type":"Point","coordinates":[5.541140079498291,52.01832580566406]},"properties":{"type":"pakketpunt","locatieNaam":"Onze Winkel Zuid","straatNaam":"Dokter Slotemaker de Bruïnestraat","straatNr":"9","vervoerder":"DHL","puntType":"parcelShop","bezettingsgraad":50,"latitude":52.01832580566406,"longitude":5.541140079498291,"canPickup":true,"canDropoff":true,"openingstijden":{"ma":"12:00 - 18:00","di":"12:00 - 18:00","wo":"08:30 - 18:00","do":"08:30 - 18:00","vr":"08:30 - 18:00","za":"08:30 - 17:00","zo":"gesloten"}}},{"type":"Feature","geometry":{"type":"Point","coordinates":[5.541298023676141,52.03827237230561]},"properties":{"type":"pakketpunt","locatieNaam":"DeBuren Locker 24-7 TinQ Gildetrom","straatNaam":"Gildetrom","straatNr":"2","vervoerder":"DHL","puntType":"packStation","bezettingsgraad":50,"latitude":52.03827237230561,"longitude":5.541298023676141,"canPickup":true,"canDropoff":true,"openingstijden":{"ma":"00:00 - 23:59","di":"00:00 - 23:59","wo":"00:00 - 23:59","do":"00:00 - 23:59","vr":"00:00 - 23:59","za":"00:00 - 23:59","zo":"00:00 - 23:59"}}},{"type":"Feature","geometry":{"type":"Point","coordinates":[5.552465888750079,52.03575127554747]},"properties":{"type":"pakketpunt","locatieNaam":"Pandjeshuis Online","straatNaam":"Nieuweweg","straatNr":"155","vervoerder":"DHL","puntType":"parcelShop","bezettingsgraad":50,"latitude":52.03575127554747,"longitude":5.552465888750079,"canPickup":true,"canDropoff":true,"openingstijden":{"ma":"gesloten","di":"10:00 - 20:00","wo":"10:00 - 20:00","do":"10:00 - 20:00","vr":"10:00 - 19:00","za":"10:00 - 19:00","zo":"12:00 - 19:00"}}},{"type":"Feature","geometry":{"type":"Point","coordinates":[5.555438,52.027063]},"properties":{"type":"pakketpunt","locatieNaam":"Jeans Centre Veenendaal","straatNaam":"Hoofdstraat","straatNr":"43","vervoerder":"DHL","puntType":"parcelShop","bezettingsgraad":50,"latitude":52.027063,"longitude":5.555438,"canPickup":true,"canDropoff":true,"openingstijden":{"ma":"10:30 - 18:00","di":"09:30 - 18:00","wo":"09:30 - 18:00","do":"09:30 - 18:00","vr":"09:30 - 21:00","za":"09:30 - 17:00","zo":"gesloten"}}},{"type":"Feature","geometry":{"type":"Point","coordinates":[5.5565752,52.0277357]},"properties":{"type":"pakketpunt","locatieNaam":"Shoeby Veenendaal","straatNaam":"Hoofdstraat","straatNr":"72","vervoerder":"DHL","puntType":"parcelShop","bezettingsgraad":50,"latitude":52.0277357,"longitude":5.5565752,"canPickup":true,"canDropoff":true,"openingstijden":{"ma":"13:00 - 17:30","di":"10:00 - 17:30","wo":"10:00 - 17:30","do":"10:00 - 17:30","vr":"10:00 - 21:00","za":"10:00 - 17:00","zo":"gesloten"}}},{"type":"Feature","geometry":{"type":"Point","coordinates":[5.556177,52.0260781]},"properties":{"type":"pakketpunt","locatieNaam":"Pakketautomaat HEMA Veenendaal","straatNaam":"Tuinstraat","straatNr":"85-Kast","vervoerder":"DHL","puntType":"packStation","bezettingsgraad":50,"latitude":52.0260781,"longitude":5.556177,"canPickup":true,"canDropoff":true,"openingstijden":{"ma":"09:00 - 18:00","di":"09:00 - 18:00","wo":"09:00 - 18:00","do":"09:00 - 18:00","vr":"09:00 - 21:00","za":"09:00 - 17:30","zo":"gesloten"}}},{"type":"Feature","geometry":{"type":"Point","coordinates":[5.5562135,52.0260684]},"properties":{"type":"pakketpunt","locatieNaam":"Taartdecoratief","straatNaam":"Tuinstraat","straatNr":"75","vervoerder":"DHL","puntType":"parcelShop","bezettingsgraad":50,"latitude":52.0260684,"longitude":5.5562135,"canPickup":true,"canDropoff":true,"openingstijden":{"ma":"13:00 - 17:30","di":"08:30 - 17:30","wo":"08:30 - 17:30","do":"08:30 - 17:30","vr":"08:30 - 17:30","za":"10:00 - 17:00","zo":"gesloten"}}},{"type":"Feature","geometry":{"type":"Point","coordinates":[5.5584862,52.025632]},"properties":{"type":"pakketpunt","locatieNaam":"Pakketautomaat Basic-Fit Wolweg","straatNaam":"Wolweg","straatNr":"101","vervoerder":"DHL","puntType":"packStation","bezettingsgraad":50,"latitude":52.025632,"longitude":5.5584862,"canPickup":true,"canDropoff":true,"openingstijden":{"ma":"00:00 - 23:59","di":"00:00 - 23:59","wo":"00:00 - 23:59","do":"00:00 - 23:59","vr":"00:00 - 23:59","za":"00:00 - 23:59","zo":"00:00 - 23:59"}}},{"type":"Feature","geometry":{"type":"Point","coordinates":[5.560151,52.028264]},"properties":{"type":"pakketpunt","locatieNaam":"Multaparts Veenendaal","straatNaam":"Verlaat","straatNr":"9","vervoerder":"DHL","puntType":"parcelShop","bezettingsgraad":50,"latitude":52.028264,"longitude":5.560151,"canPickup":true,"canDropoff":true,"openingstijden":{"ma":"09:00 - 17:30","di":"09:00 - 17:30","wo":"09:00 - 17:30","do":"09:00 - 17:30","vr":"09:00 - 17:30","za":"09:00 - 17:00","zo":"gesloten"}}},{"type":"Feature","geometry":{"type":"Point","coordinates":[5.5648575,52.0454592]},"properties":{"type":"pakketpunt","locatieNaam":"Pakketwinkel Wouterreclame","straatNaam":"Kazemat","straatNr":"10","vervoerder":"DHL","puntType":"parcelShop","bezettingsgraad":50,"latitude":52.0454592,"longitude":5.5648575,"canPickup":true,"canDropoff":true,"openingstijden":{"ma":"07:00 - 20:45","di":"07:00 - 20:45","wo":"07:00 - 20:45","do":"07:00 - 20:45","vr":"07:00 - 20:45","za":"gesloten","zo":"gesloten"}}},{"type":"Feature","geometry":{"type":"Point","coordinates":[5.5698661136300425,52.0375069751986]},"properties":{"type":"pakketpunt","locatieNaam":"Pakketautomaat GAMMA Veenendaal","straatNaam":"Einsteinstraat","straatNr":"2","vervoerder":"DHL","puntType":"packStation","bezettingsgraad":50,"latitude":52.0375069751986,"longitude":5.5698661136300425,"canPickup":true,"canDropoff":true,"openingstijden":{"ma":"09:00 - 21:00","di":"09:00 - 21:00","wo":"09:00 - 21:00","do":"09:00 - 21:00","vr":"09:00 - 21:00","za":"09:00 - 18:00","zo":"12:00 - 17:00"}}},{"type":"Feature","geometry":{"type":"Point","coordinates":[5.568859100341797,52.03252410888672]},"properties":{"type":"pakketpunt","locatieNaam":"Onze Winkel","straatNaam":"Ronde Erf","straatNr":"90","vervoerder":"DHL","puntType":"parcelShop","bezettingsgraad":50,"latitude":52.03252410888672,"longitude":5.568859100341797,"canPickup":true,"canDropoff":true,"openingstijden":{"ma":"08:30 - 18:00","di":"08:30 - 18:00","wo":"08:30 - 18:00","do":"08:30 - 18:00","vr":"08:30 - 18:00","za":"08:30 - 17:00","zo":"gesloten"}}},{"type":"Feature","geometry":{"type":"Point","coordinates":[5.5804553,52.0253348]},"properties":{"type":"pakketpunt","locatieNaam":"Pakketautomaat Lidl Veenendaal","straatNaam":"Stuivenbergheem","straatNr":"1","vervoerder":"DHL","puntType":"packStation","bezettingsgraad":50,"latitude":52.0253348,"longitude":5.5804553,"canPickup":true,"canDropoff":true,"openingstijden":{"ma":"08:00 - 21:00","di":"08:00 - 21:00","wo":"08:00 - 21:00","do":"08:00 - 22:00","vr":"08:00 - 22:00","za":"08:00 - 21:00","zo":"10:00 - 20:00"}}},{"type":"Feature","geometry":{"type":"Point","coordinates":[5.5570812,52.0272017]},"properties":{"type":"pakketpunt","locatieNaam":"Ovit Shop V.O.F.","straatNaam":"TUINSTRAAT","straatNr":"115","vervoerder":"DPD","puntType":"pickup_point","bezettingsgraad":50,"latitude":52.0272017,"longitude":5.5570812,"canPickup":true,"canDropoff":true,"openingstijden":{"ma":"gesloten","di":"10:00 - 18:00","wo":"10:00 - 18:00","do":"10:00 - 18:00","vr":"10:00 - 18:00","za":"10:00 - 17:00","zo":"gesloten"}}},{"type":"Feature","geometry":{"type":"Point","coordinates":[5.5648575,52.0454592]},"properties":{"type":"pakketpunt","locatieNaam":"Business Point - Wouter Reclame","straatNaam":"KAZEMAT","straatNr":"10","vervoerder":"DPD","puntType":"pickup_point","bezettingsgraad":50,"latitude":52.0454592,"longitude":5.5648575,"canPickup":true,"canDropoff":true,"openingstijden":{"ma":"07:00 - 20:45","di":"07:00 - 20:45","wo":"07:00 - 20:45","do":"07:00 - 20:45","vr":"07:00 - 20:45","za":"gesloten","zo":"gesloten"}}},{"type":"Feature","geometry":{"type":"Point","coordinates":[5.557957,52.010517]},"properties":{"type":"pakketpunt","locatieNaam":"Pakketautomaat Gulf De Smalle Zijde","straatNaam":"DE SMALLE ZIJDE","straatNr":"1","vervoerder":"DPD","puntType":"dpd_box","bezettingsgraad":50,"latitude":52.010517,"longitude":5.557957,"canPickup":true,"canDropoff":true,"openingstijden":{"ma":"00:00 - 23:59","di":"00:00 - 23:59","wo":"00:00 - 23:59","do":"00:00 - 23:59","vr":"00:00 - 23:59","za":"00:00 - 23:59","zo":"00:00 - 23:59"}}},{"type":"Feature","geometry":{"type":"Point","coordinates":[5.5414031,52.0380041]},"properties":{"type":"pakketpunt","locatieNaam":"Pakketautomaat Tinq Gildetrom","straatNaam":"GILDETROM","straatNr":"2","vervoerder":"DPD","puntType":"dpd_box","bezettingsgraad":50,"latitude":52.0380041,"longitude":5.5414031,"canPickup":true,"canDropoff":true,"openingstijden":{"ma":"00:00 - 23:59","di":"00:00 - 23:59","wo":"00:00 - 23:59","do":"00:00 - 23:59","vr":"00:00 - 23:59","za":"00:00 - 23:59","zo":"00:00 - 23:59"}}},{"type":"Feature","geometry":{"type":"Point","coordinates":[5.5562135,52.0260684]},"properties":{"type":"pakketpunt","locatieNaam":"Taartdecoratief","straatNaam":"TUINSTRAAT","straatNr":"75","vervoerder":"DPD","puntType":"pickup_point","bezettingsgraad":50,"latitude":52.0260684,"longitude":5.5562135,"canPickup":true,"canDropoff":true,"openingstijden":{"ma":"10:00 - 17:30","di":"09:00 - 17:30","wo":"09:00 - 17:30","do":"09:00 - 17:30","vr":"09:00 - 21:00","za":"10:00 - 17:00","zo":"gesloten"}}},{"type":"Feature","geometry":{"type":"Point","coordinates":[5.5453305,52.0391276]},"properties":{"type":"pakketpunt","locatieNaam":"V&L Vervoer B.V.","straatNaam":"KONINGSSCHOT","straatNr":"10","vervoerder":"DPD","puntType":"pickup_point","bezettingsgraad":50,"latitude":52.0391276,"longitude":5.5453305,"canPickup":true,"canDropoff":true,"openingstijden":{"ma":"08:00 - 18:00","di":"08:00 - 18:00","wo":"08:00 - 18:00","do":"08:00 - 18:00","vr":"08:00 - 18:00","za":"gesloten","zo":"gesloten"}}},{"type":"Feature","geometry":{"type":"Point","coordinates":[5.5753548,52.0067558]},"properties":{"type":"pakketpunt","locatieNaam":"Henken Speeltoestellen","straatNaam":"TRANSFORMATORSTRAAT","straatNr":"11","vervoerder":"DPD","puntType":"pickup_point","bezettingsgraad":50,"latitude":52.0067558,"longitude":5.5753548,"canPickup":true,"canDropoff":true,"openingstijden":{"ma":"10:00 - 15:30","di":"10:00 - 15:30","wo":"10:00 - 15:30","do":"10:00 - 15:30","vr":"10:00 - 17:00","za":"10:00 - 16:00","zo":"gesloten"}}},{"type":"Feature","geometry":{"type":"Point","coordinates":[5.53294,52.02887]},"properties":{"type":"pakketpunt","locatieNaam":"UR304 Pakketautomaat Budbee","straatNaam":"VEENSLAG","straatNr":"7","vervoerder":"DPD","puntType":"dpd_box","bezettingsgraad":50,"latitude":52.02887,"longitude":5.53294,"canPickup":true,"canDropoff":false,"openingstijden":{"ma":"08:00 - 22:00","di":"08:00 - 22:00","wo":"08:00 - 22:00","do":"08:00 - 22:00","vr":"08:00 - 22:00","za":"08:00 - 22:00","zo":"09:00 - 21:00"}}},{"type":"Feature","geometry":{"type":"Point","coordinates":[5.5524791,52.0354612]},"properties":{"type":"pakketpunt","locatieNaam":"Pandjeshuis Online","straatNaam":"NIEUWEWEG","straatNr":"155","vervoerder":"DPD","puntType":"pickup_point","bezettingsgraad":50,"latitude":52.0354612,"longitude":5.5524791,"canPickup":true,"canDropoff":true,"openingstijden":{"ma":"gesloten","di":"10:00 - 20:00","wo":"10:00 - 20:00","do":"10:00 - 20:00","vr":"10:00 - 19:00","za":"10:00 - 19:00","zo":"12:00 - 19:00"}}},{"type":"Feature","geometry":{"type":"Point","coordinates":[5.553214878,52.0243309]},"properties":{"type":"pakketpunt","locatieNaam":"Reinaerde de Bombardon","straatNaam":"Kerkewijk","straatNr":"10B","vervoerder":"PostNL","puntType":"servicepunt","bezettingsgraad":50,"latitude":52.0243309,"longitude":5.553214878,"canPickup":true,"canDropoff":true,"openingstijden":"09:00 - 17:00"}},{"type":"Feature","geometry":{"type":"Point","coordinates":[5.55710761660249,52.0250084340221]},"properties":{"type":"pakketpunt","locatieNaam":"Smartphone repair veenendaal","straatNaam":"Passage","straatNr":"87","vervoerder":"PostNL","puntType":"servicepunt","bezettingsgraad":50,"latitude":52.0250084340221,"longitude":5.55710761660249,"canPickup":true,"canDropoff":true,"openingstijden":"13:00 - 18:00"}},{"type":"Feature","geometry":{"type":"Point","coordinates":[5.555277933,52.0266469]},"properties":{"type":"pakketpunt","locatieNaam":"Bruna Hoofdstraat","straatNaam":"Hoofdstraat","straatNr":"29","vervoerder":"PostNL","puntType":"servicepunt","bezettingsgraad":50,"latitude":52.0266469,"longitude":5.555277933,"canPickup":true,"canDropoff":true,"openingstijden":"11:00 - 18:00 (Na 18:00 open; Zaterdag open)"}},{"type":"Feature","geometry":{"type":"Point","coordinates":[5.55800211810193,52.0265081563015]},"properties":{"type":"pakketpunt","locatieNaam":"Pakketautomaat","straatNaam":"Brouwersgracht","straatNr":"100PBA","vervoerder":"PostNL","puntType":"automaat","bezettingsgraad":50,"latitude":52.0265081563015,"longitude":5.55800211810193,"canPickup":true,"canDropoff":true,"openingstijden":"08:00 - 20:00"}},{"type":"Feature","geometry":{"type":"Point","coordinates":[5.556280618,52.02979131]},"properties":{"type":"pakketpunt","locatieNaam":"Cigo","straatNaam":"Scheepjeshof","straatNr":"78","vervoerder":"PostNL","puntType":"servicepunt","bezettingsgraad":50,"latitude":52.02979131,"longitude":5.556280618,"canPickup":true,"canDropoff":true,"openingstijden":"09:00 - 18:00"}},{"type":"Feature","geometry":{"type":"Point","coordinates":[5.54988616404851,52.0304834266393]},"properties":{"type":"pakketpunt","locatieNaam":"Pakketautomaat","straatNaam":"J.P.C. Leinweberstraat","straatNr":"6PBA","vervoerder":"PostNL","puntType":"automaat","bezettingsgraad":50,"latitude":52.0304834266393,"longitude":5.54988616404851,"canPickup":true,"canDropoff":true,"openingstijden":"00:00 - 23:59"}},{"type":"Feature","geometry":{"type":"Point","coordinates":[5.54163919,52.01802801]},"properties":{"type":"pakketpunt","locatieNaam":"Primera van Walsem","straatNaam":"Dr. Slotemaker de Bruineplein","straatNr":"31","vervoerder":"PostNL","puntType":"servicepunt","bezettingsgraad":50,"latitude":52.01802801,"longitude":5.54163919,"canPickup":true,"canDropoff":true,"openingstijden":"08:00 - 18:00 (Na 18:00 open; Zaterdag open)"}},{"type":"Feature","geometry":{"type":"Point","coordinates":[5.54341375628225,52.0297731517335]},"properties":{"type":"pakketpunt","locatieNaam":"Pakketautomaat","straatNaam":"Prins Willem-Alexanderpark","straatNr":"617PBA","vervoerder":"PostNL","puntType":"automaat","bezettingsgraad":50,"latitude":52.0297731517335,"longitude":5.54341375628225,"canPickup":true,"canDropoff":true,"openingstijden":"08:00 - 21:00"}},{"type":"Feature","geometry":{"type":"Point","coordinates":[5.560984419,52.01404623]},"properties":{"type":"pakketpunt","locatieNaam":"KARWEI Veenendaal","straatNaam":"Groeneveldselaan","straatNr":"33","vervoerder":"PostNL","puntType":"servicepunt","bezettingsgraad":50,"latitude":52.01404623,"longitude":5.560984419,"canPickup":true,"canDropoff":true,"openingstijden":"09:00 - 21:00"}},{"type":"Feature","geometry":{"type":"Point","coordinates":[5.55248377181098,52.035459223697]},"properties":{"type":"pakketpunt","locatieNaam":"Pandjeshuisonline PpP","straatNaam":"Nieuweweg","straatNr":"155","vervoerder":"PostNL","puntType":"servicepunt","bezettingsgraad":50,"latitude":52.035459223697,"longitude":5.55248377181098,"canPickup":true,"canDropoff":true,"openingstijden":null}},{"type":"Feature","geometry":{"type":"Point","coordinates":[5.533106847,52.02832133]},"properties":{"type":"pakketpunt","locatieNaam":"Bruna Ellekoot","straatNaam":"Veenslag","straatNr":"86","vervoerder":"PostNL","puntType":"servicepunt","bezettingsgraad":50,"latitude":52.02832133,"longitude":5.533106847,"canPickup":true,"canDropoff":true,"openingstijden":"08:30 - 18:00 (Na 18:00 open; Zaterdag open)"}},{"type":"Feature","geometry":{"type":"Point","coordinates":[5.569144611,52.03268427]},"properties":{"type":"pakketpunt","locatieNaam":"T&G Edwin en Janet Veenendaal","straatNaam":"Ronde Erf","straatNr":"56","vervoerder":"PostNL","puntType":"servicepunt","bezettingsgraad":50,"latitude":52.03268427,"longitude":5.569144611,"canPickup":true,"canDropoff":true,"openingstijden":"09:00 - 18:00 (Na 18:00 open; Zaterdag open)"}},{"type":"Feature","geometry":{"type":"Point","coordinates":[5.56574681309779,52.0101741863695]},"properties":{"type":"pakketpunt","locatieNaam":"Box-Inn","straatNaam":"Kernreactorstraat","straatNr":"24A","vervoerder":"PostNL","puntType":"servicepunt","bezettingsgraad":50,"latitude":52.0101741863695,"longitude":5.56574681309779,"canPickup":true,"canDropoff":true,"openingstijden":"09:00 - 17:30"}},{"type":"Feature","geometry":{"type":"Point","coordinates":[5.55346670103563,52.0058329373876]},"properties":{"type":"pakketpunt","locatieNaam":"Pakket- en briefautomaat","straatNaam":"Paddestoelenlaan","straatNr":"40PBA","vervoerder":"PostNL","puntType":"automaat","bezettingsgraad":50,"latitude":52.0058329373876,"longitude":5.55346670103563,"canPickup":true,"canDropoff":true,"openingstijden":"00:00 - 23:59"}},{"type":"Feature","geometry":{"type":"Point","coordinates":[5.569339017,52.03748362]},"properties":{"type":"pakketpunt","locatieNaam":"GAMMA Veenendaal","straatNaam":"Einsteinstraat","straatNr":"2","vervoerder":"PostNL","puntType":"servicepunt","bezettingsgraad":50,"latitude":52.03748362,"longitude":5.569339017,"canPickup":true,"canDropoff":true,"openingstijden":"09:00 - 21:00"}},{"type":"Feature","geometry":{"type":"Point","coordinates":[5.569339017,52.03748362]},"properties":{"type":"pakketpunt","locatieNaam":"Pakket- en briefautomaat","straatNaam":"Einsteinstraat","straatNr":"2PBA","vervoerder":"PostNL","puntType":"automaat","bezettingsgraad":50,"latitude":52.03748362,"longitude":5.569339017,"canPickup":true,"canDropoff":true,"openingstijden":"08:30 - 21:00"}},{"type":"Feature","geometry":{"type":"Point","coordinates":[5.56486018,52.04546131]},"properties":{"type":"pakketpunt","locatieNaam":"Wouterreclame","straatNaam":"Kazemat 10","straatNr":"","vervoerder":"VintedGo","puntType":"parcel_shop","bezettingsgraad":50,"latitude":52.04546131,"longitude":5.56486018,"canPickup":true,"canDropoff":true,"openingstijden":null}},{"type":"Feature","geometry":{"type":"Point","coordinates":[5.57535,52.00676]},"properties":{"type":"pakketpunt","locatieNaam":"Henken Speeltoestellen ","straatNaam":"Transformatorstraat 11","straatNr":"","vervoerder":"VintedGo","puntType":"parcel_shop","bezettingsgraad":50,"latitude":52.00676,"longitude":5.57535,"canPickup":true,"canDropoff":true,"openingstijden":null}},{"type":"Feature","geometry":{"type":"Point","coordinates":[5.55621,52.02607]},"properties":{"type":"pakketpunt","locatieNaam":"Taartdecoratief","straatNaam":"Tuinstraat 75","straatNr":"","vervoerder":"VintedGo","puntType":"parcel_shop","bezettingsgraad":50,"latitude":52.02607,"longitude":5.55621,"canPickup":true,"canDropoff":true,"openingstijden":null}},{"type":"Feature","geometry":{"type":"Point","coordinates":[5.56082,52.03058]},"properties":{"type":"pakketpunt","locatieNaam":"Drogisterij & Schoonheidssalon VAN DE KRAATS","straatNaam":"Prins Bernhardlaan 62","straatNr":"","vervoerder":"VintedGo","puntType":"parcel_shop","bezettingsgraad":50,"latitude":52.03058,"longitude":5.56082,"canPickup":true,"canDropoff":true,"openingstijden":null}},{"type":"Feature","geometry":{"type":"Point","coordinates":[5.5571542,52.0284249]},"properties":{"type":"pakketpunt","locatieNaam":"Reshare Veenendaal","straatNaam":"Hoofdstraat 96","straatNr":"","vervoerder":"VintedGo","puntType":"locker","bezettingsgraad":50,"latitude":52.0284249,"longitude":5.5571542,"canPickup":true,"canDropoff":true,"openingstijden":null}},{"type":"Feature","geometry":{"type":"Point","coordinates":[5.5525249,52.0354345]},"properties":{"type":"pakketpunt","locatieNaam":"Pandjeshuis Online","straatNaam":"Nieuweweg 155","straatNr":"","vervoerder":"VintedGo","puntType":"parcel_shop","bezettingsgraad":50,"latitude":52.0354345,"longitude":5.5525249,"canPickup":true,"canDropoff":true,"openingstijden":null}},{"type":"Feature","geometry":{"type":"Point","coordinates":[5.5452298,52.0391324]},"properties":{"type":"pakketpunt","locatieNaam":"V&l Vervoer","straatNaam":"Koningsschot 10","straatNr":"","vervoerder":"VintedGo","puntType":"parcel_shop","bezettingsgraad":50,"latitude":52.0391324,"longitude":5.5452298,"canPickup":true,"canDropoff":true,"openingstijden":null}},{"type":"Feature","geometry":{"type":"Point","coordinates":[5.553591371514326,52.00603707705128]},"properties":{"type":"pakketpunt","locatieNaam":"FedEx Ship&Get","straatNaam":"Paddestoelenlaan 40 PBA","straatNr":"","vervoerder":"FedEx","puntType":"servicepunt","bezettingsgraad":50,"latitude":52.00603707705128,"longitude":5.553591371514326,"canPickup":true,"canDropoff":true,"openingstijden":{"ma":"00:00 - 23:59","di":"00:00 - 23:59","wo":"00:00 - 23:59","do":"00:00 - 23:59","vr":"00:00 - 23:59","za":"00:00 - 23:59","zo":"00:00 - 23:59"}}},{"type":"Feature","geometry":{"type":"Point","coordinates":[5.543552058338785,52.02981320335359]},"properties":{"type":"pakketpunt","locatieNaam":"FedEx Ship&Get","straatNaam":"Prins Willem-Alexanderpark 617 PBA","straatNr":"","vervoerder":"FedEx","puntType":"servicepunt","bezettingsgraad":50,"latitude":52.02981320335359,"longitude":5.543552058338785,"canPickup":true,"canDropoff":true,"openingstijden":{"ma":"08:00 - 21:00","di":"08:00 - 21:00","wo":"08:00 - 21:00","do":"08:00 - 21:00","vr":"08:00 - 21:00","za":"08:00 - 21:00","zo":"gesloten"}}},{"type":"Feature","geometry":{"type":"Point","coordinates":[5.549960951852433,52.0304549713508]},"properties":{"type":"pakketpunt","locatieNaam":"FedEx Ship&Get","straatNaam":"J.P.C. Leinweberstraat 6 PBA","straatNr":"","vervoerder":"FedEx","puntType":"servicepunt","bezettingsgraad":50,"latitude":52.0304549713508,"longitude":5.549960951852433,"canPickup":true,"canDropoff":true,"openingstijden":{"ma":"00:00 - 23:59","di":"00:00 - 23:59","wo":"00:00 - 23:59","do":"00:00 - 23:59","vr":"00:00 - 23:59","za":"00:00 - 23:59","zo":"00:00 - 23:59"}}},{"type":"Feature","geometry":{"type":"Point","coordinates":[5.556290167409568,52.02611420389951]},"properties":{"type":"pakketpunt","locatieNaam":"FedEx OnSite","straatNaam":"TUINSTRAAT 75","straatNr":"","vervoerder":"FedEx","puntType":"servicepunt","bezettingsgraad":50,"latitude":52.02611420389951,"longitude":5.556290167409568,"canPickup":true,"canDropoff":true,"openingstijden":{"ma":"10:00 - 17:30","di":"09:00 - 17:30","wo":"09:00 - 17:30","do":"09:00 - 17:30","vr":"09:00 - 21:00","za":"10:00 - 17:00","zo":"gesloten"}}},{"type":"Feature","geometry":{"type":"Point","coordinates":[5.557988312268458,52.02647941878332]},"properties":{"type":"pakketpunt","locatieNaam":"FedEx Ship&Get","straatNaam":"Brouwersgracht 100 PBA","straatNr":"","vervoerder":"FedEx","puntType":"servicepunt","bezettingsgraad":50,"latitude":52.02647941878332,"longitude":5.557988312268458,"canPickup":true,"canDropoff":true,"openingstijden":{"ma":"08:00 - 20:00","di":"08:00 - 20:00","wo":"08:00 - 20:00","do":"08:00 - 21:00","vr":"08:00 - 21:00","za":"08:00 - 20:00","zo":"13:00 - 18:00"}}},{"type":"Feature","geometry":{"type":"Point","coordinates":[5.552447,52.035441]},"properties":{"type":"pakketpunt","locatieNaam":"FedEx OnSite","straatNaam":"NIEUWEWEG 155","straatNr":"","vervoerder":"FedEx","puntType":"servicepunt","bezettingsgraad":50,"latitude":52.035441,"longitude":5.552447,"canPickup":true,"canDropoff":true,"openingstijden":{"ma":"gesloten","di":"10:00 - 20:00","wo":"10:00 - 20:00","do":"10:00 - 20:00","vr":"10:00 - 19:00","za":"10:00 - 19:00","zo":"10:00 - 19:00"}}},{"type":"Feature","geometry":{"type":"Point","coordinates":[5.5699478926687895,52.0375278219528]},"properties":{"type":"pakketpunt","locatieNaam":"FedEx Ship&Get","straatNaam":"Einsteinstraat 2 PBA","straatNr":"","vervoerder":"FedEx","puntType":"servicepunt","bezettingsgraad":50,"latitude":52.0375278219528,"longitude":5.5699478926687895,"canPickup":true,"canDropoff":true,"openingstijden":{"ma":"08:30 - 21:00","di":"08:30 - 21:00","wo":"08:30 - 21:00","do":"08:30 - 21:00","vr":"08:30 - 21:00","za":"08:30 - 18:00","zo":"11:30 - 17:30"}}},{"type":"Feature","geometry":{"type":"Point","coordinates":[5.564858,52.045459]},"properties":{"type":"pakketpunt","locatieNaam":"FedEx OnSite","straatNaam":"KAZEMAT 10","straatNr":"","vervoerder":"FedEx","puntType":"servicepunt","bezettingsgraad":50,"latitude":52.045459,"longitude":5.564858,"canPickup":true,"canDropoff":true,"openingstijden":{"ma":"07:00 - 20:45","di":"07:00 - 20:45","wo":"07:00 - 20:45","do":"07:00 - 20:45","vr":"07:00 - 20:45","za":"gesloten","zo":"gesloten"}}},{"type":"Feature","geometry":{"type":"Point","coordinates":[5.56486,52.04546]},"properties":{"type":"pakketpunt","locatieNaam":"WOUTERRECLAME","straatNaam":"Kazemat 10","straatNr":"","vervoerder":"InPost","puntType":"servicepunt","bezettingsgraad":50,"latitude":52.04546,"longitude":5.56486,"canPickup":true,"canDropoff":true,"openingstijden":null}},{"type":"Feature","geometry":{"type":"Point","coordinates":[5.55629,52.0261]},"properties":{"type":"pakketpunt","locatieNaam":"TAARTDECORATIEF","straatNaam":"Tuinstraat 75","straatNr":"","vervoerder":"InPost","puntType":"servicepunt","bezettingsgraad":50,"latitude":52.0261,"longitude":5.55629,"canPickup":true,"canDropoff":true,"openingstijden":null}},{"type":"Feature","geometry":{"type":"Point","coordinates":[5.55245,52.03544]},"properties":{"type":"pakketpunt","locatieNaam":"PANDJESHUIS ONLINE","straatNaam":"Nieuweweg 155","straatNr":"","vervoerder":"InPost","puntType":"servicepunt","bezettingsgraad":50,"latitude":52.03544,"longitude":5.55245,"canPickup":true,"canDropoff":true,"openingstijden":null}},{"type":"Feature","geometry":{"type":"Point","coordinates":[5.53294,52.02887]},"properties":{"type":"pakketpunt","locatieNaam":"UR304 Pakketautomaat Budbee","straatNaam":"VEENSLAG","straatNr":"7","vervoerder":"Budbee","puntType":"automaat","bezettingsgraad":50,"latitude":52.02887,"longitude":5.53294,"canPickup":true,"canDropoff":true,"openingstijden":null}},{"type":"Feature","geometry":{"type":"Polygon","coordinates":[[[5.512592,52.018516],[5.513458,52.018227],[5.514316,52.017941],[5.515169,52.017656],[5.515174,52.017654],[5.51518,52.017652],[5.515283,52.017618],[5.515954,52.017394],[5.516796,52.017113],[5.516844,52.017097],[5.516859,52.017092],[5.517704,52.01681],[5.518309,52.016607],[5.518644,52.016496],[5.518682,52.016483],[5.518733,52.016466],[5.518745,52.016462],[5.52012,52.016003],[5.520171,52.015996],[5.520793,52.015782],[5.52113,52.015666],[5.521153,52.015658],[5.521163,52.015655],[5.521229,52.015633],[5.52123,52.015633],[5.521277,52.015617],[5.521319,52.015603],[5.521961,52.015392],[5.521997,52.015381],[5.522448,52.015233],[5.522686,52.015152],[5.522745,52.015132],[5.524546,52.014522],[5.524598,52.014506],[5.524647,52.01449],[5.527906,52.013555],[5.528422,52.01342],[5.528445,52.013414],[5.528489,52.013402],[5.528505,52.0134],[5.528531,52.013396],[5.529938,52.013204],[5.530012,52.013193],[5.530067,52.013185],[5.530239,52.013159],[5.530267,52.013155],[5.5308,52.013075],[5.530851,52.013068],[5.531356,52.012992],[5.531391,52.012987],[5.531522,52.012968],[5.531547,52.012964],[5.532755,52.012783],[5.532824,52.012774],[5.532864,52.012769],[5.533298,52.012711],[5.533677,52.012665],[5.533614,52.012587],[5.533455,52.012374],[5.533298,52.012161],[5.532967,52.011713],[5.53286,52.011569],[5.532804,52.011492],[5.532643,52.011274],[5.532482,52.011055],[5.532366,52.0109],[5.532658,52.010829],[5.532858,52.010779],[5.533145,52.010708],[5.533736,52.010562],[5.533943,52.010511],[5.534528,52.010367],[5.534736,52.010315],[5.535138,52.010217],[5.535685,52.010084],[5.535704,52.010079],[5.535819,52.010051],[5.535754,52.009937],[5.535723,52.009884],[5.535693,52.009832],[5.535634,52.009729],[5.535487,52.009479],[5.535382,52.009301],[5.535261,52.009091],[5.535154,52.008909],[5.535144,52.008892],[5.535141,52.008887],[5.535162,52.008879],[5.535242,52.00885],[5.535295,52.00883],[5.536203,52.008498],[5.536246,52.008482],[5.536249,52.008481],[5.536521,52.008382],[5.536539,52.008375],[5.536861,52.008258],[5.536975,52.008216],[5.537021,52.008199],[5.537072,52.00818],[5.537693,52.007953],[5.538102,52.007803],[5.538126,52.007795],[5.538336,52.007718],[5.538363,52.007708],[5.538371,52.007705],[5.53838,52.007702],[5.538646,52.007604],[5.538681,52.007592],[5.538687,52.00759],[5.538977,52.007484],[5.539074,52.007448],[5.539101,52.007438],[5.53911,52.007435],[5.539144,52.007422],[5.539181,52.007409],[5.539184,52.007408],[5.539451,52.007311],[5.539539,52.007278],[5.539584,52.007262],[5.54015,52.007053],[5.540152,52.007052],[5.540167,52.007046],[5.540257,52.007013],[5.540317,52.006991],[5.540329,52.006986],[5.540339,52.006982],[5.540344,52.006981],[5.540345,52.00698],[5.540536,52.006851],[5.540659,52.006769],[5.541161,52.006435],[5.541161,52.006434],[5.541167,52.00643],[5.541172,52.006427],[5.541178,52.006423],[5.541418,52.006263],[5.541447,52.006244],[5.541449,52.006243],[5.541578,52.006157],[5.541603,52.00614],[5.541604,52.006139],[5.541681,52.006088],[5.541688,52.006084],[5.541698,52.006077],[5.541867,52.005964],[5.541869,52.005963],[5.541889,52.005949],[5.542099,52.00581],[5.542134,52.005787],[5.542134,52.005787],[5.542228,52.005724],[5.542343,52.005647],[5.542408,52.005603],[5.54247,52.005561],[5.542471,52.005561],[5.542601,52.005474],[5.542613,52.005465],[5.542807,52.005335],[5.542997,52.005207],[5.543119,52.005126],[5.543144,52.005109],[5.543278,52.00502],[5.543289,52.005013],[5.543338,52.00498],[5.543346,52.004975],[5.543359,52.004966],[5.543564,52.004829],[5.54357,52.004826],[5.543574,52.004822],[5.543767,52.004694],[5.543768,52.004693],[5.543998,52.00454],[5.544053,52.004503],[5.544083,52.004483],[5.544192,52.00441],[5.544361,52.004298],[5.544706,52.004068],[5.544711,52.004065],[5.544736,52.004048],[5.544795,52.004009],[5.544795,52.004009],[5.544806,52.004001],[5.544836,52.003982],[5.545001,52.003872],[5.54503,52.003852],[5.54504,52.003846],[5.545198,52.003741],[5.545227,52.003721],[5.545235,52.003716],[5.545349,52.00364],[5.545378,52.00362],[5.546019,52.003192],[5.546316,52.002994],[5.546386,52.002947],[5.546406,52.002934],[5.546454,52.002902],[5.546478,52.002886],[5.54671,52.002731],[5.546725,52.002721],[5.546734,52.002715],[5.54674,52.002711],[5.546743,52.002709],[5.546763,52.002695],[5.546777,52.002686],[5.546977,52.002553],[5.546997,52.002539],[5.547023,52.002522],[5.547051,52.002503],[5.547055,52.0025],[5.547237,52.00238],[5.547393,52.002276],[5.547407,52.002266],[5.54746,52.002231],[5.547741,52.002044],[5.547813,52.001996],[5.547818,52.001993],[5.548314,52.001663],[5.548319,52.001659],[5.5484,52.001602],[5.548459,52.001563],[5.549184,52.00108],[5.549203,52.001068],[5.549223,52.001054],[5.549227,52.001052],[5.549228,52.001051],[5.549242,52.001042],[5.549267,52.001025],[5.549272,52.001021],[5.549328,52.000984],[5.54943,52.000917],[5.549531,52.000849],[5.549631,52.000783],[5.549732,52.000715],[5.549831,52.000649],[5.549933,52.000581],[5.54998,52.00055],[5.549998,52.000538],[5.550003,52.000534],[5.550009,52.000531],[5.550015,52.000527],[5.550852,51.999969],[5.550859,51.999965],[5.551095,51.999807],[5.5511,51.999805],[5.551367,51.999708],[5.55142,51.999689],[5.551468,51.999671],[5.551476,51.999668],[5.551481,51.999667],[5.551745,51.999571],[5.551748,51.999569],[5.55203,51.999467],[5.552296,51.99937],[5.552667,51.999235],[5.552828,51.999177],[5.553097,51.999079],[5.553229,51.999031],[5.553234,51.999036],[5.553237,51.999039],[5.553892,51.999667],[5.553894,51.999668],[5.554253,52.000013],[5.554411,52.000164],[5.55443,52.000182],[5.554534,52.000282],[5.554796,52.000533],[5.555829,52.001523],[5.555841,52.001534],[5.556202,52.00188],[5.55628,52.001955],[5.556291,52.001965],[5.556485,52.002152],[5.556493,52.002159],[5.556508,52.002173],[5.556508,52.002173],[5.556528,52.002193],[5.55654,52.002204],[5.556556,52.002219],[5.556592,52.002254],[5.556745,52.002401],[5.556745,52.002401],[5.55676,52.002415],[5.556773,52.002427],[5.556786,52.002439],[5.556787,52.00244],[5.556883,52.002531],[5.556896,52.002544],[5.556926,52.002572],[5.556938,52.002584],[5.557021,52.00267],[5.557165,52.0028],[5.557177,52.002811],[5.557186,52.002819],[5.557419,52.003036],[5.557724,52.003333],[5.557753,52.003361],[5.557944,52.003538],[5.558045,52.003632],[5.558787,52.003216],[5.558796,52.003212],[5.558804,52.003207],[5.558993,52.003107],[5.558996,52.003105],[5.559199,52.002998],[5.559215,52.002989],[5.559222,52.002986],[5.559254,52.002968],[5.55927,52.00296],[5.559443,52.002868],[5.559445,52.002867],[5.55945,52.002865],[5.559451,52.002864],[5.559475,52.002851],[5.559746,52.002705],[5.559751,52.002703],[5.559752,52.002702],[5.559765,52.002695],[5.560038,52.002549],[5.560493,52.002307],[5.560563,52.002269],[5.560577,52.002262],[5.560604,52.002248],[5.560606,52.002246],[5.560715,52.002189],[5.560774,52.002158],[5.560777,52.002156],[5.560786,52.002151],[5.560791,52.002149],[5.560824,52.002132],[5.560846,52.00212],[5.560851,52.002118],[5.56111,52.001982],[5.561147,52.001963],[5.561155,52.001959],[5.561176,52.001947],[5.561187,52.001942],[5.56122,52.001924],[5.561223,52.001923],[5.561613,52.001714],[5.561617,52.001712],[5.561619,52.001711],[5.561638,52.0017],[5.561953,52.001532],[5.562448,52.001267],[5.562464,52.001258],[5.563401,52.000757],[5.563411,52.000752],[5.563416,52.000749],[5.564162,52.00035],[5.564551,52.000142],[5.564685,52.00007],[5.564708,52.000058],[5.564714,52.000054],[5.564728,52.000047],[5.565147,51.999822],[5.565166,51.999812],[5.565553,51.999604],[5.565572,51.999594],[5.565584,51.999587],[5.565908,51.999413],[5.56597,51.99938],[5.566279,51.999214],[5.566299,51.999203],[5.566596,51.999044],[5.566617,51.999032],[5.566667,51.999006],[5.566744,51.998964],[5.567071,51.998789],[5.567087,51.99878],[5.567114,51.998765],[5.567431,51.998595],[5.567419,51.998585],[5.567431,51.998594],[5.567897,51.998345],[5.568668,51.997931],[5.569021,51.997741],[5.569527,51.997469],[5.569546,51.997459],[5.570468,51.996964],[5.570479,51.996958],[5.571057,51.997347],[5.571638,51.997737],[5.572429,51.998268],[5.572609,51.998335],[5.573152,51.998703],[5.573318,51.998815],[5.57332,51.998816],[5.573326,51.99882],[5.573349,51.998836],[5.573351,51.998837],[5.573356,51.998841],[5.573482,51.998899],[5.573773,51.999111],[5.573786,51.99912],[5.574049,51.999304],[5.574227,51.999425],[5.574261,51.999447],[5.574414,51.999461],[5.575583,52.00026],[5.575733,52.00037],[5.575999,52.000545],[5.576423,52.000817],[5.576512,52.000878],[5.576803,52.001075],[5.577963,52.001837],[5.578548,52.00222],[5.578647,52.002285],[5.578698,52.002318],[5.579962,52.003144],[5.581189,52.003947],[5.581826,52.004362],[5.581895,52.004408],[5.581999,52.004413],[5.582014,52.004424],[5.58205,52.004449],[5.582067,52.004461],[5.582212,52.004561],[5.582214,52.004563],[5.582416,52.004702],[5.584505,52.006144],[5.584642,52.006239],[5.585313,52.006703],[5.585537,52.006858],[5.585976,52.007161],[5.586218,52.007328],[5.586419,52.007467],[5.587324,52.008092],[5.587957,52.008516],[5.588478,52.008865],[5.589191,52.009284],[5.589222,52.009302],[5.589252,52.00932],[5.589269,52.00933],[5.589265,52.009335],[5.589359,52.009388],[5.58937,52.009394],[5.589372,52.009391],[5.589464,52.009445],[5.589476,52.00945],[5.589489,52.009456],[5.589427,52.009551],[5.589288,52.009695],[5.58916,52.009827],[5.589132,52.009856],[5.588963,52.009973],[5.588902,52.010016],[5.588819,52.010084],[5.588721,52.010162],[5.588626,52.010238],[5.588594,52.010262],[5.588548,52.010289],[5.588458,52.010337],[5.58831,52.010406],[5.588296,52.010412],[5.588188,52.010431],[5.588163,52.010452],[5.588018,52.010543],[5.587794,52.010687],[5.587669,52.010765],[5.587427,52.010919],[5.587422,52.010922],[5.587163,52.01108],[5.586938,52.011218],[5.586718,52.011356],[5.586619,52.011419],[5.586581,52.011442],[5.586549,52.011462],[5.586341,52.011581],[5.586098,52.011721],[5.586015,52.011776],[5.586455,52.012004],[5.586586,52.012095],[5.586656,52.012144],[5.586687,52.012175],[5.586711,52.012222],[5.586751,52.012286],[5.586761,52.012337],[5.586767,52.012379],[5.586768,52.012416],[5.586774,52.01253],[5.586785,52.012707],[5.586787,52.012753],[5.586787,52.012755],[5.586789,52.012786],[5.586793,52.012896],[5.586795,52.012935],[5.58681,52.013219],[5.586824,52.013548],[5.586839,52.013875],[5.586912,52.013914],[5.586904,52.014004],[5.586903,52.014016],[5.586903,52.014018],[5.586901,52.014035],[5.586835,52.014078],[5.586835,52.014132],[5.58684,52.014195],[5.586842,52.014221],[5.586848,52.014314],[5.586862,52.014544],[5.586871,52.014709],[5.586893,52.015094],[5.586912,52.015489],[5.586922,52.015713],[5.586959,52.015712],[5.589622,52.015595],[5.589632,52.015657],[5.589711,52.016219],[5.589793,52.016799],[5.589869,52.017339],[5.589881,52.017419],[5.589918,52.017677],[5.58998,52.01811],[5.589995,52.018215],[5.590097,52.018928],[5.590161,52.019384],[5.590242,52.020267],[5.588057,52.020398],[5.587561,52.020428],[5.5872,52.02045],[5.587222,52.020904],[5.58718,52.020907],[5.587149,52.020909],[5.58717,52.021319],[5.587195,52.021319],[5.587225,52.021319],[5.587263,52.022217],[5.587297,52.022215],[5.587341,52.023115],[5.58739,52.024113],[5.587436,52.025072],[5.587464,52.025637],[5.587464,52.025646],[5.587511,52.026628],[5.587477,52.02663],[5.587454,52.026632],[5.587446,52.026632],[5.58745,52.026731],[5.587452,52.026784],[5.587453,52.02679],[5.587495,52.026788],[5.587485,52.026815],[5.587485,52.026955],[5.587455,52.027121],[5.587403,52.027291],[5.587398,52.027304],[5.587339,52.027449],[5.587256,52.02761],[5.587181,52.027719],[5.587065,52.027864],[5.586925,52.028031],[5.586924,52.028032],[5.586921,52.028035],[5.586842,52.028129],[5.58674,52.028271],[5.586645,52.028426],[5.586582,52.028602],[5.586542,52.028713],[5.586533,52.028737],[5.586531,52.028743],[5.58653,52.028753],[5.586504,52.029009],[5.586503,52.029108],[5.586503,52.029171],[5.586504,52.029201],[5.586566,52.029816],[5.586607,52.030223],[5.586658,52.030705],[5.586659,52.030718],[5.586678,52.030921],[5.586703,52.031177],[5.586712,52.03129],[5.588271,52.031228],[5.588285,52.031228],[5.588291,52.031228],[5.588603,52.031215],[5.588618,52.031215],[5.589479,52.031181],[5.589589,52.031177],[5.589596,52.031195],[5.589641,52.031696],[5.589646,52.031695],[5.589757,52.032698],[5.589875,52.032694],[5.589907,52.032693],[5.589946,52.033058],[5.589955,52.033141],[5.589951,52.033179],[5.589939,52.033338],[5.589953,52.033505],[5.590023,52.034303],[5.590028,52.034357],[5.59003,52.034387],[5.589208,52.034677],[5.589127,52.034705],[5.589042,52.034735],[5.588872,52.034799],[5.588867,52.0348],[5.588143,52.035054],[5.586586,52.035556],[5.585178,52.035985],[5.583645,52.036416],[5.58354,52.036448],[5.583045,52.036579],[5.582853,52.036629],[5.582827,52.036636],[5.582001,52.036851],[5.58158,52.036963],[5.580673,52.037204],[5.579314,52.037559],[5.577548,52.038019],[5.575398,52.038576],[5.575016,52.038672],[5.575012,52.038673],[5.574876,52.038708],[5.574791,52.03873],[5.573506,52.039068],[5.573397,52.039094],[5.571271,52.039597],[5.568582,52.040233],[5.5684,52.040236],[5.568397,52.040238],[5.56837,52.040248],[5.568296,52.040276],[5.56825,52.040294],[5.568237,52.040298],[5.568223,52.040303],[5.568013,52.040377],[5.56803,52.040401],[5.568052,52.040433],[5.567419,52.040597],[5.567386,52.040606],[5.56745,52.040688],[5.567487,52.040734],[5.567488,52.040736],[5.567518,52.040774],[5.567763,52.041085],[5.56789,52.041247],[5.568132,52.041554],[5.56814,52.041564],[5.568205,52.041647],[5.568337,52.041814],[5.568348,52.041829],[5.56835,52.041832],[5.568622,52.042097],[5.568623,52.042107],[5.568657,52.042397],[5.568712,52.042447],[5.56935,52.04304],[5.569754,52.043415],[5.570045,52.043401],[5.570057,52.043511],[5.570058,52.043517],[5.570059,52.043522],[5.57007,52.043636],[5.570091,52.043853],[5.570111,52.044035],[5.570113,52.044055],[5.570126,52.044164],[5.57015,52.044414],[5.570152,52.04444],[5.570235,52.0445],[5.570014,52.04451],[5.570034,52.045019],[5.569967,52.045177],[5.570046,52.045171],[5.569935,52.045287],[5.569981,52.045684],[5.569985,52.045694],[5.57022,52.046287],[5.57022,52.046288],[5.570224,52.046295],[5.570309,52.046441],[5.570385,52.046573],[5.570444,52.046687],[5.57048,52.046812],[5.57048,52.046813],[5.570588,52.047165],[5.57059,52.047173],[5.570608,52.04723],[5.570726,52.0476],[5.570727,52.047604],[5.570853,52.047997],[5.570623,52.04801],[5.569845,52.048112],[5.569832,52.048113],[5.569233,52.048147],[5.567356,52.048261],[5.567346,52.048261],[5.566912,52.048288],[5.566775,52.048296],[5.566659,52.048303],[5.563516,52.048494],[5.563114,52.048518],[5.562929,52.048529],[5.562324,52.048567],[5.562217,52.048574],[5.562213,52.048574],[5.561457,52.048621],[5.561071,52.048645],[5.560771,52.048664],[5.560656,52.048665],[5.560146,52.048669],[5.559512,52.048704],[5.558715,52.048748],[5.558495,52.04876],[5.558366,52.04875],[5.558328,52.048747],[5.558317,52.048759],[5.558254,52.048829],[5.558126,52.048842],[5.557903,52.048865],[5.557896,52.048835],[5.557906,52.048648],[5.557889,52.048645],[5.557875,52.048641],[5.557051,52.048812],[5.556964,52.048866],[5.556794,52.04889],[5.555827,52.049037],[5.555023,52.049161],[5.555005,52.049148],[5.554524,52.049209],[5.554513,52.049151],[5.554478,52.048955],[5.554224,52.048993],[5.553496,52.049054],[5.552805,52.049121],[5.552089,52.049173],[5.552061,52.049175],[5.551693,52.049203],[5.55055,52.049228],[5.549701,52.049245],[5.548921,52.049262],[5.546944,52.049312],[5.546932,52.049312],[5.54577,52.049348],[5.545564,52.049353],[5.545208,52.04936],[5.54464,52.049373],[5.544519,52.049181],[5.544498,52.049148],[5.544424,52.049029],[5.544058,52.04844],[5.544022,52.048383],[5.54333,52.04728],[5.543319,52.047263],[5.541989,52.045133],[5.541801,52.044824],[5.541794,52.044812],[5.54179,52.044805],[5.541789,52.044803],[5.541716,52.044685],[5.541678,52.044647],[5.5416,52.044564],[5.541581,52.0445],[5.541575,52.044477],[5.54153,52.044335],[5.541344,52.043714],[5.541277,52.043496],[5.541187,52.043293],[5.541159,52.043238],[5.541111,52.043146],[5.541062,52.043069],[5.541042,52.043037],[5.540917,52.042875],[5.54073,52.04267],[5.540555,52.042542],[5.540199,52.042282],[5.54006,52.042181],[5.539669,52.041895],[5.539465,52.041767],[5.539289,52.041685],[5.539064,52.041596],[5.538881,52.041348],[5.538864,52.041326],[5.538819,52.041265],[5.538282,52.041423],[5.53742,52.041409],[5.536916,52.041419],[5.536558,52.041426],[5.535972,52.041443],[5.535696,52.041451],[5.535453,52.041474],[5.53541,52.041478],[5.535382,52.041467],[5.535379,52.041466],[5.53459,52.041121],[5.534348,52.041015],[5.533272,52.040545],[5.533081,52.040461],[5.532505,52.04021],[5.532281,52.040112],[5.532006,52.039991],[5.531779,52.039913],[5.531741,52.0399],[5.531686,52.039881],[5.531647,52.039859],[5.531645,52.039858],[5.531642,52.039856],[5.531619,52.039838],[5.531624,52.039836],[5.531695,52.039805],[5.531796,52.039762],[5.531601,52.039612],[5.531571,52.039589],[5.53155,52.039573],[5.53147,52.039509],[5.53142,52.039469],[5.53116,52.039571],[5.530809,52.039679],[5.530398,52.039743],[5.530111,52.039825],[5.529847,52.039936],[5.529738,52.039989],[5.529348,52.040202],[5.529256,52.040083],[5.529167,52.03997],[5.52915,52.039948],[5.529089,52.039871],[5.529083,52.039863],[5.529009,52.03977],[5.52895,52.039693],[5.528949,52.039691],[5.528892,52.039616],[5.528695,52.039367],[5.528677,52.039344],[5.528644,52.039301],[5.528639,52.039295],[5.528603,52.039249],[5.528601,52.039247],[5.528508,52.039126],[5.528286,52.038838],[5.528284,52.038835],[5.528283,52.038834],[5.528195,52.038725],[5.527976,52.038446],[5.527826,52.038244],[5.527762,52.038157],[5.527674,52.038041],[5.527458,52.037763],[5.527328,52.037597],[5.527179,52.037409],[5.527073,52.037265],[5.526926,52.037081],[5.526761,52.036869],[5.526673,52.036756],[5.526413,52.036423],[5.52628,52.036262],[5.526166,52.036118],[5.526099,52.03603],[5.52608,52.036008],[5.526045,52.03597],[5.525938,52.03584],[5.525668,52.035509],[5.525587,52.035401],[5.525566,52.035374],[5.525526,52.03532],[5.525424,52.035192],[5.525289,52.035017],[5.525286,52.035013],[5.525284,52.035011],[5.525269,52.034992],[5.525233,52.034949],[5.525229,52.034944],[5.525216,52.034929],[5.525215,52.034928],[5.525166,52.034862],[5.525089,52.03476],[5.525057,52.034719],[5.524982,52.034611],[5.524969,52.034593],[5.524951,52.034567],[5.52486,52.034438],[5.524808,52.034368],[5.52471,52.03423],[5.524608,52.034092],[5.524542,52.034006],[5.524451,52.033887],[5.524374,52.033787],[5.524349,52.033754],[5.524261,52.03364],[5.524144,52.033486],[5.524077,52.033401],[5.523968,52.033262],[5.523895,52.033166],[5.523816,52.033068],[5.523731,52.032959],[5.523604,52.032795],[5.523544,52.03272],[5.523487,52.032648],[5.52347,52.032626],[5.523443,52.032593],[5.523433,52.032578],[5.523419,52.032562],[5.523377,52.032512],[5.523288,52.032398],[5.523202,52.032289],[5.523112,52.032148],[5.522999,52.031982],[5.522946,52.031909],[5.52292,52.031865],[5.522905,52.031842],[5.522888,52.031818],[5.522867,52.031789],[5.522793,52.03168],[5.522686,52.031547],[5.522556,52.03138],[5.522374,52.031127],[5.522374,52.031126],[5.522361,52.031108],[5.52236,52.031108],[5.522236,52.030934],[5.522189,52.030873],[5.52217,52.030848],[5.522077,52.030727],[5.522057,52.030701],[5.522,52.030629],[5.521977,52.030601],[5.521884,52.030483],[5.521814,52.030392],[5.521813,52.030391],[5.52161,52.030134],[5.521509,52.030004],[5.52142,52.02989],[5.521331,52.029774],[5.521255,52.029676],[5.521238,52.029653],[5.521141,52.029526],[5.521033,52.029388],[5.520938,52.029264],[5.520924,52.029245],[5.520826,52.029118],[5.520688,52.028942],[5.520377,52.028545],[5.520294,52.02844],[5.520245,52.028404],[5.519744,52.027723],[5.519621,52.02756],[5.519538,52.027446],[5.519511,52.027411],[5.519395,52.027263],[5.519177,52.026973],[5.519081,52.02685],[5.518945,52.026673],[5.518811,52.026496],[5.518708,52.026364],[5.518565,52.026171],[5.51838,52.025928],[5.518337,52.025875],[5.518314,52.025847],[5.517529,52.024847],[5.517473,52.024774],[5.517009,52.024166],[5.516554,52.023576],[5.516468,52.023471],[5.516428,52.023423],[5.516305,52.023268],[5.516205,52.02314],[5.515895,52.022742],[5.515455,52.022176],[5.515332,52.02202],[5.514965,52.021549],[5.514778,52.021307],[5.514453,52.020889],[5.51445,52.020885],[5.514442,52.020873],[5.514434,52.020863],[5.514427,52.020852],[5.514405,52.020823],[5.5142,52.020584],[5.513961,52.020283],[5.513768,52.020041],[5.513293,52.019415],[5.513015,52.019047],[5.512977,52.018998],[5.512869,52.018863],[5.512592,52.018516]]]},"properties":{"type":"boundary","gemeente":"Veenendaal"}}]}