{"type":"FeatureCollection","metadata":{"gemeente":"Voorst","slug":"voorst","generated_at":"2026-10-05T09:08:54.162432Z","total_points":34,"providers":["Amazon","DHL","DPD","PostNL","VintedGo","FedEx","InPost","Budbee"],"bounds":[6.066228220552268,52.1518672,6.143224106747191,52.283590332923694]},"features":[{"type":"Feature","geometry":{"type":"Point","coordinates":[6.143224106747191,52.170267674040296]},"properties":{"type":"pakketpunt","locatieNaam":"DHL - Pakketautomaat PLUS Voorst","straatNaam":"Rijksstraatweg 77","straatNr":"","vervoerder":"Amazon","puntType":"3p","bezettingsgraad":50,"latitude":52.170267674040296,"longitude":6.143224106747191,"canPickup":true,"canDropoff":false,"openingstijden":null}},{"type":"Feature","geometry":{"type":"Point","coordinates":[6.0861149926519,52.2220826387422]},"properties":{"type":"pakketpunt","locatieNaam":"ICTwello","straatNaam":"Koppelstraat 8 004","straatNr":"","vervoerder":"Amazon","puntType":"3p","bezettingsgraad":50,"latitude":52.2220826387422,"longitude":6.0861149926519,"canPickup":true,"canDropoff":false,"openingstijden":null}},{"type":"Feature","geometry":{"type":"Point","coordinates":[6.143224106747191,52.170267674040296]},"properties":{"type":"pakketpunt","locatieNaam":"Pakketautomaat PLUS Voorst","straatNaam":"Rijksstraatweg","straatNr":"77","vervoerder":"DHL","puntType":"packStation","bezettingsgraad":50,"latitude":52.170267674040296,"longitude":6.143224106747191,"canPickup":true,"canDropoff":true,"openingstijden":{"ma":"00:00 - 23:59","di":"00:00 - 23:59","wo":"00:00 - 23:59","do":"00:00 - 23:59","vr":"00:00 - 23:59","za":"00:00 - 23:59","zo":"00:00 - 23:59"}}},{"type":"Feature","geometry":{"type":"Point","coordinates":[6.0991287,52.1518672]},"properties":{"type":"pakketpunt","locatieNaam":"Klein Hekkelder","straatNaam":"Diederikweg","straatNr":"3","vervoerder":"DHL","puntType":"parcelShop","bezettingsgraad":50,"latitude":52.1518672,"longitude":6.0991287,"canPickup":true,"canDropoff":true,"openingstijden":{"ma":"08:00 - 12:30, 13:15 - 17:30","di":"08:00 - 12:30, 13:15 - 17:30","wo":"08:00 - 12:30, 13:15 - 17:30","do":"08:00 - 12:30, 13:15 - 17:30","vr":"08:00 - 12:30, 13:15 - 17:30","za":"09:00 - 12:30","zo":"gesloten"}}},{"type":"Feature","geometry":{"type":"Point","coordinates":[6.141380786895752,52.17412567138672]},"properties":{"type":"pakketpunt","locatieNaam":"Autobedrijf Vos","straatNaam":"Rijksstraatweg","straatNr":"54","vervoerder":"DHL","puntType":"parcelShop","bezettingsgraad":50,"latitude":52.17412567138672,"longitude":6.141380786895752,"canPickup":true,"canDropoff":true,"openingstijden":{"ma":"08:00 - 12:00, 13:00 - 17:00","di":"08:00 - 12:00, 13:00 - 17:00","wo":"08:00 - 12:00, 13:00 - 17:00","do":"08:00 - 12:00, 13:00 - 17:00","vr":"08:00 - 12:00, 13:00 - 17:00","za":"09:00 - 12:00, 13:00 - 16:00","zo":"gesloten"}}},{"type":"Feature","geometry":{"type":"Point","coordinates":[6.0759028,52.2218762]},"properties":{"type":"pakketpunt","locatieNaam":"Bonhof","straatNaam":"Zonnenbergstraat","straatNr":"46","vervoerder":"DHL","puntType":"parcelShop","bezettingsgraad":50,"latitude":52.2218762,"longitude":6.0759028,"canPickup":true,"canDropoff":true,"openingstijden":{"ma":"07:30 - 17:00","di":"07:30 - 17:00","wo":"07:30 - 17:00","do":"07:30 - 17:00","vr":"07:30 - 17:00","za":"08:00 - 12:30","zo":"gesloten"}}},{"type":"Feature","geometry":{"type":"Point","coordinates":[6.1037623,52.2360738]},"properties":{"type":"pakketpunt","locatieNaam":"Allesz Twello","straatNaam":"Van Ghentstraat","straatNr":"10","vervoerder":"DHL","puntType":"parcelShop","bezettingsgraad":50,"latitude":52.2360738,"longitude":6.1037623,"canPickup":true,"canDropoff":true,"openingstijden":{"ma":"09:00 - 18:00","di":"09:00 - 18:00","wo":"09:00 - 18:00","do":"09:00 - 18:00","vr":"09:00 - 20:00","za":"09:00 - 17:00","zo":"gesloten"}}},{"type":"Feature","geometry":{"type":"Point","coordinates":[6.103866100311279,52.236351013183594]},"properties":{"type":"pakketpunt","locatieNaam":"Schuurman Schoenen Twello","straatNaam":"van Ghentstraat","straatNr":"4","vervoerder":"DHL","puntType":"parcelShop","bezettingsgraad":50,"latitude":52.236351013183594,"longitude":6.103866100311279,"canPickup":true,"canDropoff":true,"openingstijden":{"ma":"13:00 - 18:00","di":"09:30 - 18:00","wo":"09:30 - 18:00","do":"09:30 - 18:00","vr":"09:30 - 18:00","za":"09:30 - 17:00","zo":"gesloten"}}},{"type":"Feature","geometry":{"type":"Point","coordinates":[6.1039967,52.2365024]},"properties":{"type":"pakketpunt","locatieNaam":"Shoeby Twello","straatNaam":"V. Ghentstraat","straatNr":"9-11","vervoerder":"DHL","puntType":"parcelShop","bezettingsgraad":50,"latitude":52.2365024,"longitude":6.1039967,"canPickup":true,"canDropoff":true,"openingstijden":{"ma":"13:00 - 18:00","di":"09:30 - 18:00","wo":"09:30 - 18:00","do":"09:30 - 18:00","vr":"09:30 - 18:00","za":"09:30 - 17:00","zo":"gesloten"}}},{"type":"Feature","geometry":{"type":"Point","coordinates":[6.1033555,52.2367751]},"properties":{"type":"pakketpunt","locatieNaam":"Pakketautomaat terStal Twello","straatNaam":"van Ghentstraat","straatNr":"2-Kast","vervoerder":"DHL","puntType":"packStation","bezettingsgraad":50,"latitude":52.2367751,"longitude":6.1033555,"canPickup":true,"canDropoff":true,"openingstijden":{"ma":"13:00 - 17:30","di":"09:30 - 17:30","wo":"09:30 - 17:30","do":"09:30 - 17:30","vr":"09:30 - 17:30","za":"09:30 - 17:00","zo":"gesloten"}}},{"type":"Feature","geometry":{"type":"Point","coordinates":[6.104709,52.2374252]},"properties":{"type":"pakketpunt","locatieNaam":"Intertoys Twello","straatNaam":"Dorpsstraat","straatNr":"22","vervoerder":"DHL","puntType":"parcelShop","bezettingsgraad":50,"latitude":52.2374252,"longitude":6.104709,"canPickup":true,"canDropoff":true,"openingstijden":{"ma":"13:00 - 18:00","di":"09:00 - 18:00","wo":"09:00 - 18:00","do":"09:00 - 18:00","vr":"09:00 - 18:00","za":"09:00 - 17:00","zo":"gesloten"}}},{"type":"Feature","geometry":{"type":"Point","coordinates":[6.101088,52.24138]},"properties":{"type":"pakketpunt","locatieNaam":"BP Tankstation de Parckelaer","straatNaam":"Rijksstraatweg","straatNr":"106","vervoerder":"DHL","puntType":"parcelShop","bezettingsgraad":50,"latitude":52.24138,"longitude":6.101088,"canPickup":true,"canDropoff":true,"openingstijden":{"ma":"06:30 - 21:00","di":"06:30 - 21:00","wo":"06:30 - 21:00","do":"06:30 - 21:00","vr":"06:30 - 21:00","za":"08:00 - 21:00","zo":"09:00 - 21:00"}}},{"type":"Feature","geometry":{"type":"Point","coordinates":[6.098137120589449,52.283590332923694]},"properties":{"type":"pakketpunt","locatieNaam":"Pakketautomaat Boons Terwolde","straatNaam":"Molenweg","straatNr":"1","vervoerder":"DHL","puntType":"packStation","bezettingsgraad":50,"latitude":52.283590332923694,"longitude":6.098137120589449,"canPickup":true,"canDropoff":true,"openingstijden":{"ma":"08:00 - 21:00","di":"08:00 - 21:00","wo":"08:00 - 21:00","do":"08:00 - 21:00","vr":"08:00 - 21:00","za":"08:00 - 20:00","zo":"12:00 - 18:00"}}},{"type":"Feature","geometry":{"type":"Point","coordinates":[6.10025,52.152798]},"properties":{"type":"pakketpunt","locatieNaam":"Klein Hekkelder","straatNaam":"DIEDERIKWEG","straatNr":"3","vervoerder":"DPD","puntType":"pickup_point","bezettingsgraad":50,"latitude":52.152798,"longitude":6.10025,"canPickup":true,"canDropoff":true,"openingstijden":{"ma":"08:00 - 12:30, 13:15 - 17:30","di":"08:00 - 12:30, 13:15 - 17:30","wo":"08:00 - 12:30, 13:15 - 17:30","do":"08:00 - 12:30, 13:15 - 17:30","vr":"08:00 - 12:30, 13:15 - 17:30","za":"09:00 - 12:30","zo":"gesloten"}}},{"type":"Feature","geometry":{"type":"Point","coordinates":[6.1410497,52.1744908]},"properties":{"type":"pakketpunt","locatieNaam":"Autobedrijf Vos","straatNaam":"RIJKSSTRAATWEG","straatNr":"54","vervoerder":"DPD","puntType":"pickup_point","bezettingsgraad":50,"latitude":52.1744908,"longitude":6.1410497,"canPickup":true,"canDropoff":true,"openingstijden":{"ma":"08:00 - 12:00, 13:00 - 17:00","di":"08:00 - 12:00, 13:00 - 17:00","wo":"08:00 - 12:00, 13:00 - 17:00","do":"08:00 - 12:00, 13:00 - 17:00","vr":"09:00 - 12:00, 13:00 - 17:00","za":"09:00 - 12:00, 13:00 - 16:00","zo":"gesloten"}}},{"type":"Feature","geometry":{"type":"Point","coordinates":[6.136435,52.237446]},"properties":{"type":"pakketpunt","locatieNaam":"Naturel Things","straatNaam":"WILPSEDIJK","straatNr":"14","vervoerder":"DPD","puntType":"pickup_point","bezettingsgraad":50,"latitude":52.237446,"longitude":6.136435,"canPickup":true,"canDropoff":true,"openingstijden":{"ma":"09:30 - 17:30","di":"09:30 - 17:30","wo":"09:30 - 17:30","do":"09:30 - 17:30","vr":"09:30 - 17:30","za":"09:30 - 17:30","zo":"gesloten"}}},{"type":"Feature","geometry":{"type":"Point","coordinates":[6.0984356,52.2835277]},"properties":{"type":"pakketpunt","locatieNaam":"Pakketautomaat Boon’s Markt De Leli","straatNaam":"MOLENWEG","straatNr":"1","vervoerder":"DPD","puntType":"dpd_box","bezettingsgraad":50,"latitude":52.2835277,"longitude":6.0984356,"canPickup":true,"canDropoff":true,"openingstijden":{"ma":"00:01 - 23:59","di":"00:01 - 23:59","wo":"00:01 - 23:59","do":"00:01 - 23:59","vr":"00:01 - 23:59","za":"00:01 - 23:59","zo":"00:01 - 23:59"}}},{"type":"Feature","geometry":{"type":"Point","coordinates":[6.103627,52.237843]},"properties":{"type":"pakketpunt","locatieNaam":"UR476 Pakketautomaat Budbee","straatNaam":"DORPSSTRAAT","straatNr":"28","vervoerder":"DPD","puntType":"dpd_box","bezettingsgraad":50,"latitude":52.237843,"longitude":6.103627,"canPickup":true,"canDropoff":false,"openingstijden":{"ma":"08:00 - 21:00","di":"08:00 - 21:00","wo":"08:00 - 21:00","do":"08:00 - 21:00","vr":"08:00 - 21:00","za":"08:00 - 21:00","zo":"09:00 - 19:00"}}},{"type":"Feature","geometry":{"type":"Point","coordinates":[6.103422813,52.23721376]},"properties":{"type":"pakketpunt","locatieNaam":"Primera","straatNaam":"Stationsstraat","straatNr":"4","vervoerder":"PostNL","puntType":"servicepunt","bezettingsgraad":50,"latitude":52.23721376,"longitude":6.103422813,"canPickup":true,"canDropoff":true,"openingstijden":"12:30 - 18:00 (Na 18:00 open; Zaterdag open)"}},{"type":"Feature","geometry":{"type":"Point","coordinates":[6.08990502082467,52.2359647393345]},"properties":{"type":"pakketpunt","locatieNaam":"Pakketautomaat","straatNaam":"Molenstraat","straatNr":"12PBA","vervoerder":"PostNL","puntType":"automaat","bezettingsgraad":50,"latitude":52.2359647393345,"longitude":6.08990502082467,"canPickup":true,"canDropoff":true,"openingstijden":"00:00 - 23:59"}},{"type":"Feature","geometry":{"type":"Point","coordinates":[6.0861149926519,52.2220826387422]},"properties":{"type":"pakketpunt","locatieNaam":"ICTwello","straatNaam":"Koppelstraat","straatNr":"8004","vervoerder":"PostNL","puntType":"servicepunt","bezettingsgraad":50,"latitude":52.2220826387422,"longitude":6.0861149926519,"canPickup":true,"canDropoff":true,"openingstijden":"08:30 - 17:00"}},{"type":"Feature","geometry":{"type":"Point","coordinates":[6.09827795735803,52.2835513441663]},"properties":{"type":"pakketpunt","locatieNaam":"Pakketautomaat","straatNaam":"Molenweg","straatNr":"1PBA","vervoerder":"PostNL","puntType":"automaat","bezettingsgraad":50,"latitude":52.2835513441663,"longitude":6.09827795735803,"canPickup":true,"canDropoff":true,"openingstijden":"00:00 - 23:59"}},{"type":"Feature","geometry":{"type":"Point","coordinates":[6.14101047957343,52.1744939149447]},"properties":{"type":"pakketpunt","locatieNaam":"Autoshop Vos","straatNaam":"Rijksstraatweg","straatNr":"54A","vervoerder":"PostNL","puntType":"servicepunt","bezettingsgraad":50,"latitude":52.1744939149447,"longitude":6.14101047957343,"canPickup":true,"canDropoff":true,"openingstijden":"08:00 - 12:00, 13:00 - 17:00"}},{"type":"Feature","geometry":{"type":"Point","coordinates":[6.14317220432995,52.1700668549056]},"properties":{"type":"pakketpunt","locatieNaam":"Pakketautomaat","straatNaam":"Rijksstraatweg","straatNr":"77PBA","vervoerder":"PostNL","puntType":"automaat","bezettingsgraad":50,"latitude":52.1700668549056,"longitude":6.14317220432995,"canPickup":true,"canDropoff":true,"openingstijden":"00:00 - 23:59"}},{"type":"Feature","geometry":{"type":"Point","coordinates":[6.066228583,52.1694563]},"properties":{"type":"pakketpunt","locatieNaam":"Pakket- en briefautomaat","straatNaam":"Hoofdweg","straatNr":"86PBA","vervoerder":"PostNL","puntType":"automaat","bezettingsgraad":50,"latitude":52.1694563,"longitude":6.066228583,"canPickup":true,"canDropoff":true,"openingstijden":"00:00 - 23:59"}},{"type":"Feature","geometry":{"type":"Point","coordinates":[6.14092,52.17448]},"properties":{"type":"pakketpunt","locatieNaam":"Autobedrijf Vos","straatNaam":"Rijksstraatweg 54","straatNr":"","vervoerder":"VintedGo","puntType":"parcel_shop","bezettingsgraad":50,"latitude":52.17448,"longitude":6.14092,"canPickup":true,"canDropoff":true,"openingstijden":null}},{"type":"Feature","geometry":{"type":"Point","coordinates":[6.13644,52.23745]},"properties":{"type":"pakketpunt","locatieNaam":"Naturel Things","straatNaam":"Wilpsedijk 14","straatNr":"","vervoerder":"VintedGo","puntType":"parcel_shop","bezettingsgraad":50,"latitude":52.23745,"longitude":6.13644,"canPickup":true,"canDropoff":true,"openingstijden":null}},{"type":"Feature","geometry":{"type":"Point","coordinates":[6.11541,52.26467]},"properties":{"type":"pakketpunt","locatieNaam":"B. M. Terwolde","straatNaam":"Haverkampsweg 7B","straatNr":"","vervoerder":"VintedGo","puntType":"social","bezettingsgraad":50,"latitude":52.26467,"longitude":6.11541,"canPickup":true,"canDropoff":true,"openingstijden":null}},{"type":"Feature","geometry":{"type":"Point","coordinates":[6.066228220552268,52.16949259162193]},"properties":{"type":"pakketpunt","locatieNaam":"FedEx Ship&Get","straatNaam":"Hoofdweg 86 PBA","straatNr":"","vervoerder":"FedEx","puntType":"servicepunt","bezettingsgraad":50,"latitude":52.16949259162193,"longitude":6.066228220552268,"canPickup":true,"canDropoff":true,"openingstijden":{"ma":"00:00 - 23:59","di":"00:00 - 23:59","wo":"00:00 - 23:59","do":"00:00 - 23:59","vr":"00:00 - 23:59","za":"00:00 - 23:59","zo":"00:00 - 23:59"}}},{"type":"Feature","geometry":{"type":"Point","coordinates":[6.140924,52.174525]},"properties":{"type":"pakketpunt","locatieNaam":"FedEx OnSite","straatNaam":"RIJKSSTRAATWEG 54","straatNr":"","vervoerder":"FedEx","puntType":"servicepunt","bezettingsgraad":50,"latitude":52.174525,"longitude":6.140924,"canPickup":true,"canDropoff":true,"openingstijden":{"ma":"08:00 - 12:00, 13:00 - 17:00","di":"08:00 - 12:00, 13:00 - 17:00","wo":"08:00 - 12:00, 13:00 - 17:00","do":"08:00 - 12:00, 13:00 - 17:00","vr":"08:00 - 12:00, 13:00 - 17:00","za":"09:00 - 12:00, 13:00 - 16:00","zo":"gesloten"}}},{"type":"Feature","geometry":{"type":"Point","coordinates":[6.089905,52.235965]},"properties":{"type":"pakketpunt","locatieNaam":"FedEx Ship&Get","straatNaam":"Molenstraat 12 PBA","straatNr":"","vervoerder":"FedEx","puntType":"servicepunt","bezettingsgraad":50,"latitude":52.235965,"longitude":6.089905,"canPickup":true,"canDropoff":true,"openingstijden":{"ma":"00:00 - 23:59","di":"00:00 - 23:59","wo":"00:00 - 23:59","do":"00:00 - 23:59","vr":"00:00 - 23:59","za":"00:00 - 23:59","zo":"00:00 - 23:59"}}},{"type":"Feature","geometry":{"type":"Point","coordinates":[6.098313010558214,52.28351804717846]},"properties":{"type":"pakketpunt","locatieNaam":"FedEx Ship&Get","straatNaam":"Molenweg 1 PBA","straatNr":"","vervoerder":"FedEx","puntType":"servicepunt","bezettingsgraad":50,"latitude":52.28351804717846,"longitude":6.098313010558214,"canPickup":true,"canDropoff":true,"openingstijden":{"ma":"00:00 - 23:59","di":"00:00 - 23:59","wo":"00:00 - 23:59","do":"00:00 - 23:59","vr":"00:00 - 23:59","za":"00:00 - 23:59","zo":"00:00 - 23:59"}}},{"type":"Feature","geometry":{"type":"Point","coordinates":[6.14092,52.17453]},"properties":{"type":"pakketpunt","locatieNaam":"AUTOBEDRIJF VOS","straatNaam":"Rijksstraatweg 54","straatNr":"","vervoerder":"InPost","puntType":"servicepunt","bezettingsgraad":50,"latitude":52.17453,"longitude":6.14092,"canPickup":true,"canDropoff":true,"openingstijden":null}},{"type":"Feature","geometry":{"type":"Point","coordinates":[6.103627,52.237843]},"properties":{"type":"pakketpunt","locatieNaam":"UR476 Pakketautomaat Budbee","straatNaam":"DORPSSTRAAT","straatNr":"28","vervoerder":"Budbee","puntType":"automaat","bezettingsgraad":50,"latitude":52.237843,"longitude":6.103627,"canPickup":true,"canDropoff":true,"openingstijden":null}},{"type":"Feature","geometry":{"type":"Polygon","coordinates":[[[6.030042,52.237847],[6.030118,52.237785],[6.030261,52.23767],[6.030357,52.237591],[6.030479,52.237483],[6.030572,52.237399],[6.030682,52.237298],[6.030778,52.237209],[6.030936,52.237057],[6.031067,52.236926],[6.031113,52.236882],[6.03115,52.236846],[6.031207,52.236794],[6.031294,52.236706],[6.031376,52.236625],[6.031481,52.236518],[6.03158,52.236412],[6.031629,52.236353],[6.031745,52.23623],[6.031847,52.236121],[6.031884,52.236082],[6.031952,52.236011],[6.032031,52.235925],[6.032129,52.235821],[6.032209,52.235736],[6.032268,52.235679],[6.032315,52.235639],[6.032348,52.235613],[6.032369,52.235596],[6.032415,52.235567],[6.032467,52.235531],[6.032523,52.235498],[6.032588,52.235461],[6.032645,52.235433],[6.032704,52.235407],[6.032781,52.235373],[6.032852,52.235346],[6.032935,52.235313],[6.033032,52.235279],[6.033106,52.235252],[6.033163,52.235232],[6.033295,52.235183],[6.033454,52.235126],[6.033673,52.235047],[6.033765,52.235011],[6.033836,52.234981],[6.033897,52.234955],[6.033927,52.234935],[6.03397,52.234903],[6.034009,52.234863],[6.034052,52.234809],[6.034097,52.234745],[6.034147,52.234672],[6.03422,52.234567],[6.034281,52.234484],[6.03442,52.234289],[6.03448,52.234205],[6.03452,52.23415],[6.034593,52.234049],[6.034708,52.233886],[6.034792,52.233765],[6.034868,52.233657],[6.034942,52.233556],[6.035022,52.233438],[6.035097,52.233332],[6.035182,52.233218],[6.035286,52.233075],[6.035406,52.232918],[6.035488,52.232809],[6.035607,52.232659],[6.03573,52.232509],[6.035819,52.232389],[6.03587,52.232321],[6.035916,52.23225],[6.035969,52.232166],[6.036012,52.232088],[6.036051,52.231997],[6.036042,52.231917],[6.036036,52.231912],[6.035967,52.231848],[6.035866,52.231775],[6.035613,52.231634],[6.035238,52.231491],[6.034973,52.23139],[6.034804,52.231406],[6.034215,52.231462],[6.033639,52.231515],[6.033634,52.231478],[6.03371,52.231465],[6.033907,52.231409],[6.034157,52.231322],[6.034224,52.231297],[6.034252,52.231027],[6.034268,52.230862],[6.034281,52.230707],[6.034308,52.230472],[6.034328,52.230265],[6.034332,52.230191],[6.034336,52.230156],[6.03434,52.23013],[6.034344,52.230064],[6.034346,52.230057],[6.034349,52.230045],[6.034352,52.230034],[6.034364,52.22996],[6.034382,52.229794],[6.034392,52.229711],[6.034403,52.229609],[6.034412,52.229537],[6.034426,52.229459],[6.034433,52.229398],[6.034442,52.229354],[6.034449,52.229327],[6.034463,52.229278],[6.034456,52.229252],[6.034455,52.229209],[6.034456,52.229182],[6.034461,52.229132],[6.034465,52.229089],[6.034467,52.229057],[6.034474,52.228986],[6.034484,52.228921],[6.034489,52.228841],[6.03449,52.2288],[6.034488,52.228789],[6.034488,52.228782],[6.034505,52.228672],[6.03453,52.228315],[6.03453,52.228304],[6.034532,52.228184],[6.03449,52.227903],[6.034441,52.227701],[6.034425,52.227602],[6.034376,52.227357],[6.034311,52.227164],[6.034305,52.227147],[6.034256,52.227002],[6.034201,52.226843],[6.034196,52.226822],[6.034093,52.226418],[6.033992,52.226053],[6.033925,52.22581],[6.033884,52.225671],[6.033882,52.225663],[6.033878,52.225648],[6.033875,52.22564],[6.033823,52.225462],[6.033816,52.225438],[6.033815,52.225435],[6.033807,52.22541],[6.033777,52.225304],[6.033724,52.225125],[6.033703,52.225054],[6.033563,52.224579],[6.033424,52.22408],[6.033688,52.224173],[6.03385,52.224223],[6.034063,52.224269],[6.034352,52.224319],[6.034816,52.224393],[6.035306,52.224461],[6.035329,52.224478],[6.035377,52.224514],[6.035464,52.224481],[6.035924,52.224453],[6.036038,52.224443],[6.036129,52.224441],[6.036149,52.22444],[6.036296,52.224433],[6.036499,52.224422],[6.036712,52.22441],[6.036939,52.224398],[6.037208,52.224384],[6.037492,52.224366],[6.037691,52.224354],[6.037817,52.224345],[6.037929,52.22434],[6.038067,52.224332],[6.038645,52.224295],[6.038938,52.224279],[6.039203,52.224264],[6.039343,52.224257],[6.039853,52.224224],[6.040113,52.224207],[6.040417,52.224187],[6.040647,52.22417],[6.040876,52.22416],[6.040885,52.22415],[6.040899,52.224134],[6.041523,52.223408],[6.041604,52.223334],[6.041847,52.223071],[6.042173,52.222712],[6.042356,52.222517],[6.042376,52.2225],[6.042408,52.222471],[6.042444,52.222473],[6.042572,52.222475],[6.042606,52.222434],[6.042647,52.222399],[6.042679,52.222375],[6.042717,52.222354],[6.042742,52.222344],[6.043336,52.222192],[6.043621,52.222119],[6.044351,52.221933],[6.044555,52.221881],[6.044722,52.221835],[6.04481,52.221813],[6.044848,52.221803],[6.044965,52.221775],[6.045077,52.221746],[6.045212,52.221711],[6.045363,52.221672],[6.045489,52.221638],[6.045619,52.221606],[6.045752,52.221571],[6.045756,52.22157],[6.045785,52.221563],[6.046332,52.221419],[6.046529,52.2214],[6.046794,52.221375],[6.046817,52.221372],[6.046829,52.221372],[6.046909,52.221368],[6.046887,52.221292],[6.046882,52.221275],[6.046838,52.221118],[6.04681,52.221012],[6.046806,52.220975],[6.046797,52.220927],[6.046786,52.220892],[6.04679,52.220869],[6.046806,52.220812],[6.046835,52.22076],[6.046856,52.220691],[6.046866,52.22066],[6.046884,52.220602],[6.046882,52.220545],[6.046886,52.220504],[6.046881,52.220479],[6.046865,52.22044],[6.046844,52.220386],[6.0468,52.2203],[6.046798,52.220179],[6.046807,52.220117],[6.046827,52.220052],[6.046857,52.219977],[6.046878,52.219909],[6.0469,52.21986],[6.046913,52.219838],[6.046936,52.219814],[6.04697,52.219773],[6.047017,52.219735],[6.047039,52.219714],[6.047073,52.219667],[6.047104,52.219625],[6.047167,52.219548],[6.04718,52.219519],[6.04722,52.21943],[6.047214,52.219367],[6.047218,52.21931],[6.047228,52.219234],[6.047251,52.219144],[6.04727,52.219083],[6.047299,52.219004],[6.047327,52.218947],[6.047346,52.218899],[6.047363,52.218848],[6.047387,52.218795],[6.047411,52.218707],[6.047442,52.21868],[6.047479,52.218631],[6.047508,52.2186],[6.047563,52.218509],[6.047591,52.218457],[6.047614,52.218407],[6.047637,52.218356],[6.047656,52.218311],[6.047661,52.218259],[6.04767,52.218228],[6.047664,52.218159],[6.047662,52.218084],[6.047664,52.218032],[6.04767,52.218006],[6.047683,52.217971],[6.047705,52.217923],[6.047707,52.217918],[6.047851,52.217666],[6.047878,52.21758],[6.04789,52.217537],[6.047896,52.217495],[6.047901,52.217458],[6.047898,52.217417],[6.047879,52.21734],[6.047873,52.217307],[6.047869,52.217267],[6.047877,52.217225],[6.047887,52.217162],[6.047902,52.217117],[6.047915,52.21707],[6.047969,52.216932],[6.047993,52.21688],[6.048049,52.216779],[6.048095,52.216673],[6.048115,52.216607],[6.048126,52.216586],[6.048145,52.216549],[6.048177,52.216509],[6.04821,52.216467],[6.048241,52.216424],[6.048292,52.216333],[6.048313,52.216264],[6.048323,52.216236],[6.048341,52.216179],[6.048348,52.216093],[6.048351,52.215962],[6.048343,52.21569],[6.048331,52.215435],[6.04833,52.215373],[6.048336,52.215318],[6.048347,52.215254],[6.048375,52.215174],[6.048401,52.215115],[6.048433,52.215037],[6.048444,52.215006],[6.048458,52.214968],[6.04847,52.214935],[6.048481,52.214872],[6.048495,52.21481],[6.0485,52.214746],[6.0485,52.214684],[6.048498,52.214629],[6.048484,52.214574],[6.048464,52.214507],[6.048444,52.214449],[6.048426,52.214414],[6.048396,52.214356],[6.048375,52.214313],[6.048336,52.214246],[6.048297,52.214177],[6.048228,52.214052],[6.048203,52.214008],[6.048171,52.213882],[6.048155,52.213816],[6.04812,52.21374],[6.048099,52.213692],[6.048068,52.213607],[6.048055,52.213554],[6.048038,52.21345],[6.048012,52.213367],[6.047964,52.213224],[6.047944,52.213143],[6.047908,52.213004],[6.04802,52.212847],[6.048143,52.212682],[6.048264,52.212514],[6.048335,52.212398],[6.048397,52.212302],[6.048457,52.212205],[6.048498,52.212154],[6.048532,52.212106],[6.04856,52.212076],[6.048601,52.212042],[6.048645,52.212007],[6.0487,52.211971],[6.0488,52.21192],[6.048841,52.211899],[6.048859,52.21189],[6.048894,52.211873],[6.048919,52.211861],[6.048922,52.211858],[6.048982,52.211816],[6.049024,52.21176],[6.049048,52.211728],[6.049051,52.211721],[6.049081,52.211661],[6.049093,52.211632],[6.049116,52.211593],[6.049125,52.211548],[6.049151,52.211493],[6.04918,52.211432],[6.049272,52.211325],[6.049353,52.211316],[6.049356,52.211315],[6.049277,52.211318],[6.049251,52.211319],[6.049392,52.211173],[6.049518,52.211036],[6.04964,52.21088],[6.049696,52.210796],[6.049808,52.210606],[6.04986,52.210513],[6.049908,52.210452],[6.049941,52.210423],[6.050043,52.210304],[6.050134,52.210202],[6.0502,52.210102],[6.050244,52.21002],[6.050254,52.209954],[6.050267,52.209858],[6.050274,52.209798],[6.050302,52.209738],[6.050377,52.209589],[6.050434,52.209475],[6.050461,52.209389],[6.050483,52.209301],[6.050486,52.209254],[6.050487,52.209235],[6.050488,52.209229],[6.050488,52.209229],[6.050487,52.209126],[6.050511,52.209015],[6.05054,52.20883],[6.050578,52.208712],[6.050636,52.208537],[6.050717,52.208299],[6.050757,52.208175],[6.050781,52.208056],[6.050814,52.207938],[6.050876,52.207825],[6.050988,52.207634],[6.051093,52.207446],[6.051159,52.207328],[6.0512,52.207231],[6.051216,52.207195],[6.051248,52.207119],[6.051265,52.207085],[6.051282,52.206955],[6.051333,52.206802],[6.051428,52.206608],[6.051543,52.206398],[6.051612,52.206299],[6.05167,52.206194],[6.051754,52.206021],[6.051861,52.205821],[6.051979,52.205569],[6.052078,52.205377],[6.052143,52.205266],[6.052188,52.205202],[6.052245,52.205119],[6.052279,52.20507],[6.05231,52.205026],[6.05234,52.204954],[6.052358,52.204896],[6.052375,52.204823],[6.05237,52.204775],[6.052339,52.204738],[6.052274,52.204688],[6.052263,52.204679],[6.0522,52.204626],[6.052139,52.204581],[6.05211,52.204556],[6.052109,52.204556],[6.052099,52.204549],[6.052061,52.204524],[6.052017,52.204487],[6.05199,52.20444],[6.051983,52.204392],[6.052001,52.204325],[6.052106,52.204171],[6.052126,52.204077],[6.052175,52.204015],[6.052323,52.203767],[6.052353,52.203705],[6.052389,52.203618],[6.052434,52.203499],[6.052477,52.203392],[6.052515,52.203299],[6.052547,52.203245],[6.052595,52.203185],[6.052628,52.20314],[6.052705,52.203064],[6.052782,52.203002],[6.052836,52.202964],[6.052949,52.202896],[6.053098,52.202809],[6.053228,52.202728],[6.053389,52.202624],[6.053446,52.202526],[6.053468,52.202444],[6.053471,52.202404],[6.053438,52.202251],[6.05341,52.202159],[6.053407,52.202069],[6.053423,52.201926],[6.053427,52.201814],[6.053422,52.201659],[6.053431,52.2015],[6.05343,52.201327],[6.053441,52.201292],[6.053468,52.201229],[6.053474,52.201213],[6.053565,52.201136],[6.053616,52.20108],[6.053674,52.200992],[6.053692,52.200964],[6.053746,52.200875],[6.053755,52.20086],[6.053828,52.200772],[6.053892,52.20071],[6.053931,52.200658],[6.053961,52.200632],[6.05401,52.200592],[6.05407,52.200544],[6.054118,52.200511],[6.054144,52.200479],[6.054181,52.200428],[6.054219,52.200388],[6.054253,52.200333],[6.054261,52.200321],[6.054285,52.200279],[6.054325,52.200209],[6.054335,52.200192],[6.054373,52.200128],[6.054407,52.200042],[6.054427,52.199973],[6.054436,52.199905],[6.054428,52.199844],[6.054428,52.19977],[6.054471,52.199718],[6.054514,52.199684],[6.054565,52.199635],[6.054599,52.199599],[6.054675,52.199538],[6.054725,52.199488],[6.054757,52.199456],[6.054886,52.199322],[6.055059,52.199179],[6.055112,52.199136],[6.055145,52.199109],[6.055189,52.199074],[6.055216,52.199053],[6.055248,52.199017],[6.055303,52.198955],[6.055311,52.198916],[6.05534,52.198885],[6.055351,52.198874],[6.055392,52.198799],[6.055421,52.198765],[6.055545,52.198667],[6.055644,52.198594],[6.055724,52.198549],[6.055817,52.198485],[6.055904,52.198432],[6.055943,52.198402],[6.055994,52.198372],[6.056021,52.198346],[6.056053,52.198307],[6.056109,52.198242],[6.056145,52.198183],[6.056165,52.198095],[6.056204,52.197993],[6.056251,52.197844],[6.056279,52.197713],[6.056342,52.197438],[6.0564,52.197256],[6.056444,52.197214],[6.056902,52.197044],[6.057109,52.196967],[6.057256,52.196863],[6.057288,52.196818],[6.057298,52.196753],[6.057294,52.196688],[6.057277,52.196632],[6.057256,52.196598],[6.057444,52.196561],[6.057478,52.196536],[6.057498,52.196517],[6.057561,52.196477],[6.057773,52.196368],[6.057938,52.196293],[6.058158,52.196201],[6.058251,52.196171],[6.058238,52.195935],[6.057597,52.195954],[6.056528,52.19597],[6.056196,52.195979],[6.056102,52.196047],[6.056093,52.196055],[6.055507,52.195791],[6.055161,52.195634],[6.055093,52.195604],[6.054918,52.195531],[6.054111,52.195189],[6.054021,52.195135],[6.053981,52.19511],[6.05394,52.195074],[6.053902,52.195036],[6.053874,52.194999],[6.053852,52.194957],[6.053835,52.194868],[6.053833,52.194843],[6.053826,52.194744],[6.053808,52.194334],[6.053795,52.194056],[6.053782,52.193912],[6.053746,52.193735],[6.053704,52.19362],[6.053688,52.193572],[6.053569,52.193336],[6.053456,52.193138],[6.053402,52.193059],[6.053309,52.192868],[6.053131,52.192543],[6.05285,52.192042],[6.052617,52.191623],[6.052447,52.191318],[6.052279,52.191061],[6.052224,52.190954],[6.051996,52.190546],[6.051734,52.190076],[6.05169,52.189996],[6.051535,52.189725],[6.051504,52.18967],[6.051454,52.189563],[6.051354,52.189289],[6.051202,52.188856],[6.051185,52.188863],[6.051176,52.188866],[6.051156,52.188825],[6.051133,52.1888],[6.05107,52.188752],[6.051032,52.188695],[6.051037,52.188647],[6.051054,52.188609],[6.051082,52.188551],[6.051102,52.188528],[6.051109,52.188497],[6.051114,52.188473],[6.051116,52.188419],[6.05112,52.18837],[6.051114,52.188323],[6.051099,52.188259],[6.051075,52.188153],[6.051062,52.188072],[6.051052,52.188047],[6.05105,52.188017],[6.051042,52.187984],[6.05103,52.187923],[6.051016,52.187853],[6.051007,52.187796],[6.051003,52.187732],[6.050987,52.187611],[6.050985,52.187525],[6.050981,52.187476],[6.050989,52.187415],[6.050998,52.18739],[6.051006,52.187357],[6.051009,52.187328],[6.051006,52.187288],[6.051003,52.18725],[6.05099,52.187196],[6.050973,52.187141],[6.050948,52.187099],[6.050914,52.187052],[6.050884,52.187024],[6.050865,52.18701],[6.050836,52.186988],[6.05077,52.186951],[6.050734,52.186915],[6.05062,52.186748],[6.050557,52.186665],[6.050536,52.186633],[6.050366,52.186481],[6.050348,52.186462],[6.050236,52.186346],[6.050016,52.186122],[6.049934,52.186039],[6.049793,52.18591],[6.049713,52.185825],[6.049669,52.185783],[6.049611,52.185716],[6.049563,52.185646],[6.049529,52.185599],[6.049497,52.185525],[6.049464,52.185445],[6.04943,52.185354],[6.049401,52.185264],[6.049389,52.18521],[6.049384,52.185161],[6.049371,52.185017],[6.04937,52.184943],[6.049377,52.184879],[6.049381,52.184814],[6.049389,52.184745],[6.049403,52.184669],[6.049418,52.18462],[6.04945,52.184539],[6.049488,52.184433],[6.049515,52.184357],[6.04954,52.184286],[6.049585,52.184174],[6.049669,52.183994],[6.049782,52.1838],[6.049928,52.183584],[6.050045,52.183416],[6.050061,52.183396],[6.050093,52.183357],[6.050105,52.183319],[6.050125,52.183288],[6.050169,52.183233],[6.050199,52.183188],[6.05023,52.183152],[6.050292,52.183103],[6.050345,52.18306],[6.050382,52.183041],[6.05043,52.183005],[6.050481,52.182965],[6.050534,52.182921],[6.050533,52.182921],[6.050572,52.182889],[6.05062,52.182859],[6.050675,52.182819],[6.050735,52.182786],[6.050784,52.182754],[6.050857,52.1827],[6.050938,52.182637],[6.051001,52.182587],[6.051156,52.182485],[6.051241,52.182425],[6.051387,52.182293],[6.051439,52.182263],[6.051471,52.182256],[6.051518,52.182234],[6.051719,52.182079],[6.051751,52.182053],[6.051789,52.182023],[6.05186,52.181978],[6.05191,52.181945],[6.051945,52.181932],[6.052001,52.181908],[6.052042,52.181899],[6.052095,52.181885],[6.052137,52.181871],[6.052188,52.181859],[6.052227,52.181841],[6.052281,52.181811],[6.052314,52.181797],[6.052348,52.181766],[6.052392,52.181734],[6.052418,52.181706],[6.052467,52.181705],[6.052582,52.181687],[6.052663,52.181672],[6.05272,52.181654],[6.052817,52.181619],[6.052867,52.181603],[6.052876,52.181601],[6.052912,52.181594],[6.052954,52.181591],[6.053002,52.181591],[6.053043,52.18159],[6.0531,52.181582],[6.053218,52.18155],[6.05336,52.1815],[6.053469,52.18148],[6.053514,52.181469],[6.053602,52.181445],[6.053632,52.181431],[6.05368,52.181416],[6.053701,52.181409],[6.053727,52.181397],[6.053748,52.181387],[6.053787,52.181365],[6.053807,52.181352],[6.053828,52.181332],[6.053848,52.181311],[6.053871,52.181278],[6.053943,52.181215],[6.054028,52.181128],[6.054134,52.181037],[6.054308,52.180866],[6.05457,52.180595],[6.054636,52.180521],[6.054738,52.180412],[6.054915,52.180208],[6.054979,52.180125],[6.055027,52.180059],[6.055072,52.179986],[6.055117,52.179908],[6.055147,52.179855],[6.055182,52.179723],[6.055179,52.179666],[6.055181,52.179655],[6.055345,52.179493],[6.055549,52.179453],[6.0556,52.179426],[6.055686,52.179383],[6.055843,52.179302],[6.056025,52.179203],[6.056108,52.179155],[6.056183,52.179111],[6.056237,52.179076],[6.056296,52.179032],[6.056354,52.178987],[6.056455,52.178905],[6.056608,52.178795],[6.056728,52.178622],[6.056799,52.178521],[6.056875,52.178424],[6.056929,52.178365],[6.057,52.178307],[6.057056,52.178259],[6.057212,52.178152],[6.057312,52.178094],[6.057424,52.17803],[6.057609,52.177926],[6.057985,52.177727],[6.058108,52.177662],[6.058198,52.177611],[6.058308,52.177547],[6.058385,52.177495],[6.058448,52.177443],[6.058496,52.177401],[6.058552,52.177349],[6.058624,52.177274],[6.058881,52.177018],[6.058972,52.176929],[6.059094,52.176814],[6.059211,52.176716],[6.059311,52.176628],[6.059454,52.176497],[6.059545,52.176411],[6.059717,52.176245],[6.059736,52.176234],[6.059754,52.176226],[6.059775,52.176222],[6.059794,52.176221],[6.059949,52.176052],[6.060008,52.175984],[6.06002,52.175933],[6.060031,52.175907],[6.060047,52.175875],[6.060079,52.175828],[6.060125,52.175768],[6.060193,52.175694],[6.060308,52.175552],[6.060598,52.175186],[6.060612,52.175173],[6.06063,52.175163],[6.060647,52.175158],[6.060666,52.175156],[6.060674,52.175153],[6.060661,52.175145],[6.060654,52.175138],[6.06065,52.175129],[6.060651,52.175119],[6.060656,52.175105],[6.060822,52.174829],[6.06102,52.174501],[6.061121,52.17433],[6.061355,52.173946],[6.061575,52.173599],[6.061789,52.173259],[6.061936,52.172921],[6.062386,52.171904],[6.062434,52.171752],[6.062596,52.171426],[6.062657,52.171283],[6.062717,52.171164],[6.063218,52.170217],[6.06323,52.17016],[6.063606,52.169387],[6.063611,52.16938],[6.063831,52.169047],[6.064135,52.168369],[6.064141,52.168354],[6.064148,52.168333],[6.06429,52.16802],[6.064297,52.168005],[6.064358,52.167837],[6.064606,52.16735],[6.064943,52.16669],[6.065694,52.165221],[6.065779,52.16479],[6.065796,52.164706],[6.066028,52.163527],[6.066423,52.161524],[6.066413,52.161504],[6.066378,52.161419],[6.066287,52.161138],[6.066256,52.161042],[6.066171,52.160865],[6.065965,52.160426],[6.065854,52.160179],[6.065769,52.160013],[6.065706,52.159897],[6.065565,52.159696],[6.065419,52.159477],[6.065314,52.159327],[6.065205,52.159183],[6.065007,52.158942],[6.064861,52.158757],[6.064767,52.158648],[6.064684,52.158579],[6.064576,52.15851],[6.064499,52.15847],[6.064395,52.15842],[6.064349,52.158389],[6.064318,52.158345],[6.064307,52.15831],[6.0643,52.158223],[6.064269,52.157852],[6.064234,52.157604],[6.064236,52.157564],[6.064242,52.157501],[6.064248,52.157447],[6.064257,52.157385],[6.064268,52.157321],[6.064282,52.157261],[6.064299,52.157193],[6.064313,52.157141],[6.064322,52.157118],[6.064343,52.157058],[6.064371,52.15699],[6.064414,52.156905],[6.06445,52.156834],[6.064483,52.156768],[6.064513,52.156725],[6.064551,52.156681],[6.064593,52.156636],[6.064667,52.156574],[6.0648,52.156446],[6.06495,52.15628],[6.065046,52.156189],[6.065151,52.156097],[6.065198,52.156054],[6.065343,52.155909],[6.065504,52.155756],[6.065716,52.155534],[6.065889,52.155348],[6.066057,52.155191],[6.066166,52.155085],[6.066417,52.154843],[6.066643,52.154637],[6.066835,52.154439],[6.067067,52.154213],[6.067144,52.154136],[6.067384,52.153911],[6.067401,52.153894],[6.067466,52.153829],[6.067608,52.15374],[6.067725,52.153683],[6.067822,52.153618],[6.068171,52.153379],[6.068377,52.153242],[6.068623,52.153086],[6.068739,52.153009],[6.068895,52.152915],[6.069044,52.15283],[6.069192,52.152749],[6.069315,52.152676],[6.069361,52.152648],[6.069451,52.152579],[6.069612,52.152454],[6.069748,52.15234],[6.069891,52.152222],[6.072333,52.150387],[6.072369,52.150347],[6.072526,52.15022],[6.072673,52.150115],[6.072698,52.150094],[6.072656,52.150079],[6.072817,52.149943],[6.072951,52.149822],[6.073125,52.149659],[6.07341,52.149396],[6.073593,52.149225],[6.073751,52.149072],[6.073905,52.148926],[6.074127,52.14873],[6.074425,52.148468],[6.074467,52.148482],[6.074726,52.148162],[6.074675,52.148118],[6.074525,52.147988],[6.074443,52.147899],[6.074386,52.147829],[6.074364,52.147746],[6.074351,52.147593],[6.074342,52.147459],[6.074346,52.147385],[6.07437,52.147301],[6.074399,52.147231],[6.07444,52.147147],[6.074493,52.14706],[6.074561,52.146985],[6.074636,52.146916],[6.074728,52.146858],[6.074868,52.146795],[6.074996,52.146726],[6.075078,52.146657],[6.075127,52.146603],[6.075168,52.146528],[6.075229,52.146363],[6.075259,52.146286],[6.075384,52.146048],[6.075687,52.145113],[6.07578,52.144824],[6.076067,52.143938],[6.076091,52.143944],[6.0762,52.143973],[6.076223,52.143979],[6.07628,52.143994],[6.076314,52.144003],[6.076314,52.144003],[6.076938,52.144167],[6.07706,52.144199],[6.077187,52.144233],[6.077856,52.144411],[6.078153,52.144491],[6.078286,52.144527],[6.078427,52.144565],[6.078725,52.14465],[6.078913,52.144707],[6.079507,52.144888],[6.07967,52.144938],[6.080105,52.145067],[6.080475,52.145173],[6.080478,52.145174],[6.080628,52.145217],[6.081353,52.145426],[6.081655,52.145513],[6.082404,52.145725],[6.084743,52.14639],[6.084822,52.146413],[6.084825,52.146414],[6.086836,52.146979],[6.087331,52.147118],[6.088378,52.147414],[6.089114,52.147618],[6.089575,52.147739],[6.089886,52.147821],[6.091186,52.148194],[6.091342,52.148239],[6.092112,52.148455],[6.092897,52.148679],[6.093678,52.148903],[6.094465,52.149122],[6.095236,52.149341],[6.096021,52.149562],[6.096269,52.14963],[6.096897,52.149808],[6.097008,52.149839],[6.097505,52.149976],[6.097519,52.149989],[6.097633,52.15002],[6.098465,52.150248],[6.098447,52.150279],[6.098536,52.150307],[6.099405,52.150596],[6.099425,52.150603],[6.099432,52.150605],[6.09964,52.150656],[6.099888,52.150718],[6.100031,52.150754],[6.10264,52.151363],[6.10262,52.151361],[6.103161,52.151489],[6.103169,52.151491],[6.103284,52.151516],[6.103831,52.151641],[6.10488,52.151903],[6.106133,52.152191],[6.107816,52.15257],[6.108397,52.152703],[6.109382,52.152872],[6.109954,52.152957],[6.110422,52.153027],[6.111194,52.153163],[6.112269,52.153374],[6.113432,52.153602],[6.114934,52.153914],[6.116728,52.154279],[6.118545,52.154642],[6.118867,52.154694],[6.123026,52.155354],[6.124475,52.15559],[6.125398,52.155754],[6.125713,52.155827],[6.127342,52.156202],[6.12837,52.156424],[6.128402,52.15643],[6.128804,52.156531],[6.129976,52.156794],[6.13019,52.156837],[6.131641,52.157153],[6.132214,52.157283],[6.132491,52.157345],[6.132758,52.157404],[6.133622,52.1576],[6.133719,52.157623],[6.133792,52.157641],[6.134091,52.157705],[6.134291,52.15775],[6.134403,52.157775],[6.134748,52.157835],[6.135219,52.157923],[6.135695,52.158009],[6.13613,52.158085],[6.136451,52.158133],[6.136656,52.15816],[6.136865,52.158182],[6.137533,52.158262],[6.137822,52.158307],[6.138392,52.158375],[6.13952,52.158509],[6.13951,52.158538],[6.139544,52.158541],[6.140642,52.158669],[6.140816,52.158689],[6.140906,52.1587],[6.141115,52.158724],[6.141236,52.158738],[6.141355,52.158752],[6.141795,52.158803],[6.141795,52.158803],[6.14192,52.158812],[6.141925,52.158784],[6.142019,52.158795],[6.14228,52.15883],[6.142335,52.158866],[6.142346,52.158917],[6.142364,52.158994],[6.142398,52.15907],[6.142438,52.15914],[6.142486,52.159195],[6.142555,52.159203],[6.142564,52.159204],[6.142989,52.159247],[6.143523,52.15931],[6.143788,52.159336],[6.144135,52.159371],[6.144133,52.159328],[6.14413,52.159277],[6.145016,52.159397],[6.145032,52.159366],[6.145131,52.159187],[6.145196,52.159067],[6.14522,52.15907],[6.146859,52.159272],[6.149941,52.159705],[6.149946,52.159705],[6.150048,52.15972],[6.150063,52.159722],[6.15106,52.159862],[6.151244,52.159919],[6.152188,52.16003],[6.152287,52.160055],[6.152968,52.159635],[6.153111,52.159625],[6.153221,52.159617],[6.153235,52.159616],[6.153499,52.159615],[6.153578,52.159622],[6.153642,52.159636],[6.153819,52.159693],[6.154228,52.159873],[6.154285,52.159898],[6.15445,52.159977],[6.154738,52.160121],[6.155084,52.160291],[6.155088,52.160292],[6.155191,52.160378],[6.155236,52.160442],[6.155252,52.160455],[6.15527,52.160468],[6.155292,52.160486],[6.155307,52.160497],[6.155377,52.160505],[6.155565,52.160526],[6.155961,52.160565],[6.156405,52.160604],[6.15695,52.160655],[6.157557,52.160713],[6.157467,52.160855],[6.157366,52.16103],[6.157359,52.161108],[6.157431,52.161155],[6.157614,52.161179],[6.157893,52.161207],[6.157899,52.161208],[6.158284,52.161253],[6.158541,52.161281],[6.158759,52.161308],[6.159084,52.161343],[6.159145,52.161349],[6.159189,52.161354],[6.159366,52.16138],[6.159582,52.161453],[6.159759,52.161518],[6.159817,52.16154],[6.160025,52.161622],[6.160042,52.161628],[6.160211,52.16169],[6.160287,52.161719],[6.160313,52.161729],[6.160379,52.161758],[6.160436,52.161784],[6.160498,52.161812],[6.160635,52.161873],[6.160677,52.161854],[6.160818,52.161789],[6.160828,52.161784],[6.160933,52.161736],[6.161164,52.16163],[6.161187,52.16162],[6.161403,52.161522],[6.161516,52.16148],[6.16166,52.161467],[6.16179,52.161461],[6.163316,52.161392],[6.16466,52.16133],[6.164676,52.161331],[6.164768,52.161339],[6.164769,52.161339],[6.165059,52.161323],[6.165427,52.161286],[6.165442,52.161285],[6.165875,52.161237],[6.16639,52.161182],[6.166993,52.161115],[6.167571,52.161051],[6.167687,52.161039],[6.167632,52.161129],[6.167511,52.161329],[6.167457,52.161418],[6.167396,52.161579],[6.167216,52.162059],[6.167647,52.162049],[6.168075,52.162037],[6.168413,52.162031],[6.168845,52.162019],[6.169255,52.162003],[6.169672,52.161994],[6.169686,52.161871],[6.171346,52.161849],[6.172503,52.161834],[6.172587,52.161833],[6.172588,52.161833],[6.172585,52.161613],[6.17258,52.161545],[6.172575,52.161456],[6.172575,52.161446],[6.172575,52.161443],[6.172577,52.161335],[6.172577,52.161329],[6.172613,52.161328],[6.172657,52.161327],[6.172707,52.161324],[6.173062,52.161311],[6.173306,52.161304],[6.173698,52.161288],[6.174068,52.161272],[6.174442,52.161257],[6.174887,52.16124],[6.174949,52.161237],[6.175339,52.161222],[6.175844,52.161199],[6.175926,52.161189],[6.17593,52.161189],[6.175938,52.161187],[6.175959,52.161181],[6.175962,52.161181],[6.175963,52.16118],[6.176053,52.161158],[6.176072,52.161202],[6.176394,52.161179],[6.176751,52.161156],[6.177134,52.161132],[6.177286,52.161122],[6.177485,52.161109],[6.177745,52.161089],[6.177985,52.161076],[6.178299,52.161058],[6.178638,52.161039],[6.178673,52.161036],[6.178798,52.16104],[6.178952,52.161044],[6.179054,52.161049],[6.179148,52.161052],[6.179233,52.161048],[6.179376,52.161042],[6.18042,52.160999],[6.181586,52.16095],[6.181721,52.160945],[6.182136,52.160927],[6.182265,52.160916],[6.182362,52.160908],[6.182437,52.160901],[6.182477,52.160892],[6.182583,52.160855],[6.182696,52.160812],[6.182808,52.160759],[6.182894,52.160721],[6.18294,52.160801],[6.182999,52.160892],[6.183071,52.161006],[6.18312,52.16108],[6.183171,52.16116],[6.183188,52.161189],[6.183207,52.161213],[6.183262,52.161224],[6.183338,52.16124],[6.18343,52.161252],[6.18353,52.161272],[6.183644,52.16129],[6.183776,52.16131],[6.183833,52.16132],[6.183826,52.161291],[6.183818,52.16123],[6.184118,52.161227],[6.184679,52.161223],[6.18471,52.161357],[6.18474,52.161463],[6.184764,52.161552],[6.184805,52.161693],[6.184854,52.16186],[6.184887,52.161966],[6.184946,52.162087],[6.185032,52.162251],[6.185102,52.162379],[6.185143,52.16245],[6.18523,52.162589],[6.185423,52.16284],[6.18561,52.163086],[6.185941,52.1635],[6.186081,52.163672],[6.18675,52.16449],[6.187063,52.164662],[6.187894,52.165192],[6.188771,52.165742],[6.189186,52.166014],[6.189287,52.166082],[6.189399,52.166154],[6.189781,52.166393],[6.190112,52.166614],[6.190179,52.166657],[6.190396,52.166788],[6.190573,52.16689],[6.19066,52.166944],[6.190745,52.166999],[6.190804,52.167039],[6.190885,52.167097],[6.190925,52.167127],[6.19105,52.16723],[6.191125,52.167296],[6.191514,52.167636],[6.191703,52.167821],[6.191728,52.167848],[6.191856,52.167995],[6.191878,52.168028],[6.191919,52.168079],[6.192031,52.168231],[6.192125,52.168364],[6.19221,52.1685],[6.192299,52.168653],[6.192335,52.168721],[6.1924,52.168849],[6.192421,52.168897],[6.192481,52.169049],[6.192561,52.169267],[6.192567,52.169283],[6.192606,52.169367],[6.19267,52.169525],[6.192799,52.169801],[6.193129,52.170395],[6.193231,52.170578],[6.193435,52.170958],[6.19362,52.171368],[6.193859,52.171929],[6.19405,52.172365],[6.19409,52.172468],[6.194174,52.172733],[6.194231,52.172995],[6.194268,52.173221],[6.194318,52.173525],[6.19437,52.173991],[6.194363,52.17432],[6.194267,52.174964],[6.194183,52.175237],[6.193947,52.17586],[6.193779,52.176187],[6.193621,52.176449],[6.193501,52.176613],[6.193342,52.176815],[6.192882,52.177301],[6.192498,52.177672],[6.192245,52.177911],[6.191977,52.178127],[6.19187,52.178205],[6.191603,52.1784],[6.191458,52.178499],[6.191329,52.178587],[6.191272,52.178626],[6.190602,52.178993],[6.190235,52.17917],[6.189937,52.179307],[6.18969,52.179406],[6.189367,52.179537],[6.188913,52.179698],[6.187982,52.179919],[6.187108,52.180032],[6.186121,52.180158],[6.185876,52.180191],[6.185224,52.180274],[6.184546,52.180354],[6.184388,52.180377],[6.183159,52.180674],[6.182348,52.180919],[6.181637,52.181167],[6.181141,52.181365],[6.180718,52.181596],[6.180041,52.181984],[6.179455,52.182354],[6.178942,52.182673],[6.17846,52.182992],[6.177795,52.183424],[6.177285,52.183748],[6.176599,52.184232],[6.176126,52.184568],[6.17589,52.184733],[6.175683,52.184899],[6.174716,52.185643],[6.173752,52.186401],[6.172875,52.187074],[6.172383,52.18745],[6.172052,52.187701],[6.171792,52.187893],[6.17156,52.188055],[6.171358,52.188173],[6.171091,52.188334],[6.170772,52.188507],[6.170743,52.188522],[6.170583,52.1886],[6.170397,52.188693],[6.170268,52.188763],[6.170103,52.188843],[6.169953,52.188911],[6.169807,52.188973],[6.169655,52.18904],[6.169533,52.18909],[6.169501,52.189101],[6.169415,52.18913],[6.169314,52.189162],[6.16916,52.189204],[6.169019,52.189245],[6.168811,52.189296],[6.168647,52.189333],[6.168384,52.189391],[6.16818,52.189437],[6.167733,52.189538],[6.167531,52.189581],[6.167277,52.189631],[6.166859,52.1897],[6.166686,52.189728],[6.166514,52.189751],[6.166306,52.189774],[6.166131,52.18979],[6.165924,52.189802],[6.16574,52.189812],[6.165557,52.189819],[6.165399,52.189827],[6.165187,52.189826],[6.16497,52.189821],[6.164756,52.189808],[6.164422,52.189771],[6.1641,52.18973],[6.163773,52.189682],[6.163435,52.189623],[6.1623,52.189425],[6.162276,52.189421],[6.162035,52.189385],[6.161717,52.189359],[6.161438,52.189359],[6.161071,52.189405],[6.1608,52.189452],[6.160556,52.189512],[6.160354,52.189564],[6.160065,52.189649],[6.15978,52.189748],[6.159577,52.189825],[6.159332,52.189932],[6.159033,52.190092],[6.158814,52.190246],[6.158589,52.190427],[6.15828,52.190692],[6.157967,52.191002],[6.157735,52.191241],[6.157568,52.191434],[6.157337,52.191753],[6.157158,52.192012],[6.157018,52.192207],[6.156856,52.192487],[6.156683,52.192838],[6.156487,52.193235],[6.156404,52.193461],[6.15635,52.193601],[6.156296,52.193817],[6.156203,52.194156],[6.156145,52.19448],[6.15612,52.194674],[6.156108,52.194873],[6.156082,52.195124],[6.156079,52.195465],[6.156092,52.195709],[6.1561,52.196029],[6.156122,52.196252],[6.156149,52.196459],[6.156184,52.196661],[6.156225,52.19686],[6.156258,52.197031],[6.156298,52.197147],[6.156355,52.197343],[6.156459,52.197604],[6.156591,52.197933],[6.156591,52.197933],[6.156605,52.197959],[6.156787,52.198305],[6.157009,52.198614],[6.157085,52.19872],[6.157367,52.19903],[6.157751,52.199384],[6.158203,52.199743],[6.158753,52.20007],[6.159201,52.200281],[6.159889,52.200598],[6.160222,52.200733],[6.160511,52.200836],[6.160843,52.200936],[6.161265,52.201051],[6.16143,52.201094],[6.162271,52.201283],[6.162482,52.201306],[6.16338,52.201402],[6.164286,52.201414],[6.165671,52.201307],[6.167049,52.201165],[6.167248,52.201147],[6.169062,52.201101],[6.169993,52.201108],[6.170743,52.20112],[6.171368,52.201146],[6.172119,52.20121],[6.173036,52.201342],[6.173481,52.201431],[6.173891,52.201542],[6.174519,52.201775],[6.17515,52.202085],[6.175866,52.202419],[6.177002,52.202905],[6.177735,52.203122],[6.178365,52.203301],[6.178889,52.20343],[6.179563,52.203572],[6.180222,52.20367],[6.180222,52.20367],[6.180236,52.203671],[6.180854,52.203742],[6.18163,52.203809],[6.182163,52.203854],[6.182821,52.203971],[6.18323,52.204067],[6.183232,52.204067],[6.183249,52.204071],[6.183321,52.204088],[6.183694,52.204187],[6.184037,52.204298],[6.184356,52.204426],[6.185146,52.20478],[6.18591,52.205254],[6.186424,52.205608],[6.186888,52.205965],[6.187335,52.206265],[6.187533,52.206386],[6.188021,52.206683],[6.188651,52.207083],[6.18916,52.207408],[6.189441,52.207616],[6.189597,52.207732],[6.190009,52.208138],[6.190373,52.2086],[6.190664,52.20912],[6.190832,52.209545],[6.190836,52.209555],[6.190872,52.209646],[6.191008,52.210232],[6.191075,52.210784],[6.191103,52.211012],[6.191117,52.211346],[6.191128,52.212167],[6.191079,52.212935],[6.190958,52.213408],[6.190957,52.213411],[6.190957,52.213412],[6.190856,52.213811],[6.190787,52.214101],[6.190717,52.214363],[6.190645,52.214628],[6.190555,52.214894],[6.190469,52.21516],[6.190399,52.215354],[6.190374,52.215425],[6.190265,52.215688],[6.190133,52.215951],[6.189997,52.216211],[6.189867,52.216479],[6.189744,52.216672],[6.189529,52.217005],[6.189409,52.217128],[6.189254,52.217267],[6.189063,52.217424],[6.188931,52.21753],[6.188597,52.217796],[6.188269,52.21806],[6.18792,52.218313],[6.187556,52.218578],[6.187358,52.218727],[6.187177,52.218836],[6.186898,52.218986],[6.186489,52.219196],[6.185971,52.219505],[6.185952,52.219516],[6.185605,52.219716],[6.185464,52.219791],[6.184988,52.220061],[6.184553,52.22033],[6.183692,52.220869],[6.183338,52.221109],[6.183176,52.221236],[6.183026,52.221367],[6.182879,52.221497],[6.182757,52.221597],[6.182585,52.221739],[6.182444,52.221862],[6.182272,52.221998],[6.182114,52.222125],[6.181896,52.222297],[6.181616,52.222517],[6.181436,52.222656],[6.181148,52.222905],[6.180987,52.22304],[6.180817,52.223156],[6.180498,52.223334],[6.18002,52.223602],[6.179538,52.223844],[6.179327,52.223936],[6.179071,52.224029],[6.178603,52.224194],[6.178135,52.224358],[6.177938,52.224427],[6.177656,52.224525],[6.177176,52.224692],[6.176702,52.224849],[6.176222,52.225004],[6.175781,52.225163],[6.175335,52.225332],[6.174891,52.225502],[6.174656,52.225598],[6.174455,52.225702],[6.174199,52.225841],[6.173976,52.22596],[6.173519,52.226234],[6.173368,52.226331],[6.173189,52.226465],[6.172964,52.226672],[6.172669,52.226972],[6.172386,52.227243],[6.172128,52.227509],[6.172011,52.227644],[6.171887,52.227771],[6.171761,52.227898],[6.171423,52.22813],[6.170934,52.228523],[6.170592,52.228804],[6.170288,52.229033],[6.169866,52.229346],[6.169682,52.229486],[6.169178,52.229726],[6.168704,52.229942],[6.168657,52.229957],[6.16847,52.23002],[6.168189,52.230132],[6.167903,52.230262],[6.167677,52.230374],[6.16754,52.230431],[6.166803,52.23077],[6.166269,52.231014],[6.165977,52.230791],[6.165757,52.230623],[6.165621,52.23052],[6.165466,52.230404],[6.16541,52.230362],[6.164743,52.22984],[6.164624,52.229746],[6.164233,52.229448],[6.163105,52.228581],[6.163028,52.228522],[6.163298,52.228392],[6.163416,52.228366],[6.163513,52.228335],[6.16359,52.228291],[6.163665,52.22827],[6.164174,52.228218],[6.16482,52.228156],[6.165108,52.228124],[6.165435,52.228068],[6.165798,52.228004],[6.166084,52.227935],[6.166286,52.227891],[6.166428,52.227869],[6.166725,52.227851],[6.166912,52.227839],[6.167316,52.227768],[6.167501,52.227728],[6.167598,52.227687],[6.167881,52.227552],[6.168436,52.227279],[6.168369,52.227152],[6.168298,52.227017],[6.168006,52.226536],[6.167865,52.226339],[6.167738,52.226222],[6.167717,52.226231],[6.167436,52.226345],[6.167068,52.226514],[6.166925,52.226573],[6.166758,52.226627],[6.166389,52.226732],[6.165711,52.226951],[6.165164,52.227109],[6.164491,52.227282],[6.164199,52.22737],[6.164016,52.227438],[6.163819,52.227518],[6.163497,52.227664],[6.163165,52.227828],[6.163016,52.22789],[6.162946,52.227915],[6.162608,52.228037],[6.1625,52.227917],[6.1625,52.22789],[6.162579,52.22779],[6.162835,52.227591],[6.162879,52.227547],[6.162917,52.22748],[6.162937,52.227438],[6.162983,52.227342],[6.163036,52.227253],[6.163083,52.227204],[6.163149,52.227166],[6.16329,52.227111],[6.163396,52.227055],[6.163463,52.227002],[6.163551,52.226911],[6.163609,52.226845],[6.163717,52.226644],[6.163894,52.22634],[6.163945,52.226236],[6.164029,52.226033],[6.16406,52.225915],[6.164079,52.225716],[6.164087,52.225657],[6.164092,52.225599],[6.164063,52.225588],[6.163954,52.225577],[6.163918,52.225559],[6.163906,52.225539],[6.163924,52.225488],[6.163973,52.225399],[6.164136,52.225139],[6.16433,52.224823],[6.164422,52.224664],[6.164477,52.224516],[6.16448,52.224507],[6.16451,52.224434],[6.164546,52.224395],[6.16478,52.224212],[6.165101,52.223933],[6.16532,52.223755],[6.165444,52.223688],[6.165766,52.223529],[6.165723,52.223503],[6.165343,52.223272],[6.165269,52.223229],[6.165216,52.223175],[6.165171,52.22312],[6.165163,52.223074],[6.165195,52.222982],[6.165276,52.222842],[6.165476,52.222584],[6.165532,52.222521],[6.165621,52.222419],[6.165758,52.222297],[6.166094,52.222128],[6.166382,52.221983],[6.166929,52.221706],[6.167382,52.221501],[6.167567,52.221407],[6.167867,52.221221],[6.168063,52.221094],[6.168354,52.220913],[6.168558,52.220774],[6.168671,52.220699],[6.16865,52.220689],[6.168588,52.220658],[6.168421,52.220568],[6.168239,52.220468],[6.167947,52.220306],[6.167779,52.220214],[6.167622,52.220127],[6.167525,52.220104],[6.167563,52.220009],[6.167599,52.219915],[6.167635,52.219808],[6.167656,52.219716],[6.167665,52.219651],[6.167669,52.219594],[6.167673,52.219461],[6.167675,52.219402],[6.167679,52.219346],[6.167683,52.219251],[6.167687,52.219152],[6.167687,52.219113],[6.167668,52.218984],[6.167648,52.218875],[6.167596,52.218859],[6.167527,52.218845],[6.167346,52.218841],[6.167174,52.218841],[6.167099,52.218838],[6.166961,52.218831],[6.166831,52.218825],[6.166788,52.218824],[6.166702,52.21882],[6.166685,52.218802],[6.166685,52.218802],[6.166578,52.218687],[6.166561,52.218461],[6.1665,52.218373],[6.166303,52.218144],[6.16612,52.217935],[6.165963,52.217756],[6.165644,52.217618],[6.165376,52.217508],[6.165088,52.217461],[6.164766,52.217438],[6.164069,52.217441],[6.163909,52.217496],[6.163649,52.217926],[6.163487,52.218023],[6.163284,52.218114],[6.163099,52.218197],[6.162798,52.218302],[6.162778,52.218306],[6.162646,52.218329],[6.162604,52.218337],[6.162604,52.218337],[6.162616,52.218364],[6.162628,52.218395],[6.16263,52.218449],[6.162634,52.218554],[6.162635,52.218643],[6.162643,52.218698],[6.162658,52.218749],[6.16268,52.218817],[6.162725,52.218925],[6.16276,52.219019],[6.162792,52.219081],[6.162805,52.219107],[6.16285,52.219203],[6.162898,52.219286],[6.162966,52.219401],[6.163014,52.219472],[6.163079,52.219562],[6.163167,52.219682],[6.163222,52.219766],[6.163263,52.219843],[6.163303,52.219941],[6.163336,52.220031],[6.163348,52.220114],[6.163363,52.220214],[6.163386,52.220322],[6.163419,52.220475],[6.163447,52.220583],[6.163502,52.220768],[6.163514,52.220801],[6.163537,52.220842],[6.163576,52.2209],[6.163618,52.220956],[6.163723,52.221073],[6.163782,52.22114],[6.163838,52.22121],[6.16389,52.221276],[6.163925,52.22136],[6.16396,52.221466],[6.163982,52.221559],[6.163986,52.221646],[6.163976,52.221733],[6.163961,52.221833],[6.163933,52.221924],[6.163885,52.222037],[6.163808,52.222135],[6.163756,52.222208],[6.16375,52.222215],[6.163708,52.222263],[6.163696,52.222277],[6.163632,52.222361],[6.163528,52.222499],[6.163399,52.222662],[6.163254,52.222848],[6.163049,52.22303],[6.162995,52.223091],[6.162897,52.223209],[6.162864,52.223251],[6.162806,52.223324],[6.162712,52.223456],[6.162649,52.223556],[6.162554,52.223701],[6.16247,52.223831],[6.162419,52.223911],[6.16236,52.223983],[6.162296,52.224061],[6.162173,52.224166],[6.161996,52.224278],[6.161872,52.224363],[6.161758,52.224442],[6.161635,52.224534],[6.161635,52.224534],[6.161635,52.224535],[6.161546,52.22461],[6.161443,52.224706],[6.161375,52.22476],[6.161256,52.224827],[6.161082,52.224922],[6.161007,52.22495],[6.160826,52.225014],[6.160615,52.225087],[6.160369,52.22516],[6.160153,52.225223],[6.15998,52.22525],[6.15981,52.225277],[6.15962,52.225305],[6.159438,52.225335],[6.159258,52.225351],[6.158972,52.225374],[6.158792,52.225374],[6.158569,52.225375],[6.158457,52.225374],[6.158163,52.225401],[6.157924,52.225427],[6.157774,52.225445],[6.157629,52.225461],[6.157475,52.225478],[6.157389,52.225494],[6.157203,52.22553],[6.157012,52.225569],[6.156891,52.225592],[6.156784,52.22562],[6.156566,52.225679],[6.156389,52.225727],[6.156183,52.225783],[6.156011,52.22583],[6.155927,52.225846],[6.155789,52.225871],[6.155648,52.225898],[6.155532,52.225927],[6.15542,52.22596],[6.155256,52.226011],[6.155105,52.226058],[6.154981,52.226098],[6.154824,52.226157],[6.154682,52.226214],[6.154538,52.226266],[6.1545,52.226275],[6.154353,52.226302],[6.154152,52.22634],[6.153969,52.226375],[6.153925,52.226383],[6.153824,52.226398],[6.153605,52.226436],[6.153238,52.226496],[6.152806,52.226555],[6.152599,52.226598],[6.152524,52.226617],[6.152248,52.226685],[6.152194,52.226699],[6.15204,52.226737],[6.151848,52.226832],[6.151797,52.22686],[6.151757,52.226875],[6.151711,52.226891],[6.151612,52.226923],[6.151502,52.226951],[6.151154,52.227001],[6.151118,52.227002],[6.15101,52.227008],[6.150983,52.227009],[6.150921,52.227012],[6.150596,52.227028],[6.150354,52.227038],[6.150141,52.227043],[6.149959,52.227053],[6.149768,52.227078],[6.149586,52.227108],[6.149378,52.22716],[6.149215,52.227199],[6.149069,52.227234],[6.148963,52.227265],[6.148872,52.227293],[6.148835,52.227304],[6.148831,52.227305],[6.148707,52.22736],[6.148621,52.227401],[6.148496,52.22746],[6.148413,52.227494],[6.148397,52.227501],[6.148224,52.227536],[6.148015,52.227597],[6.147716,52.227685],[6.147683,52.227691],[6.14751,52.227778],[6.147353,52.227877],[6.147233,52.227969],[6.147151,52.228029],[6.147021,52.228119],[6.146923,52.22818],[6.14662,52.228374],[6.146484,52.228461],[6.146058,52.228771],[6.145872,52.228911],[6.14577,52.228992],[6.145725,52.22903],[6.145669,52.229082],[6.145327,52.229392],[6.145283,52.229432],[6.144972,52.229765],[6.144752,52.229993],[6.144514,52.230223],[6.144401,52.230325],[6.144326,52.23039],[6.144262,52.230449],[6.143929,52.230742],[6.143683,52.230983],[6.143079,52.231618],[6.142907,52.231817],[6.14283,52.231928],[6.142727,52.23209],[6.142405,52.232513],[6.142324,52.232627],[6.142231,52.232771],[6.142152,52.232915],[6.142093,52.233054],[6.14202,52.233233],[6.141942,52.23344],[6.141894,52.233593],[6.141875,52.233651],[6.141818,52.233831],[6.14175,52.234038],[6.141707,52.234172],[6.141722,52.23418],[6.141707,52.234338],[6.141704,52.234863],[6.141695,52.235233],[6.141663,52.235445],[6.141686,52.235705],[6.141693,52.235785],[6.141707,52.235986],[6.141697,52.236162],[6.141684,52.236296],[6.141668,52.236466],[6.141659,52.236504],[6.141642,52.23653],[6.141639,52.236543],[6.141633,52.236563],[6.141642,52.236605],[6.141657,52.236669],[6.141659,52.236759],[6.141675,52.236837],[6.141705,52.236926],[6.141762,52.237054],[6.141733,52.237059],[6.14176,52.237097],[6.141851,52.237204],[6.141923,52.237291],[6.141967,52.23736],[6.141996,52.237423],[6.142036,52.237571],[6.142066,52.237759],[6.142086,52.237775],[6.142094,52.237917],[6.142138,52.238038],[6.142187,52.238226],[6.142228,52.23838],[6.142262,52.238456],[6.142237,52.238456],[6.142392,52.238565],[6.14253,52.238659],[6.142634,52.238726],[6.142776,52.238787],[6.142921,52.238838],[6.142984,52.23886],[6.14322,52.238918],[6.143355,52.238939],[6.143466,52.238948],[6.143681,52.238957],[6.143771,52.238971],[6.143832,52.239013],[6.143882,52.239069],[6.143911,52.2391],[6.143936,52.239112],[6.14398,52.239125],[6.144075,52.239132],[6.144162,52.239145],[6.144256,52.239176],[6.144354,52.239212],[6.144444,52.239258],[6.144544,52.239327],[6.144666,52.239409],[6.144807,52.239495],[6.144818,52.239502],[6.144942,52.239568],[6.145146,52.239665],[6.145306,52.239732],[6.14548,52.23982],[6.145998,52.24007],[6.146445,52.24028],[6.146709,52.240404],[6.147352,52.240681],[6.147857,52.240895],[6.148279,52.24107],[6.148735,52.24126],[6.149298,52.241493],[6.149512,52.241582],[6.149748,52.241696],[6.149897,52.241773],[6.149996,52.241824],[6.149999,52.241826],[6.150202,52.241946],[6.150354,52.242039],[6.151009,52.242432],[6.151239,52.242579],[6.151342,52.242645],[6.151542,52.242773],[6.151977,52.24305],[6.152119,52.243153],[6.152182,52.243204],[6.152241,52.24327],[6.152309,52.243344],[6.152399,52.243408],[6.152497,52.243469],[6.152739,52.243586],[6.153127,52.243777],[6.15351,52.24396],[6.153604,52.244018],[6.153632,52.244049],[6.153769,52.244205],[6.153845,52.244306],[6.153921,52.244478],[6.153948,52.244571],[6.154036,52.244944],[6.154126,52.245275],[6.154172,52.245508],[6.154178,52.245536],[6.154195,52.245666],[6.154201,52.245709],[6.154199,52.245869],[6.154197,52.24588],[6.154181,52.245952],[6.154159,52.246022],[6.154089,52.246159],[6.154079,52.246176],[6.153977,52.246354],[6.153896,52.246513],[6.153838,52.24666],[6.153811,52.24671],[6.153805,52.246721],[6.153787,52.246746],[6.153778,52.246758],[6.153748,52.24679],[6.153681,52.246839],[6.15359,52.246902],[6.153552,52.246926],[6.153527,52.246942],[6.153428,52.247005],[6.153337,52.247055],[6.153322,52.247062],[6.153231,52.247104],[6.153014,52.247202],[6.152905,52.247248],[6.152548,52.247399],[6.152404,52.247461],[6.1522,52.247554],[6.152005,52.247647],[6.151918,52.247687],[6.151808,52.247726],[6.151701,52.24776],[6.151431,52.247846],[6.15113,52.247942],[6.151035,52.247974],[6.150956,52.248001],[6.150708,52.248085],[6.150593,52.248125],[6.150602,52.248134],[6.150493,52.248169],[6.15002,52.248316],[6.149692,52.248081],[6.149419,52.247885],[6.149407,52.247868],[6.149312,52.247853],[6.149226,52.247845],[6.148927,52.247815],[6.148499,52.247773],[6.148417,52.247765],[6.148064,52.247731],[6.147933,52.247715],[6.14775,52.247692],[6.147679,52.247684],[6.147672,52.247683],[6.147173,52.247598],[6.147096,52.247585],[6.147018,52.247572],[6.146942,52.247559],[6.146823,52.247538],[6.146751,52.247525],[6.146674,52.247512],[6.146585,52.247496],[6.146485,52.247479],[6.146292,52.247444],[6.146104,52.247411],[6.145965,52.247386],[6.145826,52.247362],[6.145584,52.24732],[6.145447,52.247296],[6.145302,52.247272],[6.145264,52.247266],[6.145202,52.247255],[6.14511,52.24724],[6.145023,52.247224],[6.144938,52.247208],[6.14483,52.247189],[6.144763,52.247176],[6.144694,52.247161],[6.144557,52.247132],[6.14451,52.247122],[6.14434,52.247071],[6.14419,52.246998],[6.143964,52.246862],[6.143719,52.246644],[6.143693,52.246618],[6.143612,52.246514],[6.143581,52.246474],[6.143526,52.246404],[6.143374,52.246451],[6.143357,52.246515],[6.143362,52.246553],[6.143353,52.246571],[6.143344,52.246582],[6.143329,52.246591],[6.143309,52.246597],[6.143261,52.246606],[6.143195,52.246615],[6.143092,52.246631],[6.142854,52.246667],[6.142591,52.246705],[6.142495,52.246723],[6.142348,52.246751],[6.142168,52.246785],[6.142,52.246819],[6.141908,52.24684],[6.141603,52.246915],[6.141381,52.246975],[6.141061,52.247065],[6.14102,52.247077],[6.140795,52.247141],[6.140607,52.247196],[6.140457,52.247241],[6.14015,52.247332],[6.139901,52.247409],[6.139764,52.247454],[6.139501,52.247541],[6.139273,52.247617],[6.139013,52.247704],[6.138962,52.247723],[6.13877,52.247796],[6.138653,52.247844],[6.138431,52.247935],[6.138331,52.247985],[6.138148,52.248078],[6.137974,52.248176],[6.137753,52.248304],[6.137618,52.248381],[6.137453,52.248499],[6.137219,52.248696],[6.137167,52.248739],[6.137106,52.248789],[6.136959,52.248906],[6.136886,52.248965],[6.136323,52.249225],[6.135957,52.249394],[6.135676,52.249526],[6.135412,52.249615],[6.135082,52.249699],[6.134788,52.249757],[6.134303,52.249823],[6.13404,52.249864],[6.133882,52.249889],[6.133772,52.249821],[6.133649,52.249851],[6.132951,52.250017],[6.132132,52.25023],[6.13189,52.250284],[6.131435,52.250354],[6.131083,52.250407],[6.130965,52.250457],[6.130842,52.250456],[6.13069,52.250453],[6.129415,52.250593],[6.128764,52.250615],[6.127984,52.250634],[6.127053,52.250656],[6.12647,52.250653],[6.126225,52.250697],[6.125904,52.25077],[6.125657,52.250835],[6.125191,52.25091],[6.124747,52.251027],[6.124344,52.251312],[6.124067,52.251391],[6.124036,52.251413],[6.123958,52.251432],[6.123895,52.251457],[6.123865,52.251481],[6.123832,52.251576],[6.123802,52.251684],[6.123782,52.251741],[6.123749,52.251837],[6.12369,52.25199],[6.123647,52.252144],[6.123617,52.25228],[6.123602,52.252371],[6.123574,52.252549],[6.123557,52.252729],[6.123542,52.25291],[6.123545,52.253095],[6.123566,52.253185],[6.123581,52.253253],[6.123633,52.253391],[6.123658,52.25348],[6.123689,52.253608],[6.123668,52.253646],[6.123638,52.253688],[6.123684,52.253796],[6.123757,52.253989],[6.123805,52.254107],[6.123831,52.254174],[6.123875,52.25429],[6.12393,52.254468],[6.124,52.254645],[6.124072,52.254821],[6.124155,52.254989],[6.124226,52.25516],[6.124299,52.255329],[6.124341,52.255429],[6.124371,52.255499],[6.124443,52.25568],[6.124499,52.255831],[6.124504,52.255844],[6.124629,52.255989],[6.124954,52.256392],[6.125074,52.256617],[6.125145,52.256825],[6.125249,52.256963],[6.12551,52.25723],[6.125659,52.257383],[6.125756,52.257497],[6.125791,52.257503],[6.125916,52.257604],[6.12624,52.25779],[6.126526,52.258004],[6.126745,52.258167],[6.12706,52.258369],[6.127278,52.258512],[6.127305,52.258515],[6.127312,52.25852],[6.127491,52.258643],[6.127548,52.258686],[6.127559,52.258693],[6.12824,52.258621],[6.128297,52.258698],[6.128325,52.258724],[6.128296,52.258776],[6.128188,52.258873],[6.128089,52.25893],[6.128067,52.25896],[6.128091,52.259001],[6.128147,52.259048],[6.128445,52.259203],[6.128754,52.259366],[6.129301,52.259661],[6.129551,52.259816],[6.129619,52.259873],[6.129655,52.259947],[6.129664,52.260022],[6.129647,52.260143],[6.129634,52.260237],[6.129634,52.260238],[6.129658,52.260263],[6.130068,52.26069],[6.130069,52.260691],[6.129157,52.26103],[6.128495,52.261284],[6.128064,52.261448],[6.127678,52.261598],[6.127154,52.26184],[6.126942,52.261935],[6.126831,52.261989],[6.12654,52.262155],[6.12632,52.262287],[6.126062,52.262447],[6.125722,52.262666],[6.12553,52.262797],[6.125266,52.262991],[6.125112,52.263117],[6.12488,52.263329],[6.124797,52.26341],[6.124684,52.263523],[6.124547,52.263657],[6.124424,52.263794],[6.124125,52.264187],[6.124012,52.264338],[6.123965,52.264411],[6.123907,52.264507],[6.123818,52.26466],[6.123726,52.264834],[6.123628,52.265035],[6.123553,52.265208],[6.123493,52.26538],[6.123446,52.26552],[6.12342,52.265648],[6.123396,52.265773],[6.123374,52.265915],[6.123359,52.266255],[6.123336,52.266621],[6.123323,52.267],[6.123306,52.267344],[6.123291,52.267517],[6.123278,52.267671],[6.123247,52.267926],[6.123201,52.268242],[6.123157,52.268461],[6.123126,52.268616],[6.123099,52.268713],[6.123073,52.268799],[6.122982,52.269255],[6.122769,52.269724],[6.122615,52.270063],[6.122411,52.270408],[6.122218,52.270732],[6.12167,52.27144],[6.121109,52.272026],[6.120391,52.272534],[6.119872,52.272893],[6.119246,52.273349],[6.118259,52.274058],[6.117334,52.274577],[6.116707,52.274929],[6.116445,52.275071],[6.115474,52.275609],[6.1152,52.275782],[6.115177,52.275796],[6.114648,52.276128],[6.114421,52.276287],[6.114418,52.276289],[6.114021,52.276573],[6.113178,52.277305],[6.112971,52.277538],[6.112712,52.277829],[6.112627,52.277928],[6.112365,52.278305],[6.112175,52.278593],[6.112063,52.278778],[6.112041,52.278816],[6.111825,52.279215],[6.111687,52.279491],[6.11148,52.279972],[6.111404,52.280205],[6.111336,52.280412],[6.111297,52.280565],[6.111267,52.280721],[6.111248,52.280929],[6.111229,52.281207],[6.111252,52.281959],[6.111344,52.282579],[6.111368,52.282804],[6.111401,52.283131],[6.111459,52.28358],[6.111525,52.284024],[6.11164,52.284826],[6.111665,52.285164],[6.11173,52.285572],[6.111729,52.286229],[6.111734,52.286497],[6.111739,52.286779],[6.111743,52.286946],[6.111697,52.287182],[6.111608,52.287603],[6.111531,52.287769],[6.111522,52.287788],[6.111322,52.288211],[6.110932,52.288781],[6.110393,52.289339],[6.110253,52.289451],[6.109723,52.289872],[6.109563,52.289983],[6.109237,52.290205],[6.108609,52.290482],[6.107889,52.290912],[6.107637,52.29107],[6.107347,52.291255],[6.106896,52.291538],[6.106335,52.291937],[6.105865,52.292408],[6.105567,52.292814],[6.105485,52.292951],[6.105448,52.29302],[6.105422,52.293069],[6.105213,52.293416],[6.105121,52.293603],[6.10499,52.293907],[6.104771,52.294762],[6.10478,52.295178],[6.104825,52.29542],[6.104878,52.295574],[6.104961,52.295873],[6.104994,52.29625],[6.104986,52.296487],[6.104906,52.296712],[6.104857,52.296798],[6.104776,52.296938],[6.104535,52.297295],[6.104314,52.29759],[6.104143,52.297772],[6.10388,52.298004],[6.10344,52.298389],[6.103192,52.298592],[6.102883,52.29884],[6.102579,52.29909],[6.102375,52.299265],[6.102223,52.299428],[6.102049,52.299627],[6.101927,52.299821],[6.101724,52.300226],[6.101582,52.300519],[6.10132,52.301225],[6.10073,52.301215],[6.100694,52.301214],[6.100569,52.301208],[6.100535,52.301207],[6.100533,52.301207],[6.100365,52.301202],[6.099164,52.30117],[6.098742,52.30116],[6.099043,52.300449],[6.099194,52.300128],[6.098499,52.300125],[6.096767,52.300104],[6.095709,52.300087],[6.095476,52.300083],[6.095401,52.300131],[6.095121,52.300119],[6.094476,52.300092],[6.093889,52.300065],[6.093864,52.300063],[6.093783,52.300056],[6.093705,52.300062],[6.093694,52.300062],[6.093602,52.300063],[6.093579,52.300063],[6.093429,52.30006],[6.093316,52.300055],[6.093303,52.300054],[6.093093,52.300045],[6.092768,52.300038],[6.092177,52.30002],[6.091665,52.300008],[6.091033,52.29999],[6.091013,52.299989],[6.090916,52.299987],[6.090902,52.29999],[6.089308,52.300227],[6.088129,52.300376],[6.087981,52.300388],[6.087934,52.300391],[6.087908,52.300423],[6.087809,52.300554],[6.087683,52.300692],[6.087436,52.300911],[6.087199,52.301107],[6.087177,52.301125],[6.087176,52.301126],[6.086234,52.301898],[6.084126,52.301567],[6.084011,52.301816],[6.083959,52.301929],[6.083958,52.302163],[6.08411,52.302191],[6.084199,52.302209],[6.084154,52.302368],[6.083987,52.302967],[6.083887,52.303327],[6.083486,52.303294],[6.083466,52.303292],[6.083382,52.303711],[6.083223,52.304433],[6.082985,52.30548],[6.08294,52.305755],[6.082926,52.305916],[6.082926,52.305917],[6.082932,52.306583],[6.082952,52.306759],[6.082932,52.306992],[6.082928,52.30712],[6.082939,52.307202],[6.082954,52.307304],[6.082961,52.307346],[6.083045,52.307754],[6.083116,52.308051],[6.083161,52.30822],[6.083181,52.308305],[6.083191,52.308368],[6.083312,52.308735],[6.083337,52.308813],[6.083574,52.309529],[6.083639,52.309669],[6.083753,52.309895],[6.083754,52.309897],[6.083923,52.310269],[6.084096,52.310651],[6.084123,52.310705],[6.084269,52.311064],[6.084354,52.311333],[6.084398,52.311452],[6.084421,52.311505],[6.084489,52.311567],[6.084534,52.311595],[6.084721,52.311704],[6.08478,52.311741],[6.084189,52.311776],[6.083438,52.311811],[6.081841,52.311882],[6.081448,52.311901],[6.081313,52.311902],[6.08099,52.311903],[6.080956,52.312047],[6.080862,52.312423],[6.080679,52.313147],[6.080614,52.313425],[6.080509,52.313836],[6.080309,52.314647],[6.080345,52.314862],[6.08034,52.31492],[6.080337,52.314955],[6.080324,52.315071],[6.080298,52.315118],[6.080129,52.315373],[6.08008,52.315442],[6.080044,52.315512],[6.080001,52.315583],[6.079979,52.315632],[6.079967,52.315664],[6.079933,52.315876],[6.079926,52.316061],[6.079912,52.316232],[6.079903,52.316327],[6.07991,52.31635],[6.079935,52.316503],[6.079941,52.316531],[6.080038,52.316993],[6.080062,52.317006],[6.080071,52.317123],[6.080063,52.317189],[6.080013,52.317308],[6.079868,52.31754],[6.079822,52.317594],[6.079765,52.317636],[6.079694,52.317642],[6.07825,52.317763],[6.077978,52.317788],[6.077529,52.317824],[6.077229,52.317819],[6.076991,52.31781],[6.076561,52.317788],[6.076558,52.317774],[6.076516,52.317771],[6.076095,52.317747],[6.075629,52.317721],[6.075383,52.317719],[6.075215,52.31773],[6.073776,52.317741],[6.073765,52.317741],[6.073725,52.317744],[6.073714,52.317741],[6.073593,52.317712],[6.072265,52.317293],[6.072141,52.317259],[6.072133,52.317257],[6.072127,52.317255],[6.071915,52.317198],[6.071843,52.317185],[6.0718,52.317188],[6.071783,52.317189],[6.071586,52.317234],[6.071303,52.317305],[6.071207,52.31733],[6.071035,52.317363],[6.070906,52.317376],[6.070531,52.317421],[6.070263,52.31745],[6.070256,52.31745],[6.070247,52.317451],[6.070004,52.31748],[6.069363,52.317555],[6.069076,52.317595],[6.068302,52.317717],[6.068298,52.317718],[6.068207,52.317732],[6.068187,52.317735],[6.068051,52.317754],[6.067922,52.317754],[6.067483,52.317747],[6.067274,52.317756],[6.067086,52.317769],[6.066645,52.3178],[6.066645,52.3178],[6.066612,52.317803],[6.066525,52.317809],[6.066523,52.317975],[6.066518,52.318068],[6.066516,52.318097],[6.06651,52.318166],[6.066494,52.318371],[6.066476,52.318421],[6.066402,52.318558],[6.066256,52.318783],[6.066224,52.318839],[6.066191,52.318939],[6.066178,52.31903],[6.066184,52.319086],[6.066199,52.319136],[6.066217,52.319157],[6.066289,52.319356],[6.066353,52.319498],[6.066398,52.3196],[6.066418,52.319654],[6.066415,52.319714],[6.066405,52.319774],[6.066366,52.319841],[6.066317,52.31991],[6.066236,52.320012],[6.066184,52.320077],[6.066109,52.320172],[6.066083,52.320216],[6.066087,52.320253],[6.066126,52.3203],[6.066368,52.320529],[6.066411,52.320572],[6.066559,52.320716],[6.06657,52.320726],[6.066749,52.320886],[6.066829,52.321014],[6.066854,52.321049],[6.066916,52.321113],[6.067037,52.321214],[6.067113,52.321267],[6.067388,52.321413],[6.067476,52.321456],[6.067819,52.321593],[6.068488,52.321842],[6.068518,52.321853],[6.068639,52.321895],[6.068673,52.321871],[6.068711,52.321843],[6.068803,52.321772],[6.069286,52.321934],[6.06937,52.321962],[6.069383,52.321967],[6.07063,52.321784],[6.070706,52.321882],[6.070729,52.322091],[6.070762,52.322381],[6.070779,52.322535],[6.071062,52.322504],[6.071116,52.3227],[6.071167,52.322883],[6.071174,52.322907],[6.071182,52.322933],[6.071188,52.322957],[6.071248,52.323167],[6.071364,52.323568],[6.071375,52.323607],[6.071381,52.323626],[6.071385,52.323639],[6.071478,52.32396],[6.071534,52.324148],[6.071574,52.324288],[6.071594,52.324356],[6.071678,52.324647],[6.071744,52.324889],[6.071549,52.324912],[6.07151,52.324916],[6.071595,52.325158],[6.07168,52.325427],[6.071782,52.32569],[6.071903,52.325942],[6.072149,52.326439],[6.072173,52.326497],[6.072189,52.326572],[6.072198,52.326614],[6.072211,52.326771],[6.072204,52.327078],[6.072197,52.327235],[6.072188,52.327298],[6.072192,52.327379],[6.072222,52.327689],[6.072248,52.327768],[6.072317,52.327871],[6.072341,52.327898],[6.072475,52.328006],[6.072694,52.3282],[6.072884,52.328377],[6.072931,52.32843],[6.072983,52.3285],[6.073037,52.328588],[6.073079,52.328675],[6.073151,52.328831],[6.073281,52.329155],[6.073302,52.329223],[6.073291,52.329275],[6.073281,52.329303],[6.073291,52.329345],[6.073296,52.329363],[6.0733,52.329377],[6.073681,52.330569],[6.072313,52.330594],[6.072305,52.330594],[6.072155,52.330597],[6.072101,52.330598],[6.071971,52.3306],[6.071646,52.330607],[6.071027,52.330616],[6.070736,52.330622],[6.070676,52.330622],[6.070614,52.330629],[6.070565,52.330629],[6.070427,52.330635],[6.068248,52.330669],[6.066928,52.330686],[6.066421,52.330692],[6.06594,52.330701],[6.065832,52.330701],[6.065068,52.330711],[6.064302,52.33072],[6.064033,52.33073],[6.063913,52.330734],[6.063375,52.330754],[6.062549,52.330755],[6.060205,52.33078],[6.060112,52.330781],[6.0601,52.330781],[6.060092,52.330736],[6.060087,52.330723],[6.060059,52.330719],[6.060041,52.330731],[6.060037,52.330757],[6.060041,52.330798],[6.060058,52.330857],[6.060057,52.330887],[6.060042,52.330902],[6.060012,52.330905],[6.059982,52.330895],[6.059959,52.330881],[6.059947,52.330844],[6.059957,52.330806],[6.05994,52.330788],[6.059919,52.330756],[6.059887,52.330739],[6.059848,52.330732],[6.059805,52.330736],[6.059797,52.330801],[6.0598,52.330814],[6.059783,52.330823],[6.059723,52.330824],[6.059719,52.330824],[6.058559,52.330839],[6.058367,52.330834],[6.058137,52.330821],[6.057917,52.330817],[6.057265,52.330816],[6.056545,52.330815],[6.055601,52.330841],[6.055064,52.330863],[6.054991,52.330862],[6.054084,52.33088],[6.053691,52.330886],[6.053614,52.330891],[6.053517,52.330894],[6.053272,52.3309],[6.052948,52.330907],[6.052948,52.330906],[6.052945,52.330844],[6.052944,52.330756],[6.052936,52.330689],[6.05293,52.330571],[6.052931,52.330413],[6.052931,52.330368],[6.052892,52.330027],[6.052889,52.329918],[6.052886,52.329798],[6.052885,52.329669],[6.052882,52.329598],[6.052878,52.329491],[6.052864,52.329265],[6.05286,52.329062],[6.052855,52.328836],[6.052847,52.328619],[6.052847,52.328612],[6.052847,52.328587],[6.05285,52.328348],[6.052829,52.328048],[6.052815,52.327847],[6.052804,52.327618],[6.052804,52.327138],[6.052797,52.326937],[6.052783,52.326734],[6.05278,52.326646],[6.052776,52.326474],[6.052777,52.326305],[6.052779,52.326178],[6.052772,52.326062],[6.052772,52.32606],[6.052773,52.326011],[6.052764,52.325952],[6.052749,52.3259],[6.052749,52.325898],[6.052714,52.325821],[6.052645,52.325714],[6.052557,52.325584],[6.052423,52.325387],[6.052267,52.325181],[6.052144,52.325027],[6.052031,52.324889],[6.051903,52.32472],[6.051774,52.324546],[6.051631,52.324364],[6.051512,52.324206],[6.051408,52.324074],[6.051404,52.324069],[6.051302,52.323941],[6.051206,52.323821],[6.051115,52.323698],[6.051163,52.323711],[6.051194,52.323729],[6.051213,52.323741],[6.051241,52.323746],[6.05126,52.323739],[6.051255,52.323715],[6.051221,52.32367],[6.051195,52.323633],[6.051088,52.323521],[6.051027,52.323489],[6.051024,52.323489],[6.050992,52.323483],[6.050933,52.323454],[6.050803,52.323287],[6.050566,52.322969],[6.050459,52.322822],[6.050313,52.322627],[6.050229,52.322499],[6.050099,52.322278],[6.049849,52.321858],[6.049679,52.321571],[6.049524,52.321308],[6.049365,52.320997],[6.049203,52.320676],[6.049031,52.320372],[6.048849,52.32006],[6.048723,52.319829],[6.048572,52.319557],[6.048417,52.319316],[6.048274,52.319061],[6.04811,52.31875],[6.047995,52.318535],[6.047879,52.318325],[6.0478,52.318159],[6.047738,52.31802],[6.047699,52.317918],[6.047664,52.317816],[6.047611,52.317643],[6.047554,52.317426],[6.047487,52.317253],[6.047423,52.317096],[6.047345,52.316944],[6.04733,52.316919],[6.047194,52.316696],[6.047166,52.316652],[6.047022,52.316429],[6.046824,52.316122],[6.046614,52.315778],[6.046527,52.315651],[6.046375,52.31543],[6.046284,52.315292],[6.046175,52.315116],[6.04604,52.314899],[6.045803,52.314516],[6.04558,52.314131],[6.045384,52.313816],[6.045237,52.31356],[6.045038,52.313233],[6.044815,52.312855],[6.044639,52.312552],[6.044446,52.312199],[6.044245,52.311848],[6.044204,52.311774],[6.044044,52.311494],[6.043942,52.311332],[6.043814,52.3111],[6.043646,52.310771],[6.043503,52.310524],[6.043379,52.310303],[6.043369,52.310283],[6.043317,52.310182],[6.043162,52.309905],[6.043004,52.309603],[6.042838,52.309293],[6.042562,52.308814],[6.042418,52.30856],[6.042266,52.308286],[6.042109,52.307994],[6.042066,52.307909],[6.04192,52.30765],[6.041903,52.307619],[6.041682,52.30722],[6.041607,52.307088],[6.041543,52.306976],[6.041446,52.306797],[6.041415,52.30674],[6.04134,52.306611],[6.041174,52.306287],[6.041158,52.30626],[6.041097,52.306156],[6.041019,52.306024],[6.040892,52.305784],[6.04079,52.305592],[6.040724,52.305473],[6.040564,52.305151],[6.04035,52.304771],[6.040165,52.304422],[6.040135,52.304369],[6.040128,52.304357],[6.040104,52.304324],[6.040092,52.304312],[6.040071,52.3043],[6.04008,52.304302],[6.04004,52.304217],[6.040025,52.304187],[6.039999,52.304153],[6.039974,52.304115],[6.039904,52.303983],[6.039782,52.303765],[6.039652,52.303548],[6.039523,52.303328],[6.039419,52.303131],[6.03929,52.302901],[6.039169,52.302687],[6.039046,52.302465],[6.038916,52.302234],[6.038815,52.302059],[6.038805,52.302041],[6.038751,52.301935],[6.038696,52.301832],[6.038685,52.301814],[6.038501,52.301493],[6.038332,52.301184],[6.038174,52.300899],[6.038118,52.300799],[6.038056,52.300675],[6.038051,52.300669],[6.038041,52.300647],[6.038031,52.300628],[6.037934,52.300449],[6.037821,52.300252],[6.03771,52.30004],[6.037604,52.299853],[6.03748,52.299627],[6.037362,52.299416],[6.037236,52.299183],[6.037129,52.298987],[6.037081,52.298893],[6.036974,52.298699],[6.03686,52.298496],[6.036721,52.298237],[6.036602,52.29802],[6.03648,52.297801],[6.036355,52.297571],[6.036218,52.297322],[6.036149,52.297195],[6.036083,52.297074],[6.035961,52.296847],[6.035833,52.296615],[6.035717,52.296399],[6.03562,52.296228],[6.035437,52.295927],[6.035296,52.295676],[6.035163,52.295456],[6.035036,52.295276],[6.034909,52.295088],[6.034841,52.294973],[6.034808,52.294907],[6.034782,52.294845],[6.034763,52.294796],[6.034747,52.29475],[6.034718,52.29464],[6.034698,52.29456],[6.034689,52.294509],[6.034687,52.294466],[6.034674,52.294368],[6.034653,52.294195],[6.03463,52.293921],[6.034625,52.293803],[6.034626,52.293743],[6.034636,52.293636],[6.034645,52.293584],[6.034658,52.293483],[6.034674,52.293386],[6.034689,52.2933],[6.034693,52.29328],[6.034727,52.293054],[6.03477,52.292805],[6.034806,52.292622],[6.034843,52.292466],[6.034874,52.292371],[6.034881,52.292352],[6.034887,52.292332],[6.034909,52.292271],[6.034914,52.292259],[6.034927,52.29223],[6.034952,52.292171],[6.03499,52.292089],[6.035043,52.291998],[6.0351,52.291891],[6.035253,52.291657],[6.035426,52.291384],[6.035589,52.291143],[6.035743,52.290892],[6.036026,52.290439],[6.0362,52.290165],[6.036372,52.289879],[6.036547,52.289603],[6.036725,52.289323],[6.036804,52.289202],[6.036888,52.289067],[6.037055,52.288799],[6.037215,52.288538],[6.03737,52.288292],[6.037425,52.2882],[6.037511,52.288055],[6.037644,52.28785],[6.037789,52.287616],[6.037799,52.287598],[6.037829,52.287544],[6.037975,52.287256],[6.038079,52.287091],[6.038288,52.286763],[6.038467,52.28647],[6.038631,52.2862],[6.038914,52.285759],[6.039071,52.285525],[6.039163,52.285381],[6.039236,52.285277],[6.03927,52.285225],[6.039506,52.284876],[6.039701,52.284564],[6.039887,52.284273],[6.040055,52.283975],[6.04024,52.283659],[6.040271,52.283609],[6.040289,52.28358],[6.040326,52.283534],[6.040365,52.283491],[6.040408,52.283448],[6.040451,52.283405],[6.040585,52.283223],[6.040634,52.283127],[6.040876,52.28265],[6.040963,52.282447],[6.04105,52.282235],[6.041085,52.282154],[6.041164,52.281977],[6.041165,52.281974],[6.041255,52.281769],[6.041309,52.281656],[6.041412,52.281407],[6.041515,52.281182],[6.041605,52.280996],[6.041703,52.280801],[6.04171,52.280784],[6.041743,52.280724],[6.041792,52.280631],[6.041806,52.280606],[6.041825,52.280573],[6.04193,52.280437],[6.042116,52.280209],[6.042313,52.279971],[6.042507,52.279742],[6.04269,52.279536],[6.04282,52.279381],[6.042954,52.279233],[6.043003,52.279182],[6.043073,52.279107],[6.0432,52.278969],[6.043261,52.27889],[6.043294,52.278838],[6.043302,52.278823],[6.043326,52.278776],[6.043348,52.278727],[6.043369,52.278658],[6.043377,52.278596],[6.04338,52.278543],[6.043386,52.27845],[6.04338,52.278328],[6.043381,52.277971],[6.043382,52.277688],[6.043387,52.277326],[6.043397,52.277007],[6.043399,52.276693],[6.043412,52.276431],[6.043429,52.276148],[6.043437,52.276004],[6.043454,52.275798],[6.04346,52.275675],[6.043452,52.275602],[6.043438,52.275537],[6.043421,52.275499],[6.043388,52.275445],[6.043363,52.27541],[6.043326,52.275355],[6.043269,52.27528],[6.043235,52.275226],[6.043209,52.275179],[6.043182,52.275119],[6.043164,52.275081],[6.043145,52.275023],[6.04313,52.27498],[6.043115,52.274934],[6.043105,52.274888],[6.043097,52.274833],[6.043083,52.274753],[6.043052,52.274558],[6.04303,52.274451],[6.043015,52.274404],[6.043006,52.27438],[6.042984,52.274324],[6.042953,52.274267],[6.042921,52.274218],[6.04289,52.274172],[6.042831,52.27408],[6.042761,52.273983],[6.04266,52.273851],[6.042613,52.273794],[6.042563,52.273747],[6.04252,52.27371],[6.042445,52.273669],[6.04233,52.273618],[6.042186,52.273553],[6.042083,52.273517],[6.041977,52.273462],[6.041926,52.273438],[6.041882,52.273416],[6.041843,52.273388],[6.041817,52.273369],[6.041772,52.27333],[6.041751,52.273315],[6.041728,52.273296],[6.041688,52.273254],[6.041654,52.273224],[6.041635,52.273202],[6.041618,52.273186],[6.041601,52.273163],[6.041586,52.273142],[6.041577,52.273128],[6.041566,52.27311],[6.041557,52.273096],[6.041549,52.27308],[6.041537,52.273058],[6.041529,52.27304],[6.041518,52.273014],[6.041503,52.272971],[6.041478,52.272913],[6.041456,52.272868],[6.041431,52.27281],[6.041405,52.272757],[6.041387,52.272713],[6.041365,52.272659],[6.041341,52.272589],[6.041316,52.272518],[6.041304,52.272471],[6.041291,52.272421],[6.041284,52.272373],[6.04128,52.27233],[6.041275,52.272283],[6.041267,52.272212],[6.041267,52.272184],[6.041262,52.272115],[6.041259,52.272053],[6.041254,52.271989],[6.041252,52.271907],[6.041256,52.271786],[6.04126,52.271723],[6.041264,52.271658],[6.041269,52.271611],[6.041275,52.271585],[6.041283,52.271546],[6.041289,52.271512],[6.041302,52.271466],[6.041313,52.271437],[6.041331,52.271395],[6.041354,52.271341],[6.041367,52.271311],[6.041388,52.271269],[6.041436,52.271191],[6.04146,52.271152],[6.041513,52.271081],[6.041559,52.271029],[6.041608,52.270983],[6.041683,52.270916],[6.041745,52.270866],[6.041828,52.270799],[6.041911,52.270727],[6.042027,52.270632],[6.042112,52.270565],[6.04218,52.270509],[6.042246,52.270464],[6.042316,52.270425],[6.042376,52.270396],[6.04248,52.270347],[6.042669,52.270266],[6.042771,52.270195],[6.042771,52.270195],[6.042852,52.270139],[6.042933,52.270046],[6.042956,52.269998],[6.042977,52.269953],[6.043062,52.269717],[6.043115,52.269547],[6.043133,52.269548],[6.043142,52.269516],[6.043122,52.269015],[6.043106,52.268922],[6.043096,52.268892],[6.042926,52.268843],[6.042896,52.268836],[6.042677,52.268767],[6.04254,52.268716],[6.042361,52.26865],[6.042207,52.268596],[6.042076,52.268544],[6.041994,52.268509],[6.041865,52.268458],[6.041757,52.268416],[6.041694,52.268392],[6.041635,52.268374],[6.041548,52.268356],[6.04145,52.268337],[6.041383,52.268324],[6.041323,52.268313],[6.041279,52.268306],[6.041257,52.268303],[6.04102,52.268272],[6.040851,52.26825],[6.040673,52.268227],[6.040598,52.268218],[6.040475,52.268201],[6.040403,52.268196],[6.040307,52.26819],[6.040225,52.268181],[6.040157,52.26818],[6.040055,52.268182],[6.039859,52.268199],[6.039726,52.268212],[6.039471,52.268268],[6.039241,52.268319],[6.039193,52.26833],[6.039148,52.268341],[6.039106,52.26835],[6.039069,52.268354],[6.039058,52.268355],[6.039045,52.268355],[6.039029,52.268353],[6.03901,52.268351],[6.038956,52.268344],[6.038954,52.268344],[6.03895,52.268343],[6.03889,52.268333],[6.038809,52.268318],[6.03869,52.268295],[6.038595,52.268274],[6.038464,52.268244],[6.03837,52.268221],[6.038269,52.268197],[6.038219,52.268187],[6.038177,52.268182],[6.038131,52.268177],[6.038083,52.268176],[6.038014,52.268175],[6.037865,52.268178],[6.037754,52.26818],[6.037673,52.268185],[6.03759,52.268191],[6.037493,52.268202],[6.037396,52.268219],[6.037309,52.268239],[6.037236,52.268256],[6.037132,52.268288],[6.037001,52.268333],[6.036859,52.26838],[6.036739,52.268419],[6.036637,52.268453],[6.036395,52.26853],[6.036011,52.268028],[6.035914,52.267897],[6.035875,52.267901],[6.035843,52.267858],[6.035756,52.267739],[6.035564,52.267478],[6.035317,52.26696],[6.034939,52.266235],[6.034822,52.265979],[6.034724,52.265935],[6.034659,52.265906],[6.034881,52.265814],[6.034873,52.265746],[6.034864,52.26566],[6.034858,52.265607],[6.034849,52.265519],[6.034841,52.26544],[6.03483,52.265342],[6.034824,52.265276],[6.034955,52.265258],[6.034963,52.265257],[6.034995,52.265251],[6.035032,52.265242],[6.035068,52.265232],[6.035122,52.265209],[6.035184,52.265181],[6.035241,52.265154],[6.035323,52.265113],[6.035419,52.265062],[6.035509,52.265011],[6.035647,52.264927],[6.035762,52.264854],[6.035852,52.264793],[6.035917,52.264749],[6.035999,52.264691],[6.036098,52.264613],[6.036185,52.264551],[6.036284,52.264485],[6.0364,52.264404],[6.036508,52.26433],[6.036593,52.264269],[6.036676,52.264215],[6.036757,52.26416],[6.036889,52.264067],[6.03699,52.263992],[6.037104,52.263913],[6.037231,52.263829],[6.037363,52.26374],[6.03742,52.263705],[6.037446,52.263693],[6.037458,52.263689],[6.037453,52.263683],[6.037453,52.263678],[6.037456,52.263673],[6.037461,52.263667],[6.037469,52.263662],[6.037482,52.263654],[6.037519,52.263643],[6.03758,52.263628],[6.037645,52.263615],[6.037684,52.263606],[6.037673,52.263401],[6.037672,52.26325],[6.037666,52.262912],[6.037664,52.262812],[6.037662,52.262668],[6.037658,52.262635],[6.037647,52.262558],[6.037642,52.262472],[6.037641,52.262397],[6.037643,52.262352],[6.037643,52.262313],[6.037637,52.262277],[6.037631,52.262239],[6.037624,52.262213],[6.03762,52.262201],[6.03762,52.262178],[6.037618,52.262137],[6.037619,52.262101],[6.037622,52.262083],[6.037621,52.26208],[6.037613,52.262048],[6.037607,52.261995],[6.037607,52.261937],[6.037605,52.261937],[6.037603,52.261905],[6.037594,52.261788],[6.037582,52.261653],[6.037578,52.26161],[6.037571,52.261526],[6.037555,52.261395],[6.037544,52.261293],[6.037536,52.261236],[6.037531,52.261203],[6.037531,52.261201],[6.037514,52.26109],[6.037505,52.261016],[6.037494,52.26092],[6.037418,52.260875],[6.037361,52.260835],[6.037297,52.260792],[6.037295,52.26079],[6.037234,52.260748],[6.037183,52.26071],[6.037132,52.260672],[6.037106,52.260642],[6.037084,52.260611],[6.037057,52.260566],[6.037038,52.260529],[6.03702,52.260492],[6.036988,52.260439],[6.036955,52.260381],[6.036954,52.26038],[6.03693,52.26034],[6.036904,52.2603],[6.036871,52.260244],[6.036862,52.260227],[6.036837,52.260181],[6.036796,52.260109],[6.03676,52.260046],[6.036725,52.25998],[6.036689,52.259921],[6.036657,52.259858],[6.036634,52.25981],[6.036624,52.259776],[6.036612,52.259731],[6.036595,52.259665],[6.036594,52.25966],[6.036588,52.259639],[6.036587,52.259635],[6.036586,52.25963],[6.036579,52.259619],[6.036572,52.259606],[6.036549,52.259566],[6.036513,52.259503],[6.036506,52.25949],[6.035802,52.259513],[6.035676,52.259332],[6.035661,52.25931],[6.03566,52.259309],[6.035567,52.259191],[6.035469,52.259048],[6.035385,52.258914],[6.03538,52.258906],[6.03538,52.258901],[6.035378,52.258871],[6.035374,52.258839],[6.035365,52.258767],[6.035362,52.258743],[6.035359,52.258718],[6.035356,52.258699],[6.035352,52.258664],[6.035346,52.258598],[6.035338,52.258553],[6.035337,52.258546],[6.035327,52.258512],[6.035304,52.258471],[6.035292,52.258456],[6.035284,52.258448],[6.035149,52.258315],[6.035128,52.258305],[6.035118,52.258301],[6.03508,52.258283],[6.035025,52.258263],[6.034982,52.258251],[6.034944,52.258243],[6.034891,52.258232],[6.034818,52.258219],[6.034757,52.258208],[6.034693,52.258196],[6.034691,52.258195],[6.034616,52.258178],[6.034546,52.258161],[6.034447,52.258137],[6.034435,52.258134],[6.034413,52.258128],[6.034389,52.258123],[6.034286,52.258098],[6.034248,52.258114],[6.034154,52.258143],[6.034043,52.258168],[6.03399,52.258179],[6.033927,52.258182],[6.033749,52.258195],[6.033713,52.258196],[6.033612,52.258199],[6.033557,52.258201],[6.033461,52.258204],[6.033456,52.258204],[6.033331,52.258212],[6.033227,52.258224],[6.033076,52.25826],[6.032968,52.25829],[6.032738,52.258361],[6.032684,52.258377],[6.032473,52.258439],[6.032385,52.258464],[6.032027,52.258565],[6.031868,52.258589],[6.031824,52.258597],[6.031823,52.258575],[6.031823,52.258566],[6.031823,52.258562],[6.031769,52.25855],[6.03177,52.258531],[6.031773,52.258503],[6.031784,52.25846],[6.031799,52.258406],[6.031823,52.258324],[6.031844,52.258253],[6.03186,52.258185],[6.031876,52.25813],[6.031883,52.258083],[6.031905,52.257981],[6.03191,52.257928],[6.031919,52.257858],[6.031926,52.257801],[6.031931,52.257752],[6.031933,52.257715],[6.031933,52.257674],[6.031925,52.257612],[6.031916,52.257556],[6.031905,52.257514],[6.031885,52.257424],[6.031865,52.257359],[6.031856,52.257323],[6.031832,52.257263],[6.031806,52.257196],[6.031774,52.257109],[6.031747,52.257042],[6.031728,52.256992],[6.031711,52.256953],[6.031694,52.25692],[6.031678,52.256891],[6.031648,52.256845],[6.031632,52.256822],[6.031609,52.256789],[6.031601,52.256774],[6.031587,52.256751],[6.03156,52.256702],[6.031536,52.256666],[6.031515,52.25663],[6.031493,52.256593],[6.031471,52.256562],[6.031466,52.256557],[6.031435,52.256492],[6.031422,52.25645],[6.031417,52.256414],[6.031413,52.256374],[6.031415,52.25637],[6.031433,52.256347],[6.031457,52.256319],[6.031481,52.256292],[6.031503,52.256274],[6.031572,52.25622],[6.031639,52.256171],[6.031756,52.256083],[6.031934,52.255955],[6.031966,52.255913],[6.031963,52.255874],[6.031795,52.255755],[6.031596,52.255648],[6.031408,52.255546],[6.031295,52.255457],[6.031245,52.255365],[6.031262,52.254949],[6.031266,52.254878],[6.031267,52.254861],[6.031277,52.254825],[6.031279,52.254803],[6.031282,52.254768],[6.031283,52.254668],[6.031277,52.254568],[6.031275,52.254466],[6.031275,52.254417],[6.031278,52.254365],[6.031281,52.254336],[6.031292,52.254255],[6.031292,52.254236],[6.031294,52.254161],[6.031295,52.254073],[6.031309,52.253966],[6.031308,52.253866],[6.031305,52.253816],[6.031298,52.25374],[6.031292,52.253686],[6.031291,52.253638],[6.031281,52.253607],[6.031277,52.253564],[6.031273,52.25353],[6.031269,52.253513],[6.031256,52.253474],[6.031238,52.253422],[6.03121,52.253343],[6.03118,52.253273],[6.03116,52.253222],[6.031159,52.253104],[6.031101,52.252877],[6.031015,52.25251],[6.030976,52.252338],[6.03096,52.252284],[6.030939,52.252213],[6.030936,52.252206],[6.030901,52.252137],[6.030871,52.252049],[6.030832,52.251937],[6.030779,52.251792],[6.03073,52.251674],[6.030678,52.251545],[6.03064,52.251462],[6.030638,52.251456],[6.030598,52.251367],[6.030547,52.2513],[6.030499,52.25124],[6.030288,52.250964],[6.030055,52.250671],[6.029827,52.25037],[6.029553,52.250021],[6.029547,52.250007],[6.029217,52.249589],[6.029022,52.249331],[6.028902,52.249176],[6.0289,52.249173],[6.028755,52.248993],[6.028675,52.248887],[6.028644,52.248851],[6.028616,52.248819],[6.028613,52.248815],[6.028466,52.248658],[6.028382,52.248671],[6.028261,52.24869],[6.028129,52.248712],[6.027926,52.248744],[6.027924,52.248744],[6.027894,52.248749],[6.027809,52.248762],[6.027563,52.2488],[6.027149,52.248866],[6.026979,52.248892],[6.026803,52.248918],[6.026442,52.248982],[6.026418,52.248986],[6.026397,52.248989],[6.026363,52.248998],[6.026299,52.249015],[6.02623,52.24903],[6.026096,52.249052],[6.025976,52.249069],[6.025791,52.249102],[6.025526,52.249146],[6.025408,52.249166],[6.025308,52.24918],[6.02524,52.249191],[6.025156,52.249201],[6.025092,52.249212],[6.025088,52.249212],[6.024939,52.249232],[6.024897,52.249235],[6.024874,52.249233],[6.024864,52.249228],[6.02484,52.249179],[6.024819,52.249099],[6.024811,52.249061],[6.024806,52.249035],[6.024804,52.24901],[6.024801,52.248991],[6.024801,52.248971],[6.024801,52.248954],[6.024802,52.248936],[6.024805,52.248921],[6.024813,52.248906],[6.024829,52.248885],[6.024858,52.248854],[6.024915,52.248792],[6.024972,52.248726],[6.025019,52.24867],[6.025082,52.248591],[6.025192,52.248459],[6.025262,52.24837],[6.025341,52.248273],[6.025433,52.248161],[6.025514,52.248064],[6.025611,52.247944],[6.025669,52.247875],[6.025707,52.247828],[6.025721,52.247806],[6.025953,52.247524],[6.025972,52.2475],[6.026393,52.246988],[6.026617,52.246712],[6.026631,52.246694],[6.026649,52.246671],[6.027133,52.246069],[6.027147,52.246052],[6.027323,52.245832],[6.027338,52.245813],[6.028399,52.245388],[6.028396,52.245384],[6.028301,52.245287],[6.028015,52.244991],[6.027889,52.244861],[6.028187,52.244741],[6.028446,52.244634],[6.02872,52.244514],[6.028927,52.24439],[6.028575,52.24416],[6.028527,52.244129],[6.02821,52.243922],[6.02812,52.24386],[6.028057,52.243819],[6.0279,52.243712],[6.027574,52.243487],[6.027319,52.243359],[6.027235,52.243316],[6.026738,52.243061],[6.026511,52.242908],[6.026506,52.242904],[6.02659,52.242855],[6.026665,52.242809],[6.026758,52.242758],[6.026987,52.242628],[6.027103,52.242561],[6.027245,52.24248],[6.027402,52.24239],[6.027521,52.242324],[6.027675,52.242233],[6.027848,52.242133],[6.028015,52.242039],[6.028099,52.241992],[6.028155,52.241959],[6.0282,52.241929],[6.028224,52.241906],[6.028242,52.241884],[6.028263,52.241856],[6.028289,52.241813],[6.028305,52.241784],[6.028316,52.241756],[6.028325,52.241727],[6.028329,52.241695],[6.028331,52.24168],[6.028319,52.241649],[6.028323,52.241636],[6.028333,52.241387],[6.028339,52.241343],[6.028353,52.241163],[6.028364,52.240957],[6.028423,52.240111],[6.028467,52.239425],[6.028471,52.239339],[6.028472,52.239273],[6.028472,52.239208],[6.028472,52.2391],[6.028472,52.239072],[6.028472,52.239043],[6.028519,52.239007],[6.028647,52.238912],[6.028759,52.238831],[6.028782,52.238814],[6.028883,52.238741],[6.029011,52.238647],[6.02906,52.238608],[6.029098,52.238575],[6.029274,52.238446],[6.029382,52.238364],[6.029521,52.238256],[6.029675,52.238138],[6.029812,52.238028],[6.029973,52.237903],[6.030042,52.237847]]]},"properties":{"type":"boundary","gemeente":"Voorst"}}]}