{"type":"FeatureCollection","metadata":{"gemeente":"Waalre","slug":"waalre","generated_at":"2026-10-05T09:09:10.018496Z","total_points":12,"providers":["DHL","PostNL","VintedGo","GLS","FedEx"],"bounds":[5.445668,51.386955,5.4793188177310626,51.3998384840785]},"features":[{"type":"Feature","geometry":{"type":"Point","coordinates":[5.4793188177310626,51.39631611731674]},"properties":{"type":"pakketpunt","locatieNaam":"Pakketautomaat By Deme","straatNaam":"Nassaustraat","straatNr":"1-D","vervoerder":"DHL","puntType":"packStation","bezettingsgraad":50,"latitude":51.39631611731674,"longitude":5.4793188177310626,"canPickup":true,"canDropoff":true,"openingstijden":{"ma":"08:00 - 20:00","di":"08:00 - 20:00","wo":"08:00 - 20:00","do":"08:00 - 20:00","vr":"08:00 - 20:00","za":"09:00 - 18:00","zo":"09:00 - 18:00"}}},{"type":"Feature","geometry":{"type":"Point","coordinates":[5.474836708,51.39507065]},"properties":{"type":"pakketpunt","locatieNaam":"Bruna Postkantoor","straatNaam":"Den Hof","straatNr":"20","vervoerder":"PostNL","puntType":"servicepunt","bezettingsgraad":50,"latitude":51.39507065,"longitude":5.474836708,"canPickup":true,"canDropoff":true,"openingstijden":"09:00 - 18:00 (Na 18:00 open; Zaterdag open)"}},{"type":"Feature","geometry":{"type":"Point","coordinates":[5.47896283536485,51.3962449859387]},"properties":{"type":"pakketpunt","locatieNaam":"Pakketautomaat","straatNaam":"Nassaustraat","straatNr":"1PBA","vervoerder":"PostNL","puntType":"automaat","bezettingsgraad":50,"latitude":51.3962449859387,"longitude":5.47896283536485,"canPickup":true,"canDropoff":true,"openingstijden":"00:00 - 23:59"}},{"type":"Feature","geometry":{"type":"Point","coordinates":[5.44577324,51.38702604]},"properties":{"type":"pakketpunt","locatieNaam":"Albert Heijn Waalre","straatNaam":"De Bus","straatNr":"38","vervoerder":"PostNL","puntType":"servicepunt","bezettingsgraad":50,"latitude":51.38702604,"longitude":5.44577324,"canPickup":true,"canDropoff":true,"openingstijden":"08:00 - 21:00"}},{"type":"Feature","geometry":{"type":"Point","coordinates":[5.4456684,51.386955]},"properties":{"type":"pakketpunt","locatieNaam":"Pakketautomaat","straatNaam":"De Bus","straatNr":"38PBA","vervoerder":"PostNL","puntType":"automaat","bezettingsgraad":50,"latitude":51.386955,"longitude":5.4456684,"canPickup":true,"canDropoff":true,"openingstijden":"08:00 - 21:00"}},{"type":"Feature","geometry":{"type":"Point","coordinates":[5.46960083224044,51.3998384840785]},"properties":{"type":"pakketpunt","locatieNaam":"Pakketautomaat","straatNaam":"Hortensialaan","straatNr":"2PBA","vervoerder":"PostNL","puntType":"automaat","bezettingsgraad":50,"latitude":51.3998384840785,"longitude":5.46960083224044,"canPickup":true,"canDropoff":true,"openingstijden":"00:00 - 23:59"}},{"type":"Feature","geometry":{"type":"Point","coordinates":[5.479032,51.3962402]},"properties":{"type":"pakketpunt","locatieNaam":"By Deme, Nassaustraat, Waalre, Nederland","straatNaam":"Nassaustraat 1D","straatNr":"","vervoerder":"VintedGo","puntType":"locker","bezettingsgraad":50,"latitude":51.3962402,"longitude":5.479032,"canPickup":true,"canDropoff":true,"openingstijden":null}},{"type":"Feature","geometry":{"type":"Point","coordinates":[5.46960083,51.3998384]},"properties":{"type":"pakketpunt","locatieNaam":"Pakketautomaat","straatNaam":"Hortensialaan","straatNr":"2","vervoerder":"GLS","puntType":"locker","bezettingsgraad":50,"latitude":51.3998384,"longitude":5.46960083,"canPickup":true,"canDropoff":true,"openingstijden":{"ma":"00:00 - 23:59","di":"00:00 - 23:59","wo":"00:00 - 23:59","do":"00:00 - 23:59","vr":"00:00 - 23:59","za":"00:00 - 23:59","zo":"00:00 - 23:59"}}},{"type":"Feature","geometry":{"type":"Point","coordinates":[5.47896283,51.3962449]},"properties":{"type":"pakketpunt","locatieNaam":"Pakketautomaat","straatNaam":"Nassaustraat","straatNr":"1","vervoerder":"GLS","puntType":"locker","bezettingsgraad":50,"latitude":51.3962449,"longitude":5.47896283,"canPickup":true,"canDropoff":true,"openingstijden":{"ma":"00:00 - 23:59","di":"00:00 - 23:59","wo":"00:00 - 23:59","do":"00:00 - 23:59","vr":"00:00 - 23:59","za":"00:00 - 23:59","zo":"00:00 - 23:59"}}},{"type":"Feature","geometry":{"type":"Point","coordinates":[5.4456684,51.386955]},"properties":{"type":"pakketpunt","locatieNaam":"Pakketautomaat","straatNaam":"De Bus","straatNr":"38","vervoerder":"GLS","puntType":"locker","bezettingsgraad":50,"latitude":51.386955,"longitude":5.4456684,"canPickup":true,"canDropoff":true,"openingstijden":{"ma":"08:00 - 21:00","di":"08:00 - 21:00","wo":"08:00 - 21:00","do":"08:00 - 21:00","vr":"08:00 - 21:00","za":"08:00 - 21:00","zo":"10:00 - 20:00"}}},{"type":"Feature","geometry":{"type":"Point","coordinates":[5.445668,51.386955]},"properties":{"type":"pakketpunt","locatieNaam":"FedEx Ship&Get","straatNaam":"De Bus 38 PBA","straatNr":"","vervoerder":"FedEx","puntType":"servicepunt","bezettingsgraad":50,"latitude":51.386955,"longitude":5.445668,"canPickup":true,"canDropoff":true,"openingstijden":{"ma":"08:00 - 21:00","di":"08:00 - 21:00","wo":"08:00 - 21:00","do":"08:00 - 21:00","vr":"08:00 - 21:00","za":"08:00 - 21:00","zo":"10:00 - 20:00"}}},{"type":"Feature","geometry":{"type":"Point","coordinates":[5.469601,51.399838]},"properties":{"type":"pakketpunt","locatieNaam":"FedEx Ship&Get","straatNaam":"Hortensialaan 2 PBA","straatNr":"","vervoerder":"FedEx","puntType":"servicepunt","bezettingsgraad":50,"latitude":51.399838,"longitude":5.469601,"canPickup":true,"canDropoff":true,"openingstijden":{"ma":"00:00 - 23:59","di":"00:00 - 23:59","wo":"00:00 - 23:59","do":"00:00 - 23:59","vr":"00:00 - 23:59","za":"00:00 - 23:59","zo":"00:00 - 23:59"}}},{"type":"Feature","geometry":{"type":"Polygon","coordinates":[[[5.421801,51.38341],[5.42187,51.383433],[5.421968,51.383474],[5.421824,51.383555],[5.421699,51.38365],[5.421526,51.383832],[5.421361,51.383943],[5.421239,51.384003],[5.421093,51.384154],[5.421091,51.384218],[5.421124,51.384265],[5.421595,51.384433],[5.421655,51.38447],[5.421687,51.384521],[5.421678,51.384535],[5.421588,51.384575],[5.421328,51.384651],[5.421072,51.384778],[5.42102,51.384791],[5.420867,51.384777],[5.420791,51.384781],[5.420667,51.384803],[5.420545,51.384859],[5.420351,51.384984],[5.420319,51.385034],[5.420335,51.38509],[5.420373,51.385128],[5.421029,51.385618],[5.421116,51.385728],[5.421084,51.385765],[5.420997,51.385776],[5.420915,51.385771],[5.420812,51.385733],[5.420628,51.385618],[5.420501,51.385475],[5.420429,51.385449],[5.42038,51.385451],[5.420288,51.385477],[5.420223,51.385558],[5.420218,51.385608],[5.420296,51.385745],[5.420627,51.385969],[5.420872,51.386166],[5.420901,51.386206],[5.420883,51.386254],[5.420827,51.38628],[5.420716,51.38629],[5.420604,51.386276],[5.42031,51.386213],[5.420198,51.386198],[5.420129,51.3862],[5.420036,51.386215],[5.419759,51.386336],[5.419582,51.386448],[5.419498,51.386529],[5.419856,51.386631],[5.419867,51.386723],[5.419569,51.387022],[5.419402,51.387217],[5.419289,51.387228],[5.419146,51.387151],[5.419077,51.387141],[5.41895,51.387146],[5.418839,51.387177],[5.418761,51.387215],[5.418612,51.387335],[5.418423,51.387554],[5.418283,51.387667],[5.417936,51.387826],[5.417805,51.387901],[5.417757,51.387989],[5.417711,51.388285],[5.41772,51.388346],[5.417783,51.388402],[5.417836,51.388424],[5.418283,51.388551],[5.418335,51.388588],[5.418409,51.388666],[5.418462,51.388762],[5.418475,51.388861],[5.418461,51.388957],[5.418396,51.389052],[5.418338,51.38909],[5.418143,51.38912],[5.41752,51.389094],[5.417459,51.38913],[5.417439,51.389156],[5.417446,51.389183],[5.417566,51.389305],[5.417641,51.389359],[5.417938,51.389528],[5.418199,51.389653],[5.418246,51.389716],[5.41825,51.38977],[5.418207,51.389823],[5.417857,51.390099],[5.41782,51.390135],[5.417805,51.390184],[5.417838,51.39023],[5.418022,51.390399],[5.418303,51.390727],[5.418398,51.390818],[5.418514,51.390832],[5.418783,51.390826],[5.418892,51.390849],[5.418992,51.390957],[5.419135,51.391177],[5.4192,51.391216],[5.419316,51.391236],[5.41939,51.391311],[5.419482,51.39146],[5.419659,51.39165],[5.419942,51.391782],[5.420045,51.391843],[5.420098,51.391928],[5.42004,51.392016],[5.419613,51.392033],[5.419523,51.39208],[5.419519,51.392153],[5.419634,51.392212],[5.421177,51.392641],[5.42147,51.392758],[5.42154,51.392807],[5.4216,51.39287],[5.421666,51.393198],[5.421594,51.393443],[5.421573,51.393606],[5.421655,51.393718],[5.421718,51.393769],[5.421998,51.393943],[5.422073,51.394047],[5.422106,51.394142],[5.422181,51.394273],[5.422263,51.394336],[5.422467,51.394435],[5.422671,51.394595],[5.423051,51.394991],[5.423057,51.395046],[5.423037,51.39506],[5.422961,51.395079],[5.422836,51.395072],[5.422618,51.395029],[5.422372,51.395013],[5.422245,51.395037],[5.422174,51.395104],[5.42214,51.395217],[5.422186,51.395308],[5.42228,51.395429],[5.422324,51.395558],[5.42209,51.395813],[5.422076,51.39589],[5.422161,51.395985],[5.422304,51.396092],[5.422331,51.396154],[5.422287,51.396328],[5.422093,51.396689],[5.422096,51.396739],[5.422123,51.396784],[5.423057,51.39753],[5.423521,51.397746],[5.423699,51.397869],[5.423829,51.398027],[5.423983,51.398384],[5.423946,51.398424],[5.42391,51.398439],[5.423483,51.398491],[5.423447,51.398506],[5.423393,51.398537],[5.423352,51.398596],[5.423337,51.398652],[5.423354,51.398687],[5.423407,51.398718],[5.423546,51.398771],[5.42373,51.398801],[5.424023,51.398874],[5.424127,51.398926],[5.424255,51.399016],[5.424363,51.39912],[5.424358,51.399161],[5.424301,51.399184],[5.424216,51.399192],[5.423901,51.399173],[5.423838,51.399188],[5.423811,51.399225],[5.423796,51.399366],[5.42381,51.399491],[5.423854,51.399648],[5.42403,51.399773],[5.42451,51.400162],[5.424796,51.400516],[5.425024,51.400742],[5.425096,51.400766],[5.425167,51.400775],[5.425284,51.400774],[5.42552,51.400706],[5.425598,51.40071],[5.425666,51.400732],[5.425718,51.400764],[5.425756,51.400813],[5.425709,51.401091],[5.425724,51.401141],[5.425792,51.401233],[5.425871,51.401397],[5.426523,51.401747],[5.426758,51.401907],[5.426894,51.402025],[5.426892,51.402056],[5.426637,51.402278],[5.426633,51.40233],[5.426673,51.402375],[5.426996,51.402487],[5.42708,51.40255],[5.427182,51.402587],[5.427277,51.402654],[5.427385,51.402763],[5.427507,51.40287],[5.427582,51.402922],[5.427645,51.402869],[5.427846,51.402702],[5.427992,51.40258],[5.428747,51.402799],[5.428754,51.402801],[5.429903,51.40281],[5.430621,51.402693],[5.430965,51.402637],[5.43118,51.402394],[5.431224,51.402322],[5.43124,51.402236],[5.431192,51.402063],[5.431199,51.402058],[5.431216,51.402049],[5.431576,51.402296],[5.431608,51.402319],[5.431632,51.402332],[5.431657,51.402339],[5.431813,51.402357],[5.432002,51.402377],[5.43226,51.402409],[5.432411,51.40242],[5.432633,51.40245],[5.432776,51.402474],[5.432947,51.402492],[5.433101,51.402508],[5.433207,51.402517],[5.433346,51.402525],[5.433509,51.402547],[5.433619,51.402572],[5.43372,51.402606],[5.43378,51.402636],[5.433986,51.402714],[5.434243,51.402806],[5.434548,51.402937],[5.434864,51.403097],[5.435117,51.403233],[5.43527,51.40331],[5.435282,51.403317],[5.435356,51.403363],[5.4354,51.403399],[5.435451,51.403446],[5.435476,51.403479],[5.43549,51.403512],[5.4355,51.403533],[5.435511,51.403557],[5.435525,51.403612],[5.435533,51.403632],[5.435545,51.403663],[5.43555,51.403676],[5.435569,51.403725],[5.43557,51.403729],[5.435633,51.403911],[5.435688,51.404061],[5.435702,51.404097],[5.435718,51.404128],[5.43575,51.40419],[5.435754,51.404199],[5.435797,51.40429],[5.43581,51.404301],[5.435898,51.404324],[5.435894,51.404329],[5.435993,51.404356],[5.436165,51.404442],[5.436209,51.404437],[5.436317,51.404472],[5.43632,51.404474],[5.436327,51.404486],[5.436282,51.404633],[5.436203,51.404908],[5.436189,51.404976],[5.436213,51.404977],[5.437501,51.404999],[5.438199,51.405011],[5.438216,51.405011],[5.438807,51.405021],[5.43881,51.405021],[5.440699,51.405054],[5.44296,51.405093],[5.443,51.405112],[5.444687,51.405144],[5.448433,51.405215],[5.44864,51.405217],[5.451486,51.405249],[5.451502,51.405228],[5.451525,51.405197],[5.451746,51.4049],[5.451873,51.404933],[5.452628,51.405122],[5.452622,51.40513],[5.453094,51.405256],[5.453214,51.405288],[5.45351,51.405293],[5.453524,51.405273],[5.453553,51.405231],[5.455341,51.405257],[5.458216,51.405248],[5.458728,51.405247],[5.459059,51.405247],[5.460162,51.405245],[5.460402,51.405245],[5.460782,51.405103],[5.460807,51.405093],[5.460814,51.405091],[5.460765,51.405026],[5.460741,51.404994],[5.460753,51.404994],[5.460762,51.404994],[5.460824,51.404992],[5.460864,51.40499],[5.461855,51.404958],[5.461901,51.404957],[5.461944,51.404955],[5.461964,51.404955],[5.461979,51.404954],[5.461993,51.404954],[5.462069,51.404951],[5.462097,51.40495],[5.462116,51.404949],[5.462507,51.404937],[5.462543,51.404935],[5.462563,51.404944],[5.462815,51.405053],[5.463069,51.405162],[5.463326,51.405273],[5.464519,51.405291],[5.46528,51.405299],[5.466245,51.405303],[5.466827,51.405305],[5.46819,51.405299],[5.468237,51.405298],[5.468264,51.405298],[5.468287,51.405298],[5.468364,51.405298],[5.468381,51.405298],[5.468625,51.405034],[5.46899,51.405196],[5.469142,51.405269],[5.469311,51.405343],[5.469322,51.40535],[5.469988,51.405339],[5.470019,51.405339],[5.471144,51.405321],[5.471174,51.405263],[5.471573,51.405312],[5.472744,51.405272],[5.472747,51.405272],[5.472777,51.405203],[5.472872,51.405219],[5.473002,51.405241],[5.473222,51.405278],[5.473239,51.405238],[5.473274,51.405236],[5.473326,51.405233],[5.47336,51.405231],[5.473374,51.40523],[5.473411,51.405227],[5.473431,51.405226],[5.47347,51.405224],[5.474136,51.405183],[5.474726,51.405147],[5.474844,51.405136],[5.476925,51.404934],[5.47694,51.404863],[5.477064,51.404873],[5.477076,51.404874],[5.477105,51.404876],[5.477163,51.40488],[5.477189,51.404882],[5.477459,51.404903],[5.477677,51.40492],[5.477801,51.40493],[5.47783,51.40491],[5.477884,51.404872],[5.47789,51.404868],[5.478129,51.404855],[5.478153,51.404854],[5.479585,51.404775],[5.47978,51.404764],[5.48007,51.404737],[5.480184,51.404719],[5.48022,51.404713],[5.480311,51.404699],[5.480323,51.404697],[5.480372,51.404689],[5.480422,51.404681],[5.480509,51.404668],[5.480588,51.404655],[5.4806,51.404653],[5.480616,51.404651],[5.48073,51.404633],[5.480791,51.404623],[5.48084,51.404615],[5.480846,51.404614],[5.480941,51.404605],[5.481071,51.404592],[5.481086,51.404605],[5.481128,51.404641],[5.481157,51.404642],[5.48185,51.404668],[5.482568,51.404645],[5.484008,51.404663],[5.486381,51.404707],[5.486448,51.404708],[5.486479,51.404709],[5.48652,51.40471],[5.48689,51.404717],[5.487612,51.404739],[5.487802,51.404736],[5.488946,51.404715],[5.48905,51.404713],[5.489055,51.404712],[5.48944,51.404598],[5.489572,51.404559],[5.489895,51.404463],[5.489923,51.404455],[5.490011,51.404453],[5.490048,51.404452],[5.490098,51.404451],[5.490256,51.404447],[5.490291,51.404446],[5.490325,51.404455],[5.490898,51.404597],[5.491034,51.40463],[5.491087,51.404643],[5.491779,51.404596],[5.492414,51.404552],[5.492552,51.404543],[5.493648,51.40447],[5.49377,51.404414],[5.493807,51.40445],[5.494018,51.40444],[5.494987,51.404397],[5.496412,51.404333],[5.496938,51.404309],[5.497069,51.404303],[5.497096,51.404302],[5.497824,51.404268],[5.499851,51.403858],[5.501105,51.403305],[5.501545,51.40311],[5.502168,51.402635],[5.502556,51.402339],[5.502723,51.402211],[5.503356,51.401728],[5.503395,51.401697],[5.503449,51.401656],[5.503531,51.401594],[5.503624,51.401522],[5.503738,51.401256],[5.503777,51.401166],[5.504238,51.40009],[5.504257,51.400047],[5.504467,51.400084],[5.504498,51.400089],[5.50462,51.400111],[5.504637,51.400114],[5.504654,51.400117],[5.504807,51.400143],[5.504874,51.400155],[5.50606,51.397385],[5.506141,51.397415],[5.506143,51.397399],[5.50732,51.394646],[5.508128,51.392762],[5.508221,51.392545],[5.508227,51.39253],[5.508245,51.392489],[5.508252,51.392473],[5.508285,51.392396],[5.508388,51.392153],[5.508408,51.392107],[5.508971,51.390787],[5.509566,51.389397],[5.509569,51.389389],[5.510096,51.388159],[5.510494,51.387227],[5.511407,51.385094],[5.511593,51.384661],[5.51179,51.384235],[5.511891,51.384035],[5.512004,51.383811],[5.512234,51.383391],[5.512482,51.382975],[5.512746,51.382562],[5.513026,51.382154],[5.513323,51.381751],[5.513636,51.381352],[5.513965,51.380958],[5.514309,51.38057],[5.51467,51.380185],[5.515606,51.379194],[5.516418,51.378335],[5.515992,51.378062],[5.51586,51.377978],[5.515121,51.377456],[5.508479,51.372766],[5.501804,51.374165],[5.501661,51.37428],[5.497843,51.373511],[5.497828,51.373507],[5.496477,51.373137],[5.495945,51.373142],[5.49594,51.373156],[5.495938,51.373161],[5.495922,51.373177],[5.495903,51.373187],[5.495854,51.373198],[5.495808,51.373197],[5.495767,51.373192],[5.495743,51.373186],[5.495711,51.373182],[5.495658,51.373172],[5.495537,51.373494],[5.495529,51.373516],[5.495454,51.37361],[5.495071,51.37376],[5.494934,51.373775],[5.494788,51.373783],[5.494652,51.373826],[5.494505,51.373916],[5.494425,51.373926],[5.494373,51.373915],[5.494327,51.373888],[5.494285,51.373831],[5.494234,51.373793],[5.494057,51.373773],[5.493634,51.373802],[5.493417,51.37384],[5.493223,51.373901],[5.493104,51.373913],[5.492902,51.37402],[5.492695,51.374102],[5.492641,51.374121],[5.492479,51.374151],[5.49239,51.374137],[5.492258,51.374115],[5.491875,51.374055],[5.491462,51.373991],[5.491101,51.373935],[5.490677,51.373869],[5.489135,51.373635],[5.487701,51.37342],[5.4859,51.373136],[5.484651,51.372941],[5.484595,51.372932],[5.482964,51.372676],[5.480668,51.372314],[5.480557,51.372297],[5.480489,51.372285],[5.478686,51.372002],[5.477936,51.371884],[5.47593,51.371568],[5.475663,51.371526],[5.47545,51.371493],[5.473728,51.371221],[5.473367,51.371164],[5.472184,51.370978],[5.46854,51.370404],[5.466792,51.370115],[5.466696,51.370103],[5.466694,51.370103],[5.466536,51.370078],[5.466284,51.370048],[5.466177,51.370036],[5.466154,51.370033],[5.464508,51.369852],[5.463228,51.36971],[5.462373,51.369616],[5.461368,51.369505],[5.461108,51.369477],[5.461101,51.369476],[5.452462,51.368524],[5.452348,51.368511],[5.450937,51.368356],[5.450901,51.368392],[5.448642,51.368137],[5.448628,51.36817],[5.44545,51.367895],[5.445395,51.36789],[5.445284,51.367881],[5.445234,51.368151],[5.445134,51.368136],[5.444964,51.368104],[5.444934,51.368097],[5.444739,51.368054],[5.444669,51.368039],[5.444047,51.367916],[5.44313,51.367738],[5.443065,51.367725],[5.443018,51.367715],[5.441895,51.367485],[5.441886,51.367478],[5.441602,51.367321],[5.441568,51.367302],[5.441309,51.367194],[5.44076,51.366963],[5.440088,51.36668],[5.43928,51.366273],[5.439277,51.366272],[5.439256,51.366264],[5.439222,51.366252],[5.439166,51.366353],[5.439109,51.366338],[5.438125,51.366087],[5.437497,51.366341],[5.437447,51.366214],[5.437329,51.366067],[5.43728,51.366013],[5.437194,51.366074],[5.437144,51.366108],[5.437093,51.366126],[5.437017,51.366136],[5.436959,51.36614],[5.436884,51.366177],[5.436718,51.366215],[5.436529,51.366238],[5.436376,51.366242],[5.436301,51.366239],[5.436401,51.36643],[5.436413,51.366478],[5.436411,51.366506],[5.436403,51.366527],[5.436232,51.366946],[5.436223,51.366972],[5.436069,51.367294],[5.435686,51.367639],[5.435614,51.367781],[5.435609,51.367789],[5.43555,51.367904],[5.435462,51.368058],[5.435375,51.368176],[5.435367,51.368187],[5.435331,51.368236],[5.435279,51.368218],[5.435268,51.368214],[5.43525,51.368208],[5.435214,51.368212],[5.435181,51.368214],[5.435073,51.368324],[5.434687,51.368498],[5.434457,51.368584],[5.433933,51.368676],[5.433696,51.368738],[5.433465,51.368809],[5.433275,51.368868],[5.433087,51.368936],[5.43293,51.369038],[5.432885,51.369076],[5.432864,51.369093],[5.432816,51.369127],[5.432721,51.369184],[5.432549,51.369281],[5.432478,51.369304],[5.432442,51.369307],[5.432424,51.369308],[5.432404,51.369308],[5.432359,51.369304],[5.432301,51.369295],[5.432272,51.369281],[5.432265,51.369278],[5.432229,51.369245],[5.4322,51.369206],[5.432167,51.369155],[5.432142,51.369127],[5.432113,51.369101],[5.432092,51.369094],[5.432064,51.36909],[5.432028,51.369101],[5.431957,51.369134],[5.431566,51.369342],[5.431557,51.369364],[5.431567,51.369396],[5.43161,51.369424],[5.431622,51.369432],[5.431687,51.369438],[5.431723,51.369437],[5.431794,51.369425],[5.431863,51.369412],[5.431887,51.369409],[5.431951,51.369421],[5.431973,51.369428],[5.431987,51.369433],[5.431996,51.369437],[5.432026,51.369478],[5.432031,51.369507],[5.432032,51.36951],[5.43203,51.36956],[5.432028,51.369605],[5.432019,51.369628],[5.432007,51.369653],[5.431996,51.369671],[5.431985,51.369684],[5.43195,51.369709],[5.431927,51.369722],[5.431904,51.36973],[5.431859,51.369742],[5.431829,51.369746],[5.431792,51.369747],[5.431748,51.369744],[5.431729,51.369739],[5.431669,51.369722],[5.431588,51.3697],[5.431568,51.369696],[5.431527,51.369687],[5.431463,51.369676],[5.431449,51.369675],[5.431397,51.369679],[5.431383,51.369685],[5.431362,51.369718],[5.431351,51.369742],[5.431346,51.369774],[5.431344,51.369785],[5.431336,51.369844],[5.43133,51.369881],[5.431327,51.369897],[5.431308,51.369928],[5.431284,51.36996],[5.431267,51.369975],[5.43125,51.369992],[5.43121,51.37001],[5.431173,51.370025],[5.431106,51.370028],[5.431078,51.37003],[5.431047,51.370028],[5.430981,51.37002],[5.430955,51.370017],[5.430911,51.370007],[5.43089,51.370002],[5.430842,51.369993],[5.430764,51.369983],[5.430744,51.36998],[5.430737,51.369979],[5.430582,51.370001],[5.430553,51.370003],[5.430353,51.370013],[5.430158,51.370022],[5.430131,51.370023],[5.430105,51.370023],[5.430072,51.370027],[5.429713,51.37006],[5.429561,51.370075],[5.429507,51.370084],[5.429405,51.370103],[5.429315,51.370123],[5.429222,51.370147],[5.42914,51.370173],[5.429094,51.370192],[5.42907,51.370204],[5.429055,51.370215],[5.429043,51.370236],[5.42903,51.370259],[5.429025,51.370278],[5.429038,51.370307],[5.429056,51.37033],[5.429069,51.370349],[5.429118,51.370388],[5.429249,51.370486],[5.429271,51.370502],[5.429287,51.37052],[5.429313,51.370557],[5.429323,51.370574],[5.429335,51.370598],[5.429352,51.37063],[5.429364,51.370656],[5.429387,51.370707],[5.42942,51.370779],[5.429426,51.370799],[5.429436,51.370824],[5.429441,51.370855],[5.429445,51.370878],[5.429446,51.370898],[5.429444,51.370914],[5.429436,51.370935],[5.429425,51.370956],[5.429408,51.370976],[5.429382,51.371005],[5.429367,51.371018],[5.429345,51.371035],[5.42931,51.371058],[5.429283,51.371069],[5.429257,51.371079],[5.429222,51.371091],[5.429196,51.371099],[5.429015,51.37116],[5.42897,51.371179],[5.428924,51.3712],[5.428894,51.371216],[5.428876,51.371228],[5.428856,51.37124],[5.428833,51.371258],[5.428797,51.371287],[5.428761,51.37132],[5.428744,51.371341],[5.428728,51.371362],[5.428707,51.3714],[5.428701,51.37142],[5.428698,51.371439],[5.428672,51.371498],[5.428663,51.371514],[5.428653,51.371533],[5.428641,51.371549],[5.428621,51.371562],[5.428603,51.371575],[5.428582,51.371577],[5.428563,51.371576],[5.428545,51.37157],[5.428514,51.371558],[5.428391,51.371498],[5.428334,51.371463],[5.428277,51.371429],[5.428234,51.371403],[5.428212,51.371398],[5.428151,51.371391],[5.428103,51.371391],[5.428031,51.3714],[5.427961,51.371411],[5.427911,51.371422],[5.427837,51.371455],[5.427729,51.37151],[5.427662,51.37155],[5.427604,51.371577],[5.42756,51.371593],[5.427513,51.371607],[5.427462,51.371634],[5.427454,51.371644],[5.427475,51.371684],[5.427508,51.371752],[5.427523,51.37178],[5.427575,51.371858],[5.427568,51.371884],[5.427555,51.371893],[5.427532,51.371895],[5.427503,51.37189],[5.427474,51.371882],[5.427443,51.371868],[5.427442,51.371868],[5.427414,51.371852],[5.427393,51.371839],[5.42736,51.37182],[5.427311,51.371789],[5.427245,51.371753],[5.427227,51.371741],[5.427195,51.371722],[5.427174,51.371713],[5.427153,51.371708],[5.427101,51.371706],[5.427072,51.371714],[5.42706,51.371724],[5.427045,51.371753],[5.427049,51.371778],[5.427068,51.371805],[5.427185,51.371931],[5.427246,51.371995],[5.427359,51.37216],[5.427365,51.372169],[5.427374,51.372193],[5.427377,51.372213],[5.427371,51.372249],[5.427366,51.372266],[5.427336,51.372324],[5.427317,51.372355],[5.427269,51.372388],[5.427192,51.372419],[5.427005,51.372452],[5.426966,51.372468],[5.426914,51.372516],[5.426878,51.372566],[5.426834,51.372621],[5.426791,51.372676],[5.426776,51.372696],[5.426752,51.372723],[5.426735,51.372727],[5.426704,51.372736],[5.426624,51.372731],[5.426525,51.372726],[5.426493,51.372721],[5.426406,51.372709],[5.426349,51.3727],[5.426212,51.372675],[5.426169,51.372669],[5.426139,51.372665],[5.426093,51.372662],[5.42606,51.372661],[5.425988,51.372668],[5.425942,51.372681],[5.425898,51.372695],[5.425842,51.372718],[5.425756,51.372747],[5.425567,51.372811],[5.425521,51.372816],[5.425424,51.37282],[5.425363,51.372822],[5.425302,51.37282],[5.425283,51.372815],[5.425262,51.372805],[5.425087,51.372623],[5.425067,51.372613],[5.425028,51.3726],[5.425001,51.372598],[5.424963,51.372601],[5.424932,51.372609],[5.424898,51.372624],[5.424886,51.372641],[5.424873,51.372658],[5.424839,51.3727],[5.424799,51.372747],[5.424782,51.372765],[5.424765,51.372777],[5.424678,51.37285],[5.42461,51.372913],[5.424551,51.372972],[5.424489,51.37303],[5.424429,51.373095],[5.424401,51.373129],[5.424368,51.373169],[5.424343,51.373209],[5.424326,51.373245],[5.424316,51.373277],[5.424301,51.373327],[5.424299,51.373349],[5.424306,51.373365],[5.424335,51.373399],[5.42435,51.373413],[5.424364,51.373423],[5.424387,51.373435],[5.424409,51.373447],[5.424444,51.373459],[5.42448,51.373472],[5.424557,51.373498],[5.424593,51.373509],[5.424631,51.373523],[5.424654,51.37354],[5.424665,51.373561],[5.424661,51.373676],[5.424661,51.373685],[5.42466,51.373827],[5.424661,51.373917],[5.424659,51.37394],[5.424653,51.373958],[5.424607,51.373993],[5.42459,51.374006],[5.424551,51.374036],[5.424502,51.374071],[5.424461,51.374095],[5.424433,51.374103],[5.424316,51.374125],[5.424278,51.374132],[5.424221,51.374133],[5.424176,51.374129],[5.424081,51.374116],[5.423839,51.374076],[5.423807,51.374069],[5.423772,51.374065],[5.423723,51.374062],[5.423714,51.374062],[5.423699,51.374062],[5.423644,51.374082],[5.423619,51.374092],[5.423599,51.374127],[5.423599,51.374139],[5.423602,51.374162],[5.423608,51.374177],[5.423624,51.374218],[5.423639,51.374256],[5.42365,51.374311],[5.423647,51.374339],[5.423627,51.37435],[5.42355,51.374345],[5.423511,51.374343],[5.42333,51.374331],[5.423279,51.374329],[5.42323,51.374327],[5.423213,51.374331],[5.423202,51.374334],[5.423187,51.374343],[5.423172,51.374355],[5.423167,51.37437],[5.423165,51.37439],[5.423171,51.374464],[5.423174,51.374502],[5.423171,51.374591],[5.423171,51.374678],[5.42317,51.374747],[5.423174,51.374779],[5.423195,51.374845],[5.423202,51.374858],[5.423203,51.374863],[5.423207,51.374866],[5.423232,51.37489],[5.423458,51.375051],[5.423505,51.375098],[5.423572,51.375196],[5.423606,51.37528],[5.423595,51.375424],[5.42351,51.37571],[5.423492,51.375913],[5.423494,51.376084],[5.423541,51.376192],[5.423575,51.376275],[5.423761,51.376378],[5.423963,51.376408],[5.4241,51.376424],[5.424202,51.376475],[5.424261,51.376643],[5.42427,51.377137],[5.424178,51.377305],[5.424057,51.377408],[5.423987,51.377454],[5.423902,51.377528],[5.423834,51.377601],[5.423824,51.377674],[5.423875,51.377742],[5.424102,51.377828],[5.424275,51.377973],[5.424474,51.378229],[5.424862,51.378681],[5.424874,51.378761],[5.424762,51.378955],[5.424753,51.379086],[5.424783,51.379157],[5.424852,51.379193],[5.425211,51.379166],[5.425363,51.379174],[5.425508,51.379213],[5.425606,51.379295],[5.4256,51.379328],[5.425571,51.379394],[5.425459,51.379461],[5.425395,51.37948],[5.425237,51.379512],[5.424824,51.379553],[5.424531,51.379648],[5.424381,51.379731],[5.424182,51.379902],[5.42415,51.379959],[5.424123,51.380058],[5.424071,51.380345],[5.423997,51.380505],[5.423754,51.380837],[5.423621,51.381058],[5.423544,51.381143],[5.423308,51.381317],[5.423088,51.381587],[5.422928,51.381825],[5.422754,51.382193],[5.422683,51.382296],[5.42241,51.382612],[5.422373,51.3827],[5.422388,51.382716],[5.42225,51.382897],[5.421801,51.38341]]]},"properties":{"type":"boundary","gemeente":"Waalre"}}]}