{"type":"FeatureCollection","metadata":{"gemeente":"Wijchen","slug":"wijchen","generated_at":"2026-10-05T09:10:36.581809Z","total_points":35,"providers":["Amazon","DeBuren","DHL","DPD","PostNL","VintedGo","ViaTim","FedEx","InPost"],"bounds":[5.65474247555547,51.79353196,5.76308,51.8528364]},"features":[{"type":"Feature","geometry":{"type":"Point","coordinates":[5.65474247555547,51.8518386828788]},"properties":{"type":"pakketpunt","locatieNaam":"Actiemarkt","straatNaam":"'t Blok 8","straatNr":"","vervoerder":"Amazon","puntType":"3p","bezettingsgraad":50,"latitude":51.8518386828788,"longitude":5.65474247555547,"canPickup":true,"canDropoff":false,"openingstijden":null}},{"type":"Feature","geometry":{"type":"Point","coordinates":[5.748264467864812,51.813177964940216]},"properties":{"type":"pakketpunt","locatieNaam":"DHL - Pakketautomaat Praxis Wijchen","straatNaam":"Nieuweweg 151","straatNr":"","vervoerder":"Amazon","puntType":"3p","bezettingsgraad":50,"latitude":51.813177964940216,"longitude":5.748264467864812,"canPickup":true,"canDropoff":false,"openingstijden":null}},{"type":"Feature","geometry":{"type":"Point","coordinates":[5.762322902679443,51.81614303588867]},"properties":{"type":"pakketpunt","locatieNaam":"DHL - DeBuren Locker 24-7 Wijchen","straatNaam":"Nieuweweg 240","straatNr":"","vervoerder":"Amazon","puntType":"3p","bezettingsgraad":50,"latitude":51.81614303588867,"longitude":5.762322902679443,"canPickup":true,"canDropoff":false,"openingstijden":null}},{"type":"Feature","geometry":{"type":"Point","coordinates":[5.76308,51.81581]},"properties":{"type":"pakketpunt","locatieNaam":"Wijchen | Nieuweweg | De Meshallen | Pakket-automaat ","straatNaam":"Nieuweweg ","straatNr":"240","vervoerder":"DeBuren","puntType":"Buitenkluis","bezettingsgraad":50,"latitude":51.81581,"longitude":5.76308,"canPickup":true,"canDropoff":true,"openingstijden":null}},{"type":"Feature","geometry":{"type":"Point","coordinates":[5.725109100341797,51.799407958984375]},"properties":{"type":"pakketpunt","locatieNaam":"Pakketautomaat terStal Wijchen","straatNaam":"Zuiderpoort","straatNr":"17-Kast","vervoerder":"DHL","puntType":"packStation","bezettingsgraad":50,"latitude":51.799407958984375,"longitude":5.725109100341797,"canPickup":true,"canDropoff":true,"openingstijden":{"ma":"13:00 - 17:30","di":"09:30 - 17:30","wo":"09:30 - 17:30","do":"09:30 - 17:30","vr":"09:30 - 17:30","za":"10:00 - 17:00","zo":"gesloten"}}},{"type":"Feature","geometry":{"type":"Point","coordinates":[5.7259121,51.8067959]},"properties":{"type":"pakketpunt","locatieNaam":"Shoeby Wijchen","straatNaam":"Markt","straatNr":"16","vervoerder":"DHL","puntType":"parcelShop","bezettingsgraad":50,"latitude":51.8067959,"longitude":5.7259121,"canPickup":true,"canDropoff":true,"openingstijden":{"ma":"13:00 - 17:30","di":"09:30 - 17:30","wo":"09:30 - 17:30","do":"09:30 - 17:30","vr":"09:30 - 20:00","za":"09:30 - 17:00","zo":"gesloten"}}},{"type":"Feature","geometry":{"type":"Point","coordinates":[5.7268705,51.8069909]},"properties":{"type":"pakketpunt","locatieNaam":"Intertoys Wijchen","straatNaam":"Marktpromenade","straatNr":"5","vervoerder":"DHL","puntType":"parcelShop","bezettingsgraad":50,"latitude":51.8069909,"longitude":5.7268705,"canPickup":true,"canDropoff":true,"openingstijden":{"ma":"12:00 - 17:30","di":"09:30 - 17:30","wo":"09:30 - 17:30","do":"09:30 - 17:30","vr":"09:30 - 20:00","za":"09:30 - 17:00","zo":"13:00 - 17:00"}}},{"type":"Feature","geometry":{"type":"Point","coordinates":[5.726449,51.806974]},"properties":{"type":"pakketpunt","locatieNaam":"Primera Hendriks","straatNaam":"Markt","straatNr":"24","vervoerder":"DHL","puntType":"parcelShop","bezettingsgraad":50,"latitude":51.806974,"longitude":5.726449,"canPickup":true,"canDropoff":true,"openingstijden":{"ma":"09:00 - 18:00","di":"09:00 - 18:00","wo":"09:00 - 18:00","do":"09:00 - 18:00","vr":"09:00 - 20:00","za":"09:00 - 17:00","zo":"gesloten"}}},{"type":"Feature","geometry":{"type":"Point","coordinates":[5.7244356,51.8071327]},"properties":{"type":"pakketpunt","locatieNaam":"Telecombinatie Wijchen","straatNaam":"Touwslagersbaan","straatNr":"19","vervoerder":"DHL","puntType":"parcelShop","bezettingsgraad":50,"latitude":51.8071327,"longitude":5.7244356,"canPickup":true,"canDropoff":true,"openingstijden":{"ma":"11:00 - 17:30","di":"10:00 - 17:30","wo":"10:00 - 17:30","do":"10:00 - 17:30","vr":"10:00 - 20:00","za":"10:00 - 17:00","zo":"gesloten"}}},{"type":"Feature","geometry":{"type":"Point","coordinates":[5.7510141,51.8125722]},"properties":{"type":"pakketpunt","locatieNaam":"ArGo CarCleaning","straatNaam":"Nieuweweg","straatNr":"160","vervoerder":"DHL","puntType":"parcelShop","bezettingsgraad":50,"latitude":51.8125722,"longitude":5.7510141,"canPickup":true,"canDropoff":true,"openingstijden":{"ma":"10:00 - 19:00","di":"10:00 - 19:00","wo":"10:00 - 19:00","do":"10:00 - 19:00","vr":"10:00 - 19:00","za":"10:00 - 17:00","zo":"gesloten"}}},{"type":"Feature","geometry":{"type":"Point","coordinates":[5.6681507,51.8528364]},"properties":{"type":"pakketpunt","locatieNaam":"Buurtmarkt Blije Bikkels","straatNaam":"Molenweg","straatNr":"21-A","vervoerder":"DHL","puntType":"parcelShop","bezettingsgraad":50,"latitude":51.8528364,"longitude":5.6681507,"canPickup":true,"canDropoff":true,"openingstijden":{"ma":"08:30 - 18:00","di":"08:30 - 18:00","wo":"08:30 - 18:00","do":"08:30 - 18:00","vr":"08:30 - 18:00","za":"08:30 - 16:00","zo":"gesloten"}}},{"type":"Feature","geometry":{"type":"Point","coordinates":[5.7419309,51.8259841]},"properties":{"type":"pakketpunt","locatieNaam":"DHL Pakketpunt XL Wijchen","straatNaam":"Bijsterhuizen","straatNr":"5147","vervoerder":"DHL","puntType":"parcelShop","bezettingsgraad":50,"latitude":51.8259841,"longitude":5.7419309,"canPickup":true,"canDropoff":true,"openingstijden":{"ma":"12:00 - 17:00","di":"12:00 - 17:00","wo":"12:00 - 17:00","do":"12:00 - 17:00","vr":"12:00 - 17:00","za":"12:00 - 17:00","zo":"gesloten"}}},{"type":"Feature","geometry":{"type":"Point","coordinates":[5.7419309,51.8259841]},"properties":{"type":"pakketpunt","locatieNaam":"Pakketautomaat DHL Wijchen","straatNaam":"Bijsterhuizen","straatNr":"5147-Kast","vervoerder":"DHL","puntType":"packStation","bezettingsgraad":50,"latitude":51.8259841,"longitude":5.7419309,"canPickup":true,"canDropoff":true,"openingstijden":{"ma":"08:00 - 22:00","di":"08:00 - 22:00","wo":"08:00 - 22:00","do":"08:00 - 22:00","vr":"08:00 - 22:00","za":"08:00 - 20:00","zo":"gesloten"}}},{"type":"Feature","geometry":{"type":"Point","coordinates":[5.762322902679443,51.81614303588867]},"properties":{"type":"pakketpunt","locatieNaam":"DeBuren Locker 24-7 Wijchen","straatNaam":"Nieuweweg","straatNr":"240","vervoerder":"DHL","puntType":"packStation","bezettingsgraad":50,"latitude":51.81614303588867,"longitude":5.762322902679443,"canPickup":true,"canDropoff":true,"openingstijden":{"ma":"00:00 - 23:59","di":"00:00 - 23:59","wo":"00:00 - 23:59","do":"00:00 - 23:59","vr":"00:00 - 23:59","za":"00:00 - 23:59","zo":"00:00 - 23:59"}}},{"type":"Feature","geometry":{"type":"Point","coordinates":[5.748264467864812,51.813177964940216]},"properties":{"type":"pakketpunt","locatieNaam":"Pakketautomaat Praxis Wijchen","straatNaam":"Nieuweweg","straatNr":"151","vervoerder":"DHL","puntType":"packStation","bezettingsgraad":50,"latitude":51.813177964940216,"longitude":5.748264467864812,"canPickup":true,"canDropoff":true,"openingstijden":{"ma":"00:00 - 23:59","di":"00:00 - 23:59","wo":"00:00 - 23:59","do":"00:00 - 23:59","vr":"00:00 - 23:59","za":"00:00 - 23:59","zo":"00:00 - 23:59"}}},{"type":"Feature","geometry":{"type":"Point","coordinates":[5.727841,51.814547]},"properties":{"type":"pakketpunt","locatieNaam":"Drukkerij en ReproCentrum Wijchen","straatNaam":"Lepelaarstraat","straatNr":"8","vervoerder":"DHL","puntType":"parcelShop","bezettingsgraad":50,"latitude":51.814547,"longitude":5.727841,"canPickup":true,"canDropoff":true,"openingstijden":{"ma":"09:00 - 17:00","di":"09:00 - 17:00","wo":"09:00 - 17:00","do":"09:00 - 17:00","vr":"09:00 - 17:00","za":"gesloten","zo":"gesloten"}}},{"type":"Feature","geometry":{"type":"Point","coordinates":[5.7254894,51.8087854]},"properties":{"type":"pakketpunt","locatieNaam":"Tayba Markt","straatNaam":"SPOORSTRAAT","straatNr":"45","vervoerder":"DPD","puntType":"pickup_point","bezettingsgraad":50,"latitude":51.8087854,"longitude":5.7254894,"canPickup":true,"canDropoff":true,"openingstijden":{"ma":"09:30 - 17:30","di":"09:30 - 17:30","wo":"09:30 - 17:30","do":"09:30 - 17:30","vr":"09:30 - 17:30","za":"09:30 - 17:30","zo":"gesloten"}}},{"type":"Feature","geometry":{"type":"Point","coordinates":[5.76308,51.81581]},"properties":{"type":"pakketpunt","locatieNaam":"Pakketautomaat De Meshallen Nieuwew","straatNaam":"NIEUWEWEG","straatNr":"240","vervoerder":"DPD","puntType":"dpd_box","bezettingsgraad":50,"latitude":51.81581,"longitude":5.76308,"canPickup":true,"canDropoff":true,"openingstijden":{"ma":"00:00 - 23:59","di":"00:00 - 23:59","wo":"00:00 - 23:59","do":"00:00 - 23:59","vr":"00:00 - 23:59","za":"00:00 - 23:59","zo":"00:00 - 23:59"}}},{"type":"Feature","geometry":{"type":"Point","coordinates":[5.75101,51.81257]},"properties":{"type":"pakketpunt","locatieNaam":"Business Point - ArGo CarCleaning","straatNaam":"NIEUWEWEG","straatNr":"160","vervoerder":"DPD","puntType":"pickup_point","bezettingsgraad":50,"latitude":51.81257,"longitude":5.75101,"canPickup":true,"canDropoff":true,"openingstijden":{"ma":"10:00 - 21:00","di":"10:00 - 21:00","wo":"10:00 - 21:00","do":"10:00 - 21:00","vr":"10:00 - 21:00","za":"10:00 - 17:00","zo":"gesloten"}}},{"type":"Feature","geometry":{"type":"Point","coordinates":[5.66721,51.85249]},"properties":{"type":"pakketpunt","locatieNaam":"Buurtmarkt Blije Bikkels","straatNaam":"MOLENWEG","straatNr":"21 A","vervoerder":"DPD","puntType":"pickup_point","bezettingsgraad":50,"latitude":51.85249,"longitude":5.66721,"canPickup":true,"canDropoff":true,"openingstijden":{"ma":"08:30 - 18:00","di":"08:30 - 18:00","wo":"08:30 - 18:00","do":"08:30 - 18:00","vr":"08:30 - 18:00","za":"08:30 - 16:00","zo":"gesloten"}}},{"type":"Feature","geometry":{"type":"Point","coordinates":[5.74005,51.81214]},"properties":{"type":"pakketpunt","locatieNaam":"Pakketautomaat Atlantic Bedden","straatNaam":"STATIONSLAAN","straatNr":"32","vervoerder":"DPD","puntType":"dpd_box","bezettingsgraad":50,"latitude":51.81214,"longitude":5.74005,"canPickup":true,"canDropoff":true,"openingstijden":{"ma":"00:01 - 23:59","di":"00:01 - 23:59","wo":"00:01 - 23:59","do":"00:01 - 23:59","vr":"00:01 - 23:59","za":"00:01 - 23:59","zo":"00:01 - 23:59"}}},{"type":"Feature","geometry":{"type":"Point","coordinates":[5.72762263538503,51.8140872737995]},"properties":{"type":"pakketpunt","locatieNaam":"Pakketautomaat","straatNaam":"Tunnelweg","straatNr":"86PBA","vervoerder":"PostNL","puntType":"automaat","bezettingsgraad":50,"latitude":51.8140872737995,"longitude":5.72762263538503,"canPickup":true,"canDropoff":true,"openingstijden":"08:00 - 20:00"}},{"type":"Feature","geometry":{"type":"Point","coordinates":[5.724905466,51.80951102]},"properties":{"type":"pakketpunt","locatieNaam":"Pakket- en briefautomaat","straatNaam":"Herenstraat","straatNr":"17PBA","vervoerder":"PostNL","puntType":"automaat","bezettingsgraad":50,"latitude":51.80951102,"longitude":5.724905466,"canPickup":true,"canDropoff":true,"openingstijden":"00:00 - 23:59"}},{"type":"Feature","geometry":{"type":"Point","coordinates":[5.726598887,51.80716914]},"properties":{"type":"pakketpunt","locatieNaam":"Bruna","straatNaam":"Markt","straatNr":"26","vervoerder":"PostNL","puntType":"servicepunt","bezettingsgraad":50,"latitude":51.80716914,"longitude":5.726598887,"canPickup":true,"canDropoff":true,"openingstijden":"11:00 - 17:30"}},{"type":"Feature","geometry":{"type":"Point","coordinates":[5.724615476,51.7998313]},"properties":{"type":"pakketpunt","locatieNaam":"Vivant Robben","straatNaam":"Zuiderpoort","straatNr":"7","vervoerder":"PostNL","puntType":"servicepunt","bezettingsgraad":50,"latitude":51.7998313,"longitude":5.724615476,"canPickup":true,"canDropoff":true,"openingstijden":"10:00 - 18:00 (Na 18:00 open; Zaterdag open)"}},{"type":"Feature","geometry":{"type":"Point","coordinates":[5.65474247555547,51.8518386828788]},"properties":{"type":"pakketpunt","locatieNaam":"Actiemarkt","straatNaam":"'t Blok","straatNr":"8","vervoerder":"PostNL","puntType":"servicepunt","bezettingsgraad":50,"latitude":51.8518386828788,"longitude":5.65474247555547,"canPickup":true,"canDropoff":true,"openingstijden":"09:00 - 12:30, 13:00 - 17:00"}},{"type":"Feature","geometry":{"type":"Point","coordinates":[5.7258622,51.8078746]},"properties":{"type":"pakketpunt","locatieNaam":"Xxlpakketpunt.nl Centrum","straatNaam":"Sterrebosweg 19A","straatNr":"","vervoerder":"VintedGo","puntType":"parcel_shop","bezettingsgraad":50,"latitude":51.8078746,"longitude":5.7258622,"canPickup":true,"canDropoff":true,"openingstijden":null}},{"type":"Feature","geometry":{"type":"Point","coordinates":[5.6681201,51.8528167]},"properties":{"type":"pakketpunt","locatieNaam":"Buurtmarkt Blije Bikkels","straatNaam":"Molenweg 21A","straatNr":"","vervoerder":"VintedGo","puntType":"parcel_shop","bezettingsgraad":50,"latitude":51.8528167,"longitude":5.6681201,"canPickup":true,"canDropoff":true,"openingstijden":null}},{"type":"Feature","geometry":{"type":"Point","coordinates":[5.7578233,51.8107329]},"properties":{"type":"pakketpunt","locatieNaam":"Argo Carcleaning","straatNaam":"Nieuweweg 160","straatNr":"","vervoerder":"VintedGo","puntType":"parcel_shop","bezettingsgraad":50,"latitude":51.8107329,"longitude":5.7578233,"canPickup":true,"canDropoff":true,"openingstijden":null}},{"type":"Feature","geometry":{"type":"Point","coordinates":[5.71049863,51.81268722]},"properties":{"type":"pakketpunt","locatieNaam":"ViaTim en Richard","straatNaam":"Kraaijenberg","straatNr":"7094","vervoerder":"ViaTim","puntType":"servicepunt","bezettingsgraad":50,"latitude":51.81268722,"longitude":5.71049863,"canPickup":true,"canDropoff":true,"openingstijden":{"ma":"gesloten","di":"12:00 - 15:00","wo":"12:00 - 15:00","do":"gesloten","vr":"gesloten","za":"gesloten","zo":"gesloten"}}},{"type":"Feature","geometry":{"type":"Point","coordinates":[5.7448212,51.79353196]},"properties":{"type":"pakketpunt","locatieNaam":"ViaTim en Steenhuis","straatNaam":"Rietdekker","straatNr":"55","vervoerder":"ViaTim","puntType":"servicepunt","bezettingsgraad":50,"latitude":51.79353196,"longitude":5.7448212,"canPickup":true,"canDropoff":true,"openingstijden":{"ma":"13:00 - 20:00","di":"13:00 - 17:00","wo":"gesloten","do":"gesloten","vr":"gesloten","za":"gesloten","zo":"gesloten"}}},{"type":"Feature","geometry":{"type":"Point","coordinates":[5.724930629861342,51.809492527878504]},"properties":{"type":"pakketpunt","locatieNaam":"FedEx Ship&Get","straatNaam":"Herenstraat 17 PBA","straatNr":"","vervoerder":"FedEx","puntType":"servicepunt","bezettingsgraad":50,"latitude":51.809492527878504,"longitude":5.724930629861342,"canPickup":true,"canDropoff":true,"openingstijden":{"ma":"00:00 - 23:59","di":"00:00 - 23:59","wo":"00:00 - 23:59","do":"00:00 - 23:59","vr":"00:00 - 23:59","za":"00:00 - 23:59","zo":"00:00 - 23:59"}}},{"type":"Feature","geometry":{"type":"Point","coordinates":[5.72783,51.81452]},"properties":{"type":"pakketpunt","locatieNaam":"REPRO CENTRUM WIJCHEN","straatNaam":"Lepelaarstraat 8","straatNr":"","vervoerder":"InPost","puntType":"servicepunt","bezettingsgraad":50,"latitude":51.81452,"longitude":5.72783,"canPickup":true,"canDropoff":true,"openingstijden":null}},{"type":"Feature","geometry":{"type":"Point","coordinates":[5.73994,51.8125]},"properties":{"type":"pakketpunt","locatieNaam":"","straatNaam":"Stationslaan","straatNr":"","vervoerder":"InPost","puntType":"automaat","bezettingsgraad":50,"latitude":51.8125,"longitude":5.73994,"canPickup":true,"canDropoff":true,"openingstijden":"24/7"}},{"type":"Feature","geometry":{"type":"Point","coordinates":[5.75067,51.81233]},"properties":{"type":"pakketpunt","locatieNaam":"ARGO CARCLEANING","straatNaam":"Nieuweweg 160","straatNr":"","vervoerder":"InPost","puntType":"servicepunt","bezettingsgraad":50,"latitude":51.81233,"longitude":5.75067,"canPickup":true,"canDropoff":true,"openingstijden":null}},{"type":"Feature","geometry":{"type":"Polygon","coordinates":[[[5.597977,51.828049],[5.598173,51.828193],[5.598302,51.828292],[5.598693,51.82857],[5.59875,51.828601],[5.598915,51.828705],[5.599545,51.829119],[5.599822,51.82903],[5.599904,51.829008],[5.600028,51.828987],[5.600173,51.828969],[5.600339,51.828951],[5.600528,51.828921],[5.600645,51.828905],[5.601087,51.828811],[5.601266,51.828767],[5.601503,51.828705],[5.601894,51.828589],[5.602354,51.828432],[5.602597,51.828346],[5.602884,51.828235],[5.60307,51.828281],[5.603472,51.828395],[5.603801,51.828486],[5.604251,51.828608],[5.60434,51.828641],[5.604668,51.828797],[5.60475,51.828833],[5.604816,51.828862],[5.605569,51.829236],[5.605765,51.829341],[5.606722,51.8298],[5.607391,51.830136],[5.607957,51.83043],[5.608149,51.830537],[5.608962,51.830989],[5.608494,51.831424],[5.607931,51.831966],[5.608389,51.832139],[5.608686,51.832247],[5.607808,51.833104],[5.607832,51.833112],[5.607854,51.833121],[5.608087,51.833201],[5.608442,51.833326],[5.608734,51.833431],[5.608931,51.833502],[5.60898,51.83352],[5.609053,51.833558],[5.609442,51.833747],[5.609858,51.83394],[5.609792,51.833975],[5.609732,51.834017],[5.608997,51.834417],[5.608737,51.834518],[5.608436,51.834681],[5.60787,51.834994],[5.607165,51.835386],[5.606949,51.835513],[5.606631,51.835689],[5.607629,51.835865],[5.60906,51.836101],[5.609324,51.836152],[5.609778,51.836258],[5.609835,51.836274],[5.609859,51.83628],[5.609943,51.836307],[5.610121,51.83636],[5.610329,51.836426],[5.610471,51.836471],[5.610982,51.836635],[5.613692,51.837577],[5.614875,51.837981],[5.617057,51.838732],[5.617404,51.838848],[5.61815,51.839088],[5.618523,51.839212],[5.618945,51.839343],[5.619374,51.839467],[5.619636,51.839508],[5.619735,51.83953],[5.619913,51.839573],[5.620524,51.839747],[5.620857,51.839837],[5.621088,51.839909],[5.621185,51.839943],[5.621253,51.83997],[5.621829,51.84022],[5.622293,51.840409],[5.622466,51.840458],[5.622762,51.840514],[5.623142,51.840469],[5.624734,51.840829],[5.625795,51.841073],[5.628619,51.84171],[5.629214,51.841845],[5.630251,51.84207],[5.631563,51.84236],[5.632109,51.842478],[5.634171,51.842933],[5.634305,51.842964],[5.63601,51.84333],[5.636393,51.843415],[5.637142,51.843573],[5.637894,51.843738],[5.639533,51.844094],[5.64014,51.844228],[5.640588,51.844331],[5.641174,51.844461],[5.642469,51.844757],[5.642665,51.844815],[5.6432,51.844988],[5.643021,51.845071],[5.642913,51.845122],[5.64132,51.845862],[5.641201,51.845922],[5.640439,51.846232],[5.639858,51.846481],[5.639705,51.846539],[5.639574,51.846573],[5.639433,51.846599],[5.639366,51.846609],[5.639192,51.846629],[5.639007,51.846683],[5.638838,51.846733],[5.638089,51.846949],[5.637319,51.847174],[5.636938,51.847282],[5.636864,51.847297],[5.636805,51.847304],[5.636643,51.847344],[5.63587,51.847467],[5.636088,51.847667],[5.63632,51.847841],[5.636556,51.848004],[5.636973,51.84825],[5.637861,51.848771],[5.637708,51.848878],[5.637481,51.849037],[5.637274,51.849176],[5.636871,51.849505],[5.636744,51.849602],[5.636759,51.849615],[5.636328,51.849956],[5.635908,51.850321],[5.63583,51.850372],[5.635176,51.850775],[5.634702,51.851089],[5.634933,51.851101],[5.635098,51.851107],[5.635349,51.851117],[5.635865,51.851143],[5.635966,51.851591],[5.636025,51.851712],[5.63615,51.851916],[5.636208,51.852024],[5.636375,51.852311],[5.636585,51.852677],[5.636628,51.85275],[5.636655,51.852797],[5.636893,51.853258],[5.636948,51.853383],[5.637025,51.853498],[5.637059,51.853551],[5.637194,51.853651],[5.638699,51.854734],[5.638803,51.854817],[5.638827,51.85484],[5.63885,51.854871],[5.639044,51.855051],[5.63946,51.855444],[5.639835,51.85578],[5.64012,51.856033],[5.639885,51.856798],[5.639812,51.857075],[5.639689,51.857571],[5.639664,51.857666],[5.639612,51.85787],[5.639529,51.858174],[5.639507,51.858254],[5.639438,51.85851],[5.639369,51.858775],[5.639177,51.859396],[5.639061,51.859825],[5.63902,51.859862],[5.638979,51.85996],[5.6389,51.860206],[5.638814,51.860413],[5.638672,51.860818],[5.638535,51.861166],[5.63875,51.86136],[5.638929,51.861529],[5.638973,51.861551],[5.639349,51.861914],[5.63947,51.862018],[5.639401,51.862057],[5.638615,51.862666],[5.63814,51.863057],[5.637803,51.863341],[5.63662,51.864362],[5.636566,51.864454],[5.636496,51.864634],[5.636585,51.865078],[5.636627,51.865329],[5.636628,51.865494],[5.636453,51.866262],[5.636209,51.86725],[5.636177,51.867362],[5.636185,51.867362],[5.636232,51.867363],[5.63666,51.867381],[5.637105,51.867397],[5.638228,51.867445],[5.638403,51.867445],[5.638433,51.867446],[5.638911,51.867449],[5.639238,51.867439],[5.639598,51.867425],[5.640551,51.867395],[5.64175,51.867347],[5.641793,51.867343],[5.64185,51.867341],[5.643949,51.867233],[5.644931,51.867181],[5.645019,51.867185],[5.647079,51.867073],[5.647172,51.867067],[5.650151,51.866918],[5.650949,51.866882],[5.651078,51.86688],[5.651853,51.866844],[5.652854,51.8668],[5.653776,51.866754],[5.655049,51.866693],[5.655171,51.866691],[5.657221,51.866593],[5.658229,51.866547],[5.65826,51.866539],[5.658566,51.866514],[5.658792,51.86651],[5.660258,51.866522],[5.660373,51.866521],[5.661106,51.866513],[5.661586,51.866497],[5.661957,51.866481],[5.66224,51.866476],[5.662521,51.866459],[5.662857,51.866447],[5.663009,51.866425],[5.66328,51.866365],[5.663398,51.866338],[5.663648,51.86632],[5.663772,51.866315],[5.664002,51.866326],[5.664117,51.866337],[5.665189,51.866402],[5.665366,51.866409],[5.665539,51.866404],[5.665748,51.86639],[5.665907,51.866383],[5.666227,51.866334],[5.666518,51.866282],[5.666883,51.866197],[5.667281,51.866092],[5.667746,51.865956],[5.667853,51.865927],[5.667847,51.865882],[5.66791,51.865864],[5.668075,51.865776],[5.66824,51.865669],[5.668355,51.865591],[5.668495,51.865497],[5.668537,51.865472],[5.668833,51.865342],[5.668899,51.865319],[5.67052,51.864774],[5.670767,51.864564],[5.671086,51.864097],[5.671326,51.863743],[5.671478,51.863506],[5.671593,51.863254],[5.671588,51.863112],[5.671569,51.863],[5.671554,51.862888],[5.671546,51.862712],[5.67164,51.862516],[5.671713,51.862398],[5.671784,51.862289],[5.671811,51.862256],[5.67191,51.862178],[5.671939,51.86216],[5.672185,51.862044],[5.672318,51.861985],[5.672425,51.861945],[5.672677,51.861857],[5.672849,51.861799],[5.673152,51.861712],[5.673555,51.861597],[5.674199,51.861415],[5.674556,51.861352],[5.67597,51.861135],[5.676725,51.861021],[5.676968,51.860984],[5.677104,51.860961],[5.678353,51.860735],[5.679571,51.860526],[5.679548,51.86049],[5.679471,51.860394],[5.678258,51.858574],[5.678747,51.858375],[5.678831,51.858337],[5.679083,51.858201],[5.679587,51.857928],[5.679858,51.85779],[5.680055,51.85769],[5.680517,51.857464],[5.681636,51.856882],[5.681663,51.856867],[5.681422,51.856695],[5.681212,51.85655],[5.681039,51.856437],[5.680772,51.856276],[5.680818,51.856092],[5.680832,51.856027],[5.680835,51.855962],[5.680831,51.855903],[5.680821,51.855857],[5.680807,51.855825],[5.680708,51.855708],[5.68063,51.855624],[5.680412,51.855419],[5.680245,51.85526],[5.680211,51.855229],[5.680188,51.855185],[5.680168,51.855116],[5.680154,51.855015],[5.68017,51.854814],[5.680189,51.854744],[5.680265,51.854525],[5.680397,51.854157],[5.680461,51.853967],[5.680498,51.85387],[5.68053,51.85381],[5.680587,51.853708],[5.680591,51.853703],[5.680653,51.853611],[5.680735,51.853523],[5.680968,51.853251],[5.681107,51.853083],[5.68116,51.853013],[5.681201,51.852945],[5.68123,51.852891],[5.68126,51.852822],[5.681285,51.852752],[5.681299,51.852691],[5.681305,51.8526],[5.681305,51.852579],[5.681309,51.852394],[5.68132,51.852235],[5.681324,51.85219],[5.68135,51.852125],[5.681406,51.85206],[5.681508,51.851973],[5.681609,51.851876],[5.681911,51.851567],[5.682396,51.851101],[5.68428,51.849286],[5.684373,51.849199],[5.68482,51.848781],[5.684788,51.848777],[5.684514,51.848757],[5.681357,51.848678],[5.681734,51.84626],[5.68062,51.84625],[5.680028,51.846248],[5.679872,51.846245],[5.679702,51.84625],[5.67892,51.846252],[5.677404,51.846258],[5.67741,51.846199],[5.677417,51.846134],[5.677428,51.846092],[5.677724,51.844889],[5.677814,51.844448],[5.678087,51.843252],[5.678111,51.843147],[5.679398,51.843028],[5.681734,51.842813],[5.682804,51.842717],[5.683237,51.842677],[5.684684,51.842547],[5.688485,51.842215],[5.689405,51.842148],[5.690001,51.84209],[5.690726,51.84203],[5.691442,51.841964],[5.692154,51.841896],[5.692875,51.84182],[5.693531,51.841756],[5.694619,51.841676],[5.694665,51.841672],[5.695664,51.841561],[5.696386,51.841494],[5.697103,51.841428],[5.697824,51.84136],[5.698544,51.84129],[5.69926,51.841223],[5.699979,51.841159],[5.700515,51.841109],[5.701412,51.841023],[5.702133,51.840965],[5.702856,51.840909],[5.703487,51.840858],[5.703856,51.840825],[5.704286,51.840781],[5.705006,51.840702],[5.705718,51.84063],[5.706435,51.840558],[5.70716,51.840488],[5.707881,51.840431],[5.708381,51.840373],[5.709403,51.840265],[5.709424,51.840282],[5.710122,51.840218],[5.711358,51.840107],[5.712317,51.84002],[5.713389,51.839922],[5.714136,51.839858],[5.714959,51.839767],[5.715272,51.839731],[5.715641,51.839709],[5.71591,51.839692],[5.716337,51.839642],[5.716535,51.839622],[5.716639,51.8396],[5.716713,51.839613],[5.717626,51.839517],[5.717822,51.839497],[5.717965,51.839475],[5.718093,51.839461],[5.718864,51.839402],[5.720033,51.839304],[5.720088,51.839305],[5.720161,51.839305],[5.72021,51.839304],[5.720521,51.839273],[5.721908,51.839169],[5.722912,51.839104],[5.723529,51.839064],[5.724047,51.839036],[5.724572,51.839018],[5.725621,51.83894],[5.726721,51.838823],[5.727608,51.838731],[5.728433,51.838637],[5.72863,51.838614],[5.728739,51.838595],[5.729432,51.83849],[5.730162,51.838374],[5.730332,51.838347],[5.7304,51.838335],[5.73092,51.838244],[5.731289,51.838173],[5.731344,51.838161],[5.731523,51.838098],[5.73158,51.838082],[5.732044,51.837981],[5.732661,51.837852],[5.733399,51.837708],[5.733626,51.837661],[5.734763,51.837444],[5.735486,51.837313],[5.735675,51.83728],[5.735941,51.837237],[5.73642,51.83715],[5.737047,51.837035],[5.738112,51.836842],[5.742668,51.836019],[5.746838,51.835284],[5.746972,51.835265],[5.747613,51.835147],[5.748182,51.835041],[5.748703,51.834941],[5.749244,51.83484],[5.749687,51.834751],[5.750434,51.834614],[5.750838,51.834528],[5.751687,51.834362],[5.75282,51.834189],[5.760137,51.833013],[5.763026,51.83255],[5.763444,51.832484],[5.763977,51.832402],[5.764149,51.83238],[5.764294,51.832364],[5.764474,51.832351],[5.764516,51.832346],[5.764553,51.83234],[5.764672,51.832312],[5.764731,51.832291],[5.76463,51.832167],[5.764663,51.832171],[5.764577,51.83207],[5.764546,51.832035],[5.763908,51.831275],[5.763485,51.830778],[5.762976,51.830193],[5.762811,51.830007],[5.762677,51.829854],[5.762427,51.829557],[5.761567,51.828549],[5.761406,51.828365],[5.761351,51.828281],[5.76127,51.828191],[5.761115,51.828007],[5.761113,51.828005],[5.761006,51.82788],[5.760416,51.827183],[5.760395,51.827159],[5.760187,51.826928],[5.759966,51.826682],[5.759416,51.826042],[5.759121,51.825698],[5.759098,51.825671],[5.758209,51.824635],[5.75808,51.824487],[5.758039,51.824439],[5.757679,51.824029],[5.75766,51.824032],[5.757656,51.824028],[5.757621,51.82399],[5.757686,51.823979],[5.758205,51.823895],[5.758245,51.823889],[5.758885,51.82379],[5.759135,51.823754],[5.759172,51.823749],[5.759868,51.823656],[5.760716,51.823548],[5.761448,51.823466],[5.761789,51.823429],[5.762225,51.823387],[5.762342,51.823376],[5.762738,51.823334],[5.763357,51.823282],[5.763761,51.823252],[5.764319,51.82321],[5.764653,51.823189],[5.76498,51.823171],[5.765281,51.823153],[5.765615,51.823134],[5.765831,51.823122],[5.766132,51.823105],[5.766532,51.823087],[5.766635,51.823082],[5.767005,51.823068],[5.767497,51.823054],[5.767724,51.82305],[5.768036,51.823045],[5.768214,51.823044],[5.768297,51.823043],[5.768705,51.823044],[5.769104,51.823043],[5.76959,51.82304],[5.76993,51.823037],[5.769954,51.823037],[5.771334,51.823063],[5.771443,51.823018],[5.771502,51.822783],[5.771651,51.822578],[5.771719,51.822508],[5.771762,51.822469],[5.771945,51.822341],[5.772015,51.822304],[5.772284,51.822194],[5.772514,51.82211],[5.772742,51.822025],[5.773098,51.82189],[5.773119,51.821883],[5.773277,51.821825],[5.773505,51.82174],[5.773631,51.821691],[5.773716,51.821657],[5.773811,51.821616],[5.773859,51.82159],[5.773923,51.821551],[5.77399,51.821503],[5.774168,51.82135],[5.774264,51.821256],[5.77433,51.821179],[5.774377,51.821116],[5.774486,51.82094],[5.774515,51.820889],[5.774584,51.820762],[5.774664,51.820621],[5.774672,51.82061],[5.774779,51.82045],[5.775203,51.819671],[5.775395,51.819319],[5.775418,51.819278],[5.77545,51.819222],[5.775455,51.819213],[5.775459,51.819206],[5.775569,51.819015],[5.775594,51.818971],[5.775599,51.818963],[5.775639,51.818893],[5.775674,51.818832],[5.775699,51.818789],[5.775923,51.818421],[5.776236,51.817904],[5.776703,51.8172],[5.776707,51.817193],[5.776733,51.817134],[5.77674,51.817113],[5.776756,51.817076],[5.77676,51.817064],[5.77692,51.816808],[5.777168,51.816406],[5.777264,51.816244],[5.777641,51.815713],[5.777946,51.815288],[5.778244,51.814878],[5.77856,51.814435],[5.778929,51.813914],[5.77928,51.813422],[5.77965,51.812902],[5.780025,51.812453],[5.78028,51.812153],[5.780282,51.812151],[5.780292,51.812139],[5.780294,51.812137],[5.780328,51.812097],[5.78041,51.811999],[5.780281,51.811957],[5.780002,51.811868],[5.780195,51.811631],[5.780477,51.811717],[5.780487,51.81172],[5.780615,51.811546],[5.780829,51.811257],[5.781035,51.810977],[5.781053,51.810953],[5.781151,51.81082],[5.781381,51.810355],[5.781302,51.809827],[5.781351,51.809599],[5.781409,51.809322],[5.781652,51.808881],[5.782007,51.808493],[5.78247,51.808119],[5.78305,51.807823],[5.783761,51.807567],[5.784132,51.807382],[5.784364,51.807265],[5.784581,51.807058],[5.784654,51.806987],[5.784999,51.806648],[5.785163,51.806492],[5.785303,51.806366],[5.785502,51.806207],[5.785877,51.805904],[5.786047,51.805727],[5.786479,51.805298],[5.78667,51.804998],[5.7867,51.804982],[5.786719,51.804972],[5.78692,51.804864],[5.787094,51.804768],[5.78723,51.804692],[5.787289,51.804648],[5.787709,51.804279],[5.788133,51.803911],[5.788565,51.803547],[5.789,51.803183],[5.789439,51.802821],[5.789885,51.802463],[5.790107,51.802284],[5.790145,51.802257],[5.790282,51.80229],[5.790461,51.80214],[5.790435,51.802023],[5.790509,51.801963],[5.791221,51.801391],[5.791629,51.801013],[5.791799,51.800804],[5.791923,51.800573],[5.791995,51.800313],[5.792001,51.800123],[5.792004,51.800024],[5.792056,51.800038],[5.792026,51.799426],[5.792096,51.799156],[5.792247,51.79893],[5.792651,51.798532],[5.793113,51.798147],[5.793192,51.798094],[5.793256,51.798052],[5.793344,51.797993],[5.793605,51.79782],[5.793829,51.797673],[5.794374,51.797315],[5.794632,51.797469],[5.795537,51.798006],[5.796076,51.798136],[5.79685,51.797643],[5.796882,51.797581],[5.79692,51.797526],[5.797644,51.797064],[5.797762,51.796993],[5.798165,51.796749],[5.798703,51.796442],[5.799419,51.796061],[5.799899,51.795788],[5.799913,51.79578],[5.800302,51.795558],[5.800368,51.795527],[5.800364,51.795521],[5.800496,51.795438],[5.800501,51.795435],[5.8006,51.795372],[5.80061,51.795366],[5.80063,51.795353],[5.80078,51.795258],[5.800782,51.795257],[5.800949,51.795151],[5.800848,51.795085],[5.800681,51.794916],[5.800676,51.794911],[5.800545,51.794727],[5.800365,51.794363],[5.800162,51.794395],[5.800042,51.794414],[5.799898,51.794412],[5.799593,51.794409],[5.799244,51.794119],[5.797483,51.792657],[5.79736,51.792554],[5.7973,51.79253],[5.797234,51.792499],[5.797179,51.792473],[5.795985,51.791876],[5.791089,51.789415],[5.790061,51.788898],[5.787227,51.787473],[5.787006,51.787362],[5.786998,51.787358],[5.786925,51.787321],[5.786897,51.787307],[5.786737,51.787227],[5.786958,51.787063],[5.786973,51.787056],[5.786073,51.786721],[5.785768,51.786633],[5.785093,51.786408],[5.785005,51.786366],[5.784549,51.786151],[5.784266,51.786005],[5.784225,51.785984],[5.78385,51.785797],[5.783136,51.785451],[5.78299,51.785387],[5.782936,51.785358],[5.782847,51.785313],[5.782554,51.785165],[5.782159,51.784966],[5.781424,51.784591],[5.780812,51.784284],[5.780691,51.784222],[5.780659,51.784204],[5.780509,51.784242],[5.780353,51.784277],[5.780267,51.784291],[5.780166,51.784303],[5.780021,51.784311],[5.779926,51.784316],[5.779841,51.784311],[5.779753,51.784303],[5.779594,51.784289],[5.779463,51.78426],[5.778706,51.784097],[5.778493,51.784053],[5.77846,51.784047],[5.778165,51.784012],[5.77802,51.784014],[5.777065,51.784079],[5.775969,51.784159],[5.775936,51.784131],[5.775917,51.784114],[5.775639,51.783814],[5.775201,51.784004],[5.774972,51.783742],[5.774968,51.783737],[5.774957,51.783723],[5.77402,51.784065],[5.774011,51.784069],[5.773881,51.784114],[5.773572,51.784222],[5.773202,51.784344],[5.772801,51.784482],[5.772221,51.784666],[5.771591,51.784796],[5.771116,51.784891],[5.771113,51.784891],[5.771052,51.784906],[5.770548,51.784997],[5.770008,51.785099],[5.770005,51.785099],[5.769473,51.785189],[5.769329,51.784699],[5.769213,51.784292],[5.769182,51.784153],[5.76903,51.783563],[5.7689,51.783055],[5.768779,51.782605],[5.768096,51.782497],[5.766855,51.782289],[5.765464,51.782056],[5.764074,51.781821],[5.762618,51.781566],[5.762088,51.781479],[5.760717,51.781251],[5.760689,51.781246],[5.759944,51.781127],[5.758788,51.780941],[5.758013,51.780817],[5.757686,51.780764],[5.756817,51.78062],[5.755858,51.780453],[5.754815,51.780271],[5.753801,51.780092],[5.752975,51.779951],[5.752399,51.779852],[5.752276,51.779827],[5.752225,51.779822],[5.751649,51.779721],[5.751093,51.779623],[5.750549,51.779532],[5.749673,51.779385],[5.749471,51.779351],[5.748698,51.779221],[5.747913,51.779089],[5.747401,51.779005],[5.746985,51.778932],[5.746577,51.778866],[5.746276,51.778816],[5.745618,51.778707],[5.745272,51.778649],[5.744972,51.778597],[5.744834,51.778575],[5.744728,51.778566],[5.744604,51.77855],[5.744526,51.77854],[5.744394,51.778555],[5.743559,51.778612],[5.742771,51.778669],[5.742257,51.778708],[5.741458,51.778763],[5.7413,51.778775],[5.741153,51.778787],[5.74104,51.778804],[5.740773,51.778839],[5.74059,51.778867],[5.740609,51.778816],[5.740845,51.778186],[5.740923,51.777966],[5.740287,51.777865],[5.740193,51.777853],[5.740178,51.777864],[5.739865,51.777872],[5.73934,51.777907],[5.738956,51.777952],[5.738575,51.777999],[5.738152,51.778069],[5.737814,51.778129],[5.737617,51.778184],[5.737012,51.778349],[5.736573,51.778491],[5.736092,51.778667],[5.735897,51.778749],[5.735684,51.778847],[5.735308,51.779032],[5.735172,51.779106],[5.734879,51.779279],[5.734666,51.77942],[5.734469,51.779558],[5.73431,51.779677],[5.734037,51.779899],[5.733981,51.77994],[5.733844,51.778989],[5.733701,51.777998],[5.733694,51.777936],[5.733008,51.778044],[5.7322,51.778178],[5.732182,51.778095],[5.73218,51.778083],[5.732028,51.777369],[5.731982,51.777161],[5.731862,51.776616],[5.73174,51.776012],[5.731401,51.776057],[5.731361,51.775972],[5.731044,51.775301],[5.730631,51.774439],[5.730623,51.774322],[5.730623,51.774321],[5.730615,51.77422],[5.730604,51.774096],[5.730583,51.774067],[5.730443,51.773868],[5.730255,51.773595],[5.730046,51.773273],[5.729879,51.773038],[5.729745,51.772851],[5.729137,51.773107],[5.727691,51.773605],[5.726246,51.774032],[5.724799,51.774378],[5.723352,51.774634],[5.721905,51.774827],[5.720457,51.774956],[5.719008,51.775005],[5.717559,51.774992],[5.71611,51.774942],[5.714661,51.774892],[5.713212,51.774887],[5.711763,51.774963],[5.71123,51.775034],[5.710316,51.775156],[5.708869,51.775429],[5.707422,51.775793],[5.705977,51.776255],[5.704532,51.77687],[5.703819,51.777241],[5.703088,51.77762],[5.702309,51.778144],[5.7012,51.779045],[5.700207,51.780118],[5.69993,51.780488],[5.699662,51.780847],[5.699074,51.781748],[5.6985,51.782648],[5.697913,51.783548],[5.697339,51.784449],[5.696621,51.78535],[5.696501,51.785467],[5.696021,51.785936],[5.695699,51.786251],[5.69446,51.787243],[5.693716,51.787741],[5.693248,51.788055],[5.692022,51.788762],[5.691573,51.789021],[5.690128,51.789726],[5.688683,51.790296],[5.68729,51.790767],[5.687237,51.790785],[5.68579,51.791193],[5.684342,51.791511],[5.682895,51.791767],[5.681446,51.791959],[5.679998,51.792089],[5.678549,51.792173],[5.678105,51.792202],[5.6771,51.792267],[5.675651,51.792351],[5.674202,51.792445],[5.672753,51.79252],[5.671304,51.792595],[5.669855,51.792716],[5.668407,51.792917],[5.666959,51.793217],[5.665512,51.793634],[5.664066,51.794186],[5.663536,51.794444],[5.663351,51.794534],[5.662621,51.79489],[5.661826,51.795324],[5.660208,51.796226],[5.659901,51.796422],[5.658793,51.797128],[5.657494,51.79803],[5.656354,51.798932],[5.655286,51.799833],[5.654335,51.800734],[5.65422,51.800848],[5.653914,51.801152],[5.653898,51.801167],[5.653427,51.801635],[5.652562,51.802536],[5.651741,51.803436],[5.651051,51.804337],[5.650461,51.805237],[5.649901,51.806137],[5.649399,51.807037],[5.649213,51.807401],[5.64894,51.807937],[5.648496,51.808837],[5.64821,51.809479],[5.648095,51.809736],[5.647651,51.810636],[5.647265,51.811536],[5.646849,51.812436],[5.646575,51.81303],[5.646434,51.813335],[5.645888,51.814235],[5.645327,51.814937],[5.645168,51.815136],[5.644574,51.815698],[5.644216,51.816037],[5.643601,51.816505],[5.643032,51.816938],[5.642136,51.817479],[5.641408,51.817841],[5.641305,51.817892],[5.641008,51.818039],[5.63956,51.8186],[5.638113,51.819025],[5.636664,51.819325],[5.635215,51.819544],[5.633765,51.819664],[5.632315,51.819676],[5.630864,51.819634],[5.629413,51.81952],[5.627962,51.819397],[5.626511,51.819274],[5.625897,51.81923],[5.625074,51.81917],[5.62506,51.819169],[5.623611,51.819141],[5.62216,51.819211],[5.62071,51.819376],[5.619261,51.81963],[5.617813,51.820056],[5.616365,51.820607],[5.614918,51.821284],[5.613471,51.821988],[5.612647,51.822394],[5.612025,51.8227],[5.610577,51.823395],[5.61047,51.823445],[5.60913,51.824063],[5.607683,51.824713],[5.606235,51.8253],[5.604787,51.825851],[5.603339,51.826375],[5.601891,51.826881],[5.601806,51.826908],[5.600443,51.827342],[5.599895,51.827506],[5.598994,51.827776],[5.597977,51.828049]]]},"properties":{"type":"boundary","gemeente":"Wijchen"}}]}