{"type":"FeatureCollection","metadata":{"gemeente":"Zeewolde","slug":"zeewolde","generated_at":"2026-09-28T08:39:28.407906Z","total_points":33,"providers":["Amazon","DHL","DPD","PostNL","VintedGo","GLS","FedEx","InPost"],"bounds":[5.4980241,52.3271725,5.544223044,52.35287558]},"features":[{"type":"Feature","geometry":{"type":"Point","coordinates":[5.498257865,52.35287558]},"properties":{"type":"pakketpunt","locatieNaam":"Supertank Zeewolde","straatNaam":"Landbouwweg 18","straatNr":"","vervoerder":"Amazon","puntType":"3p","bezettingsgraad":50,"latitude":52.35287558,"longitude":5.498257865,"canPickup":true,"canDropoff":false,"openingstijden":null}},{"type":"Feature","geometry":{"type":"Point","coordinates":[5.517865778,52.33745074]},"properties":{"type":"pakketpunt","locatieNaam":"Plus Vandaag Verduijn","straatNaam":"Aquamarijn 21","straatNr":"","vervoerder":"Amazon","puntType":"3p","bezettingsgraad":50,"latitude":52.33745074,"longitude":5.517865778,"canPickup":true,"canDropoff":false,"openingstijden":null}},{"type":"Feature","geometry":{"type":"Point","coordinates":[5.5246541,52.3271725]},"properties":{"type":"pakketpunt","locatieNaam":"Pakketautomaat VV Zeewolde","straatNaam":"Horsterweg","straatNr":"202-VC/75","vervoerder":"DHL","puntType":"packStation","bezettingsgraad":50,"latitude":52.3271725,"longitude":5.5246541,"canPickup":true,"canDropoff":true,"openingstijden":{"ma":"00:00 - 23:59","di":"00:00 - 23:59","wo":"00:00 - 23:59","do":"00:00 - 23:59","vr":"00:00 - 23:59","za":"00:00 - 23:59","zo":"00:00 - 23:59"}}},{"type":"Feature","geometry":{"type":"Point","coordinates":[5.543289661407471,52.3303489685058]},"properties":{"type":"pakketpunt","locatieNaam":"Intertoys Zeewolde","straatNaam":"Horsterplein","straatNr":"16","vervoerder":"DHL","puntType":"parcelShop","bezettingsgraad":50,"latitude":52.3303489685058,"longitude":5.543289661407471,"canPickup":true,"canDropoff":true,"openingstijden":{"ma":"13:00 - 18:00","di":"09:00 - 18:00","wo":"09:00 - 18:00","do":"09:00 - 18:00","vr":"09:00 - 18:00","za":"09:00 - 17:00","zo":"gesloten"}}},{"type":"Feature","geometry":{"type":"Point","coordinates":[5.543689,52.331729]},"properties":{"type":"pakketpunt","locatieNaam":"Foto Rene Tuinte","straatNaam":"Raadhuisstraat","straatNr":"38","vervoerder":"DHL","puntType":"parcelShop","bezettingsgraad":50,"latitude":52.331729,"longitude":5.543689,"canPickup":true,"canDropoff":true,"openingstijden":{"ma":"10:00 - 12:00, 14:00 - 17:00","di":"10:00 - 12:00, 14:00 - 17:00","wo":"10:00 - 12:00, 14:00 - 17:00","do":"10:00 - 12:00, 14:00 - 17:00","vr":"10:00 - 12:00, 14:00 - 17:00","za":"10:00 - 17:00","zo":"gesloten"}}},{"type":"Feature","geometry":{"type":"Point","coordinates":[5.5401153564453125,52.33141326904297]},"properties":{"type":"pakketpunt","locatieNaam":"Budget Food Zeewolde","straatNaam":"Gouwzee","straatNr":"61","vervoerder":"DHL","puntType":"parcelShop","bezettingsgraad":50,"latitude":52.33141326904297,"longitude":5.5401153564453125,"canPickup":true,"canDropoff":true,"openingstijden":{"ma":"09:00 - 18:00","di":"09:00 - 18:00","wo":"09:00 - 18:00","do":"09:00 - 18:00","vr":"09:00 - 20:00","za":"09:00 - 18:00","zo":"13:00 - 17:00"}}},{"type":"Feature","geometry":{"type":"Point","coordinates":[5.516026822950957,52.3475697065774]},"properties":{"type":"pakketpunt","locatieNaam":"Pakketautomaat GAMMA Zeewolde","straatNaam":"Bolwerk","straatNr":"7","vervoerder":"DHL","puntType":"packStation","bezettingsgraad":50,"latitude":52.3475697065774,"longitude":5.516026822950957,"canPickup":true,"canDropoff":true,"openingstijden":{"ma":"00:00 - 23:59","di":"00:00 - 23:59","wo":"00:00 - 23:59","do":"00:00 - 23:59","vr":"00:00 - 23:59","za":"00:00 - 23:59","zo":"00:00 - 23:59"}}},{"type":"Feature","geometry":{"type":"Point","coordinates":[5.52433451262922,52.33864464730667]},"properties":{"type":"pakketpunt","locatieNaam":"Pakketautomaat Praxis Zeewolde","straatNaam":"Mast","straatNr":"39","vervoerder":"DHL","puntType":"packStation","bezettingsgraad":50,"latitude":52.33864464730667,"longitude":5.52433451262922,"canPickup":true,"canDropoff":true,"openingstijden":{"ma":"09:00 - 21:00","di":"09:00 - 21:00","wo":"09:00 - 21:00","do":"09:00 - 21:00","vr":"09:00 - 21:00","za":"09:00 - 18:00","zo":"10:00 - 17:00"}}},{"type":"Feature","geometry":{"type":"Point","coordinates":[5.5437107,52.3317144]},"properties":{"type":"pakketpunt","locatieNaam":"Foto Rene Tuinte","straatNaam":"RAADHUISTRAAT","straatNr":"38","vervoerder":"DPD","puntType":"pickup_point","bezettingsgraad":50,"latitude":52.3317144,"longitude":5.5437107,"canPickup":true,"canDropoff":true,"openingstijden":{"ma":"14:00 - 17:00","di":"10:00 - 12:00, 14:00 - 17:00","wo":"10:00 - 12:00, 14:00 - 17:00","do":"10:00 - 12:00, 14:00 - 17:00","vr":"10:00 - 12:00, 14:00 - 17:00","za":"10:00 - 17:00","zo":"gesloten"}}},{"type":"Feature","geometry":{"type":"Point","coordinates":[5.4980241,52.3527363]},"properties":{"type":"pakketpunt","locatieNaam":"Pakketautomaat Supertank Zeewolde","straatNaam":"LANDBOUWWEG","straatNr":"18","vervoerder":"DPD","puntType":"dpd_box","bezettingsgraad":50,"latitude":52.3527363,"longitude":5.4980241,"canPickup":true,"canDropoff":true,"openingstijden":{"ma":"00:01 - 23:59","di":"00:01 - 23:59","wo":"00:01 - 23:59","do":"00:01 - 23:59","vr":"00:01 - 23:59","za":"00:01 - 23:59","zo":"00:01 - 23:59"}}},{"type":"Feature","geometry":{"type":"Point","coordinates":[5.498257865,52.35287558]},"properties":{"type":"pakketpunt","locatieNaam":"Supertank Zeewolde","straatNaam":"Landbouwweg","straatNr":"18","vervoerder":"PostNL","puntType":"servicepunt","bezettingsgraad":50,"latitude":52.35287558,"longitude":5.498257865,"canPickup":true,"canDropoff":true,"openingstijden":"08:00 - 18:00 (Na 18:00 open; Zaterdag open)"}},{"type":"Feature","geometry":{"type":"Point","coordinates":[5.516104634,52.34739299]},"properties":{"type":"pakketpunt","locatieNaam":"GAMMA Zeewolde","straatNaam":"Bolwerk","straatNr":"7","vervoerder":"PostNL","puntType":"servicepunt","bezettingsgraad":50,"latitude":52.34739299,"longitude":5.516104634,"canPickup":true,"canDropoff":true,"openingstijden":"09:00 - 21:00"}},{"type":"Feature","geometry":{"type":"Point","coordinates":[5.516104634,52.34739299]},"properties":{"type":"pakketpunt","locatieNaam":"Pakket- en briefautomaat","straatNaam":"Bolwerk","straatNr":"7PBA","vervoerder":"PostNL","puntType":"automaat","bezettingsgraad":50,"latitude":52.34739299,"longitude":5.516104634,"canPickup":true,"canDropoff":true,"openingstijden":"00:00 - 23:59"}},{"type":"Feature","geometry":{"type":"Point","coordinates":[5.5178657781132,52.3374507419198]},"properties":{"type":"pakketpunt","locatieNaam":"Pakket- en briefautomaat","straatNaam":"Aquamarijn","straatNr":"21PBA","vervoerder":"PostNL","puntType":"automaat","bezettingsgraad":50,"latitude":52.3374507419198,"longitude":5.5178657781132,"canPickup":true,"canDropoff":true,"openingstijden":"00:00 - 23:59"}},{"type":"Feature","geometry":{"type":"Point","coordinates":[5.517865778,52.33745074]},"properties":{"type":"pakketpunt","locatieNaam":"Plus Vandaag Verduijn","straatNaam":"Aquamarijn","straatNr":"21","vervoerder":"PostNL","puntType":"servicepunt","bezettingsgraad":50,"latitude":52.33745074,"longitude":5.517865778,"canPickup":true,"canDropoff":true,"openingstijden":"08:00 - 21:00"}},{"type":"Feature","geometry":{"type":"Point","coordinates":[5.52976141600305,52.3453910426993]},"properties":{"type":"pakketpunt","locatieNaam":"Pakketautomaat","straatNaam":"Molenplein","straatNr":"1PBA","vervoerder":"PostNL","puntType":"automaat","bezettingsgraad":50,"latitude":52.3453910426993,"longitude":5.52976141600305,"canPickup":true,"canDropoff":true,"openingstijden":"08:00 - 21:00"}},{"type":"Feature","geometry":{"type":"Point","coordinates":[5.54032239803256,52.3311503999091]},"properties":{"type":"pakketpunt","locatieNaam":"Pakketautomaat","straatNaam":"Gouwzee","straatNr":"61PBA","vervoerder":"PostNL","puntType":"automaat","bezettingsgraad":50,"latitude":52.3311503999091,"longitude":5.54032239803256,"canPickup":true,"canDropoff":true,"openingstijden":"09:00 - 18:00"}},{"type":"Feature","geometry":{"type":"Point","coordinates":[5.54172887981474,52.3306093098838]},"properties":{"type":"pakketpunt","locatieNaam":"Bruna","straatNaam":"Kerkstraat","straatNr":"1012","vervoerder":"PostNL","puntType":"servicepunt","bezettingsgraad":50,"latitude":52.3306093098838,"longitude":5.54172887981474,"canPickup":true,"canDropoff":true,"openingstijden":"09:00 - 18:00 (Na 18:00 open; Zaterdag open)"}},{"type":"Feature","geometry":{"type":"Point","coordinates":[5.544223044,52.33066894]},"properties":{"type":"pakketpunt","locatieNaam":"Primera Zeewolde","straatNaam":"Horsterplein","straatNr":"36","vervoerder":"PostNL","puntType":"servicepunt","bezettingsgraad":50,"latitude":52.33066894,"longitude":5.544223044,"canPickup":true,"canDropoff":true,"openingstijden":"09:00 - 18:00"}},{"type":"Feature","geometry":{"type":"Point","coordinates":[5.5436889,52.3317083]},"properties":{"type":"pakketpunt","locatieNaam":"Foto Rene Tuinte ","straatNaam":"Raadhuisstraat 38","straatNr":"","vervoerder":"VintedGo","puntType":"parcel_shop","bezettingsgraad":50,"latitude":52.3317083,"longitude":5.5436889,"canPickup":true,"canDropoff":true,"openingstijden":null}},{"type":"Feature","geometry":{"type":"Point","coordinates":[5.52504,52.33741]},"properties":{"type":"pakketpunt","locatieNaam":"Auto Brouwer ","straatNaam":"Gaffel 10","straatNr":"","vervoerder":"VintedGo","puntType":"parcel_shop","bezettingsgraad":50,"latitude":52.33741,"longitude":5.52504,"canPickup":true,"canDropoff":true,"openingstijden":null}},{"type":"Feature","geometry":{"type":"Point","coordinates":[5.5404074,52.3311491]},"properties":{"type":"pakketpunt","locatieNaam":"Budget Food - Zeewolde","straatNaam":"Gouwzee 61","straatNr":"","vervoerder":"VintedGo","puntType":"locker","bezettingsgraad":50,"latitude":52.3311491,"longitude":5.5404074,"canPickup":true,"canDropoff":true,"openingstijden":null}},{"type":"Feature","geometry":{"type":"Point","coordinates":[5.5194276,52.3338812]},"properties":{"type":"pakketpunt","locatieNaam":"Next Level","straatNaam":"Corridor 84","straatNr":"","vervoerder":"VintedGo","puntType":"locker","bezettingsgraad":50,"latitude":52.3338812,"longitude":5.5194276,"canPickup":true,"canDropoff":true,"openingstijden":null}},{"type":"Feature","geometry":{"type":"Point","coordinates":[5.51610463,52.3473929]},"properties":{"type":"pakketpunt","locatieNaam":"Pakketautomaat","straatNaam":"Bolwerk","straatNr":"7","vervoerder":"GLS","puntType":"locker","bezettingsgraad":50,"latitude":52.3473929,"longitude":5.51610463,"canPickup":true,"canDropoff":true,"openingstijden":{"ma":"00:00 - 23:59","di":"00:00 - 23:59","wo":"00:00 - 23:59","do":"00:00 - 23:59","vr":"00:00 - 23:59","za":"00:00 - 23:59","zo":"00:00 - 23:59"}}},{"type":"Feature","geometry":{"type":"Point","coordinates":[5.52976141,52.345391]},"properties":{"type":"pakketpunt","locatieNaam":"Pakketautomaat","straatNaam":"Molenplein","straatNr":"1","vervoerder":"GLS","puntType":"locker","bezettingsgraad":50,"latitude":52.345391,"longitude":5.52976141,"canPickup":true,"canDropoff":true,"openingstijden":{"ma":"08:00 - 21:00","di":"08:00 - 21:00","wo":"08:00 - 21:00","do":"08:00 - 21:00","vr":"08:00 - 21:00","za":"08:00 - 21:00","zo":"13:00 - 20:00"}}},{"type":"Feature","geometry":{"type":"Point","coordinates":[5.51786577,52.3374507]},"properties":{"type":"pakketpunt","locatieNaam":"Pakketautomaat","straatNaam":"Aquamarijn","straatNr":"21","vervoerder":"GLS","puntType":"locker","bezettingsgraad":50,"latitude":52.3374507,"longitude":5.51786577,"canPickup":true,"canDropoff":true,"openingstijden":{"ma":"00:00 - 23:59","di":"00:00 - 23:59","wo":"00:00 - 23:59","do":"00:00 - 23:59","vr":"00:00 - 23:59","za":"00:00 - 23:59","zo":"00:00 - 23:59"}}},{"type":"Feature","geometry":{"type":"Point","coordinates":[5.5437054,52.3317122]},"properties":{"type":"pakketpunt","locatieNaam":"Foto Rene Tuinte B.V.","straatNaam":"Raadhuisstraat","straatNr":"38","vervoerder":"GLS","puntType":"parcel_shop","bezettingsgraad":50,"latitude":52.3317122,"longitude":5.5437054,"canPickup":true,"canDropoff":true,"openingstijden":{"ma":"14:00 - 17:00","di":"10:00 - 12:00, 14:00 - 17:00","wo":"10:00 - 12:00, 14:00 - 17:00","do":"10:00 - 12:00, 14:00 - 17:00","vr":"10:00 - 12:00, 14:00 - 17:00","za":"10:00 - 17:00","zo":"00:00 - 00:00"}}},{"type":"Feature","geometry":{"type":"Point","coordinates":[5.54032239,52.3311503]},"properties":{"type":"pakketpunt","locatieNaam":"Pakketautomaat","straatNaam":"Gouwzee","straatNr":"61","vervoerder":"GLS","puntType":"locker","bezettingsgraad":50,"latitude":52.3311503,"longitude":5.54032239,"canPickup":true,"canDropoff":true,"openingstijden":{"ma":"09:00 - 18:00","di":"09:00 - 18:00","wo":"09:00 - 18:00","do":"09:00 - 18:00","vr":"09:00 - 20:00","za":"09:00 - 18:00","zo":"13:00 - 17:00"}}},{"type":"Feature","geometry":{"type":"Point","coordinates":[5.5178671000000135,52.33745064999998]},"properties":{"type":"pakketpunt","locatieNaam":"FedEx Ship&Get","straatNaam":"Aquamarijn 21 PBA","straatNr":"","vervoerder":"FedEx","puntType":"servicepunt","bezettingsgraad":50,"latitude":52.33745064999998,"longitude":5.5178671000000135,"canPickup":true,"canDropoff":true,"openingstijden":{"ma":"00:00 - 23:59","di":"00:00 - 23:59","wo":"00:00 - 23:59","do":"00:00 - 23:59","vr":"00:00 - 23:59","za":"00:00 - 23:59","zo":"00:00 - 23:59"}}},{"type":"Feature","geometry":{"type":"Point","coordinates":[5.543711,52.331714]},"properties":{"type":"pakketpunt","locatieNaam":"FedEx OnSite","straatNaam":"RAADHUISSTRAAT 38","straatNr":"","vervoerder":"FedEx","puntType":"servicepunt","bezettingsgraad":50,"latitude":52.331714,"longitude":5.543711,"canPickup":true,"canDropoff":true,"openingstijden":{"ma":"14:00 - 17:00","di":"10:00 - 12:00, 14:00 - 17:00","wo":"10:00 - 12:00, 14:00 - 17:00","do":"10:00 - 12:00, 14:00 - 17:00","vr":"10:00 - 12:00, 14:00 - 17:00","za":"10:00 - 17:00","zo":"gesloten"}}},{"type":"Feature","geometry":{"type":"Point","coordinates":[5.516066234458523,52.3472860864183]},"properties":{"type":"pakketpunt","locatieNaam":"FedEx Ship&Get","straatNaam":"Bolwerk 7 PBA","straatNr":"","vervoerder":"FedEx","puntType":"servicepunt","bezettingsgraad":50,"latitude":52.3472860864183,"longitude":5.516066234458523,"canPickup":true,"canDropoff":true,"openingstijden":{"ma":"00:00 - 23:59","di":"00:00 - 23:59","wo":"00:00 - 23:59","do":"00:00 - 23:59","vr":"00:00 - 23:59","za":"00:00 - 23:59","zo":"00:00 - 23:59"}}},{"type":"Feature","geometry":{"type":"Point","coordinates":[5.52975005061167,52.34538895359613]},"properties":{"type":"pakketpunt","locatieNaam":"FedEx Ship&Get","straatNaam":"Molenplein 1 PBA","straatNr":"","vervoerder":"FedEx","puntType":"servicepunt","bezettingsgraad":50,"latitude":52.34538895359613,"longitude":5.52975005061167,"canPickup":true,"canDropoff":true,"openingstijden":{"ma":"08:00 - 21:00","di":"08:00 - 21:00","wo":"08:00 - 21:00","do":"08:00 - 21:00","vr":"08:00 - 21:00","za":"08:00 - 21:00","zo":"13:00 - 20:00"}}},{"type":"Feature","geometry":{"type":"Point","coordinates":[5.54371,52.33171]},"properties":{"type":"pakketpunt","locatieNaam":"FOTO RENE TUINTE","straatNaam":"Raadhuisstraat 38","straatNr":"","vervoerder":"InPost","puntType":"servicepunt","bezettingsgraad":50,"latitude":52.33171,"longitude":5.54371,"canPickup":true,"canDropoff":true,"openingstijden":null}},{"type":"Feature","geometry":{"type":"Polygon","coordinates":[[[5.315179,52.302392],[5.317035,52.303484],[5.317195,52.303578],[5.317778,52.303921],[5.31791,52.303999],[5.318168,52.30415],[5.320222,52.305359],[5.32308,52.307261],[5.327551,52.310279],[5.332693,52.313729],[5.332726,52.313751],[5.332953,52.313903],[5.332954,52.313904],[5.332989,52.313927],[5.33299,52.313928],[5.333059,52.313974],[5.333289,52.314129],[5.333393,52.314199],[5.333505,52.314274],[5.33548,52.313503],[5.336352,52.313184],[5.337182,52.312854],[5.337218,52.312837],[5.337269,52.312812],[5.34151,52.311158],[5.342404,52.310823],[5.343272,52.310486],[5.344177,52.310172],[5.344924,52.309939],[5.346095,52.309703],[5.346955,52.309523],[5.347052,52.309508],[5.34741,52.309461],[5.347548,52.30946],[5.348148,52.309382],[5.348525,52.309173],[5.348617,52.309165],[5.348963,52.309302],[5.349704,52.309249],[5.350497,52.309232],[5.351501,52.309235],[5.352011,52.309251],[5.35278,52.309296],[5.353373,52.309348],[5.354006,52.309407],[5.354552,52.309503],[5.354553,52.309503],[5.355203,52.309612],[5.361509,52.310785],[5.379211,52.313995],[5.378993,52.314446],[5.37895,52.314448],[5.378902,52.31446],[5.378852,52.314488],[5.378797,52.314527],[5.37855,52.314703],[5.376499,52.316502],[5.376389,52.316598],[5.376375,52.316608],[5.376198,52.316742],[5.376075,52.316849],[5.367447,52.324351],[5.367357,52.32443],[5.363131,52.328103],[5.358904,52.331777],[5.354668,52.335457],[5.354256,52.335815],[5.350816,52.338803],[5.350799,52.338818],[5.350464,52.339109],[5.350446,52.339125],[5.34199,52.346468],[5.340613,52.347663],[5.339663,52.348488],[5.338496,52.349501],[5.338045,52.349893],[5.337768,52.350133],[5.337719,52.350176],[5.337661,52.350226],[5.337379,52.350471],[5.337307,52.350533],[5.337184,52.35064],[5.335489,52.352112],[5.334867,52.352651],[5.333363,52.353957],[5.329118,52.357643],[5.32907,52.357684],[5.324725,52.361456],[5.32041,52.3652],[5.316685,52.368432],[5.311745,52.37277],[5.308194,52.375887],[5.307975,52.37608],[5.307962,52.376091],[5.30795,52.376102],[5.306711,52.377189],[5.306675,52.377221],[5.306453,52.377415],[5.30621,52.377629],[5.306128,52.377701],[5.305885,52.377914],[5.305758,52.378025],[5.304438,52.379184],[5.301276,52.381959],[5.301263,52.38197],[5.301245,52.381986],[5.301557,52.382125],[5.302322,52.382444],[5.303085,52.382751],[5.303827,52.383027],[5.304778,52.383361],[5.305566,52.383637],[5.306346,52.383909],[5.307753,52.3844],[5.308972,52.384829],[5.310496,52.385365],[5.312999,52.386239],[5.313011,52.386243],[5.31304,52.386253],[5.313068,52.386225],[5.313398,52.385842],[5.313517,52.385741],[5.313933,52.385892],[5.313936,52.385893],[5.313971,52.385906],[5.31481,52.38621],[5.314911,52.386246],[5.315571,52.386485],[5.319438,52.387886],[5.319585,52.387939],[5.319709,52.387984],[5.320544,52.388287],[5.332604,52.392653],[5.332934,52.392773],[5.332894,52.392806],[5.332676,52.392989],[5.332418,52.393206],[5.33237,52.393246],[5.334589,52.394077],[5.336124,52.394649],[5.337512,52.395166],[5.33861,52.395581],[5.339353,52.395813],[5.340108,52.395941],[5.341018,52.395977],[5.34108,52.395981],[5.342293,52.395976],[5.343436,52.395894],[5.343899,52.395861],[5.344373,52.395884],[5.34483,52.396016],[5.345913,52.396454],[5.345965,52.396415],[5.346371,52.396114],[5.347257,52.396515],[5.347368,52.396565],[5.347717,52.396723],[5.347924,52.396837],[5.348168,52.397028],[5.348321,52.39733],[5.34892,52.398383],[5.349423,52.399157],[5.349528,52.399301],[5.349648,52.399444],[5.349782,52.399583],[5.350015,52.399774],[5.350497,52.400103],[5.350735,52.400194],[5.351942,52.400657],[5.35322,52.401155],[5.354665,52.40172],[5.356127,52.402286],[5.357719,52.402909],[5.359173,52.403486],[5.359831,52.403743],[5.360593,52.404046],[5.361802,52.404523],[5.361813,52.404529],[5.363031,52.405013],[5.36428,52.405511],[5.365504,52.405999],[5.366737,52.406491],[5.367579,52.406827],[5.367968,52.406982],[5.369212,52.407484],[5.370411,52.407966],[5.371671,52.40848],[5.372508,52.408822],[5.374104,52.409474],[5.37531,52.409969],[5.376556,52.41048],[5.377759,52.410982],[5.378988,52.411494],[5.380164,52.411993],[5.381395,52.412519],[5.382596,52.41303],[5.383799,52.413554],[5.384988,52.414069],[5.386187,52.414604],[5.387363,52.415127],[5.387998,52.415413],[5.388544,52.415659],[5.388891,52.415816],[5.389716,52.416189],[5.390925,52.416742],[5.3921,52.417279],[5.393215,52.417799],[5.39353,52.417943],[5.394966,52.418618],[5.396312,52.419258],[5.397533,52.41984],[5.398625,52.420369],[5.399748,52.420917],[5.400777,52.421418],[5.401373,52.421709],[5.401793,52.421898],[5.401905,52.421957],[5.402599,52.422321],[5.403924,52.422983],[5.404841,52.423445],[5.405804,52.423937],[5.407492,52.424802],[5.407576,52.424844],[5.409164,52.425668],[5.41088,52.426563],[5.411964,52.42714],[5.413271,52.427844],[5.414272,52.428381],[5.416011,52.429325],[5.416154,52.429394],[5.416436,52.429528],[5.41648,52.429549],[5.418256,52.430534],[5.421008,52.432083],[5.423775,52.432564],[5.425862,52.433785],[5.427177,52.434554],[5.426889,52.435505],[5.429907,52.437322],[5.4299,52.437328],[5.429871,52.437353],[5.431323,52.438248],[5.4343,52.440085],[5.435143,52.440588],[5.43667,52.441461],[5.437586,52.441991],[5.438622,52.44264],[5.438631,52.442646],[5.438706,52.442656],[5.438783,52.442646],[5.438793,52.442639],[5.438823,52.442616],[5.44012,52.441615],[5.44188,52.440258],[5.445337,52.437612],[5.446026,52.437095],[5.44623,52.436942],[5.446242,52.436951],[5.446272,52.436964],[5.446745,52.436643],[5.447121,52.436391],[5.447498,52.436146],[5.447897,52.435895],[5.448324,52.435634],[5.448894,52.435301],[5.450215,52.434531],[5.451508,52.433773],[5.455556,52.431402],[5.460718,52.428387],[5.460982,52.428233],[5.466392,52.425067],[5.466887,52.424777],[5.471811,52.421892],[5.474043,52.420588],[5.474979,52.420033],[5.476241,52.419203],[5.479623,52.41699],[5.479689,52.416946],[5.480925,52.416127],[5.481452,52.415778],[5.483146,52.414655],[5.486689,52.412331],[5.489708,52.410347],[5.489819,52.410269],[5.48989,52.410192],[5.490081,52.410066],[5.491427,52.409173],[5.491556,52.409116],[5.491667,52.409053],[5.49457,52.407148],[5.495136,52.406779],[5.498134,52.404825],[5.501669,52.402503],[5.506367,52.399421],[5.507038,52.398981],[5.507303,52.398744],[5.507623,52.398531],[5.50803,52.398265],[5.508496,52.397965],[5.508802,52.397778],[5.508992,52.397662],[5.5095,52.397355],[5.510025,52.397069],[5.512448,52.395746],[5.512406,52.395718],[5.513337,52.395205],[5.515679,52.393914],[5.51942,52.391869],[5.520607,52.39122],[5.525048,52.388797],[5.52506,52.388805],[5.525104,52.388781],[5.525106,52.38878],[5.525118,52.388773],[5.525224,52.388714],[5.533006,52.384377],[5.533982,52.385032],[5.534423,52.384784],[5.534533,52.384742],[5.53461,52.384713],[5.534824,52.384688],[5.535034,52.384709],[5.535243,52.384756],[5.535996,52.384988],[5.536581,52.385168],[5.536764,52.385206],[5.536929,52.385186],[5.537296,52.385001],[5.537298,52.385],[5.537409,52.38517],[5.537495,52.385194],[5.538293,52.385728],[5.538355,52.385752],[5.538437,52.385761],[5.53865,52.385762],[5.543109,52.388751],[5.544859,52.389923],[5.545643,52.390432],[5.546301,52.390868],[5.547082,52.391387],[5.547967,52.391982],[5.548803,52.392543],[5.552843,52.395255],[5.553252,52.395524],[5.553682,52.395798],[5.554142,52.396083],[5.554642,52.396389],[5.555051,52.396637],[5.555545,52.396932],[5.556896,52.397719],[5.557417,52.398022],[5.557846,52.398283],[5.560722,52.399943],[5.564017,52.401871],[5.564251,52.402006],[5.564296,52.402041],[5.564315,52.402081],[5.564309,52.402154],[5.564337,52.402243],[5.564429,52.402305],[5.565202,52.402573],[5.565253,52.402593],[5.565299,52.402617],[5.567321,52.403792],[5.570627,52.405718],[5.570627,52.405718],[5.572309,52.406684],[5.572704,52.40691],[5.573935,52.407635],[5.574389,52.407897],[5.575028,52.40826],[5.576321,52.409019],[5.577255,52.409547],[5.578014,52.409968],[5.57826,52.410085],[5.578355,52.41013],[5.578708,52.410279],[5.579073,52.41042],[5.579444,52.410553],[5.579798,52.410674],[5.58015,52.410784],[5.580509,52.410883],[5.580877,52.410975],[5.581252,52.411062],[5.581542,52.411122],[5.581959,52.411193],[5.582384,52.411256],[5.582788,52.41131],[5.583217,52.411358],[5.583665,52.411396],[5.584101,52.411423],[5.584543,52.411436],[5.58498,52.411442],[5.585426,52.411438],[5.585868,52.411422],[5.586314,52.411394],[5.586743,52.41136],[5.587786,52.411288],[5.588185,52.411252],[5.588284,52.411258],[5.58907,52.411187],[5.589103,52.411177],[5.589197,52.411165],[5.593126,52.410816],[5.598727,52.410311],[5.598728,52.410311],[5.598742,52.410309],[5.598749,52.410309],[5.598935,52.410292],[5.599806,52.410215],[5.599916,52.410205],[5.60007,52.410192],[5.600293,52.410168],[5.600555,52.410132],[5.600888,52.410102],[5.601484,52.410056],[5.602513,52.409965],[5.607126,52.409561],[5.611491,52.409171],[5.615851,52.408781],[5.61759,52.408632],[5.617972,52.408599],[5.618401,52.408568],[5.618849,52.408548],[5.619308,52.408546],[5.620259,52.408541],[5.621608,52.40853],[5.622343,52.408519],[5.622355,52.408519],[5.622367,52.408519],[5.622379,52.408519],[5.622391,52.40852],[5.622403,52.40852],[5.622415,52.408521],[5.622427,52.408522],[5.622439,52.408523],[5.622452,52.408524],[5.622464,52.408525],[5.622475,52.408526],[5.622487,52.408527],[5.622499,52.408529],[5.622511,52.408531],[5.622523,52.408533],[5.622534,52.408535],[5.622546,52.408537],[5.622558,52.408539],[5.622569,52.408542],[5.62258,52.408544],[5.622592,52.408547],[5.622603,52.40855],[5.622614,52.408553],[5.622625,52.408556],[5.622636,52.408559],[5.622647,52.408562],[5.622658,52.408566],[5.622668,52.408569],[5.622679,52.408573],[5.622689,52.408577],[5.6227,52.408581],[5.62271,52.408585],[5.62272,52.408589],[5.62273,52.408593],[5.622739,52.408598],[5.622749,52.408602],[5.622758,52.408607],[5.622768,52.408612],[5.622777,52.408617],[5.622786,52.408622],[5.622795,52.408627],[5.622803,52.408632],[5.622812,52.408637],[5.62282,52.408643],[5.622828,52.408648],[5.622836,52.408654],[5.622844,52.408659],[5.622853,52.408666],[5.622862,52.408673],[5.62287,52.40868],[5.622879,52.408687],[5.622887,52.408693],[5.622895,52.408701],[5.622903,52.408708],[5.62291,52.408715],[5.622917,52.408722],[5.622925,52.40873],[5.622932,52.408737],[5.622939,52.408744],[5.622945,52.408752],[5.622952,52.40876],[5.622958,52.408767],[5.622964,52.408775],[5.62297,52.408783],[5.622976,52.408791],[5.622981,52.408799],[5.622986,52.408806],[5.622992,52.408814],[5.622996,52.408823],[5.623001,52.408831],[5.623005,52.408839],[5.62301,52.408847],[5.623014,52.408855],[5.623018,52.408863],[5.623021,52.408872],[5.622747,52.407666],[5.622733,52.407607],[5.622691,52.407457],[5.622664,52.407355],[5.622635,52.407227],[5.622575,52.406962],[5.621139,52.40103],[5.620467,52.398201],[5.620215,52.397147],[5.619828,52.395533],[5.61941,52.393806],[5.619381,52.393771],[5.619319,52.39356],[5.619327,52.393525],[5.618235,52.388928],[5.617992,52.387912],[5.617745,52.386871],[5.617651,52.386467],[5.617525,52.385934],[5.617373,52.385363],[5.617188,52.384783],[5.616983,52.384252],[5.616758,52.383736],[5.616636,52.38347],[5.616419,52.38303],[5.616111,52.382452],[5.615795,52.381875],[5.614897,52.380331],[5.61327,52.377484],[5.613177,52.377322],[5.612991,52.376999],[5.612218,52.375656],[5.612056,52.375334],[5.611932,52.375008],[5.611852,52.374687],[5.611828,52.374448],[5.611841,52.374114],[5.611882,52.373795],[5.611973,52.373478],[5.612093,52.373237],[5.612256,52.372973],[5.612465,52.372718],[5.612693,52.372475],[5.612873,52.372305],[5.613175,52.372062],[5.613471,52.371847],[5.613812,52.371624],[5.614128,52.371418],[5.614149,52.371404],[5.613557,52.371042],[5.614123,52.370688],[5.614202,52.370638],[5.614523,52.370437],[5.615189,52.37084],[5.615325,52.370705],[5.61543,52.370559],[5.615516,52.370585],[5.615734,52.370285],[5.615857,52.370114],[5.615874,52.370085],[5.616016,52.369903],[5.616274,52.369588],[5.618376,52.367018],[5.620737,52.36413],[5.614568,52.362404],[5.614542,52.362397],[5.614066,52.362264],[5.614039,52.362257],[5.613532,52.361674],[5.611638,52.3595],[5.610859,52.360256],[5.610082,52.361011],[5.609394,52.361682],[5.60921,52.361861],[5.609052,52.362012],[5.608852,52.362173],[5.608596,52.362358],[5.608358,52.362505],[5.608097,52.362648],[5.607813,52.362782],[5.607419,52.36294],[5.607398,52.362949],[5.606837,52.363125],[5.606301,52.363247],[5.605903,52.363313],[5.605469,52.363361],[5.604955,52.363392],[5.598597,52.363583],[5.59829,52.36359],[5.597937,52.363591],[5.597404,52.363579],[5.596987,52.363568],[5.596584,52.363544],[5.595456,52.363448],[5.594633,52.36335],[5.594543,52.363339],[5.592739,52.363114],[5.592723,52.363112],[5.591157,52.362916],[5.588333,52.36172],[5.587707,52.361454],[5.585682,52.359947],[5.578014,52.352958],[5.577786,52.352749],[5.575657,52.350809],[5.575604,52.35076],[5.574279,52.348261],[5.571897,52.343771],[5.569517,52.339281],[5.567137,52.334791],[5.565864,52.332389],[5.562378,52.32581],[5.560806,52.322844],[5.560806,52.322843],[5.560651,52.322551],[5.557621,52.31683],[5.555506,52.312837],[5.555483,52.312794],[5.553655,52.309341],[5.552865,52.307849],[5.552671,52.307482],[5.548464,52.299534],[5.545168,52.293303],[5.545166,52.293299],[5.538034,52.279813],[5.537005,52.277867],[5.536206,52.276354],[5.534812,52.274081],[5.533281,52.272741],[5.529969,52.271988],[5.522166,52.270406],[5.519033,52.269853],[5.50443,52.267275],[5.476849,52.2624],[5.476772,52.262561],[5.476121,52.263924],[5.473443,52.263443],[5.47252,52.263277],[5.47232,52.263696],[5.472299,52.26374],[5.471447,52.263541],[5.470552,52.26334],[5.469812,52.263247],[5.469055,52.263152],[5.469075,52.263109],[5.469273,52.262693],[5.464459,52.261828],[5.464761,52.260637],[5.463372,52.260002],[5.456249,52.258605],[5.451745,52.257801],[5.426659,52.253319],[5.406728,52.249754],[5.404643,52.249631],[5.402897,52.249527],[5.401848,52.250138],[5.3982,52.252264],[5.397907,52.252435],[5.397614,52.252606],[5.395156,52.254038],[5.393236,52.255157],[5.384679,52.260355],[5.380281,52.263026],[5.372554,52.267717],[5.36582,52.271805],[5.365479,52.272012],[5.361596,52.274369],[5.350671,52.280996],[5.343238,52.285504],[5.341327,52.286663],[5.339564,52.287732],[5.336417,52.289639],[5.335857,52.289978],[5.335462,52.290218],[5.328571,52.294395],[5.328448,52.294469],[5.321037,52.298959],[5.317474,52.301117],[5.315179,52.302392]]]},"properties":{"type":"boundary","gemeente":"Zeewolde"}}]}