{"type":"FeatureCollection","metadata":{"gemeente":"Zuidplas","slug":"zuidplas","generated_at":"2026-10-05T09:12:00.299964Z","total_points":37,"providers":["Amazon","DHL","DPD","PostNL","VintedGo","ViaTim","FedEx","InPost","Budbee"],"bounds":[4.57251,51.965643,4.67774,52.04415897]},"features":[{"type":"Feature","geometry":{"type":"Point","coordinates":[4.59573157482367,51.966455074076]},"properties":{"type":"pakketpunt","locatieNaam":"SCF EUROPE BV+","straatNaam":"Hoofdweg-Noord 9 T","straatNr":"","vervoerder":"Amazon","puntType":"3p","bezettingsgraad":50,"latitude":51.966455074076,"longitude":4.59573157482367,"canPickup":true,"canDropoff":false,"openingstijden":null}},{"type":"Feature","geometry":{"type":"Point","coordinates":[4.59616076379987,51.9676983825904]},"properties":{"type":"pakketpunt","locatieNaam":"Beauty Studio Aylin","straatNaam":"Steenbakkerij 7","straatNr":"","vervoerder":"Amazon","puntType":"3p","bezettingsgraad":50,"latitude":51.9676983825904,"longitude":4.59616076379987,"canPickup":true,"canDropoff":false,"openingstijden":null}},{"type":"Feature","geometry":{"type":"Point","coordinates":[4.578970928,52.01315347]},"properties":{"type":"pakketpunt","locatieNaam":"Hubo Schotte","straatNaam":"Dorpsstraat 151","straatNr":"","vervoerder":"Amazon","puntType":"3p","bezettingsgraad":50,"latitude":52.01315347,"longitude":4.578970928,"canPickup":true,"canDropoff":false,"openingstijden":null}},{"type":"Feature","geometry":{"type":"Point","coordinates":[4.667977,51.994821]},"properties":{"type":"pakketpunt","locatieNaam":"DHL - DeBuren Locker 24-7 Moordrecht","straatNaam":"Ambachtweg 40","straatNr":"","vervoerder":"Amazon","puntType":"3p","bezettingsgraad":50,"latitude":51.994821,"longitude":4.667977,"canPickup":true,"canDropoff":false,"openingstijden":null}},{"type":"Feature","geometry":{"type":"Point","coordinates":[4.572511,52.043703]},"properties":{"type":"pakketpunt","locatieNaam":"Amazon Counter - ViaTim en Sabine","straatNaam":"Hollevoeterlaan 15","straatNr":"","vervoerder":"Amazon","puntType":"helix","bezettingsgraad":50,"latitude":52.043703,"longitude":4.572511,"canPickup":true,"canDropoff":false,"openingstijden":null}},{"type":"Feature","geometry":{"type":"Point","coordinates":[4.57565632,52.04415897]},"properties":{"type":"pakketpunt","locatieNaam":"Plus Moerkapelle","straatNaam":"Dorpsstraat 12","straatNr":"","vervoerder":"Amazon","puntType":"3p","bezettingsgraad":50,"latitude":52.04415897,"longitude":4.57565632,"canPickup":true,"canDropoff":false,"openingstijden":null}},{"type":"Feature","geometry":{"type":"Point","coordinates":[4.57565632046725,52.04415896678]},"properties":{"type":"pakketpunt","locatieNaam":"Plus Moerkapelle","straatNaam":"Dorpsstraat 12","straatNr":"","vervoerder":"Amazon","puntType":"3p","bezettingsgraad":50,"latitude":52.04415896678,"longitude":4.57565632046725,"canPickup":true,"canDropoff":false,"openingstijden":null}},{"type":"Feature","geometry":{"type":"Point","coordinates":[4.667977,51.994821]},"properties":{"type":"pakketpunt","locatieNaam":"DeBuren Locker 24-7 Moordrecht","straatNaam":"Ambachtweg","straatNr":"40","vervoerder":"DHL","puntType":"packStation","bezettingsgraad":50,"latitude":51.994821,"longitude":4.667977,"canPickup":true,"canDropoff":true,"openingstijden":{"ma":"00:00 - 23:59","di":"00:00 - 23:59","wo":"00:00 - 23:59","do":"00:00 - 23:59","vr":"00:00 - 23:59","za":"00:00 - 23:59","zo":"00:00 - 23:59"}}},{"type":"Feature","geometry":{"type":"Point","coordinates":[4.618405818939209,51.96809005737305]},"properties":{"type":"pakketpunt","locatieNaam":"Pakketautomaat terStal Reigerhof","straatNaam":"Reigerhof","straatNr":"74-Kast","vervoerder":"DHL","puntType":"packStation","bezettingsgraad":50,"latitude":51.96809005737305,"longitude":4.618405818939209,"canPickup":true,"canDropoff":true,"openingstijden":{"ma":"12:00 - 17:30","di":"12:00 - 17:30","wo":"12:00 - 17:30","do":"12:00 - 17:30","vr":"12:00 - 20:00","za":"12:00 - 17:00","zo":"gesloten"}}},{"type":"Feature","geometry":{"type":"Point","coordinates":[4.60702,51.965643]},"properties":{"type":"pakketpunt","locatieNaam":"Primera de Filmfreak","straatNaam":"Dorrestein","straatNr":"7","vervoerder":"DHL","puntType":"parcelShop","bezettingsgraad":50,"latitude":51.965643,"longitude":4.60702,"canPickup":true,"canDropoff":true,"openingstijden":{"ma":"09:00 - 18:00","di":"09:00 - 18:00","wo":"09:00 - 18:00","do":"09:00 - 18:00","vr":"09:00 - 18:00","za":"09:00 - 17:00","zo":"gesloten"}}},{"type":"Feature","geometry":{"type":"Point","coordinates":[4.604284,52.027023]},"properties":{"type":"pakketpunt","locatieNaam":"Pakketautomaat Intatruin Zuidplas","straatNaam":"Bredeweg","straatNr":"86-C","vervoerder":"DHL","puntType":"packStation","bezettingsgraad":50,"latitude":52.027023,"longitude":4.604284,"canPickup":true,"canDropoff":true,"openingstijden":{"ma":"09:30 - 18:00","di":"09:30 - 18:00","wo":"09:30 - 18:00","do":"09:30 - 18:00","vr":"09:30 - 21:00","za":"09:00 - 17:30","zo":"12:00 - 17:00"}}},{"type":"Feature","geometry":{"type":"Point","coordinates":[4.582146,52.010607]},"properties":{"type":"pakketpunt","locatieNaam":"Pand 73 Old Bakery","straatNaam":"Dorpsstraat","straatNr":"73","vervoerder":"DHL","puntType":"parcelShop","bezettingsgraad":50,"latitude":52.010607,"longitude":4.582146,"canPickup":true,"canDropoff":true,"openingstijden":{"ma":"gesloten","di":"10:00 - 17:30","wo":"10:00 - 17:30","do":"10:00 - 17:30","vr":"10:00 - 17:30","za":"10:00 - 16:30","zo":"gesloten"}}},{"type":"Feature","geometry":{"type":"Point","coordinates":[4.589205741882324,52.00701141357422]},"properties":{"type":"pakketpunt","locatieNaam":"DHL Pakketpunt Zevenhuizen","straatNaam":"Nijverheidscentrum","straatNr":"6","vervoerder":"DHL","puntType":"parcelShop","bezettingsgraad":50,"latitude":52.00701141357422,"longitude":4.589205741882324,"canPickup":true,"canDropoff":true,"openingstijden":{"ma":"11:45 - 21:00","di":"11:45 - 21:00","wo":"11:45 - 21:00","do":"11:45 - 21:00","vr":"11:45 - 21:00","za":"11:45 - 18:00","zo":"gesloten"}}},{"type":"Feature","geometry":{"type":"Point","coordinates":[4.6678093,51.9947729]},"properties":{"type":"pakketpunt","locatieNaam":"Pakketautomaat Peut Ambachtweg","straatNaam":"AMBACHTWEG","straatNr":"40","vervoerder":"DPD","puntType":"dpd_box","bezettingsgraad":50,"latitude":51.9947729,"longitude":4.6678093,"canPickup":true,"canDropoff":true,"openingstijden":{"ma":"00:00 - 23:59","di":"00:00 - 23:59","wo":"00:00 - 23:59","do":"00:00 - 23:59","vr":"00:00 - 23:59","za":"00:00 - 23:59","zo":"00:00 - 23:59"}}},{"type":"Feature","geometry":{"type":"Point","coordinates":[4.619068,51.968212]},"properties":{"type":"pakketpunt","locatieNaam":"UR816 Pakketautomaat Budbee","straatNaam":"REIGERHOF","straatNr":"150","vervoerder":"DPD","puntType":"dpd_box","bezettingsgraad":50,"latitude":51.968212,"longitude":4.619068,"canPickup":true,"canDropoff":false,"openingstijden":{"ma":"08:00 - 21:00","di":"08:00 - 21:00","wo":"08:00 - 21:00","do":"08:00 - 21:00","vr":"08:00 - 21:00","za":"08:00 - 21:00","zo":"12:00 - 21:00"}}},{"type":"Feature","geometry":{"type":"Point","coordinates":[4.57251,52.04365]},"properties":{"type":"pakketpunt","locatieNaam":"ViaTim & Sabine","straatNaam":"HOLLEVOETERLAAN","straatNr":"15","vervoerder":"DPD","puntType":"pickup_point","bezettingsgraad":50,"latitude":52.04365,"longitude":4.57251,"canPickup":true,"canDropoff":true,"openingstijden":{"ma":"16:00 - 21:00","di":"16:00 - 21:00","wo":"16:00 - 21:00","do":"16:00 - 21:00","vr":"16:00 - 21:00","za":"gesloten","zo":"gesloten"}}},{"type":"Feature","geometry":{"type":"Point","coordinates":[4.60403979483308,52.0248641368637]},"properties":{"type":"pakketpunt","locatieNaam":"Pakketautomaat","straatNaam":"Bredeweg","straatNr":"86PBA","vervoerder":"PostNL","puntType":"automaat","bezettingsgraad":50,"latitude":52.0248641368637,"longitude":4.60403979483308,"canPickup":true,"canDropoff":true,"openingstijden":"09:30 - 18:00"}},{"type":"Feature","geometry":{"type":"Point","coordinates":[4.604039795,52.02486414]},"properties":{"type":"pakketpunt","locatieNaam":"Intratuin Zevenhuizen","straatNaam":"Bredeweg","straatNr":"86C","vervoerder":"PostNL","puntType":"servicepunt","bezettingsgraad":50,"latitude":52.02486414,"longitude":4.604039795,"canPickup":true,"canDropoff":true,"openingstijden":"09:30 - 18:00"}},{"type":"Feature","geometry":{"type":"Point","coordinates":[4.578970928,52.01315347]},"properties":{"type":"pakketpunt","locatieNaam":"Hubo Schotte","straatNaam":"Dorpsstraat","straatNr":"151","vervoerder":"PostNL","puntType":"servicepunt","bezettingsgraad":50,"latitude":52.01315347,"longitude":4.578970928,"canPickup":true,"canDropoff":true,"openingstijden":"13:00 - 17:30 (Zaterdag open)"}},{"type":"Feature","geometry":{"type":"Point","coordinates":[4.65483335894363,52.0159239621995]},"properties":{"type":"pakketpunt","locatieNaam":"House of Carp","straatNaam":"Westbaan","straatNr":"350","vervoerder":"PostNL","puntType":"servicepunt","bezettingsgraad":50,"latitude":52.0159239621995,"longitude":4.65483335894363,"canPickup":true,"canDropoff":true,"openingstijden":"09:00 - 17:30"}},{"type":"Feature","geometry":{"type":"Point","coordinates":[4.667817553,51.99477331]},"properties":{"type":"pakketpunt","locatieNaam":"Tankstation Peut Ototol","straatNaam":"Ambachtweg","straatNr":"40","vervoerder":"PostNL","puntType":"servicepunt","bezettingsgraad":50,"latitude":51.99477331,"longitude":4.667817553,"canPickup":true,"canDropoff":true,"openingstijden":"06:00 - 21:00"}},{"type":"Feature","geometry":{"type":"Point","coordinates":[4.61780655222193,51.9681475624391]},"properties":{"type":"pakketpunt","locatieNaam":"Pakketautomaat","straatNaam":"Reigerhof","straatNr":"113PBA","vervoerder":"PostNL","puntType":"automaat","bezettingsgraad":50,"latitude":51.9681475624391,"longitude":4.61780655222193,"canPickup":true,"canDropoff":true,"openingstijden":"08:00 - 21:00"}},{"type":"Feature","geometry":{"type":"Point","coordinates":[4.668207861,51.98677596]},"properties":{"type":"pakketpunt","locatieNaam":"Primera","straatNaam":"De Smidse","straatNr":"47","vervoerder":"PostNL","puntType":"servicepunt","bezettingsgraad":50,"latitude":51.98677596,"longitude":4.668207861,"canPickup":true,"canDropoff":true,"openingstijden":"09:00 - 18:00 (Na 18:00 open; Zaterdag open)"}},{"type":"Feature","geometry":{"type":"Point","coordinates":[4.60710527203846,51.9659467959677]},"properties":{"type":"pakketpunt","locatieNaam":"Pakketautomaat","straatNaam":"Dorrestein","straatNr":"21PBA","vervoerder":"PostNL","puntType":"automaat","bezettingsgraad":50,"latitude":51.9659467959677,"longitude":4.60710527203846,"canPickup":true,"canDropoff":true,"openingstijden":"08:00 - 21:00"}},{"type":"Feature","geometry":{"type":"Point","coordinates":[4.669254221,51.98689021]},"properties":{"type":"pakketpunt","locatieNaam":"Albert Heijn","straatNaam":"De Smidse","straatNr":"16","vervoerder":"PostNL","puntType":"servicepunt","bezettingsgraad":50,"latitude":51.98689021,"longitude":4.669254221,"canPickup":true,"canDropoff":true,"openingstijden":"08:00 - 20:00 (Na 18:00 open; Zaterdag open; Zondag open)"}},{"type":"Feature","geometry":{"type":"Point","coordinates":[4.59616076379987,51.9676983825904]},"properties":{"type":"pakketpunt","locatieNaam":"Beauty Studio Aylin","straatNaam":"Steenbakkerij","straatNr":"7","vervoerder":"PostNL","puntType":"servicepunt","bezettingsgraad":50,"latitude":51.9676983825904,"longitude":4.59616076379987,"canPickup":true,"canDropoff":true,"openingstijden":"09:30 - 17:00"}},{"type":"Feature","geometry":{"type":"Point","coordinates":[4.57565632046725,52.04415896678]},"properties":{"type":"pakketpunt","locatieNaam":"Plus Moerkapelle","straatNaam":"Dorpsstraat","straatNr":"12","vervoerder":"PostNL","puntType":"servicepunt","bezettingsgraad":50,"latitude":52.04415896678,"longitude":4.57565632046725,"canPickup":true,"canDropoff":true,"openingstijden":"08:00 - 20:00 (Na 18:00 open; Zaterdag open)"}},{"type":"Feature","geometry":{"type":"Point","coordinates":[4.67774,51.99137]},"properties":{"type":"pakketpunt","locatieNaam":"AC De Schakel ","straatNaam":"Oosteinde 27","straatNr":"","vervoerder":"VintedGo","puntType":"parcel_shop","bezettingsgraad":50,"latitude":51.99137,"longitude":4.67774,"canPickup":true,"canDropoff":true,"openingstijden":null}},{"type":"Feature","geometry":{"type":"Point","coordinates":[4.6071344,51.9658889]},"properties":{"type":"pakketpunt","locatieNaam":"Plus Te Kulve ","straatNaam":"Dorrestein 21","straatNr":"","vervoerder":"VintedGo","puntType":"locker","bezettingsgraad":50,"latitude":51.9658889,"longitude":4.6071344,"canPickup":true,"canDropoff":true,"openingstijden":null}},{"type":"Feature","geometry":{"type":"Point","coordinates":[4.596273,51.966997]},"properties":{"type":"pakketpunt","locatieNaam":"Krabbs Detailing","straatNaam":"Steenbakkerij 52","straatNr":"","vervoerder":"VintedGo","puntType":"parcel_shop","bezettingsgraad":50,"latitude":51.966997,"longitude":4.596273,"canPickup":true,"canDropoff":true,"openingstijden":null}},{"type":"Feature","geometry":{"type":"Point","coordinates":[4.6038326,52.0247656]},"properties":{"type":"pakketpunt","locatieNaam":"Intratuin - Zuidplas","straatNaam":"Bredeweg 86C","straatNr":"","vervoerder":"VintedGo","puntType":"locker","bezettingsgraad":50,"latitude":52.0247656,"longitude":4.6038326,"canPickup":true,"canDropoff":true,"openingstijden":null}},{"type":"Feature","geometry":{"type":"Point","coordinates":[4.57251447,52.04365421]},"properties":{"type":"pakketpunt","locatieNaam":"ViaTim en Sabine","straatNaam":"Hollevoeterlaan","straatNr":"15","vervoerder":"ViaTim","puntType":"servicepunt","bezettingsgraad":50,"latitude":52.04365421,"longitude":4.57251447,"canPickup":true,"canDropoff":true,"openingstijden":{"ma":"16:00 - 21:00","di":"16:00 - 21:00","wo":"16:00 - 21:00","do":"16:00 - 21:00","vr":"16:00 - 21:00","za":"gesloten","zo":"gesloten"}}},{"type":"Feature","geometry":{"type":"Point","coordinates":[4.607306528743873,51.96582997120033]},"properties":{"type":"pakketpunt","locatieNaam":"FedEx Ship&Get","straatNaam":"Dorrestein 21 PBA","straatNr":"","vervoerder":"FedEx","puntType":"servicepunt","bezettingsgraad":50,"latitude":51.96582997120033,"longitude":4.607306528743873,"canPickup":true,"canDropoff":true,"openingstijden":{"ma":"08:00 - 21:00","di":"08:00 - 21:00","wo":"08:00 - 21:00","do":"08:00 - 21:00","vr":"08:00 - 21:00","za":"08:00 - 21:00","zo":"12:00 - 20:00"}}},{"type":"Feature","geometry":{"type":"Point","coordinates":[4.668948,51.990894]},"properties":{"type":"pakketpunt","locatieNaam":"FedEx OnSite","straatNaam":"AMBACHTWEG 40","straatNr":"","vervoerder":"FedEx","puntType":"servicepunt","bezettingsgraad":50,"latitude":51.990894,"longitude":4.668948,"canPickup":true,"canDropoff":true,"openingstijden":{"ma":"06:00 - 21:00","di":"06:00 - 21:00","wo":"06:00 - 21:00","do":"06:00 - 21:00","vr":"06:00 - 21:00","za":"07:00 - 21:00","zo":"09:00 - 21:00"}}},{"type":"Feature","geometry":{"type":"Point","coordinates":[4.66895,51.99089]},"properties":{"type":"pakketpunt","locatieNaam":"OTOTOL BV","straatNaam":"Ambachtweg 40","straatNr":"","vervoerder":"InPost","puntType":"servicepunt","bezettingsgraad":50,"latitude":51.99089,"longitude":4.66895,"canPickup":true,"canDropoff":true,"openingstijden":null}},{"type":"Feature","geometry":{"type":"Point","coordinates":[4.59627,51.967]},"properties":{"type":"pakketpunt","locatieNaam":"KRABBSDETAILING","straatNaam":"Steenbakkerij 52","straatNr":"","vervoerder":"InPost","puntType":"servicepunt","bezettingsgraad":50,"latitude":51.967,"longitude":4.59627,"canPickup":true,"canDropoff":true,"openingstijden":null}},{"type":"Feature","geometry":{"type":"Point","coordinates":[4.619068,51.968212]},"properties":{"type":"pakketpunt","locatieNaam":"UR816 Pakketautomaat Budbee","straatNaam":"REIGERHOF","straatNr":"150","vervoerder":"Budbee","puntType":"automaat","bezettingsgraad":50,"latitude":51.968212,"longitude":4.619068,"canPickup":true,"canDropoff":true,"openingstijden":null}},{"type":"Feature","geometry":{"type":"Polygon","coordinates":[[[4.547385,51.988747],[4.547394,51.988746],[4.547457,51.988533],[4.547559,51.988193],[4.547847,51.987192],[4.548165,51.985976],[4.548357,51.985201],[4.548428,51.984917],[4.548432,51.984852],[4.548428,51.984741],[4.548416,51.984636],[4.548314,51.984381],[4.548195,51.984143],[4.548099,51.983971],[4.548033,51.983847],[4.548005,51.983771],[4.547999,51.983598],[4.548055,51.983458],[4.548139,51.983324],[4.548257,51.983201],[4.54853,51.982997],[4.548813,51.982804],[4.549045,51.982665],[4.549137,51.982617],[4.549265,51.982563],[4.549307,51.982546],[4.549396,51.982516],[4.549415,51.982513],[4.549455,51.982506],[4.54969,51.982451],[4.550122,51.982322],[4.55033,51.982253],[4.550385,51.982231],[4.550464,51.982187],[4.55055,51.982141],[4.550626,51.9821],[4.550714,51.982049],[4.550785,51.981994],[4.550848,51.981931],[4.550893,51.981862],[4.550949,51.98178],[4.550972,51.981748],[4.551064,51.98164],[4.551154,51.981532],[4.551275,51.981387],[4.551341,51.981304],[4.551348,51.981296],[4.551412,51.981205],[4.551427,51.981184],[4.551451,51.981141],[4.551488,51.981071],[4.55153,51.980989],[4.551591,51.980896],[4.551653,51.980808],[4.551688,51.980759],[4.551743,51.980672],[4.551763,51.980641],[4.55183,51.980526],[4.551902,51.980402],[4.551965,51.980291],[4.551995,51.98023],[4.552012,51.980178],[4.552017,51.980163],[4.552036,51.98007],[4.552043,51.980027],[4.55204,51.979672],[4.552019,51.979499],[4.551997,51.979329],[4.551985,51.979184],[4.551978,51.979056],[4.551984,51.978956],[4.551983,51.978897],[4.551992,51.978869],[4.552004,51.978846],[4.552048,51.978804],[4.552174,51.978707],[4.552276,51.978636],[4.552625,51.978413],[4.552679,51.978375],[4.552763,51.978303],[4.552866,51.978225],[4.553147,51.978023],[4.553367,51.977884],[4.55365,51.977705],[4.553716,51.977663],[4.553781,51.977616],[4.553832,51.977572],[4.553855,51.977543],[4.553855,51.977506],[4.553805,51.977261],[4.553761,51.977041],[4.553736,51.97699],[4.553711,51.976954],[4.553641,51.97687],[4.553465,51.976708],[4.553434,51.976681],[4.553398,51.976639],[4.553367,51.976607],[4.55315,51.97628],[4.553066,51.976153],[4.552873,51.975813],[4.552751,51.975613],[4.55258,51.975332],[4.55253,51.975265],[4.552468,51.975195],[4.552382,51.975104],[4.552203,51.974949],[4.551881,51.974702],[4.551565,51.974499],[4.550841,51.974046],[4.550279,51.973709],[4.550058,51.973617],[4.549769,51.973461],[4.549502,51.973317],[4.549392,51.973258],[4.549272,51.9732],[4.549196,51.973167],[4.549055,51.973118],[4.548967,51.973086],[4.548517,51.97295],[4.548262,51.972881],[4.548086,51.972841],[4.547988,51.972822],[4.547926,51.972815],[4.547686,51.972807],[4.548105,51.972399],[4.548083,51.972389],[4.548785,51.972016],[4.549344,51.971719],[4.54957,51.971587],[4.54966,51.971523],[4.549749,51.971387],[4.549822,51.971303],[4.549934,51.971234],[4.550186,51.971098],[4.551116,51.970595],[4.551914,51.970165],[4.552816,51.969679],[4.553854,51.969116],[4.554187,51.968937],[4.554223,51.968917],[4.554272,51.968896],[4.554331,51.968878],[4.55442,51.968862],[4.554489,51.968858],[4.554544,51.96886],[4.554628,51.968872],[4.554762,51.968894],[4.555408,51.968815],[4.55638,51.968875],[4.556406,51.968806],[4.556472,51.968811],[4.556545,51.968796],[4.55669,51.96872],[4.556579,51.968654],[4.556503,51.968588],[4.556559,51.968455],[4.558162,51.969107],[4.558326,51.96915],[4.559786,51.969438],[4.560252,51.969529],[4.560406,51.969569],[4.560548,51.969622],[4.560674,51.96969],[4.56075,51.969775],[4.560786,51.969868],[4.560797,51.969949],[4.560773,51.970031],[4.560735,51.970114],[4.561222,51.970196],[4.561399,51.970275],[4.561105,51.970525],[4.561652,51.970762],[4.56113,51.971196],[4.561589,51.9714],[4.561443,51.971525],[4.56242,51.97193],[4.562898,51.971521],[4.563368,51.971728],[4.563212,51.971863],[4.564148,51.971695],[4.564334,51.971534],[4.565382,51.971276],[4.565671,51.971337],[4.565744,51.971471],[4.566936,51.97119],[4.568072,51.971434],[4.568666,51.971562],[4.569209,51.971718],[4.569772,51.97188],[4.570082,51.971969],[4.570269,51.972022],[4.571602,51.972125],[4.571909,51.971869],[4.572294,51.972042],[4.572391,51.972085],[4.572871,51.97227],[4.5734,51.972474],[4.573725,51.972599],[4.573883,51.97266],[4.573959,51.972694],[4.574363,51.972876],[4.574088,51.973107],[4.575047,51.973638],[4.575219,51.973717],[4.575412,51.973807],[4.575508,51.97386],[4.575699,51.973964],[4.575945,51.974099],[4.576163,51.97422],[4.576381,51.974341],[4.577301,51.974849],[4.578029,51.975251],[4.578544,51.975535],[4.578557,51.975543],[4.579,51.975787],[4.578525,51.976188],[4.577921,51.975854],[4.57745,51.976246],[4.574304,51.97451],[4.573939,51.974761],[4.573529,51.974576],[4.57023,51.97903],[4.578919,51.981134],[4.579014,51.981876],[4.579067,51.98241],[4.579113,51.982958],[4.579063,51.983358],[4.579017,51.983724],[4.578913,51.984046],[4.5788,51.984393],[4.578582,51.984813],[4.578452,51.98506],[4.577951,51.985727],[4.577312,51.986405],[4.579687,51.987267],[4.578728,51.988549],[4.579733,51.98884],[4.578936,51.98987],[4.586447,51.992018],[4.594373,51.994273],[4.596126,51.991906],[4.596772,51.991066],[4.598211,51.989106],[4.598518,51.98867],[4.598662,51.988448],[4.598721,51.988324],[4.598763,51.988156],[4.598773,51.987969],[4.598674,51.987968],[4.598644,51.987856],[4.598582,51.987631],[4.598525,51.98747],[4.598488,51.987341],[4.598472,51.987285],[4.598393,51.98709],[4.598263,51.986775],[4.598228,51.986692],[4.598039,51.986248],[4.597541,51.985077],[4.59738,51.984694],[4.597305,51.984514],[4.59727,51.984431],[4.597183,51.984225],[4.596721,51.983122],[4.596587,51.982804],[4.596544,51.982722],[4.596431,51.98255],[4.59633,51.982425],[4.596285,51.98237],[4.596183,51.982243],[4.595978,51.982004],[4.595843,51.981809],[4.595787,51.981718],[4.595775,51.981668],[4.595324,51.98045],[4.595174,51.980034],[4.595028,51.979633],[4.594892,51.979272],[4.594784,51.978981],[4.594682,51.978756],[4.594595,51.978574],[4.594531,51.978447],[4.594472,51.978327],[4.594345,51.978058],[4.594228,51.977773],[4.594174,51.977627],[4.594179,51.977508],[4.594284,51.977226],[4.594311,51.977122],[4.594211,51.977018],[4.594114,51.976944],[4.593986,51.976839],[4.593904,51.976756],[4.593878,51.976712],[4.593786,51.97647],[4.593748,51.976284],[4.593733,51.976132],[4.593746,51.976056],[4.593809,51.975902],[4.593894,51.975885],[4.593929,51.97578],[4.593997,51.975665],[4.594158,51.975524],[4.594383,51.975386],[4.59499,51.975101],[4.595537,51.974866],[4.597207,51.974168],[4.598184,51.973737],[4.599334,51.973254],[4.600327,51.972816],[4.600407,51.972781],[4.601017,51.972512],[4.60133,51.972379],[4.601706,51.972184],[4.601809,51.97214],[4.601663,51.972082],[4.601478,51.972001],[4.601337,51.971949],[4.601044,51.971841],[4.600851,51.97177],[4.600486,51.971677],[4.600121,51.971614],[4.599814,51.971553],[4.599642,51.971519],[4.599461,51.971472],[4.599069,51.971309],[4.598005,51.970843],[4.597877,51.970787],[4.597201,51.970488],[4.596717,51.970279],[4.596424,51.970171],[4.595945,51.970003],[4.594792,51.969582],[4.594623,51.969519],[4.593122,51.968963],[4.592865,51.968872],[4.592331,51.968684],[4.591566,51.968467],[4.591009,51.968308],[4.590845,51.968264],[4.590711,51.968226],[4.590601,51.968244],[4.590527,51.968285],[4.590173,51.96858],[4.590041,51.96859],[4.589832,51.968485],[4.589227,51.968211],[4.588467,51.967867],[4.587193,51.967289],[4.586869,51.967145],[4.586554,51.967005],[4.585502,51.966537],[4.585358,51.966472],[4.585176,51.966352],[4.584986,51.966099],[4.584917,51.966024],[4.584848,51.965948],[4.584721,51.965863],[4.584286,51.965668],[4.584229,51.965621],[4.58431,51.965511],[4.584103,51.965419],[4.58409,51.965413],[4.583992,51.965369],[4.584035,51.965333],[4.584201,51.965193],[4.584636,51.964828],[4.584848,51.964649],[4.585262,51.964301],[4.585806,51.96383],[4.585928,51.963728],[4.585969,51.963695],[4.586462,51.963282],[4.586762,51.963031],[4.586849,51.962959],[4.586945,51.962878],[4.587179,51.962683],[4.587535,51.962386],[4.587991,51.962005],[4.588147,51.961874],[4.58846,51.961603],[4.588718,51.961385],[4.590189,51.960143],[4.591262,51.959236],[4.591745,51.958828],[4.592012,51.958603],[4.592604,51.958103],[4.593901,51.957007],[4.594331,51.956644],[4.594791,51.956255],[4.594845,51.956209],[4.594895,51.956168],[4.59523,51.955885],[4.595325,51.955804],[4.59566,51.955523],[4.596385,51.954908],[4.596539,51.954778],[4.596943,51.954435],[4.596998,51.954388],[4.597132,51.954254],[4.598861,51.952521],[4.599661,51.951712],[4.600956,51.950422],[4.601065,51.950314],[4.601585,51.949798],[4.601775,51.949667],[4.60196,51.949557],[4.602068,51.949476],[4.60187,51.949369],[4.601734,51.949295],[4.601619,51.949234],[4.601248,51.949033],[4.601102,51.948953],[4.600932,51.94886],[4.600868,51.948816],[4.600851,51.948705],[4.600938,51.94864],[4.600979,51.94861],[4.601013,51.948585],[4.601178,51.948463],[4.600915,51.948321],[4.600465,51.948084],[4.600238,51.947951],[4.600027,51.947829],[4.599734,51.947672],[4.601788,51.946193],[4.60187,51.946134],[4.601995,51.946068],[4.602078,51.946009],[4.602129,51.945974],[4.602205,51.945921],[4.602289,51.945861],[4.602473,51.945733],[4.602558,51.945674],[4.602666,51.945599],[4.602778,51.945525],[4.602864,51.945468],[4.603072,51.945285],[4.603422,51.945],[4.603596,51.944879],[4.604005,51.944598],[4.604224,51.944448],[4.605188,51.943752],[4.605396,51.943601],[4.605825,51.943291],[4.606663,51.942684],[4.608474,51.941374],[4.608568,51.941306],[4.609153,51.940887],[4.610271,51.940084],[4.610315,51.94005],[4.610454,51.93994],[4.611561,51.939148],[4.613476,51.937778],[4.614435,51.937097],[4.614682,51.936921],[4.616307,51.935768],[4.616515,51.935617],[4.616993,51.935269],[4.617053,51.935226],[4.6171,51.935197],[4.617207,51.93512],[4.617803,51.934694],[4.618378,51.934285],[4.618656,51.934086],[4.618722,51.934039],[4.618933,51.933888],[4.619489,51.933492],[4.61958,51.933595],[4.619671,51.933695],[4.619855,51.933897],[4.619977,51.934026],[4.620069,51.934118],[4.620203,51.934246],[4.620335,51.934369],[4.620463,51.934485],[4.620594,51.9346],[4.620794,51.934763],[4.620924,51.93487],[4.621017,51.934942],[4.621186,51.935062],[4.621289,51.935134],[4.621429,51.93523],[4.621604,51.93533],[4.621781,51.935426],[4.621916,51.935497],[4.622033,51.93556],[4.622301,51.935688],[4.622485,51.935768],[4.622687,51.935848],[4.622839,51.935905],[4.623042,51.935981],[4.623194,51.936032],[4.623321,51.936069],[4.623459,51.93611],[4.623761,51.936189],[4.624071,51.936249],[4.624299,51.936281],[4.624593,51.936312],[4.624889,51.936339],[4.625144,51.936354],[4.625461,51.936364],[4.625771,51.936363],[4.626069,51.936363],[4.626285,51.936363],[4.626494,51.93636],[4.62695,51.936351],[4.62726,51.936338],[4.627531,51.936327],[4.627803,51.936316],[4.628127,51.936302],[4.628456,51.936289],[4.628731,51.936283],[4.62903,51.936276],[4.629393,51.936274],[4.629634,51.936273],[4.630005,51.936276],[4.630347,51.936273],[4.630523,51.936277],[4.630795,51.936281],[4.630826,51.936283],[4.630877,51.936286],[4.631027,51.936294],[4.631206,51.936318],[4.631342,51.936334],[4.631489,51.936363],[4.631665,51.936398],[4.631853,51.936437],[4.631917,51.936452],[4.632023,51.936476],[4.632182,51.936518],[4.632424,51.936586],[4.632592,51.936639],[4.632783,51.936705],[4.632889,51.936744],[4.633104,51.93683],[4.633193,51.936869],[4.633303,51.936917],[4.63348,51.937001],[4.633621,51.937074],[4.633823,51.937185],[4.633987,51.937283],[4.634114,51.937366],[4.634255,51.93747],[4.634347,51.937551],[4.634407,51.937602],[4.63446,51.937655],[4.634535,51.937727],[4.634588,51.937787],[4.634644,51.937846],[4.634699,51.937925],[4.63475,51.937997],[4.63493,51.938381],[4.634997,51.93854],[4.635112,51.938826],[4.635192,51.939027],[4.635285,51.939252],[4.635393,51.939521],[4.635482,51.939747],[4.635574,51.939967],[4.635659,51.940185],[4.635777,51.940474],[4.635931,51.940862],[4.63611,51.941298],[4.636213,51.941555],[4.636214,51.941558],[4.636329,51.941844],[4.636481,51.94223],[4.636601,51.942534],[4.636699,51.942777],[4.636813,51.943068],[4.636922,51.943282],[4.637016,51.943465],[4.637108,51.943644],[4.637202,51.943828],[4.637312,51.944046],[4.637453,51.944322],[4.637522,51.94446],[4.637571,51.944563],[4.637652,51.944775],[4.637706,51.944914],[4.637781,51.945109],[4.637901,51.945427],[4.638006,51.945745],[4.638073,51.945951],[4.638108,51.946061],[4.63814,51.946164],[4.638219,51.946409],[4.638312,51.946727],[4.638407,51.947043],[4.638482,51.947316],[4.638517,51.947447],[4.638553,51.947584],[4.638585,51.947721],[4.638624,51.947895],[4.638662,51.94807],[4.638696,51.948239],[4.63872,51.94836],[4.638745,51.948488],[4.638795,51.948744],[4.638839,51.948963],[4.638892,51.949234],[4.638953,51.949485],[4.639014,51.949722],[4.639061,51.949895],[4.639109,51.950064],[4.63916,51.950207],[4.639254,51.950449],[4.639346,51.950622],[4.639423,51.950761],[4.639513,51.950897],[4.639586,51.951002],[4.639685,51.95113],[4.639752,51.951211],[4.639818,51.951289],[4.639853,51.951325],[4.639948,51.951419],[4.640038,51.951501],[4.640128,51.951566],[4.640223,51.951634],[4.640333,51.951702],[4.640442,51.951772],[4.640544,51.95183],[4.640648,51.951892],[4.64077,51.951959],[4.640916,51.952034],[4.641044,51.952102],[4.641189,51.952167],[4.641317,51.952217],[4.641502,51.95229],[4.641639,51.952337],[4.641774,51.952383],[4.642146,51.952489],[4.642265,51.952517],[4.642399,51.952552],[4.642528,51.952584],[4.642843,51.952662],[4.643125,51.952735],[4.643325,51.952786],[4.643584,51.952849],[4.644097,51.952984],[4.644353,51.953058],[4.644618,51.953144],[4.644856,51.953235],[4.645048,51.953316],[4.645303,51.953471],[4.645403,51.953532],[4.645542,51.953637],[4.645677,51.953759],[4.645799,51.953885],[4.645871,51.953971],[4.645965,51.954107],[4.646047,51.954257],[4.646105,51.954417],[4.646141,51.954624],[4.646151,51.954815],[4.646119,51.955101],[4.646103,51.955245],[4.646032,51.955463],[4.645948,51.955654],[4.645857,51.955841],[4.645805,51.955928],[4.645758,51.956023],[4.645709,51.956107],[4.645657,51.956183],[4.645594,51.956255],[4.645238,51.956534],[4.645149,51.956621],[4.645018,51.956753],[4.644924,51.956846],[4.644875,51.956879],[4.644686,51.957012],[4.644513,51.957131],[4.644343,51.957247],[4.644203,51.957338],[4.644087,51.957457],[4.64398,51.957568],[4.643874,51.95768],[4.643692,51.957916],[4.643378,51.958317],[4.643166,51.958599],[4.642952,51.958877],[4.642756,51.959137],[4.642659,51.959271],[4.642574,51.95939],[4.642457,51.95953],[4.642409,51.959571],[4.642305,51.959659],[4.642216,51.959736],[4.642006,51.959918],[4.641719,51.960161],[4.641447,51.960391],[4.641179,51.960619],[4.641071,51.960716],[4.640985,51.960838],[4.640608,51.961342],[4.640516,51.961473],[4.640431,51.961579],[4.640167,51.961815],[4.640044,51.961931],[4.639945,51.962021],[4.639774,51.962177],[4.63878,51.962803],[4.637854,51.963386],[4.637684,51.963507],[4.63752,51.963621],[4.637402,51.963704],[4.63717,51.963862],[4.636934,51.964022],[4.636753,51.964141],[4.636575,51.964258],[4.636389,51.964377],[4.636206,51.964493],[4.636078,51.96457],[4.635934,51.964655],[4.635733,51.964773],[4.635509,51.964897],[4.635391,51.964966],[4.635003,51.965176],[4.634808,51.965286],[4.634553,51.965423],[4.634264,51.965583],[4.634008,51.965723],[4.633702,51.965892],[4.633495,51.966004],[4.633289,51.966116],[4.633126,51.966205],[4.632921,51.96632],[4.632686,51.966457],[4.632381,51.966633],[4.632107,51.966805],[4.631756,51.967035],[4.631509,51.967236],[4.631485,51.967259],[4.631321,51.967398],[4.6311,51.967622],[4.63094,51.967849],[4.630897,51.96798],[4.630839,51.96819],[4.630833,51.968397],[4.630853,51.968536],[4.630899,51.968654],[4.631,51.968878],[4.631081,51.968995],[4.631164,51.969103],[4.631342,51.969285],[4.631526,51.969459],[4.631813,51.969695],[4.632066,51.969875],[4.632274,51.970017],[4.632491,51.970148],[4.632678,51.970245],[4.632859,51.970321],[4.633097,51.970418],[4.633249,51.970476],[4.633388,51.970525],[4.633521,51.970572],[4.633795,51.970616],[4.634525,51.97074],[4.635261,51.97083],[4.635946,51.970884],[4.636416,51.970935],[4.636844,51.970985],[4.637353,51.971049],[4.637735,51.971108],[4.638229,51.971183],[4.639439,51.971381],[4.639787,51.971438],[4.641393,51.971722],[4.642165,51.971868],[4.643435,51.972127],[4.644102,51.972235],[4.644318,51.972266],[4.644727,51.972319],[4.644991,51.972359],[4.646181,51.972543],[4.646961,51.972666],[4.648578,51.973007],[4.648649,51.973021],[4.648829,51.973082],[4.648867,51.973095],[4.64904,51.973155],[4.649322,51.973252],[4.649507,51.973316],[4.649835,51.973429],[4.649964,51.97347],[4.650248,51.973568],[4.650506,51.973673],[4.65073,51.973771],[4.651048,51.973908],[4.651283,51.974038],[4.651547,51.974191],[4.651877,51.974395],[4.652312,51.974664],[4.653107,51.975189],[4.653476,51.975429],[4.65381,51.975629],[4.654079,51.975777],[4.654396,51.975935],[4.654745,51.976094],[4.655106,51.976252],[4.65546,51.976397],[4.655923,51.976553],[4.656243,51.976639],[4.656377,51.976675],[4.656819,51.976776],[4.657207,51.976849],[4.657567,51.976905],[4.657812,51.976944],[4.658074,51.976985],[4.658187,51.977002],[4.658748,51.97709],[4.659026,51.977134],[4.659465,51.977228],[4.659929,51.977328],[4.66056,51.977475],[4.66126,51.977638],[4.661391,51.977667],[4.661857,51.977769],[4.662358,51.977877],[4.662843,51.977977],[4.663362,51.978078],[4.663884,51.978182],[4.664272,51.978256],[4.664312,51.978263],[4.664616,51.978318],[4.665139,51.978399],[4.665694,51.978483],[4.666363,51.978583],[4.66672,51.978639],[4.666878,51.978663],[4.667359,51.978741],[4.667851,51.978851],[4.668343,51.978988],[4.668738,51.97912],[4.668951,51.979195],[4.669302,51.979366],[4.66959,51.979533],[4.669869,51.979709],[4.67015,51.979904],[4.670224,51.979968],[4.67035,51.980077],[4.670562,51.980289],[4.67068,51.980422],[4.671044,51.981079],[4.67109,51.981207],[4.671144,51.981357],[4.671206,51.981556],[4.67126,51.981755],[4.671299,51.981921],[4.671343,51.982128],[4.671381,51.982317],[4.671409,51.982484],[4.671433,51.982633],[4.671456,51.982766],[4.67148,51.98292],[4.671503,51.983056],[4.671545,51.983278],[4.671586,51.983476],[4.671667,51.983837],[4.671739,51.984154],[4.671823,51.984472],[4.671863,51.984623],[4.671899,51.984728],[4.671949,51.984869],[4.671997,51.98499],[4.67206,51.98511],[4.672149,51.985267],[4.672225,51.98539],[4.672318,51.985513],[4.672383,51.985605],[4.672522,51.985775],[4.672614,51.985874],[4.672672,51.985937],[4.67275,51.986015],[4.672881,51.986137],[4.67304,51.986275],[4.673264,51.986445],[4.673472,51.986582],[4.673575,51.986641],[4.673767,51.98675],[4.673826,51.986784],[4.673955,51.986853],[4.674018,51.986887],[4.674095,51.986923],[4.67419,51.986969],[4.67429,51.987017],[4.674421,51.987078],[4.674549,51.987134],[4.674691,51.987197],[4.674794,51.987241],[4.674938,51.987303],[4.675046,51.987349],[4.675186,51.987407],[4.675305,51.987458],[4.675474,51.987531],[4.675603,51.987586],[4.675702,51.987631],[4.675795,51.987672],[4.67599,51.987761],[4.67617,51.987851],[4.676346,51.987944],[4.676506,51.98802],[4.676583,51.988064],[4.676739,51.988154],[4.676831,51.988212],[4.676911,51.988264],[4.676979,51.988308],[4.677062,51.988366],[4.677162,51.988429],[4.67726,51.988495],[4.677374,51.988568],[4.677486,51.988644],[4.677595,51.988716],[4.677702,51.988789],[4.67784,51.988886],[4.678021,51.989004],[4.678599,51.989383],[4.678998,51.989693],[4.680092,51.990628],[4.680798,51.991268],[4.680882,51.991344],[4.681133,51.991571],[4.682172,51.99245],[4.682509,51.992695],[4.682763,51.992856],[4.683294,51.993173],[4.685947,51.994756],[4.686778,51.995254],[4.68751,51.995693],[4.68773,51.995804],[4.688282,51.99608],[4.688365,51.996117],[4.688684,51.996258],[4.688277,51.996406],[4.687941,51.996528],[4.68776,51.996594],[4.687481,51.996695],[4.68721,51.996794],[4.687078,51.996842],[4.686399,51.997088],[4.685436,51.997445],[4.684021,51.997958],[4.683656,51.997816],[4.683632,51.997807],[4.683579,51.997787],[4.682534,51.997405],[4.681762,51.997107],[4.681163,51.996877],[4.680503,51.99664],[4.68023,51.996542],[4.679939,51.996717],[4.679443,51.997018],[4.674965,51.999727],[4.674888,51.999773],[4.674437,52.00005],[4.674164,52.000216],[4.67365,52.000531],[4.672326,52.001342],[4.670717,52.002326],[4.670496,52.002352],[4.669051,52.00252],[4.666999,52.002759],[4.66281,52.003246],[4.66054,52.004627],[4.659864,52.005038],[4.659455,52.005288],[4.661463,52.00655],[4.661859,52.006799],[4.662231,52.007034],[4.662293,52.007073],[4.665603,52.009153],[4.666387,52.009645],[4.666551,52.009748],[4.667032,52.010005],[4.667538,52.010206],[4.667973,52.010342],[4.668487,52.010438],[4.668736,52.010485],[4.669616,52.01056],[4.669732,52.010558],[4.670097,52.01055],[4.670115,52.010606],[4.670355,52.01081],[4.670729,52.011126],[4.670227,52.011357],[4.670175,52.011381],[4.669412,52.011702],[4.668548,52.012066],[4.668248,52.012206],[4.667951,52.012344],[4.667643,52.012488],[4.667241,52.012675],[4.667199,52.012694],[4.666881,52.012843],[4.666607,52.012971],[4.666327,52.0131],[4.665973,52.013265],[4.665826,52.013363],[4.665716,52.013462],[4.665644,52.013525],[4.665586,52.013571],[4.665552,52.013612],[4.66552,52.013646],[4.66538,52.013796],[4.665212,52.013926],[4.665024,52.014157],[4.664985,52.014219],[4.664911,52.014321],[4.664808,52.014488],[4.664724,52.014682],[4.664665,52.01481],[4.664631,52.014911],[4.664575,52.015128],[4.664519,52.01544],[4.664506,52.015621],[4.664513,52.015759],[4.664529,52.015878],[4.664551,52.016008],[4.6646,52.016169],[4.664644,52.016298],[4.664717,52.016485],[4.664814,52.016666],[4.664934,52.016858],[4.665002,52.016931],[4.665125,52.017068],[4.6653,52.017253],[4.665437,52.017373],[4.665768,52.017667],[4.666135,52.017993],[4.666302,52.018145],[4.6664,52.018235],[4.666574,52.018406],[4.666705,52.018527],[4.666833,52.018639],[4.666955,52.018772],[4.667041,52.018887],[4.667136,52.019021],[4.667217,52.019135],[4.667303,52.019245],[4.667381,52.019385],[4.667496,52.019678],[4.667577,52.019849],[4.667666,52.020096],[4.667671,52.020196],[4.667725,52.020373],[4.667732,52.020401],[4.667749,52.020515],[4.667792,52.020844],[4.667812,52.020892],[4.667829,52.020943],[4.667787,52.021268],[4.667779,52.021439],[4.667774,52.021461],[4.667695,52.021802],[4.667636,52.022018],[4.667538,52.022305],[4.667478,52.022435],[4.667414,52.022567],[4.667365,52.02266],[4.667343,52.022699],[4.667211,52.022645],[4.667059,52.022584],[4.666906,52.022522],[4.666815,52.022485],[4.666764,52.022464],[4.666705,52.022441],[4.666576,52.022388],[4.666315,52.022283],[4.66602,52.022197],[4.66563,52.022083],[4.665027,52.021908],[4.665017,52.021905],[4.664654,52.021855],[4.664328,52.021864],[4.66404,52.021916],[4.663771,52.022008],[4.663517,52.022148],[4.663208,52.022455],[4.6632,52.022452],[4.66324,52.022621],[4.663291,52.022833],[4.663463,52.023557],[4.6628,52.023984],[4.661771,52.02369],[4.660572,52.023315],[4.660335,52.023241],[4.658727,52.022701],[4.658335,52.02259],[4.65735,52.022252],[4.656843,52.022051],[4.656366,52.021814],[4.655977,52.021587],[4.655559,52.021315],[4.655185,52.021016],[4.653052,52.021344],[4.652899,52.021313],[4.649293,52.020587],[4.648812,52.020576],[4.648628,52.020571],[4.648577,52.019439],[4.648491,52.019441],[4.648425,52.018986],[4.646931,52.018041],[4.64538,52.017072],[4.644533,52.016538],[4.642679,52.015379],[4.640744,52.014161],[4.639372,52.013298],[4.636803,52.01168],[4.630947,52.013154],[4.627742,52.013965],[4.626185,52.014359],[4.625569,52.014734],[4.625316,52.014575],[4.624736,52.014722],[4.62349,52.015477],[4.622625,52.016],[4.621419,52.016731],[4.619829,52.017694],[4.618325,52.018605],[4.61679,52.019535],[4.614675,52.020816],[4.611764,52.022583],[4.609339,52.024054],[4.608521,52.02455],[4.608356,52.02465],[4.608314,52.024638],[4.608269,52.024632],[4.608252,52.024639],[4.608247,52.024662],[4.608278,52.02468],[4.606214,52.025931],[4.600563,52.029357],[4.596952,52.031546],[4.591089,52.035087],[4.607335,52.045312],[4.606273,52.045949],[4.609797,52.046293],[4.609984,52.046361],[4.610232,52.046494],[4.610296,52.04657],[4.610356,52.04672],[4.610821,52.048235],[4.610947,52.048711],[4.610556,52.048774],[4.610381,52.048784],[4.610315,52.048805],[4.610281,52.048809],[4.610054,52.048819],[4.609966,52.048838],[4.6097,52.048943],[4.609683,52.04892],[4.608232,52.049084],[4.608047,52.049116],[4.607649,52.049273],[4.605691,52.050343],[4.605529,52.050438],[4.605498,52.050524],[4.605687,52.051538],[4.60587,52.052374],[4.606152,52.053518],[4.606305,52.05394],[4.607476,52.056907],[4.607701,52.05799],[4.608064,52.060685],[4.608232,52.062053],[4.608406,52.062944],[4.608422,52.063139],[4.608236,52.064706],[4.608074,52.065441],[4.608052,52.065466],[4.60793,52.065516],[4.607809,52.065536],[4.607563,52.065538],[4.607427,52.065526],[4.607285,52.065502],[4.606803,52.065425],[4.606329,52.065351],[4.603826,52.064963],[4.601423,52.064595],[4.601068,52.06454],[4.600148,52.064399],[4.599716,52.064335],[4.597581,52.064015],[4.596596,52.063867],[4.596172,52.063804],[4.594844,52.063605],[4.594541,52.063559],[4.59358,52.06341],[4.593321,52.06337],[4.592985,52.063317],[4.59239,52.063224],[4.591846,52.06314],[4.591773,52.063129],[4.591165,52.063039],[4.59091,52.063001],[4.590578,52.062953],[4.590269,52.062907],[4.589985,52.062869],[4.589891,52.062857],[4.589381,52.062778],[4.589137,52.062741],[4.588764,52.062684],[4.588176,52.062594],[4.588101,52.062583],[4.587329,52.062465],[4.586985,52.062416],[4.586429,52.062333],[4.586097,52.062287],[4.585771,52.062251],[4.585655,52.062237],[4.585558,52.062227],[4.585465,52.062219],[4.585377,52.062211],[4.58527,52.062205],[4.58517,52.0622],[4.585142,52.062198],[4.585025,52.062192],[4.584888,52.062182],[4.5847,52.062168],[4.584536,52.062152],[4.584442,52.062137],[4.584362,52.062123],[4.584256,52.062096],[4.584143,52.062065],[4.583994,52.062028],[4.583841,52.061989],[4.583711,52.061956],[4.583554,52.061917],[4.583473,52.061898],[4.583416,52.06189],[4.583289,52.06187],[4.583055,52.061834],[4.582766,52.06179],[4.582492,52.061748],[4.58222,52.061706],[4.581929,52.061661],[4.581618,52.061613],[4.581368,52.061574],[4.581131,52.061538],[4.580973,52.061514],[4.580913,52.061505],[4.580768,52.061482],[4.580595,52.061456],[4.580404,52.061426],[4.580341,52.061417],[4.580256,52.061404],[4.580055,52.061373],[4.579841,52.061341],[4.579725,52.061323],[4.579649,52.061312],[4.579489,52.061288],[4.579284,52.061256],[4.579141,52.061235],[4.579042,52.06122],[4.578872,52.061194],[4.578674,52.061164],[4.578564,52.061147],[4.578494,52.061137],[4.578372,52.061118],[4.578234,52.061098],[4.57804,52.061068],[4.577954,52.061055],[4.577877,52.061043],[4.577739,52.061023],[4.577579,52.060998],[4.577468,52.060982],[4.577369,52.060966],[4.577309,52.060958],[4.57719,52.060939],[4.576992,52.06091],[4.576879,52.060892],[4.576772,52.060876],[4.57658,52.060847],[4.576396,52.060819],[4.576291,52.060803],[4.576214,52.060792],[4.576152,52.060782],[4.576118,52.060777],[4.576069,52.06077],[4.576018,52.060762],[4.576022,52.060748],[4.575869,52.060777],[4.57578,52.060793],[4.575724,52.060803],[4.575671,52.060809],[4.575619,52.060812],[4.575584,52.060813],[4.57557,52.060812],[4.575542,52.06081],[4.575489,52.060806],[4.57545,52.060798],[4.57536,52.060764],[4.57529,52.060728],[4.575253,52.06071],[4.575199,52.06069],[4.575137,52.060672],[4.57499,52.060646],[4.574968,52.060642],[4.57494,52.060637],[4.574858,52.060624],[4.574725,52.060602],[4.574559,52.060575],[4.574355,52.060541],[4.574311,52.060535],[4.574032,52.060488],[4.573766,52.060442],[4.573432,52.06039],[4.573152,52.060349],[4.573101,52.060341],[4.572812,52.060296],[4.572563,52.060257],[4.57249,52.060245],[4.571974,52.060162],[4.571957,52.060159],[4.571355,52.060067],[4.570948,52.060005],[4.570628,52.059957],[4.5704,52.059923],[4.5698,52.059832],[4.569568,52.059794],[4.569534,52.059788],[4.565925,52.059226],[4.565303,52.05912],[4.565043,52.058569],[4.565201,52.058496],[4.56519,52.058451],[4.565169,52.058376],[4.564018,52.053833],[4.563395,52.051299],[4.563384,52.051253],[4.563376,52.051223],[4.563375,52.051215],[4.563083,52.049992],[4.562896,52.0492],[4.56295,52.048955],[4.563007,52.048904],[4.56305,52.048894],[4.562683,52.047774],[4.562346,52.046601],[4.562279,52.046601],[4.562212,52.046239],[4.561946,52.045312],[4.561943,52.044809],[4.561884,52.044429],[4.561616,52.043664],[4.561552,52.043411],[4.56146,52.042905],[4.561385,52.042651],[4.561379,52.042514],[4.561462,52.042106],[4.56106,52.042061],[4.561363,52.041526],[4.561351,52.041453],[4.561383,52.041253],[4.561432,52.041146],[4.561542,52.040991],[4.562011,52.041062],[4.563272,52.038822],[4.563305,52.038277],[4.563366,52.037265],[4.563457,52.035777],[4.56014,52.03319],[4.558218,52.028902],[4.55821,52.027069],[4.558144,52.026636],[4.558092,52.026443],[4.558078,52.026285],[4.558081,52.026148],[4.558115,52.02582],[4.55816,52.025259],[4.558165,52.025195],[4.558163,52.025157],[4.558156,52.025123],[4.558142,52.025054],[4.558126,52.024984],[4.558078,52.024847],[4.558053,52.024774],[4.558013,52.024671],[4.557959,52.024565],[4.557929,52.024497],[4.557892,52.024426],[4.557808,52.024285],[4.557748,52.024182],[4.557671,52.024082],[4.557594,52.023992],[4.557543,52.023924],[4.557514,52.023888],[4.557485,52.023847],[4.557466,52.023821],[4.557438,52.023773],[4.557419,52.023731],[4.55741,52.023693],[4.557408,52.023656],[4.557475,52.023151],[4.557482,52.02308],[4.557484,52.023003],[4.557483,52.022789],[4.55747,52.022433],[4.557456,52.022291],[4.557447,52.022215],[4.557446,52.022148],[4.557461,52.021923],[4.557491,52.021564],[4.557498,52.02149],[4.5575,52.021456],[4.557368,52.020345],[4.55736,52.020294],[4.557353,52.020242],[4.557345,52.020205],[4.557325,52.02013],[4.557301,52.020061],[4.557271,52.019984],[4.556777,52.018401],[4.556752,52.018405],[4.556659,52.018069],[4.556627,52.017949],[4.556599,52.017193],[4.55681,52.016621],[4.556839,52.016535],[4.556844,52.0165],[4.556849,52.016479],[4.556963,52.015115],[4.557068,52.014459],[4.557101,52.014292],[4.557131,52.014132],[4.557136,52.014082],[4.557135,52.014019],[4.557109,52.013888],[4.557073,52.013762],[4.557048,52.013674],[4.557031,52.013628],[4.556948,52.013388],[4.556877,52.013199],[4.556762,52.012929],[4.55653,52.012349],[4.556487,52.012241],[4.556388,52.01203],[4.55629,52.011833],[4.556194,52.011686],[4.556181,52.011659],[4.556151,52.011627],[4.556131,52.011601],[4.555959,52.01142],[4.555761,52.011227],[4.555722,52.01117],[4.555692,52.011105],[4.555678,52.011067],[4.555658,52.011002],[4.555683,52.010832],[4.55572,52.01071],[4.555749,52.01065],[4.555805,52.010528],[4.555831,52.010484],[4.555881,52.010308],[4.555883,52.010155],[4.555839,52.009764],[4.55557,52.008856],[4.555505,52.008645],[4.555449,52.00841],[4.555348,52.007858],[4.555226,52.007278],[4.555181,52.00709],[4.555135,52.006926],[4.555089,52.006772],[4.555058,52.006591],[4.555,52.006333],[4.554945,52.006146],[4.554826,52.005836],[4.554761,52.005689],[4.554704,52.005576],[4.55428,52.00492],[4.553976,52.004518],[4.553546,52.004035],[4.553162,52.003609],[4.552937,52.00335],[4.552693,52.003026],[4.55246,52.002679],[4.552224,52.002148],[4.552117,52.001783],[4.552117,52.001321],[4.552193,52.001037],[4.552222,52.000929],[4.552275,52.000831],[4.551698,51.999589],[4.549894,51.995747],[4.549048,51.995432],[4.548619,51.995285],[4.548086,51.994979],[4.547923,51.994889],[4.547705,51.994775],[4.547467,51.994657],[4.547312,51.994455],[4.54721,51.99431],[4.547102,51.994133],[4.547005,51.993943],[4.547122,51.993813],[4.547474,51.993485],[4.547706,51.99327],[4.547891,51.99311],[4.548023,51.992998],[4.548388,51.992557],[4.548047,51.992366],[4.547945,51.99232],[4.547697,51.992211],[4.547393,51.992067],[4.546889,51.991914],[4.546658,51.991833],[4.546533,51.991779],[4.546492,51.991754],[4.546409,51.991659],[4.546355,51.991575],[4.54634,51.991508],[4.546343,51.991474],[4.546639,51.990948],[4.546879,51.990323],[4.547164,51.989436],[4.547385,51.988747]]]},"properties":{"type":"boundary","gemeente":"Zuidplas"}}]}