{"type":"FeatureCollection","metadata":{"gemeente":"Zwartewaterland","slug":"zwartewaterland","generated_at":"2026-09-28T08:40:11.293204Z","total_points":40,"providers":["Amazon","DHL","DPD","PostNL","VintedGo","GLS","ViaTim","FedEx","InPost"],"bounds":[6.040280207969269,52.57008143,6.11639034,52.64326858520508]},"features":[{"type":"Feature","geometry":{"type":"Point","coordinates":[6.088066849303305,52.5869064961213]},"properties":{"type":"pakketpunt","locatieNaam":"DHL - DeBuren Locker 24-7 Levarus Hasslt","straatNaam":"Productieweg 13-A","straatNr":"","vervoerder":"Amazon","puntType":"3p","bezettingsgraad":50,"latitude":52.5869064961213,"longitude":6.088066849303305,"canPickup":true,"canDropoff":false,"openingstijden":null}},{"type":"Feature","geometry":{"type":"Point","coordinates":[6.052269458770752,52.582000732421875]},"properties":{"type":"pakketpunt","locatieNaam":"Boerderijwinkel de Rietstulp","straatNaam":"Nieuwe Wetering","straatNr":"18","vervoerder":"DHL","puntType":"parcelShop","bezettingsgraad":50,"latitude":52.582000732421875,"longitude":6.052269458770752,"canPickup":true,"canDropoff":true,"openingstijden":{"ma":"09:30 - 17:00","di":"09:30 - 17:00","wo":"09:30 - 17:00","do":"09:30 - 17:00","vr":"09:30 - 17:00","za":"10:00 - 16:00","zo":"gesloten"}}},{"type":"Feature","geometry":{"type":"Point","coordinates":[6.044267,52.624912]},"properties":{"type":"pakketpunt","locatieNaam":"Top 1 Toys Zwarte Waterland","straatNaam":"Prinses Beatrixstraat","straatNr":"31-B","vervoerder":"DHL","puntType":"parcelShop","bezettingsgraad":50,"latitude":52.624912,"longitude":6.044267,"canPickup":true,"canDropoff":true,"openingstijden":{"ma":"gesloten","di":"10:00 - 17:30","wo":"10:00 - 17:30","do":"10:00 - 17:30","vr":"10:00 - 17:30","za":"10:00 - 16:00","zo":"gesloten"}}},{"type":"Feature","geometry":{"type":"Point","coordinates":[6.088066849303305,52.5869064961213]},"properties":{"type":"pakketpunt","locatieNaam":"DeBuren Locker 24-7 Levarus Hasslt","straatNaam":"Productieweg","straatNr":"13-A","vervoerder":"DHL","puntType":"packStation","bezettingsgraad":50,"latitude":52.5869064961213,"longitude":6.088066849303305,"canPickup":true,"canDropoff":true,"openingstijden":{"ma":"00:00 - 23:59","di":"00:00 - 23:59","wo":"00:00 - 23:59","do":"00:00 - 23:59","vr":"00:00 - 23:59","za":"00:00 - 23:59","zo":"00:00 - 23:59"}}},{"type":"Feature","geometry":{"type":"Point","coordinates":[6.0891745,52.5912127]},"properties":{"type":"pakketpunt","locatieNaam":"Hasselt Tel. Reparatie Centre","straatNaam":"Hoogstraat","straatNr":"11-SP/30","vervoerder":"DHL","puntType":"parcelShop","bezettingsgraad":50,"latitude":52.5912127,"longitude":6.0891745,"canPickup":true,"canDropoff":true,"openingstijden":{"ma":"gesloten","di":"14:00 - 18:00","wo":"14:00 - 18:00","do":"14:00 - 18:00","vr":"14:00 - 18:00","za":"12:00 - 16:00","zo":"gesloten"}}},{"type":"Feature","geometry":{"type":"Point","coordinates":[6.092406505207736,52.593995323607324]},"properties":{"type":"pakketpunt","locatieNaam":"Pakketautomaat Jumbo Hasselt","straatNaam":"Buiten de Venepoort","straatNr":"5","vervoerder":"DHL","puntType":"packStation","bezettingsgraad":50,"latitude":52.593995323607324,"longitude":6.092406505207736,"canPickup":true,"canDropoff":true,"openingstijden":{"ma":"00:00 - 23:59","di":"00:00 - 23:59","wo":"00:00 - 23:59","do":"00:00 - 23:59","vr":"00:00 - 23:59","za":"00:00 - 23:59","zo":"00:00 - 23:59"}}},{"type":"Feature","geometry":{"type":"Point","coordinates":[6.0969715,52.5870413]},"properties":{"type":"pakketpunt","locatieNaam":"Pakketautomaat Hubo De Breker","straatNaam":"Buiten de Enkpoort","straatNr":"15","vervoerder":"DHL","puntType":"packStation","bezettingsgraad":50,"latitude":52.5870413,"longitude":6.0969715,"canPickup":true,"canDropoff":true,"openingstijden":{"ma":"00:00 - 23:59","di":"00:00 - 23:59","wo":"00:00 - 23:59","do":"00:00 - 23:59","vr":"00:00 - 23:59","za":"00:00 - 23:59","zo":"00:00 - 23:59"}}},{"type":"Feature","geometry":{"type":"Point","coordinates":[6.070833654974015,52.64061540095945]},"properties":{"type":"pakketpunt","locatieNaam":"Marskramer Zwartsluis","straatNaam":"Schoolstraat","straatNr":"9-SP/60","vervoerder":"DHL","puntType":"parcelShop","bezettingsgraad":50,"latitude":52.64061540095945,"longitude":6.070833654974015,"canPickup":true,"canDropoff":true,"openingstijden":{"ma":"gesloten","di":"09:30 - 17:30","wo":"09:30 - 17:30","do":"09:30 - 17:30","vr":"09:30 - 17:30","za":"09:30 - 17:30","zo":"gesloten"}}},{"type":"Feature","geometry":{"type":"Point","coordinates":[6.079621315002441,52.64326858520508]},"properties":{"type":"pakketpunt","locatieNaam":"TrustSEC","straatNaam":"Zomerdijk","straatNr":"41-B","vervoerder":"DHL","puntType":"parcelShop","bezettingsgraad":50,"latitude":52.64326858520508,"longitude":6.079621315002441,"canPickup":true,"canDropoff":true,"openingstijden":{"ma":"09:00 - 17:00","di":"09:00 - 18:00","wo":"09:00 - 17:00","do":"09:00 - 17:00","vr":"09:00 - 17:00","za":"gesloten","zo":"gesloten"}}},{"type":"Feature","geometry":{"type":"Point","coordinates":[6.0414,52.62154]},"properties":{"type":"pakketpunt","locatieNaam":"L&M Workwear Bv","straatNaam":"LANGESTRAAT","straatNr":"95","vervoerder":"DPD","puntType":"pickup_point","bezettingsgraad":50,"latitude":52.62154,"longitude":6.0414,"canPickup":true,"canDropoff":true,"openingstijden":{"ma":"13:30 - 18:00","di":"10:00 - 18:00","wo":"10:00 - 18:00","do":"10:00 - 18:00","vr":"10:00 - 18:00","za":"10:00 - 16:00","zo":"gesloten"}}},{"type":"Feature","geometry":{"type":"Point","coordinates":[6.089102,52.591383]},"properties":{"type":"pakketpunt","locatieNaam":"Ten Kate","straatNaam":"HOOGSTRAAT","straatNr":"17","vervoerder":"DPD","puntType":"pickup_point","bezettingsgraad":50,"latitude":52.591383,"longitude":6.089102,"canPickup":true,"canDropoff":true,"openingstijden":{"ma":"08:30 - 18:00","di":"08:30 - 18:00","wo":"08:30 - 18:00","do":"08:30 - 18:00","vr":"08:30 - 20:00","za":"09:00 - 17:00","zo":"gesloten"}}},{"type":"Feature","geometry":{"type":"Point","coordinates":[6.0872452,52.5868783]},"properties":{"type":"pakketpunt","locatieNaam":"Pakketautomaat Bosch Bloemen Online","straatNaam":"PRODUCTIEWEG","straatNr":"1-A","vervoerder":"DPD","puntType":"dpd_box","bezettingsgraad":50,"latitude":52.5868783,"longitude":6.0872452,"canPickup":true,"canDropoff":true,"openingstijden":{"ma":"00:01 - 23:59","di":"00:01 - 23:59","wo":"00:01 - 23:59","do":"00:01 - 23:59","vr":"00:01 - 23:59","za":"00:01 - 23:59","zo":"00:01 - 23:59"}}},{"type":"Feature","geometry":{"type":"Point","coordinates":[6.05233,52.58259]},"properties":{"type":"pakketpunt","locatieNaam":"Boerderijwinkel de Rietstulp","straatNaam":"NIEUWE WETERING","straatNr":"18","vervoerder":"DPD","puntType":"pickup_point","bezettingsgraad":50,"latitude":52.58259,"longitude":6.05233,"canPickup":true,"canDropoff":true,"openingstijden":{"ma":"09:30 - 17:00","di":"09:30 - 17:00","wo":"09:30 - 17:00","do":"09:30 - 17:00","vr":"09:30 - 17:00","za":"10:00 - 16:00","zo":"gesloten"}}},{"type":"Feature","geometry":{"type":"Point","coordinates":[6.08888129943199,52.5912575899686]},"properties":{"type":"pakketpunt","locatieNaam":"Lokaal 5","straatNaam":"Hoogstraat","straatNr":"10","vervoerder":"PostNL","puntType":"servicepunt","bezettingsgraad":50,"latitude":52.5912575899686,"longitude":6.08888129943199,"canPickup":true,"canDropoff":true,"openingstijden":"09:00 - 18:00 (Na 18:00 open; Zaterdag open)"}},{"type":"Feature","geometry":{"type":"Point","coordinates":[6.040337645,52.62366429]},"properties":{"type":"pakketpunt","locatieNaam":"The Read Shop Express","straatNaam":"Kruisstraat","straatNr":"6","vervoerder":"PostNL","puntType":"servicepunt","bezettingsgraad":50,"latitude":52.62366429,"longitude":6.040337645,"canPickup":true,"canDropoff":true,"openingstijden":"13:00 - 18:00 (Na 18:00 open; Zaterdag open)"}},{"type":"Feature","geometry":{"type":"Point","coordinates":[6.04032274436476,52.6236553849944]},"properties":{"type":"pakketpunt","locatieNaam":"Pakket- en briefautomaat","straatNaam":"Kruisstraat","straatNr":"6PBA","vervoerder":"PostNL","puntType":"automaat","bezettingsgraad":50,"latitude":52.6236553849944,"longitude":6.04032274436476,"canPickup":true,"canDropoff":true,"openingstijden":"00:00 - 23:59"}},{"type":"Feature","geometry":{"type":"Point","coordinates":[6.09664981958244,52.5934672799408]},"properties":{"type":"pakketpunt","locatieNaam":"Pakketautomaat","straatNaam":"Burg Malcorpslaan","straatNr":"1PBA","vervoerder":"PostNL","puntType":"automaat","bezettingsgraad":50,"latitude":52.5934672799408,"longitude":6.09664981958244,"canPickup":true,"canDropoff":true,"openingstijden":"00:00 - 23:59"}},{"type":"Feature","geometry":{"type":"Point","coordinates":[6.09576592623938,52.587145401438]},"properties":{"type":"pakketpunt","locatieNaam":"Pakketautomaat","straatNaam":"Buiten de Enkpoort","straatNr":"15PBA","vervoerder":"PostNL","puntType":"automaat","bezettingsgraad":50,"latitude":52.587145401438,"longitude":6.09576592623938,"canPickup":true,"canDropoff":true,"openingstijden":"00:00 - 23:59"}},{"type":"Feature","geometry":{"type":"Point","coordinates":[6.071171491,52.64061165]},"properties":{"type":"pakketpunt","locatieNaam":"Kiers  Readshop Express","straatNaam":"Schoolstraat","straatNr":"12","vervoerder":"PostNL","puntType":"servicepunt","bezettingsgraad":50,"latitude":52.64061165,"longitude":6.071171491,"canPickup":true,"canDropoff":true,"openingstijden":"08:00 - 18:00 (Na 18:00 open; Zaterdag open)"}},{"type":"Feature","geometry":{"type":"Point","coordinates":[6.0411689,52.6215655]},"properties":{"type":"pakketpunt","locatieNaam":"L&M Workwear BV","straatNaam":"Langestraat 95","straatNr":"","vervoerder":"VintedGo","puntType":"parcel_shop","bezettingsgraad":50,"latitude":52.6215655,"longitude":6.0411689,"canPickup":true,"canDropoff":true,"openingstijden":null}},{"type":"Feature","geometry":{"type":"Point","coordinates":[6.05232,52.5826]},"properties":{"type":"pakketpunt","locatieNaam":"Boerderijwinkel De Rietstulp","straatNaam":"Nieuwe Wetering 18","straatNr":"","vervoerder":"VintedGo","puntType":"parcel_shop","bezettingsgraad":50,"latitude":52.5826,"longitude":6.05232,"canPickup":true,"canDropoff":true,"openingstijden":null}},{"type":"Feature","geometry":{"type":"Point","coordinates":[6.0874508,52.5868732]},"properties":{"type":"pakketpunt","locatieNaam":"V.o.f.bosch Bloemen En Wonen","straatNaam":"Productieweg 1a","straatNr":"","vervoerder":"VintedGo","puntType":"locker","bezettingsgraad":50,"latitude":52.5868732,"longitude":6.0874508,"canPickup":true,"canDropoff":true,"openingstijden":null}},{"type":"Feature","geometry":{"type":"Point","coordinates":[6.0914274,52.5936736]},"properties":{"type":"pakketpunt","locatieNaam":"Noggus & Noggus","straatNaam":"Buiten De Venepoort 3","straatNr":"","vervoerder":"VintedGo","puntType":"parcel_shop","bezettingsgraad":50,"latitude":52.5936736,"longitude":6.0914274,"canPickup":true,"canDropoff":true,"openingstijden":null}},{"type":"Feature","geometry":{"type":"Point","coordinates":[6.0704603,52.640339]},"properties":{"type":"pakketpunt","locatieNaam":"Junior Juweeltjes","straatNaam":"Stationsweg 28","straatNr":"","vervoerder":"VintedGo","puntType":"locker","bezettingsgraad":50,"latitude":52.640339,"longitude":6.0704603,"canPickup":true,"canDropoff":true,"openingstijden":null}},{"type":"Feature","geometry":{"type":"Point","coordinates":[6.0404552,52.6228031]},"properties":{"type":"pakketpunt","locatieNaam":"Q-mobile","straatNaam":"Langestraat 58","straatNr":"","vervoerder":"VintedGo","puntType":"parcel_shop","bezettingsgraad":50,"latitude":52.6228031,"longitude":6.0404552,"canPickup":true,"canDropoff":true,"openingstijden":null}},{"type":"Feature","geometry":{"type":"Point","coordinates":[6.09576592,52.5871454]},"properties":{"type":"pakketpunt","locatieNaam":"Pakketautomaat","straatNaam":"Buiten de Enkpoort","straatNr":"15","vervoerder":"GLS","puntType":"locker","bezettingsgraad":50,"latitude":52.5871454,"longitude":6.09576592,"canPickup":true,"canDropoff":true,"openingstijden":{"ma":"00:00 - 23:59","di":"00:00 - 23:59","wo":"00:00 - 23:59","do":"00:00 - 23:59","vr":"00:00 - 23:59","za":"00:00 - 23:59","zo":"00:00 - 23:59"}}},{"type":"Feature","geometry":{"type":"Point","coordinates":[6.09664981,52.5934672]},"properties":{"type":"pakketpunt","locatieNaam":"Pakketautomaat","straatNaam":"Burg Malcorpslaan","straatNr":"1","vervoerder":"GLS","puntType":"locker","bezettingsgraad":50,"latitude":52.5934672,"longitude":6.09664981,"canPickup":true,"canDropoff":true,"openingstijden":{"ma":"00:00 - 23:59","di":"00:00 - 23:59","wo":"00:00 - 23:59","do":"00:00 - 23:59","vr":"00:00 - 23:59","za":"00:00 - 23:59","zo":"00:00 - 23:59"}}},{"type":"Feature","geometry":{"type":"Point","coordinates":[6.04032274,52.6236553]},"properties":{"type":"pakketpunt","locatieNaam":"Pakketautomaat","straatNaam":"Kruisstraat","straatNr":"6","vervoerder":"GLS","puntType":"locker","bezettingsgraad":50,"latitude":52.6236553,"longitude":6.04032274,"canPickup":true,"canDropoff":true,"openingstijden":{"ma":"00:00 - 23:59","di":"00:00 - 23:59","wo":"00:00 - 23:59","do":"00:00 - 23:59","vr":"00:00 - 23:59","za":"00:00 - 23:59","zo":"00:00 - 23:59"}}},{"type":"Feature","geometry":{"type":"Point","coordinates":[6.0538303,52.6265503]},"properties":{"type":"pakketpunt","locatieNaam":"Oosterveen's Oliehandel B.V.","straatNaam":"Kokosstraat","straatNr":"8","vervoerder":"GLS","puntType":"parcel_shop","bezettingsgraad":50,"latitude":52.6265503,"longitude":6.0538303,"canPickup":true,"canDropoff":true,"openingstijden":{"ma":"08:00 - 16:30","di":"08:00 - 16:30","wo":"08:00 - 16:30","do":"08:00 - 16:30","vr":"08:00 - 16:30","za":"00:00 - 00:00","zo":"00:00 - 00:00"}}},{"type":"Feature","geometry":{"type":"Point","coordinates":[6.072177,52.6403585]},"properties":{"type":"pakketpunt","locatieNaam":"Sluusgoed","straatNaam":"Kerkstraat","straatNr":"20","vervoerder":"GLS","puntType":"parcel_shop","bezettingsgraad":50,"latitude":52.6403585,"longitude":6.072177,"canPickup":true,"canDropoff":true,"openingstijden":{"ma":"00:00 - 00:00","di":"09:30 - 17:00","wo":"09:30 - 17:00","do":"09:30 - 17:00","vr":"09:30 - 17:00","za":"09:30 - 17:00","zo":"00:00 - 00:00"}}},{"type":"Feature","geometry":{"type":"Point","coordinates":[6.11639034,52.57008143]},"properties":{"type":"pakketpunt","locatieNaam":"ViaTim en Hogeboom","straatNaam":"Verkavelingsweg","straatNr":"4a","vervoerder":"ViaTim","puntType":"servicepunt","bezettingsgraad":50,"latitude":52.57008143,"longitude":6.11639034,"canPickup":true,"canDropoff":true,"openingstijden":{"ma":"gesloten","di":"gesloten","wo":"15:00 - 18:00","do":"gesloten","vr":"gesloten","za":"09:00 - 18:00","zo":"gesloten"}}},{"type":"Feature","geometry":{"type":"Point","coordinates":[6.0523525385582655,52.5826261519815]},"properties":{"type":"pakketpunt","locatieNaam":"FedEx OnSite","straatNaam":"NIEUWE WETERING 18","straatNr":"","vervoerder":"FedEx","puntType":"servicepunt","bezettingsgraad":50,"latitude":52.5826261519815,"longitude":6.0523525385582655,"canPickup":true,"canDropoff":true,"openingstijden":{"ma":"09:30 - 17:00","di":"09:30 - 17:00","wo":"09:30 - 17:00","do":"09:30 - 17:00","vr":"09:30 - 17:00","za":"10:00 - 16:00","zo":"gesloten"}}},{"type":"Feature","geometry":{"type":"Point","coordinates":[6.095788480985624,52.587128759746804]},"properties":{"type":"pakketpunt","locatieNaam":"FedEx Ship&Get","straatNaam":"Buiten de Enkpoort 15 PBA","straatNr":"","vervoerder":"FedEx","puntType":"servicepunt","bezettingsgraad":50,"latitude":52.587128759746804,"longitude":6.095788480985624,"canPickup":true,"canDropoff":true,"openingstijden":{"ma":"00:00 - 23:59","di":"00:00 - 23:59","wo":"00:00 - 23:59","do":"00:00 - 23:59","vr":"00:00 - 23:59","za":"00:00 - 23:59","zo":"00:00 - 23:59"}}},{"type":"Feature","geometry":{"type":"Point","coordinates":[6.041252,52.621571]},"properties":{"type":"pakketpunt","locatieNaam":"FedEx OnSite","straatNaam":"LANGESTRAAT 95","straatNr":"","vervoerder":"FedEx","puntType":"servicepunt","bezettingsgraad":50,"latitude":52.621571,"longitude":6.041252,"canPickup":true,"canDropoff":true,"openingstijden":{"ma":"13:30 - 18:00","di":"09:00 - 18:00","wo":"09:00 - 18:00","do":"09:00 - 18:00","vr":"09:00 - 18:00","za":"10:00 - 15:00","zo":"gesloten"}}},{"type":"Feature","geometry":{"type":"Point","coordinates":[6.040280207969269,52.62365422942736]},"properties":{"type":"pakketpunt","locatieNaam":"FedEx Ship&Get","straatNaam":"Kruisstraat 6 PBA","straatNr":"","vervoerder":"FedEx","puntType":"servicepunt","bezettingsgraad":50,"latitude":52.62365422942736,"longitude":6.040280207969269,"canPickup":true,"canDropoff":true,"openingstijden":{"ma":"00:00 - 23:59","di":"00:00 - 23:59","wo":"00:00 - 23:59","do":"00:00 - 23:59","vr":"00:00 - 23:59","za":"00:00 - 23:59","zo":"00:00 - 23:59"}}},{"type":"Feature","geometry":{"type":"Point","coordinates":[6.072197025515114,52.64033416339813]},"properties":{"type":"pakketpunt","locatieNaam":"FedEx OnSite","straatNaam":"KERKSTRAAT 20","straatNr":"","vervoerder":"FedEx","puntType":"servicepunt","bezettingsgraad":50,"latitude":52.64033416339813,"longitude":6.072197025515114,"canPickup":true,"canDropoff":true,"openingstijden":{"ma":"gesloten","di":"09:30 - 17:00","wo":"09:30 - 17:00","do":"09:30 - 17:00","vr":"09:30 - 17:00","za":"09:30 - 17:00","zo":"gesloten"}}},{"type":"Feature","geometry":{"type":"Point","coordinates":[6.04125,52.62157]},"properties":{"type":"pakketpunt","locatieNaam":"L EN M WORKWEAR","straatNaam":"Langestraat 95","straatNr":"","vervoerder":"InPost","puntType":"servicepunt","bezettingsgraad":50,"latitude":52.62157,"longitude":6.04125,"canPickup":true,"canDropoff":true,"openingstijden":null}},{"type":"Feature","geometry":{"type":"Point","coordinates":[6.07218,52.64036]},"properties":{"type":"pakketpunt","locatieNaam":"SLUUSGOED","straatNaam":"Kerkstraat 20","straatNr":"","vervoerder":"InPost","puntType":"servicepunt","bezettingsgraad":50,"latitude":52.64036,"longitude":6.07218,"canPickup":true,"canDropoff":true,"openingstijden":null}},{"type":"Feature","geometry":{"type":"Point","coordinates":[6.05257,52.58284]},"properties":{"type":"pakketpunt","locatieNaam":"BOERDERIJWINKEL DE RIETSTULP","straatNaam":"Nieuwe Wetering 18","straatNr":"","vervoerder":"InPost","puntType":"servicepunt","bezettingsgraad":50,"latitude":52.58284,"longitude":6.05257,"canPickup":true,"canDropoff":true,"openingstijden":null}},{"type":"Feature","geometry":{"type":"Point","coordinates":[6.08718,52.58702]},"properties":{"type":"pakketpunt","locatieNaam":"","straatNaam":"Productieweg","straatNr":"1a","vervoerder":"InPost","puntType":"automaat","bezettingsgraad":50,"latitude":52.58702,"longitude":6.08718,"canPickup":true,"canDropoff":true,"openingstijden":"24/7"}},{"type":"Feature","geometry":{"type":"Polygon","coordinates":[[[5.971341,52.594157],[5.97138,52.593925],[5.971497,52.593667],[5.971563,52.593368],[5.971683,52.593267],[5.97193,52.593058],[5.971973,52.593009],[5.972307,52.592636],[5.972413,52.592555],[5.972417,52.592429],[5.972423,52.592265],[5.972431,52.592018],[5.972658,52.591358],[5.973009,52.590903],[5.973843,52.589821],[5.974567,52.588849],[5.977501,52.584905],[5.977637,52.584722],[5.977875,52.584274],[5.978153,52.583889],[5.978452,52.583481],[5.980598,52.58069],[5.981739,52.579154],[5.982715,52.577911],[5.982802,52.577756],[5.982941,52.577514],[5.983083,52.577554],[5.984138,52.577848],[5.98449,52.577947],[5.985072,52.578109],[5.986132,52.578406],[5.986927,52.578628],[5.988132,52.578964],[5.989402,52.579319],[5.990043,52.579498],[5.99246,52.580158],[5.993677,52.580491],[5.996486,52.581257],[5.996616,52.581292],[5.996626,52.581295],[5.997733,52.581591],[5.997808,52.581611],[5.998436,52.581779],[5.999359,52.582043],[5.999392,52.582052],[6.000195,52.582272],[6.000696,52.58241],[6.003815,52.583265],[6.004176,52.583364],[6.004957,52.583579],[6.005566,52.583745],[6.005769,52.583801],[6.006187,52.583916],[6.007056,52.584154],[6.00719,52.584191],[6.007801,52.584359],[6.007841,52.584307],[6.00794,52.584334],[6.008489,52.584483],[6.009327,52.584713],[6.01021,52.584953],[6.011466,52.585294],[6.012145,52.585484],[6.012688,52.585636],[6.012727,52.585649],[6.012764,52.585673],[6.012788,52.585702],[6.012795,52.58574],[6.012766,52.585799],[6.012719,52.585839],[6.012609,52.586036],[6.012888,52.586114],[6.012878,52.58605],[6.012863,52.585951],[6.012862,52.585942],[6.013166,52.58554],[6.013177,52.585525],[6.013272,52.585404],[6.013306,52.585343],[6.013508,52.585087],[6.015709,52.582182],[6.01625,52.58147],[6.016454,52.581203],[6.01682,52.580657],[6.01733,52.580018],[6.017792,52.579422],[6.018542,52.578429],[6.019592,52.577035],[6.019843,52.576756],[6.020444,52.576096],[6.020549,52.576043],[6.020571,52.576047],[6.020719,52.575837],[6.020854,52.575662],[6.020953,52.575533],[6.020921,52.575507],[6.021291,52.574999],[6.021311,52.574973],[6.021379,52.574884],[6.021461,52.574771],[6.02148,52.574745],[6.021484,52.574739],[6.021569,52.574626],[6.021741,52.574394],[6.021768,52.574401],[6.021894,52.574224],[6.021924,52.574232],[6.022028,52.574093],[6.022013,52.574089],[6.022209,52.573864],[6.02227,52.573797],[6.02233,52.573689],[6.022391,52.573582],[6.022468,52.573418],[6.022545,52.573227],[6.0226,52.573148],[6.022637,52.573093],[6.022669,52.573054],[6.022938,52.572728],[6.023128,52.57248],[6.023827,52.571565],[6.023979,52.571389],[6.023995,52.571345],[6.024266,52.57102],[6.024482,52.570782],[6.024892,52.57027],[6.026477,52.568187],[6.026513,52.568111],[6.026585,52.568023],[6.026677,52.567891],[6.026818,52.56771],[6.027341,52.567023],[6.028448,52.565555],[6.02885,52.565026],[6.029523,52.564117],[6.029854,52.563675],[6.030054,52.563386],[6.030143,52.563282],[6.031459,52.561487],[6.031556,52.56137],[6.031588,52.56131],[6.032099,52.56061],[6.032172,52.560521],[6.032222,52.560459],[6.033038,52.559404],[6.033365,52.558979],[6.033545,52.55903],[6.036326,52.559806],[6.03858,52.560435],[6.042751,52.5616],[6.043432,52.561785],[6.048158,52.563092],[6.048243,52.563116],[6.053151,52.56449],[6.063154,52.56728],[6.063202,52.567211],[6.063256,52.567149],[6.063711,52.56654],[6.063799,52.566403],[6.063831,52.566383],[6.063938,52.566235],[6.064021,52.566258],[6.064056,52.5662],[6.064202,52.565998],[6.064158,52.565984],[6.064202,52.565968],[6.064364,52.565835],[6.065961,52.563728],[6.066036,52.563603],[6.066235,52.563357],[6.066214,52.563352],[6.066327,52.563214],[6.066543,52.562898],[6.066539,52.562897],[6.066624,52.562837],[6.066738,52.562727],[6.066959,52.562422],[6.066923,52.5624],[6.066943,52.562374],[6.066973,52.562334],[6.06709,52.562183],[6.067307,52.561903],[6.067328,52.561875],[6.067478,52.561737],[6.069643,52.558886],[6.06983,52.558676],[6.070027,52.558414],[6.070149,52.558237],[6.070156,52.558226],[6.07034,52.558278],[6.070604,52.558352],[6.073494,52.559162],[6.073544,52.559176],[6.073867,52.558974],[6.073939,52.558929],[6.073957,52.558917],[6.074192,52.55877],[6.075183,52.558149],[6.075223,52.558098],[6.076163,52.556963],[6.074186,52.556402],[6.075462,52.555916],[6.076919,52.555666],[6.07696,52.555659],[6.077094,52.555636],[6.077876,52.555418],[6.077883,52.55541],[6.078226,52.554983],[6.078978,52.554689],[6.081053,52.553877],[6.081128,52.553847],[6.084403,52.553158],[6.086616,52.552829],[6.08676,52.552785],[6.086891,52.552728],[6.086958,52.552703],[6.087086,52.552654],[6.087171,52.552631],[6.087495,52.552542],[6.087578,52.552489],[6.087684,52.552396],[6.087804,52.552353],[6.088051,52.55236],[6.088232,52.552294],[6.088875,52.552041],[6.088888,52.552052],[6.088989,52.552016],[6.089274,52.551894],[6.089339,52.551866],[6.0894,52.551841],[6.090073,52.552203],[6.09126,52.552865],[6.09233,52.55346],[6.092411,52.553516],[6.092465,52.553604],[6.092619,52.553986],[6.092881,52.554331],[6.092921,52.554822],[6.092948,52.554953],[6.093023,52.555323],[6.09335,52.555788],[6.094312,52.556602],[6.094793,52.557012],[6.095563,52.557633],[6.095729,52.557743],[6.096007,52.557928],[6.096211,52.558006],[6.096465,52.558067],[6.096639,52.558108],[6.09702,52.558198],[6.097248,52.558315],[6.097475,52.55845],[6.097563,52.558511],[6.097626,52.558567],[6.097684,52.558629],[6.097754,52.558714],[6.097802,52.55879],[6.097843,52.558858],[6.098,52.559366],[6.098014,52.559429],[6.098029,52.559484],[6.098062,52.559576],[6.098091,52.55964],[6.098124,52.559672],[6.098168,52.559715],[6.098218,52.559754],[6.098265,52.559801],[6.098311,52.55986],[6.098363,52.559939],[6.098401,52.560007],[6.098465,52.560209],[6.098509,52.560366],[6.098562,52.560528],[6.098588,52.560591],[6.098595,52.560623],[6.098599,52.560657],[6.098599,52.560704],[6.098575,52.560772],[6.098567,52.560827],[6.098588,52.561013],[6.09861,52.561219],[6.09862,52.561307],[6.098678,52.561509],[6.098795,52.561802],[6.098948,52.562141],[6.099044,52.562352],[6.099442,52.562699],[6.099946,52.563068],[6.100438,52.563443],[6.100787,52.563762],[6.100847,52.563883],[6.100953,52.564141],[6.10096,52.564157],[6.101124,52.564556],[6.101215,52.564649],[6.101492,52.564935],[6.101627,52.565074],[6.101774,52.565226],[6.10186,52.565315],[6.102109,52.565571],[6.102344,52.565814],[6.102516,52.566002],[6.10263,52.566138],[6.102744,52.566268],[6.10276,52.566291],[6.102791,52.566377],[6.102831,52.56648],[6.102917,52.566709],[6.103166,52.567096],[6.103281,52.567251],[6.103305,52.567287],[6.103336,52.567388],[6.104388,52.567278],[6.105061,52.567243],[6.106228,52.567183],[6.108028,52.567089],[6.108072,52.567494],[6.109729,52.567426],[6.109803,52.567423],[6.109987,52.567415],[6.10999,52.567415],[6.110002,52.567415],[6.110014,52.567414],[6.11006,52.567412],[6.110058,52.567396],[6.11004,52.567208],[6.110028,52.567112],[6.110008,52.56697],[6.109983,52.566814],[6.109971,52.566705],[6.109952,52.566511],[6.109951,52.566438],[6.109952,52.566422],[6.109967,52.566334],[6.109983,52.566245],[6.110009,52.566156],[6.11001,52.566153],[6.110018,52.566133],[6.110142,52.566149],[6.11022,52.566151],[6.110235,52.565998],[6.110288,52.56556],[6.11032,52.565322],[6.110351,52.564951],[6.110383,52.564662],[6.110359,52.564577],[6.110358,52.564574],[6.110341,52.5645],[6.110311,52.564319],[6.110286,52.564171],[6.110268,52.564055],[6.110238,52.563886],[6.1102,52.563669],[6.110156,52.563454],[6.110103,52.563176],[6.110057,52.562938],[6.110013,52.562617],[6.109966,52.562331],[6.109922,52.562031],[6.1099,52.561862],[6.109887,52.561732],[6.10994,52.561695],[6.109909,52.561598],[6.109863,52.561485],[6.109808,52.561373],[6.109765,52.561284],[6.109755,52.561241],[6.109771,52.561176],[6.10979,52.561115],[6.109926,52.561049],[6.110064,52.561014],[6.110216,52.560977],[6.110473,52.560919],[6.110767,52.560857],[6.110864,52.560839],[6.110951,52.560826],[6.111083,52.560824],[6.111226,52.560823],[6.11148,52.560823],[6.111624,52.560821],[6.111942,52.560803],[6.112156,52.560795],[6.112469,52.560804],[6.11255,52.56082],[6.112579,52.560826],[6.112733,52.560868],[6.112941,52.560951],[6.113134,52.561046],[6.1132,52.560903],[6.113205,52.560895],[6.113228,52.560852],[6.113267,52.560773],[6.113329,52.560775],[6.113426,52.56078],[6.113554,52.560763],[6.113644,52.560741],[6.113734,52.560715],[6.113858,52.560686],[6.113914,52.56067],[6.11413,52.560605],[6.11431,52.560542],[6.114337,52.560533],[6.114589,52.560457],[6.114647,52.56042],[6.114711,52.560371],[6.114832,52.560255],[6.114966,52.560122],[6.11502,52.560066],[6.115041,52.560043],[6.115074,52.559989],[6.115121,52.559915],[6.115181,52.559805],[6.115235,52.559705],[6.11532,52.55957],[6.115446,52.559385],[6.115536,52.559274],[6.115653,52.559144],[6.115749,52.559039],[6.115794,52.558991],[6.115876,52.558928],[6.115959,52.558869],[6.116072,52.558815],[6.116159,52.558778],[6.116198,52.558761],[6.116298,52.558738],[6.116352,52.558726],[6.116481,52.558701],[6.116592,52.558694],[6.116575,52.558631],[6.116547,52.558541],[6.116538,52.558461],[6.116984,52.558557],[6.11706,52.558439],[6.117121,52.558461],[6.117219,52.558496],[6.117258,52.558426],[6.117409,52.558144],[6.117487,52.558048],[6.117614,52.557909],[6.117776,52.557729],[6.117901,52.557598],[6.117986,52.557502],[6.118081,52.557398],[6.118311,52.557464],[6.11845,52.557507],[6.118572,52.557544],[6.118776,52.557605],[6.118906,52.557645],[6.11894,52.557656],[6.118998,52.557675],[6.119178,52.557599],[6.11925,52.557581],[6.119562,52.557485],[6.119892,52.557398],[6.120248,52.557303],[6.120619,52.557206],[6.120896,52.557133],[6.12111,52.557075],[6.121373,52.557003],[6.121453,52.556982],[6.121563,52.556975],[6.12167,52.556984],[6.12177,52.557013],[6.121897,52.557064],[6.12198,52.557097],[6.122064,52.557105],[6.122201,52.557114],[6.122253,52.557096],[6.122112,52.557205],[6.122272,52.557217],[6.122342,52.557184],[6.122376,52.557151],[6.122408,52.557105],[6.122462,52.557063],[6.122582,52.556997],[6.122646,52.556974],[6.122763,52.556944],[6.122878,52.556922],[6.122953,52.556931],[6.122993,52.556948],[6.123066,52.557017],[6.123297,52.557008],[6.123532,52.557],[6.123732,52.556808],[6.12385,52.556696],[6.124001,52.556578],[6.12411,52.556521],[6.124226,52.556467],[6.124364,52.556416],[6.124625,52.556327],[6.124788,52.556274],[6.124929,52.556237],[6.125037,52.556215],[6.125131,52.556197],[6.125243,52.55619],[6.125354,52.55621],[6.125612,52.556186],[6.125978,52.556105],[6.126132,52.556094],[6.12619,52.556093],[6.126389,52.5561],[6.126611,52.556106],[6.126685,52.556111],[6.126751,52.55613],[6.126792,52.556156],[6.126884,52.556219],[6.127101,52.556371],[6.12725,52.556477],[6.127398,52.556579],[6.127494,52.556631],[6.127584,52.556665],[6.127669,52.556693],[6.127743,52.556713],[6.127818,52.556726],[6.127863,52.556728],[6.127908,52.556728],[6.128012,52.556718],[6.128124,52.556702],[6.128129,52.556701],[6.128144,52.556697],[6.128324,52.556659],[6.128524,52.556615],[6.128679,52.556581],[6.128622,52.55654],[6.128938,52.556462],[6.129063,52.556422],[6.129324,52.556337],[6.129422,52.556266],[6.129519,52.556196],[6.129586,52.556143],[6.129764,52.55599],[6.129898,52.555869],[6.129929,52.555843],[6.129898,52.555808],[6.129811,52.55573],[6.129875,52.555631],[6.129943,52.555538],[6.130018,52.555487],[6.13017,52.555395],[6.130302,52.555316],[6.130381,52.555308],[6.130445,52.555306],[6.130644,52.555283],[6.130825,52.555265],[6.131023,52.55524],[6.131208,52.555218],[6.131395,52.555206],[6.131599,52.555196],[6.131763,52.555185],[6.131861,52.55517],[6.132014,52.555123],[6.132515,52.554933],[6.132682,52.554863],[6.132744,52.554837],[6.132832,52.5548],[6.132947,52.554764],[6.133077,52.554719],[6.133193,52.554673],[6.13329,52.55464],[6.133292,52.554639],[6.133462,52.554558],[6.13366,52.554485],[6.133784,52.554439],[6.133946,52.554387],[6.134094,52.554335],[6.134529,52.554143],[6.134735,52.554053],[6.134806,52.554029],[6.134878,52.554004],[6.13504,52.553945],[6.1353,52.553838],[6.135492,52.55376],[6.135624,52.553709],[6.135695,52.553702],[6.135849,52.55377],[6.135944,52.553828],[6.135944,52.553828],[6.136219,52.553736],[6.136256,52.553724],[6.136371,52.553687],[6.136624,52.553607],[6.136812,52.553551],[6.13688,52.553526],[6.136886,52.553524],[6.137033,52.553471],[6.137113,52.553444],[6.137292,52.553369],[6.137631,52.553236],[6.137939,52.553114],[6.138287,52.552978],[6.138292,52.552976],[6.1385,52.552895],[6.139129,52.552648],[6.139495,52.5525],[6.139749,52.552397],[6.139773,52.552411],[6.140527,52.552102],[6.140627,52.552152],[6.140738,52.552207],[6.140982,52.552333],[6.141252,52.55247],[6.14168,52.552695],[6.14192,52.552819],[6.14249,52.553111],[6.142555,52.553146],[6.142764,52.553247],[6.143116,52.553427],[6.14346,52.553605],[6.143525,52.553638],[6.143767,52.553761],[6.144016,52.553893],[6.144386,52.554086],[6.144542,52.554172],[6.144588,52.554193],[6.144862,52.554329],[6.145198,52.554502],[6.145286,52.554549],[6.145573,52.554697],[6.145771,52.554798],[6.146003,52.554919],[6.146176,52.555009],[6.146224,52.555034],[6.146371,52.555107],[6.147192,52.55553],[6.148797,52.55636],[6.151784,52.557905],[6.153984,52.55904],[6.154645,52.559379],[6.154865,52.559493],[6.154872,52.559497],[6.155031,52.559563],[6.155035,52.559565],[6.155038,52.559566],[6.155547,52.55983],[6.156227,52.56018],[6.15714,52.560656],[6.15773,52.560955],[6.158201,52.56119],[6.158788,52.561486],[6.159424,52.561807],[6.161098,52.56266],[6.162262,52.563257],[6.163533,52.563905],[6.164432,52.564372],[6.164711,52.564515],[6.164929,52.56462],[6.165059,52.564677],[6.165471,52.564815],[6.166097,52.565008],[6.166232,52.565054],[6.166474,52.565135],[6.166769,52.565239],[6.166814,52.565252],[6.166584,52.565579],[6.1663,52.565898],[6.16613,52.566115],[6.16569,52.566679],[6.165327,52.567143],[6.165055,52.567482],[6.164934,52.567641],[6.164734,52.567896],[6.164729,52.567903],[6.164568,52.568102],[6.164249,52.568517],[6.163889,52.568973],[6.163612,52.56933],[6.163305,52.569723],[6.163183,52.56988],[6.163026,52.570078],[6.162732,52.570456],[6.162529,52.570719],[6.162242,52.571085],[6.16207,52.571305],[6.161917,52.57151],[6.161802,52.57166],[6.161648,52.571861],[6.161347,52.572232],[6.161158,52.572456],[6.160765,52.572944],[6.160579,52.573171],[6.160318,52.573495],[6.160118,52.573745],[6.160049,52.573832],[6.159997,52.57389],[6.159891,52.573993],[6.15984,52.574058],[6.159758,52.574177],[6.159617,52.574388],[6.15952,52.574505],[6.159377,52.574687],[6.159376,52.574687],[6.159278,52.574806],[6.159275,52.574809],[6.159209,52.57489],[6.159119,52.575004],[6.159003,52.575147],[6.158893,52.57528],[6.158812,52.575406],[6.158783,52.575546],[6.158782,52.575552],[6.158712,52.575927],[6.158645,52.576299],[6.158579,52.576619],[6.158509,52.576876],[6.158459,52.577183],[6.158391,52.577492],[6.158335,52.577771],[6.158254,52.578101],[6.158178,52.578405],[6.158059,52.578887],[6.157971,52.579214],[6.157885,52.579549],[6.157836,52.579738],[6.157816,52.579819],[6.157787,52.579916],[6.157761,52.580013],[6.15772,52.580145],[6.157706,52.580223],[6.157679,52.58032],[6.157647,52.580418],[6.157634,52.580456],[6.157597,52.580511],[6.157527,52.58061],[6.157502,52.580666],[6.157459,52.580734],[6.157426,52.580777],[6.157385,52.580815],[6.157328,52.580836],[6.157262,52.580853],[6.157168,52.580879],[6.157113,52.580899],[6.157052,52.580926],[6.156999,52.580954],[6.15695,52.580992],[6.156911,52.581027],[6.15686,52.581088],[6.156807,52.581172],[6.156752,52.581247],[6.156634,52.581414],[6.156504,52.581584],[6.156376,52.581736],[6.15629,52.581819],[6.156199,52.581902],[6.155953,52.582111],[6.155784,52.582258],[6.15566,52.582366],[6.155579,52.582437],[6.155492,52.582502],[6.155405,52.58255],[6.155303,52.5826],[6.155216,52.582647],[6.155129,52.582682],[6.155069,52.582706],[6.154991,52.582725],[6.154788,52.582715],[6.154592,52.582712],[6.15444,52.582715],[6.154206,52.582726],[6.153642,52.582748],[6.153348,52.582754],[6.15328,52.582755],[6.153214,52.582764],[6.153148,52.582769],[6.153079,52.582791],[6.152812,52.582865],[6.152576,52.582926],[6.152117,52.583046],[6.151859,52.583109],[6.151684,52.583178],[6.151424,52.58329],[6.151173,52.583384],[6.150956,52.583488],[6.150676,52.583624],[6.150515,52.583705],[6.150469,52.583736],[6.150408,52.583747],[6.150336,52.583754],[6.150248,52.583758],[6.15019,52.583759],[6.150139,52.583749],[6.150002,52.583742],[6.149897,52.583742],[6.149802,52.583741],[6.149726,52.583741],[6.149601,52.58374],[6.14932,52.583726],[6.149075,52.583714],[6.149012,52.583713],[6.148933,52.583717],[6.148831,52.583734],[6.14877,52.583741],[6.148682,52.583761],[6.148591,52.583786],[6.148522,52.583808],[6.148458,52.583819],[6.148392,52.583819],[6.148315,52.583801],[6.148245,52.583787],[6.148187,52.583769],[6.148119,52.583758],[6.148049,52.583759],[6.147863,52.583776],[6.147639,52.583793],[6.147532,52.583801],[6.147353,52.583925],[6.14735,52.583953],[6.14735,52.583953],[6.147407,52.583985],[6.147509,52.584045],[6.147565,52.58408],[6.147579,52.584113],[6.147562,52.584197],[6.147539,52.584272],[6.147516,52.584314],[6.147484,52.584351],[6.147418,52.584408],[6.147231,52.584404],[6.14721,52.584399],[6.147139,52.584377],[6.146911,52.584299],[6.146659,52.584216],[6.146582,52.58419],[6.146502,52.584187],[6.146424,52.584181],[6.146281,52.584149],[6.146279,52.584148],[6.146146,52.584116],[6.145656,52.584001],[6.145519,52.583967],[6.145105,52.58387],[6.144726,52.583788],[6.144601,52.583762],[6.144353,52.583704],[6.14403,52.583628],[6.143283,52.583449],[6.143139,52.583417],[6.142821,52.583356],[6.14256,52.58331],[6.14208,52.583228],[6.141634,52.583155],[6.141234,52.583084],[6.140867,52.583022],[6.140329,52.582929],[6.139955,52.582855],[6.139677,52.582795],[6.139604,52.582779],[6.139081,52.582665],[6.138953,52.582633],[6.138738,52.582583],[6.138638,52.582561],[6.138534,52.582542],[6.138458,52.582532],[6.138366,52.582516],[6.138187,52.582479],[6.137989,52.582437],[6.137755,52.582392],[6.137507,52.582351],[6.137183,52.5823],[6.136059,52.582115],[6.135627,52.582045],[6.135218,52.581977],[6.135016,52.581936],[6.134738,52.581878],[6.134551,52.581841],[6.134022,52.58173],[6.13376,52.581679],[6.133063,52.581539],[6.13286,52.581499],[6.132646,52.581456],[6.132487,52.581426],[6.132314,52.581394],[6.132144,52.581362],[6.131971,52.581332],[6.131802,52.581307],[6.131624,52.581278],[6.131378,52.581246],[6.131301,52.581332],[6.131247,52.581415],[6.131188,52.58151],[6.13118,52.581522],[6.131156,52.581556],[6.131088,52.581664],[6.130993,52.581803],[6.130802,52.582099],[6.130692,52.582265],[6.13059,52.582425],[6.130468,52.582619],[6.130413,52.582706],[6.130378,52.582762],[6.130339,52.582829],[6.130305,52.582887],[6.130256,52.582947],[6.130214,52.583002],[6.130161,52.583067],[6.130109,52.583131],[6.130062,52.583182],[6.13004,52.583248],[6.130015,52.583314],[6.130009,52.583331],[6.130001,52.583356],[6.130001,52.583357],[6.129997,52.583366],[6.129976,52.583433],[6.129971,52.583451],[6.12997,52.583456],[6.129959,52.583478],[6.129939,52.583518],[6.129888,52.583632],[6.129763,52.583753],[6.129719,52.583803],[6.129523,52.5841],[6.12952,52.584104],[6.129475,52.584151],[6.129413,52.584229],[6.129394,52.584255],[6.129359,52.584305],[6.129133,52.584637],[6.128853,52.585053],[6.128575,52.585469],[6.128301,52.585886],[6.128027,52.586303],[6.127968,52.58638],[6.127956,52.586395],[6.127894,52.586477],[6.127812,52.586553],[6.127718,52.586617],[6.127603,52.586688],[6.127466,52.586757],[6.127594,52.586783],[6.127747,52.586814],[6.127748,52.586814],[6.127752,52.586815],[6.1277,52.58689],[6.12769,52.586906],[6.127682,52.586919],[6.127573,52.587088],[6.127543,52.587134],[6.126858,52.588191],[6.126632,52.588562],[6.126368,52.588974],[6.126301,52.58905],[6.126086,52.58941],[6.126022,52.589454],[6.126001,52.589468],[6.125986,52.589479],[6.125425,52.589867],[6.125191,52.590049],[6.124932,52.590106],[6.124825,52.590159],[6.124769,52.590346],[6.124653,52.590427],[6.124566,52.590439],[6.124368,52.590498],[6.124244,52.590706],[6.124149,52.590792],[6.12409,52.590844],[6.124059,52.590923],[6.124032,52.591283],[6.124365,52.591421],[6.124758,52.591625],[6.125053,52.59174],[6.125124,52.591807],[6.125205,52.591986],[6.125296,52.59208],[6.125469,52.592408],[6.125482,52.592433],[6.125508,52.592492],[6.125497,52.592502],[6.125083,52.59293],[6.124764,52.593271],[6.124446,52.593612],[6.124057,52.594057],[6.123727,52.594322],[6.123494,52.594453],[6.123306,52.594553],[6.122192,52.595561],[6.121697,52.596051],[6.121354,52.596363],[6.120912,52.59674],[6.120529,52.597069],[6.11987,52.597233],[6.119836,52.597243],[6.119738,52.597271],[6.119613,52.597337],[6.118795,52.597783],[6.118415,52.597951],[6.117363,52.59852],[6.116808,52.598813],[6.116757,52.598844],[6.115618,52.599552],[6.115394,52.599643],[6.114847,52.599786],[6.114256,52.599989],[6.114245,52.599993],[6.114234,52.599997],[6.113593,52.60024],[6.112992,52.600466],[6.112207,52.600806],[6.11118,52.601283],[6.1108,52.601464],[6.110693,52.601541],[6.110655,52.601593],[6.110503,52.601762],[6.110479,52.60177],[6.109934,52.601935],[6.109362,52.602199],[6.109068,52.602261],[6.108867,52.602356],[6.10819,52.602679],[6.108114,52.602714],[6.107556,52.602948],[6.105859,52.603691],[6.105848,52.603696],[6.10569,52.603623],[6.105361,52.60347],[6.105283,52.603433],[6.10523,52.60348],[6.105228,52.603481],[6.105198,52.603508],[6.105224,52.603518],[6.105194,52.603541],[6.105189,52.603545],[6.105189,52.603545],[6.105163,52.603533],[6.105141,52.603572],[6.105141,52.603573],[6.105118,52.603615],[6.105115,52.603619],[6.105114,52.603621],[6.105101,52.603644],[6.105022,52.60373],[6.104486,52.60393],[6.104364,52.604039],[6.103611,52.604918],[6.103548,52.604992],[6.103225,52.605368],[6.103181,52.605446],[6.103064,52.605652],[6.103317,52.605763],[6.103881,52.606009],[6.106003,52.606934],[6.106034,52.606948],[6.106055,52.606957],[6.106063,52.60696],[6.106094,52.606974],[6.10623,52.607035],[6.106225,52.607045],[6.106115,52.60729],[6.105373,52.608926],[6.105284,52.609128],[6.105256,52.609192],[6.105181,52.609359],[6.104402,52.611109],[6.104286,52.611372],[6.104253,52.611444],[6.104205,52.611553],[6.104121,52.611743],[6.103701,52.612685],[6.104437,52.613201],[6.104483,52.613234],[6.104901,52.613529],[6.106525,52.614688],[6.106668,52.614763],[6.106858,52.614809],[6.106948,52.614832],[6.106951,52.614832],[6.106746,52.616006],[6.106658,52.616398],[6.106647,52.616627],[6.106644,52.616823],[6.106578,52.617107],[6.106504,52.617421],[6.106439,52.617699],[6.10642,52.617844],[6.106416,52.617876],[6.106414,52.617894],[6.106406,52.617951],[6.106671,52.617979],[6.107556,52.617949],[6.107614,52.617971],[6.107622,52.618098],[6.107557,52.618443],[6.107477,52.618873],[6.107449,52.618873],[6.107389,52.618873],[6.107358,52.618873],[6.106533,52.618876],[6.106321,52.61891],[6.106234,52.618895],[6.106159,52.618898],[6.106058,52.619088],[6.106055,52.619094],[6.106002,52.619186],[6.105965,52.619327],[6.105966,52.61933],[6.105983,52.61938],[6.106165,52.619606],[6.106307,52.619674],[6.106309,52.619724],[6.106221,52.619848],[6.106094,52.619862],[6.105919,52.619869],[6.10584,52.61987],[6.105841,52.619932],[6.105931,52.619951],[6.105959,52.619969],[6.105956,52.620148],[6.105953,52.620327],[6.105951,52.620349],[6.105941,52.620449],[6.105939,52.620458],[6.105937,52.620467],[6.105899,52.62068],[6.105872,52.620828],[6.106631,52.620844],[6.106727,52.620845],[6.106731,52.620845],[6.106693,52.621094],[6.106663,52.621493],[6.106659,52.621493],[6.106571,52.621496],[6.106567,52.621496],[6.105952,52.621495],[6.105094,52.621494],[6.105073,52.621564],[6.105015,52.621756],[6.104995,52.621821],[6.104998,52.621832],[6.104993,52.622075],[6.104976,52.622174],[6.104962,52.622255],[6.104944,52.622346],[6.104945,52.622418],[6.104947,52.622553],[6.104946,52.622565],[6.104924,52.622723],[6.104921,52.622739],[6.104902,52.622783],[6.104888,52.622827],[6.104832,52.622911],[6.104689,52.623077],[6.1046,52.623143],[6.104465,52.623196],[6.104402,52.62322],[6.104281,52.623267],[6.104234,52.623279],[6.10406,52.623324],[6.104059,52.623325],[6.104036,52.623331],[6.104055,52.623369],[6.104014,52.623539],[6.104009,52.623553],[6.104005,52.623725],[6.10399,52.623913],[6.103982,52.624151],[6.103993,52.624407],[6.103994,52.624431],[6.104082,52.624447],[6.104091,52.624449],[6.103997,52.624675],[6.103978,52.624806],[6.103976,52.624833],[6.103954,52.625113],[6.103946,52.625218],[6.103931,52.625569],[6.103825,52.625572],[6.101434,52.625507],[6.100973,52.625497],[6.100228,52.625487],[6.099216,52.625482],[6.099055,52.625532],[6.09894,52.625556],[6.098778,52.625565],[6.098348,52.625555],[6.098267,52.625824],[6.098265,52.625832],[6.098258,52.625856],[6.098232,52.625942],[6.098118,52.626322],[6.09796,52.626764],[6.097931,52.626843],[6.09791,52.626902],[6.09783,52.627087],[6.097726,52.627323],[6.097673,52.627444],[6.097622,52.627559],[6.097537,52.627718],[6.097353,52.628044],[6.097147,52.628487],[6.096916,52.628924],[6.096728,52.629281],[6.096678,52.629392],[6.096409,52.629979],[6.096293,52.630184],[6.09605,52.630659],[6.095966,52.630837],[6.095917,52.630941],[6.095928,52.631066],[6.096052,52.63167],[6.096202,52.632397],[6.096296,52.632854],[6.096313,52.632912],[6.0963,52.632992],[6.096377,52.633311],[6.096463,52.633668],[6.096508,52.63397],[6.09653,52.634104],[6.096729,52.635088],[6.096848,52.635626],[6.096987,52.635788],[6.097047,52.635858],[6.097047,52.635858],[6.097081,52.635892],[6.097092,52.635903],[6.097192,52.635999],[6.097238,52.636044],[6.09734,52.636142],[6.097342,52.636143],[6.097344,52.636145],[6.097383,52.636182],[6.097416,52.636214],[6.097509,52.636303],[6.097511,52.636305],[6.097543,52.636335],[6.098401,52.637159],[6.0988,52.637544],[6.099419,52.638148],[6.099612,52.638362],[6.09966,52.638415],[6.09992,52.638653],[6.100359,52.639061],[6.100765,52.639447],[6.100875,52.639549],[6.101385,52.640101],[6.101932,52.64062],[6.102044,52.641028],[6.102142,52.641407],[6.10216,52.641473],[6.102599,52.643114],[6.102612,52.643236],[6.102657,52.643676],[6.102861,52.645445],[6.102864,52.645467],[6.102864,52.64547],[6.102902,52.645811],[6.102906,52.646539],[6.102999,52.646745],[6.103831,52.646818],[6.104106,52.646845],[6.104201,52.647105],[6.104272,52.647321],[6.104471,52.647926],[6.104533,52.648372],[6.104535,52.64892],[6.104542,52.64938],[6.104545,52.649454],[6.104514,52.649804],[6.10452,52.650474],[6.104527,52.651176],[6.104532,52.651618],[6.104537,52.652174],[6.104508,52.652874],[6.104365,52.653072],[6.104149,52.653372],[6.104131,52.653397],[6.104126,52.653404],[6.103847,52.653795],[6.103773,52.653898],[6.103743,52.653987],[6.103512,52.654662],[6.10348,52.654757],[6.103417,52.655104],[6.103429,52.655225],[6.103449,52.65527],[6.10353,52.65545],[6.103726,52.655896],[6.103834,52.656143],[6.103855,52.656191],[6.103856,52.656193],[6.103867,52.656215],[6.103889,52.656256],[6.103898,52.656272],[6.10392,52.65631],[6.104102,52.656633],[6.104291,52.65712],[6.104399,52.657103],[6.106389,52.656795],[6.106396,52.656794],[6.106632,52.656758],[6.106824,52.657165],[6.107045,52.657632],[6.107111,52.657698],[6.108083,52.658451],[6.108415,52.658651],[6.108777,52.658856],[6.109276,52.659139],[6.109436,52.659258],[6.109633,52.659388],[6.109828,52.659516],[6.11003,52.659648],[6.111443,52.660364],[6.114956,52.662141],[6.119823,52.664844],[6.119885,52.664878],[6.119991,52.664913],[6.119972,52.664925],[6.120169,52.665031],[6.120232,52.665067],[6.120271,52.66509],[6.12022,52.665124],[6.120114,52.665196],[6.12011,52.665199],[6.120077,52.665223],[6.119757,52.665433],[6.11947,52.665625],[6.11967,52.665731],[6.119687,52.665744],[6.119676,52.666104],[6.119643,52.666671],[6.119612,52.667157],[6.119587,52.667507],[6.119585,52.667564],[6.11958,52.6676],[6.11958,52.667603],[6.119566,52.667935],[6.119566,52.667937],[6.119281,52.667923],[6.118996,52.667909],[6.118822,52.667899],[6.118648,52.667888],[6.118536,52.667878],[6.118424,52.667868],[6.118227,52.667847],[6.11803,52.667825],[6.117819,52.667798],[6.117622,52.667766],[6.117425,52.667734],[6.117132,52.667684],[6.116838,52.667634],[6.116487,52.667576],[6.116282,52.667541],[6.116077,52.667505],[6.115799,52.667452],[6.115521,52.667399],[6.115251,52.667347],[6.11498,52.667295],[6.114657,52.667229],[6.114335,52.667163],[6.114171,52.667129],[6.113901,52.667076],[6.113632,52.667023],[6.113262,52.666951],[6.112892,52.666879],[6.112566,52.666821],[6.11224,52.666763],[6.111931,52.666705],[6.111623,52.666647],[6.111427,52.666609],[6.11123,52.666571],[6.110935,52.666511],[6.11064,52.666452],[6.110415,52.666403],[6.11019,52.666354],[6.109971,52.666305],[6.10975,52.666256],[6.109455,52.666186],[6.109159,52.666115],[6.10886,52.666042],[6.108642,52.665985],[6.108512,52.66594],[6.108362,52.665892],[6.108213,52.665845],[6.107854,52.665743],[6.107754,52.665714],[6.107641,52.665682],[6.107572,52.665661],[6.107508,52.665641],[6.107448,52.665621],[6.107401,52.665604],[6.107297,52.665565],[6.107209,52.66553],[6.107071,52.665471],[6.106958,52.665423],[6.106893,52.665393],[6.106774,52.665337],[6.106721,52.665311],[6.106621,52.665259],[6.106521,52.665207],[6.106363,52.665121],[6.106204,52.665034],[6.106046,52.664941],[6.105887,52.664849],[6.105638,52.664691],[6.105538,52.664624],[6.105438,52.664557],[6.105296,52.664461],[6.105223,52.664412],[6.105154,52.664366],[6.105031,52.664283],[6.104908,52.6642],[6.10479,52.664125],[6.104717,52.66408],[6.104613,52.664027],[6.104509,52.663975],[6.104397,52.663922],[6.104285,52.66387],[6.103991,52.663741],[6.103656,52.663593],[6.103423,52.663484],[6.10319,52.663375],[6.102798,52.663184],[6.102469,52.663434],[6.102368,52.663451],[6.102167,52.663208],[6.101966,52.662964],[6.101687,52.662627],[6.101408,52.66229],[6.101236,52.662081],[6.101064,52.661872],[6.100937,52.661719],[6.100998,52.661562],[6.100658,52.66133],[6.100274,52.661066],[6.099917,52.660821],[6.099658,52.66122],[6.099375,52.661656],[6.098997,52.662234],[6.098619,52.662811],[6.09836,52.663202],[6.098179,52.663475],[6.0981,52.663593],[6.097997,52.663687],[6.097958,52.663728],[6.097904,52.663786],[6.09785,52.663844],[6.097836,52.663875],[6.097822,52.663906],[6.0978,52.663984],[6.097778,52.664062],[6.097671,52.664208],[6.097569,52.664345],[6.09736,52.664627],[6.097326,52.664618],[6.097314,52.664615],[6.095144,52.664367],[6.09366,52.664198],[6.093242,52.66415],[6.092705,52.664089],[6.09244,52.664059],[6.092175,52.664029],[6.091911,52.663998],[6.091688,52.663973],[6.091646,52.663968],[6.085563,52.663274],[6.085061,52.663096],[6.084172,52.66278],[6.083261,52.662453],[6.082855,52.662308],[6.082437,52.66212],[6.08189,52.661874],[6.081267,52.661593],[6.080517,52.661254],[6.079743,52.660916],[6.079402,52.660768],[6.078969,52.660578],[6.078862,52.660537],[6.078584,52.660429],[6.077986,52.6602],[6.077004,52.659822],[6.076971,52.659816],[6.076906,52.6598],[6.076841,52.659784],[6.076785,52.659766],[6.076729,52.659749],[6.076652,52.659709],[6.076567,52.659657],[6.076474,52.659603],[6.076362,52.659551],[6.076249,52.659501],[6.076135,52.659451],[6.075988,52.659385],[6.07584,52.659318],[6.075752,52.659281],[6.075663,52.659245],[6.075567,52.659216],[6.075471,52.659187],[6.075369,52.659154],[6.07526,52.659105],[6.075151,52.659057],[6.074983,52.65898],[6.074815,52.658903],[6.074675,52.658837],[6.074534,52.658772],[6.074384,52.658707],[6.074233,52.658641],[6.074049,52.658566],[6.073986,52.658541],[6.073865,52.658491],[6.073768,52.658451],[6.07367,52.658411],[6.073521,52.658374],[6.073372,52.658336],[6.073279,52.658315],[6.073186,52.658263],[6.073046,52.658202],[6.072906,52.658141],[6.072725,52.658058],[6.072544,52.657974],[6.07232,52.657883],[6.072095,52.657792],[6.071781,52.657659],[6.071628,52.657597],[6.071474,52.657534],[6.071318,52.657464],[6.071162,52.657394],[6.071026,52.657332],[6.070891,52.65727],[6.070769,52.657212],[6.070647,52.657154],[6.070532,52.657105],[6.070417,52.657056],[6.070394,52.657048],[6.070291,52.65701],[6.070188,52.656972],[6.070047,52.656909],[6.069905,52.656846],[6.06986,52.656825],[6.069809,52.656802],[6.069748,52.656776],[6.069686,52.656749],[6.069599,52.656719],[6.069512,52.656689],[6.069417,52.656653],[6.069322,52.656617],[6.069223,52.656576],[6.069125,52.656534],[6.069028,52.656501],[6.068931,52.656467],[6.068868,52.65644],[6.068806,52.656413],[6.068743,52.65639],[6.06868,52.656367],[6.068627,52.656341],[6.068574,52.656316],[6.068489,52.656278],[6.068403,52.656239],[6.068355,52.656214],[6.068307,52.65619],[6.068252,52.656161],[6.068197,52.656131],[6.068097,52.65608],[6.068013,52.656038],[6.067996,52.65603],[6.067851,52.655952],[6.067768,52.655907],[6.067685,52.655862],[6.067549,52.655796],[6.067485,52.655763],[6.067314,52.65567],[6.067132,52.655586],[6.066951,52.655496],[6.066778,52.655411],[6.06667,52.655359],[6.066563,52.655307],[6.066447,52.655251],[6.066331,52.655196],[6.066213,52.655134],[6.066095,52.655072],[6.065984,52.655024],[6.065775,52.654932],[6.065565,52.654838],[6.065317,52.654726],[6.06518,52.654665],[6.065058,52.654611],[6.064937,52.654558],[6.064822,52.654506],[6.064708,52.654454],[6.06463,52.654422],[6.064552,52.65439],[6.064464,52.654346],[6.064361,52.654298],[6.064285,52.65424],[6.064206,52.654177],[6.06416,52.654131],[6.064074,52.65407],[6.064008,52.65404],[6.063762,52.653929],[6.06364,52.653874],[6.063519,52.653818],[6.063306,52.653718],[6.06319,52.653665],[6.063073,52.653612],[6.062922,52.653544],[6.062771,52.653476],[6.062629,52.653408],[6.062487,52.65334],[6.062426,52.653313],[6.062364,52.653286],[6.062267,52.653236],[6.06217,52.653186],[6.062044,52.65313],[6.061918,52.653073],[6.061824,52.653036],[6.06173,52.652999],[6.061632,52.652955],[6.061534,52.65291],[6.061471,52.652884],[6.061407,52.652858],[6.061346,52.652837],[6.061286,52.652815],[6.061222,52.652792],[6.061177,52.652777],[6.061132,52.652762],[6.061101,52.65275],[6.06107,52.652739],[6.060965,52.652706],[6.060778,52.652659],[6.06059,52.652611],[6.060511,52.65259],[6.060431,52.652569],[6.060329,52.65255],[6.060226,52.65253],[6.06014,52.652509],[6.060053,52.652488],[6.059984,52.652473],[6.059916,52.652458],[6.0598,52.652442],[6.05951,52.652401],[6.05919,52.652361],[6.058919,52.652329],[6.058851,52.652321],[6.058626,52.652296],[6.058395,52.652281],[6.058165,52.652266],[6.056679,52.651345],[6.054864,52.650219],[6.054075,52.650184],[6.053281,52.650149],[6.051594,52.65008],[6.049933,52.650013],[6.048006,52.649936],[6.047458,52.649914],[6.04681,52.649888],[6.045363,52.649831],[6.044077,52.64978],[6.043394,52.649752],[6.042711,52.649725],[6.042329,52.649701],[6.041943,52.649678],[6.041773,52.649669],[6.041518,52.649657],[6.0411,52.649637],[6.041012,52.649639],[6.04046,52.64962],[6.040223,52.649608],[6.039987,52.649595],[6.03947,52.649573],[6.039364,52.649569],[6.039139,52.649559],[6.038841,52.649546],[6.038317,52.649523],[6.038263,52.649512],[6.038208,52.6495],[6.038161,52.649484],[6.038114,52.649467],[6.038071,52.649441],[6.038034,52.649399],[6.037996,52.649358],[6.037953,52.649328],[6.037911,52.649298],[6.037891,52.649287],[6.037876,52.649279],[6.037857,52.649268],[6.037833,52.649255],[6.037781,52.649227],[6.037731,52.6492],[6.037688,52.649175],[6.037594,52.649123],[6.037274,52.648948],[6.037002,52.6488],[6.036852,52.648717],[6.036736,52.648654],[6.036621,52.648592],[6.036544,52.64855],[6.036427,52.648485],[6.036289,52.648411],[6.036066,52.648291],[6.035778,52.648137],[6.035575,52.648029],[6.035337,52.647897],[6.0351,52.647764],[6.034536,52.647473],[6.033957,52.647173],[6.033864,52.647123],[6.033772,52.647073],[6.033316,52.646817],[6.03222,52.646211],[6.031357,52.645736],[6.030338,52.645175],[6.029541,52.644738],[6.028658,52.64425],[6.028054,52.643921],[6.026836,52.643256],[6.026217,52.642919],[6.025849,52.642721],[6.025191,52.642365],[6.0249,52.642208],[6.024756,52.642131],[6.024686,52.642096],[6.024618,52.642068],[6.024495,52.642035],[6.02423,52.641996],[6.023724,52.641925],[6.022522,52.641669],[6.021391,52.641429],[6.021083,52.641363],[6.021018,52.641432],[6.020942,52.641513],[6.02072,52.641749],[6.020739,52.641788],[6.020678,52.641839],[6.020616,52.64189],[6.020379,52.642154],[6.020017,52.642555],[6.019438,52.643034],[6.018859,52.643514],[6.018598,52.64358],[6.018437,52.64365],[6.018405,52.643674],[6.018311,52.643749],[6.018142,52.643831],[6.018073,52.643855],[6.017298,52.643234],[6.017301,52.643232],[6.012538,52.63949],[6.01145,52.638635],[6.01052,52.637904],[6.010491,52.637882],[6.010462,52.63787],[6.010237,52.637782],[5.998388,52.633146],[5.988626,52.629325],[5.986272,52.629008],[5.985628,52.628922],[5.981015,52.628302],[5.983862,52.626565],[5.98427,52.626319],[5.985331,52.625673],[5.986624,52.624882],[5.987736,52.624202],[5.989008,52.623426],[5.989312,52.623238],[5.99053,52.62249],[5.991029,52.62219],[5.9914,52.62196],[5.991402,52.621959],[5.991745,52.621747],[5.991792,52.621377],[5.99182,52.621142],[5.991845,52.620931],[5.991872,52.620707],[5.991894,52.620494],[5.991917,52.620278],[5.991937,52.620117],[5.991956,52.619974],[5.991981,52.61975],[5.992002,52.61959],[5.992022,52.619447],[5.992045,52.619299],[5.992059,52.61923],[5.992077,52.6191],[5.992106,52.618981],[5.99214,52.618824],[5.992182,52.618632],[5.992206,52.618519],[5.992232,52.618391],[5.992257,52.618245],[5.992267,52.618175],[5.992277,52.618126],[5.992278,52.618085],[5.992281,52.618003],[5.992283,52.617968],[5.99228,52.617941],[5.992277,52.617915],[5.992272,52.617903],[5.992257,52.617868],[5.992248,52.617843],[5.992233,52.617804],[5.992219,52.617764],[5.992196,52.617695],[5.992177,52.617644],[5.992168,52.617616],[5.99216,52.617585],[5.992139,52.617539],[5.992112,52.61748],[5.992058,52.617373],[5.992007,52.617265],[5.99199,52.617229],[5.991956,52.617157],[5.991925,52.617093],[5.991903,52.617046],[5.991867,52.616962],[5.991836,52.616895],[5.991805,52.616829],[5.991722,52.616651],[5.991692,52.616587],[5.991655,52.616514],[5.991621,52.616438],[5.991586,52.616363],[5.991547,52.616289],[5.99153,52.616253],[5.991519,52.616207],[5.991499,52.616109],[5.99148,52.616022],[5.991462,52.615951],[5.991445,52.615874],[5.99142,52.61576],[5.991407,52.615679],[5.9914,52.615559],[5.991392,52.615485],[5.991388,52.615417],[5.991381,52.615334],[5.991376,52.615257],[5.99137,52.615185],[5.991364,52.615088],[5.991354,52.614998],[5.991348,52.614897],[5.991341,52.614818],[5.991334,52.614742],[5.99133,52.614668],[5.991317,52.614542],[5.991309,52.61443],[5.991302,52.614397],[5.991271,52.614292],[5.991247,52.614212],[5.991206,52.614087],[5.991167,52.613968],[5.991148,52.61393],[5.991062,52.613777],[5.991006,52.613678],[5.990968,52.613608],[5.990927,52.613535],[5.990909,52.613509],[5.990849,52.613444],[5.990776,52.613368],[5.990712,52.613302],[5.990649,52.613235],[5.990614,52.613202],[5.990602,52.61319],[5.990574,52.613171],[5.99053,52.613136],[5.990445,52.613071],[5.990381,52.61302],[5.990303,52.612961],[5.990223,52.612903],[5.990068,52.612794],[5.989944,52.612711],[5.989815,52.612631],[5.98967,52.612548],[5.989573,52.612495],[5.989496,52.612449],[5.989435,52.612415],[5.989353,52.612365],[5.989294,52.612329],[5.98924,52.612294],[5.989159,52.612242],[5.989108,52.61221],[5.988992,52.612135],[5.988903,52.612079],[5.988822,52.612026],[5.988711,52.611959],[5.988632,52.611909],[5.988431,52.611781],[5.988265,52.611674],[5.988084,52.611562],[5.987894,52.611442],[5.987723,52.611331],[5.987565,52.611227],[5.987472,52.611153],[5.987339,52.611038],[5.98719,52.610911],[5.987038,52.610779],[5.986886,52.610642],[5.98675,52.610522],[5.986608,52.610394],[5.986459,52.610256],[5.986325,52.61013],[5.986209,52.610014],[5.986015,52.609825],[5.985856,52.609669],[5.985674,52.609492],[5.985456,52.609282],[5.985237,52.609069],[5.984953,52.608792],[5.984616,52.608489],[5.984434,52.608335],[5.98412,52.608091],[5.983851,52.607876],[5.983515,52.607609],[5.983145,52.607318],[5.982772,52.607031],[5.982397,52.60675],[5.982142,52.606564],[5.981863,52.606357],[5.981489,52.60608],[5.981245,52.605894],[5.981099,52.605782],[5.980978,52.605684],[5.980836,52.605567],[5.980744,52.605494],[5.980599,52.605378],[5.980518,52.605308],[5.98043,52.605237],[5.9803,52.605131],[5.980243,52.605089],[5.980192,52.605036],[5.980137,52.604968],[5.980071,52.604894],[5.980006,52.604823],[5.979891,52.604696],[5.97981,52.604602],[5.97975,52.604528],[5.979655,52.604411],[5.979537,52.604261],[5.979433,52.604134],[5.979344,52.604003],[5.979274,52.60389],[5.979165,52.603699],[5.979066,52.603519],[5.979006,52.603413],[5.978924,52.603254],[5.978849,52.603115],[5.978798,52.603016],[5.978699,52.602869],[5.978544,52.602579],[5.978357,52.602234],[5.978228,52.602],[5.978139,52.601835],[5.977981,52.601557],[5.977845,52.601324],[5.97774,52.60117],[5.977571,52.600935],[5.977441,52.600746],[5.977246,52.60047],[5.977116,52.600284],[5.976975,52.600076],[5.976673,52.599652],[5.976171,52.599046],[5.975307,52.598221],[5.974517,52.59746],[5.973426,52.596344],[5.972795,52.595617],[5.971789,52.594553],[5.971341,52.594157]]]},"properties":{"type":"boundary","gemeente":"Zwartewaterland"}}]}